{"type":"FeatureCollection","features":[{"type":"Feature","geometry":{"type":"Polygon","coordinates":[[[-95.25293004934204,38.95484201037361],[-95.25293708197907,38.95484201027667],[-95.25293708180298,38.95484008435685],[-95.25303244550396,38.954840080864706],[-95.25303244537398,38.954841895926684],[-95.25306641916822,38.95484187984413],[-95.253066416385,38.95480527116024],[-95.25303407526587,38.95480527185172],[-95.25303407333521,38.954786075735626],[-95.25319377847919,38.95478607616509],[-95.25319377867797,38.95478699181327],[-95.25326689021031,38.95478698815625],[-95.25326688997289,38.95477829134007],[-95.25334883007659,38.95477828770401],[-95.25334881740655,38.95459554984415],[-95.25338035629103,38.954595548086736],[-95.25338034855301,38.95448759480175],[-95.25335648409832,38.95448759541871],[-95.25335646700677,38.95422803802613],[-95.25386121785499,38.954228015560176],[-95.25386121637362,38.954214595402206],[-95.25391128814876,38.9542145935761],[-95.25391127556792,38.95404922593098],[-95.25391087273698,38.954049226303155],[-95.2539108703891,38.954015269037846],[-95.2535309931644,38.95401528664191],[-95.25353099000344,38.95395779839767],[-95.25343024899827,38.953957859635565],[-95.2534302467917,38.953919835144376],[-95.25335071306257,38.953919838144195],[-95.2533507100456,38.95386386485686],[-95.25335004985614,38.95386386453746],[-95.25335004967985,38.95385002714102],[-95.25326682832673,38.9538500310397],[-95.25326682345639,38.95378617650299],[-95.25293568933155,38.953786189729996],[-95.25292632093856,38.95378597586511],[-95.25287943621518,38.9537859770718],[-95.2528700675661,38.95378597768765],[-95.25282346675911,38.95378597929045],[-95.25281408888492,38.953785979683204],[-95.25276749730311,38.95378598148208],[-95.25275812058203,38.95378598189764],[-95.2527581217563,38.95381232290395],[-95.25271123698047,38.95381232494303],[-95.25271119821545,38.95378552612488],[-95.25270189536519,38.95378552648393],[-95.25259958941596,38.95378553008449],[-95.25259959329517,38.95383929811121],[-95.25260721215095,38.95383929840988],[-95.2526072125046,38.95384341701267],[-95.25244384694662,38.953843422706804],[-95.25244384672258,38.95384250795889],[-95.25237073504866,38.95384251016938],[-95.25237074020865,38.95392762641381],[-95.25237806593188,38.95392762608895],[-95.25237806922095,38.953999013038505],[-95.25237074349039,38.953999013363365],[-95.25237074484974,38.95401548777425],[-95.25237807058208,38.9540154874494],[-95.25237807150562,38.95404019813807],[-95.2523087696426,38.95404020047984],[-95.2523087722905,38.954089451545634],[-95.25230218180121,38.95408945126665],[-95.2523021823701,38.95408985232492],[-95.2522674546779,38.95408985301152],[-95.25221397576928,38.954089854486256],[-95.25220738409183,38.95408985507493],[-95.25220738323466,38.95406722260973],[-95.25214547634128,38.95406722437842],[-95.25215215291107,38.95410363796977],[-95.25215760944751,38.954103028289666],[-95.25216162959453,38.954130401826205],[-95.25215616411859,38.95413088512327],[-95.25215859251135,38.9541474242673],[-95.25216408035324,38.95414692978429],[-95.25216808405203,38.954174221820324],[-95.25216267428127,38.95417457846416],[-95.25216447763117,38.95419122265691],[-95.25217009919827,38.954190851205695],[-95.25217202373676,38.95421830304817],[-95.25216674717683,38.95421852856702],[-95.25216837960836,38.954241826052304],[-95.25217990319652,38.95424182609622],[-95.25217990428233,38.95426673866411],[-95.25217842112765,38.95426673866042],[-95.2521784218161,38.95427503444599],[-95.25217990497097,38.95427503444972],[-95.25217990760154,38.95431068514111],[-95.25217842329273,38.954310685110094],[-95.25217842395007,38.95431892231534],[-95.25217990710587,38.95431892231901],[-95.25217990973644,38.95435457301027],[-95.2521784254267,38.954354572979256],[-95.25217842608403,38.95436281018448],[-95.25217990924075,38.95436281018818],[-95.25217991043877,38.954387066667245],[-95.25216869038431,38.954387066608014],[-95.25216705986634,38.95441036426465],[-95.25217196059123,38.95441057324033],[-95.2521700445286,38.95443795028012],[-95.2521652944517,38.95443763672793],[-95.25216349324138,38.95445428020528],[-95.25216889722175,38.95445463719328],[-95.25216487441914,38.95448208146138],[-95.25215934076886,38.95448158621635],[-95.25215690546689,38.954498181319984],[-95.25216251851062,38.95449868295288],[-95.2521584216957,38.9545266058192],[-95.25215217453503,38.954525908011135],[-95.25214550151516,38.9545623224375],[-95.25220293744947,38.954562320139495],[-95.25220293816666,38.95456203446841],[-95.25223810240094,38.95456203332696],[-95.25223810168384,38.95456231899802],[-95.25224835916524,38.95456231876774],[-95.2522483587291,38.954562033069315],[-95.25228366955322,38.95456203178326],[-95.25228366883637,38.954562317454354],[-95.25230916306704,38.95456231692931],[-95.25230916509433,38.95458910676774],[-95.2523781016321,38.95458910386632],[-95.25237810285599,38.95461404437307],[-95.25237077706163,38.95461404469786],[-95.25237077730289,38.95463051818026],[-95.25237810309895,38.95463051785543],[-95.25237810750629,38.95470190572856],[-95.25237078170281,38.954701906053415],[-95.25237078574476,38.95478702136408],[-95.2524438983953,38.954787019153585],[-95.25244389817126,38.95478610440578],[-95.2526000866854,38.95478609891969],[-95.25260008720666,38.95479033198159],[-95.25260682669294,38.95479033126668],[-95.25260682732443,38.954786098232105],[-95.25270059813252,38.95478609511981],[-95.25270060045955,38.95483105544082],[-95.25293004835947,38.95483104696051],[-95.25293004934204,38.95484201037361]]]},"properties":{"SDE.FloorAll.FLOORLOCATION":"1"}},{"type":"Feature","geometry":{"type":"Polygon","coordinates":[[[-95.25293221439622,38.954916947977594],[-95.25303408221073,38.95491694447885],[-95.25303407743752,38.95484189584234],[-95.25306643821197,38.954841894714875],[-95.253066416385,38.95480527116024],[-95.2530340556273,38.954805272287615],[-95.25303407339278,38.95478631185768],[-95.25319377766405,38.95478630505663],[-95.25319377752479,38.95478699178593],[-95.25326689034729,38.95478704403532],[-95.25326688997289,38.95477829134007],[-95.25334883007659,38.95477828770401],[-95.25334882490074,38.95470321112704],[-95.25334765336764,38.95470321131107],[-95.25334764875842,38.954633110404096],[-95.25334867370036,38.95463311035218],[-95.25334867344512,38.95463041388429],[-95.25334867085155,38.95459554907591],[-95.2533803920737,38.95459554803323],[-95.25338038548874,38.95448759477549],[-95.25335648409832,38.95448759541871],[-95.25335645281224,38.95401682324902],[-95.25353099375904,38.95401681603291],[-95.25353098898633,38.95395556694327],[-95.25343024903532,38.95395557142898],[-95.25343024641083,38.95392349861056],[-95.25343932997308,38.953923498405175],[-95.25343933065722,38.95392006475828],[-95.25335071366958,38.95392029778277],[-95.25335070889247,38.95386386482955],[-95.25335004985614,38.95386386453746],[-95.25335004967985,38.95385002714102],[-95.25326682836172,38.95385003013933],[-95.25326682371153,38.95378596201776],[-95.25319371209613,38.95378596474706],[-95.25319371195178,38.95378047358591],[-95.25292631969683,38.953780483776214],[-95.25292632093856,38.95378597586511],[-95.25271123467051,38.953785983909384],[-95.25271123456363,38.95378049274823],[-95.25259248358766,38.95378049688946],[-95.25259248416637,38.95378553024019],[-95.25259958941596,38.95378553008449],[-95.25259959326019,38.95383929901158],[-95.25260721215095,38.95383929840988],[-95.25260721223502,38.95384324577368],[-95.25244384667745,38.95384325146781],[-95.25244384672258,38.95384250795889],[-95.25237073504866,38.95384251016938],[-95.25237073905552,38.95392762638647],[-95.25237777275478,38.95392762635078],[-95.25237777604356,38.95399901330038],[-95.25237074349039,38.953999013363365],[-95.25237074484974,38.95401548777425],[-95.25237807058208,38.9540154874494],[-95.25237807150562,38.95404019813807],[-95.2523087696426,38.95404020047984],[-95.25230877047784,38.95406705067319],[-95.25214522332512,38.954067052556475],[-95.25215196647376,38.95410383182041],[-95.2521574172095,38.95410322290411],[-95.2521613861513,38.9541302509593],[-95.25215592071041,38.95413073335599],[-95.2521583993301,38.95414761345202],[-95.25216388818518,38.95414712259788],[-95.25216783966552,38.95417406552377],[-95.2521624356605,38.95417442230423],[-95.25216427651785,38.9541914080487],[-95.25216989231922,38.95419103646086],[-95.2521717922447,38.95421814164988],[-95.25216651568472,38.95421836716871],[-95.25216817290422,38.95424200680553],[-95.25217966570752,38.95424199710755],[-95.25217966610994,38.954266125594145],[-95.25217842074787,38.95426612491766],[-95.25217842140516,38.95427436212301],[-95.25218018040643,38.95427436235579],[-95.25218388424666,38.954273174906064],[-95.25234013277948,38.95427317031814],[-95.25234013836128,38.95436721229489],[-95.25229236229366,38.95437047711162],[-95.25227984789485,38.95440695137603],[-95.25227759319185,38.95440726203518],[-95.2522771422274,38.95440526414814],[-95.25224597335065,38.954409556088905],[-95.25225084207669,38.954431105292485],[-95.25230309983579,38.954434673442485],[-95.25231719708854,38.95439358547013],[-95.25234014020914,38.95439201763353],[-95.25234014263607,38.95443955276132],[-95.25232358894797,38.954439553388],[-95.25231655581699,38.9544391514891],[-95.25224780545018,38.954434457977115],[-95.2522373170057,38.95438835060776],[-95.25216770919243,38.95439793645079],[-95.25216682849253,38.954410526408694],[-95.2521717292174,38.954410735384364],[-95.25216983823194,38.95443776424474],[-95.25216509392075,38.95443745082919],[-95.25216325515854,38.95445443678297],[-95.25216865225501,38.95445479270661],[-95.25216467752252,38.954481891142656],[-95.25215914844983,38.95448139690734],[-95.25215666182811,38.954498332358625],[-95.25216227487186,38.95449883399155],[-95.25215822958663,38.95452641110775],[-95.2521519870035,38.95452571430943],[-95.2521452478459,38.95456249396658],[-95.25230894402766,38.95456248837819],[-95.25230894466789,38.95458910604996],[-95.25237780845222,38.954589104128154],[-95.25237780971104,38.954614043734495],[-95.25237077706163,38.95461404469786],[-95.25237077730289,38.95463051818026],[-95.25237780991894,38.95463051811727],[-95.25237781432597,38.95470190599038],[-95.25237078170281,38.954701906053415],[-95.25237078574476,38.95478702136408],[-95.25238998956674,38.95478702134842],[-95.25238998937839,38.954786105700194],[-95.25292319908755,38.954786086632986],[-95.2529232015561,38.954831046954],[-95.25293004835947,38.95483104696051],[-95.25293004934204,38.95484201037361],[-95.2529322100397,38.95484201019892],[-95.25293221439622,38.954916947977594]]]},"properties":{"SDE.FloorAll.FLOORLOCATION":"2"}},{"type":"Feature","geometry":{"type":"MultiPolygon","coordinates":[[[[-95.25249135300321,38.95478324196467],[-95.252939935558,38.95478322615977],[-95.2529399363418,38.9547848988501],[-95.25302572155812,38.95478488470873],[-95.25302821390862,38.95478487436565],[-95.2530282134711,38.95478322241174],[-95.25309039222708,38.95478322028953],[-95.25309039002713,38.9547560708661],[-95.2531055191679,38.95474425738056],[-95.25311049300805,38.95474813963452],[-95.2531254103046,38.9547364905575],[-95.25312434050075,38.954735655011255],[-95.25312184465287,38.95473370601267],[-95.2531204376526,38.95473260743111],[-95.2531214470862,38.954731818442774],[-95.2531235979454,38.9547334970117],[-95.25315622144568,38.9547080217808],[-95.25316443599048,38.95470160592094],[-95.25318370720937,38.954716652403285],[-95.2531961390667,38.954706944249295],[-95.2531768678128,38.954691898669424],[-95.25319385864015,38.95467863054405],[-95.2531953686863,38.95467980997256],[-95.25320165479904,38.95467490213269],[-95.25325721405217,38.9546748999102],[-95.25325721378334,38.954669708854155],[-95.25325728650182,38.95466970877451],[-95.25325728473025,38.95463538832389],[-95.25325721085868,38.954635388376204],[-95.25325721092506,38.954630485719775],[-95.25324409791648,38.954630485980644],[-95.25324409706799,38.95462219109573],[-95.25325589198825,38.954622190249566],[-95.25325588030488,38.954454819174124],[-95.25325463490451,38.95445481940956],[-95.25325463448888,38.954448354920586],[-95.25325587985417,38.95444835558547],[-95.25325587936072,38.95444418020338],[-95.25325456124224,38.95444418051856],[-95.2532545605189,38.954438288299414],[-95.25325587975537,38.95443828891199],[-95.25325586954106,38.954370324670435],[-95.25325586869613,38.954366900900716],[-95.25325462906298,38.954366901272785],[-95.25325462756761,38.95435042506156],[-95.25325586831865,38.95435042561723],[-95.25325586872084,38.954279039679435],[-95.25325462332354,38.95427903991487],[-95.25325462182816,38.954262563703566],[-95.25325586722516,38.95426256346808],[-95.25325585721411,38.95419117818426],[-95.25325461758406,38.954191178556364],[-95.25325461608874,38.9541747023449],[-95.25325582339549,38.954174702108254],[-95.25325585085216,38.954007274275554],[-95.25324574119317,38.954007274490294],[-95.25324574027452,38.95399898140568],[-95.25325702260689,38.953998981035156],[-95.25325701976767,38.95396008414212],[-95.25320080895779,38.95396008623552],[-95.2531878917397,38.95395000192331],[-95.25321051499628,38.95393233498625],[-95.25319790139531,38.95392248677913],[-95.25317681844506,38.95393895012248],[-95.25315509190777,38.95392198713739],[-95.25308344875093,38.95386605137059],[-95.25293346839285,38.953866057656626],[-95.25293346770968,38.95384626585887],[-95.25292656327487,38.953846266287165],[-95.25292656370041,38.95384809668332],[-95.25292229548013,38.95384809648856],[-95.2529222955254,38.95384271978685],[-95.2528981935322,38.953842720083436],[-95.25289819526388,38.9538616827801],[-95.2529108949218,38.95386168268113],[-95.2529108954889,38.953862826347915],[-95.25283945161718,38.953862828717874],[-95.2528394510512,38.95386168505109],[-95.25285841571247,38.953861684704286],[-95.25285841514466,38.953842722034906],[-95.25278252070267,38.953842724357386],[-95.25278252125013,38.95386168702674],[-95.25279929987465,38.953861686260325],[-95.25279930040502,38.95386283082752],[-95.25272674043467,38.953862832817286],[-95.25272673987051,38.95386168915056],[-95.25273823572135,38.95386168848313],[-95.25273823515079,38.95384272671416],[-95.25271526889419,38.95384272684819],[-95.25271526913288,38.953854510359264],[-95.25270186309142,38.953854510821536],[-95.2527018629565,38.95385442520208],[-95.25260941145643,38.95385442890797],[-95.25260941159122,38.95385451452744],[-95.25259959513092,38.95385451442343],[-95.25259959438951,38.95384627811826],[-95.25254443631096,38.953846279603624],[-95.25254443860688,38.953874757440765],[-95.25249804435882,38.95391098581168],[-95.2524758351998,38.95389364536112],[-95.25246090011699,38.953905308351786],[-95.25239950406237,38.9539532512648],[-95.25239950481594,38.9539711667188],[-95.25238173124966,38.95397116728086],[-95.25238173344776,38.95400187294324],[-95.25238188000145,38.95400187371271],[-95.2523818798287,38.95401262711594],[-95.25238173323993,38.95401262724685],[-95.25238173837717,38.954100030796226],[-95.2523980022674,38.954100030505145],[-95.2523980025833,38.95412279723846],[-95.25238830035171,38.954122797120775],[-95.2523817400756,38.9541246621953],[-95.25238174252333,38.9541774235231],[-95.25238188907738,38.954177424292595],[-95.25238188940763,38.954188521073995],[-95.25238174281853,38.954188521204905],[-95.25238174717447,38.9542653443625],[-95.25238189376371,38.954265344231594],[-95.2523818939613,38.95427632565308],[-95.25238174852515,38.95427632581134],[-95.25238175182928,38.95435320572054],[-95.2523818984187,38.95435320558961],[-95.25238189976942,38.95436418703835],[-95.25238175317995,38.95436418716927],[-95.25238175684466,38.954439751299184],[-95.25238190343427,38.954439751168245],[-95.2523819040289,38.95445336507485],[-95.25238175743925,38.95445336520575],[-95.2523817609404,38.95450547587328],[-95.25239751131815,38.95450547512636],[-95.25239751246176,38.954529556764584],[-95.25238176207863,38.95452955751145],[-95.25238228367931,38.95470282030575],[-95.25239951607675,38.9547028204328],[-95.25239951456979,38.95469092243575],[-95.25242097141583,38.95469092173513],[-95.25242350085743,38.9546928967797],[-95.25244173452904,38.954678658756755],[-95.25243837499703,38.954676035887836],[-95.25243941061174,38.95467522679758],[-95.25244328882802,38.95467825399078],[-95.25246079893178,38.95469192505035],[-95.25244152964548,38.95470697216654],[-95.25245396179035,38.954716679168264],[-95.25247323107668,38.95470163204998],[-95.25248149830294,38.954708086064876],[-95.2525003773597,38.9547228250656],[-95.25244938063832,38.954762647490945],[-95.25246307529812,38.95477333970795],[-95.25246307484615,38.954782556516456],[-95.25249135311424,38.954782556135754],[-95.25249135300321,38.95478324196467]]],[[[-95.25303599362691,38.953790529170824],[-95.25303487176379,38.95379052872575],[-95.2530348731246,38.95381060081966],[-95.25308728880343,38.95381059901483],[-95.25308728742773,38.95379052692092],[-95.25308616552958,38.95379052737678],[-95.25308616557682,38.95378690265487],[-95.25308728743998,38.95378690309943],[-95.2530872870397,38.953783824508704],[-95.25303487138068,38.95378382631354],[-95.25303487177867,38.95378690490429],[-95.25303599367675,38.95378690444895],[-95.25303599362691,38.953790529170824]]],[[[-95.25298214905058,38.95379053134281],[-95.25298102718746,38.953790530897194],[-95.252981028533,38.95381060299114],[-95.25303344424681,38.95381060031025],[-95.2530334428514,38.953790529116716],[-95.25303232095325,38.95379052957204],[-95.25303232100326,38.953786904850155],[-95.25303344286641,38.95378690529523],[-95.25303344246848,38.953783826704495],[-95.25298102680944,38.953783828484994],[-95.25298102720508,38.953786907075745],[-95.25298214910322,38.95378690662094],[-95.25298214905058,38.95379053134281]]],[[[-95.25280383595681,38.953792844692764],[-95.25280383733742,38.953813894616815],[-95.25282669396665,38.953813893670365],[-95.2528266925792,38.953792843746264],[-95.25280383595681,38.953792844692764]]],[[[-95.25293489478643,38.95382647364403],[-95.25297960041983,38.953826472153395],[-95.25297959827512,38.95379053128751],[-95.25297847637694,38.953790531742285],[-95.25297847642975,38.95378690702042],[-95.25297959829282,38.95378690746604],[-95.25297959789725,38.953783828875295],[-95.2529348922908,38.95378383036592],[-95.25293489478643,38.95382647364403]]],[[[-95.25319357504752,38.9538424799598],[-95.25324507085998,38.95384247791914],[-95.25324507058562,38.95383458409192],[-95.25326089349656,38.953834584048515],[-95.253260891115,38.95379059615166],[-95.25318979357209,38.9537905988297],[-95.25318979700899,38.95383426141075],[-95.25319357469033,38.95383426168987],[-95.25319357504752,38.9538424799598]]],[[[-95.25286127109638,38.95382910822304],[-95.25286127206819,38.9538413486716],[-95.2528976074279,38.95384134805141],[-95.25289760648481,38.95382910670244],[-95.25286127109638,38.95382910822304]]],[[[-95.25283870857182,38.95384135026231],[-95.25285951304271,38.9538413493495],[-95.2528595123561,38.95382773544224],[-95.25291110512629,38.95382773314384],[-95.25291110487737,38.95382910570221],[-95.25289936550998,38.95382910602395],[-95.25289936530024,38.953841347345524],[-95.25293130664315,38.95384134624195],[-95.25293130369059,38.95379684372779],[-95.25283137193087,38.95379684701036],[-95.25283137249497,38.9538119488359],[-95.25283870631317,38.953811947772856],[-95.25283870857182,38.95384135026231]]],[[[-95.2528006123943,38.95381766913166],[-95.25280061418658,38.95384135154105],[-95.25283694958131,38.95384135003945],[-95.25283694889497,38.9538176685578],[-95.2528006123943,38.95381766913166]]],[[[-95.25274024856591,38.953829112767174],[-95.25274024951678,38.953841353215694],[-95.2527765849115,38.95384135173299],[-95.25277658510747,38.95382911131179],[-95.25274024856591,38.953829112767174]]],[[[-95.25270624936498,38.95384078277103],[-95.25273849080317,38.95384078162183],[-95.25273849072889,38.95382911257019],[-95.25272676058658,38.95382911309307],[-95.25272676087408,38.95382773963431],[-95.25277833400595,38.95382773783085],[-95.25277833583004,38.95384135176546],[-95.25279884712414,38.95384135112641],[-95.25279884540812,38.953796848639556],[-95.25270624627693,38.953796851626386],[-95.25270624936498,38.95384078277103]]],[[[-95.25260959497496,38.95378384217078],[-95.2526095992567,38.953854199941176],[-95.25270186262016,38.953854196283196],[-95.25270185821154,38.953783839413155],[-95.25260959497496,38.95378384217078]]],[[[-95.25285984290491,38.95384272161874],[-95.25285984462624,38.953861684315456],[-95.2528967663501,38.953861683169414],[-95.25289676577194,38.953842720500056],[-95.25285984290491,38.95384272161874]]],[[[-95.2529821532435,38.95386494010432],[-95.2530319824022,38.953864938322624],[-95.25303198032823,38.95382647042695],[-95.25303415021996,38.953826470468954],[-95.25303632129983,38.953826469637804],[-95.25303632144806,38.95384434541995],[-95.25308994675936,38.953844343434184],[-95.2530899471019,38.953843800004215],[-95.25313804035288,38.953843797603966],[-95.2531380405596,38.953843168554506],[-95.25314062250668,38.95384316844358],[-95.25314062225094,38.95383788816611],[-95.25314001398787,38.95383788817454],[-95.25314001287924,38.95383426342534],[-95.25314368552017,38.95383426392112],[-95.25314368551082,38.95383788774258],[-95.2531430772478,38.95383788775104],[-95.25314307746875,38.9538431689289],[-95.25314565941586,38.953843168817826],[-95.25314566002025,38.95384434132456],[-95.25315738093998,38.95384434054076],[-95.2531573806732,38.95384339695292],[-95.253188368651,38.95384339572184],[-95.25318836492984,38.95378382022216],[-95.25314307297042,38.9537838223208],[-95.25314307337314,38.95378690091151],[-95.25314368278887,38.953786900930375],[-95.25314368277957,38.95379052475183],[-95.25314001010591,38.95379052515649],[-95.25314001015039,38.95378690043462],[-95.25314061956614,38.95378690045349],[-95.25314061916353,38.953783821862764],[-95.25308871595188,38.9537838241171],[-95.25308871635222,38.95378690270783],[-95.25308983821532,38.95378690315235],[-95.25308983820325,38.95379052697384],[-95.25308871630504,38.95379052742971],[-95.25308871706463,38.95381171432308],[-95.25303414994382,38.95381171652377],[-95.2529810279147,38.95381171779061],[-95.25298102933289,38.95382647176309],[-95.25298215119668,38.95382647220869],[-95.2529821532435,38.95386494010432]]],[[[-95.25308852023838,38.95386774596644],[-95.25308851838255,38.95384545865263],[-95.25303632194884,38.95384546114713],[-95.25303632334119,38.95386493843386],[-95.25308492098252,38.953864936289996],[-95.25308852023838,38.95386774596644]]],[[[-95.25293489796073,38.953864941566984],[-95.25298072432966,38.95386494049464],[-95.25298072279541,38.95383789382345],[-95.2529784801857,38.953837893859976],[-95.25297847905033,38.9538342700112],[-95.25297960094923,38.953834269556395],[-95.25297960091966,38.95382758788062],[-95.25293489528555,38.953827589371244],[-95.25293489796073,38.953864941566984]]],[[[-95.25273966291104,38.95384272629953],[-95.25273966460013,38.9538616889962],[-95.25278109348949,38.95386168744193],[-95.25278109178923,38.95384272474522],[-95.25273966291104,38.95384272629953]]],[[[-95.25313804054224,38.95384625794998],[-95.25308994732457,38.953846259449804],[-95.2530899485007,38.953868861274685],[-95.25312397155768,38.95389542525173],[-95.2531235311457,38.95389576899833],[-95.25313529787162,38.95390495547801],[-95.25316948389997,38.95387825916202],[-95.25314060596978,38.953855712188606],[-95.25314060519239,38.9538462574292],[-95.25313804054224,38.95384625794998]]],[[[-95.25249861337852,38.95384628148597],[-95.25249861599171,38.95388315423441],[-95.25251449488705,38.953895551957935],[-95.25254180105982,38.95387422810352],[-95.25254179894318,38.95384628019042],[-95.25249861337852,38.95384628148597]]],[[[-95.25322976121453,38.9538844565158],[-95.25322976269425,38.953897606309745],[-95.2531989108165,38.9539216977901],[-95.25321199156085,38.95393191034426],[-95.25323663608441,38.95393190931672],[-95.25323663470232,38.9539160540508],[-95.25326316981044,38.95391605274719],[-95.25326316842654,38.95388445490126],[-95.25322976121453,38.9538844565158]]],[[[-95.25314381500607,38.95384625777419],[-95.25314381476035,38.95385660021496],[-95.25315788015654,38.953867581416645],[-95.25317155685971,38.95387825870733],[-95.25313636025743,38.953905743985075],[-95.25315529745012,38.953920529320605],[-95.25317599004536,38.95393668464593],[-95.2532282974912,38.95389583764195],[-95.25322829598076,38.95388331239549],[-95.2532631678537,38.953883311234506],[-95.25326316513048,38.95384625284079],[-95.25314381500607,38.95384625777419]]],[[[-95.2532384303136,38.95392316128605],[-95.25323843065037,38.953933310878256],[-95.25321180206156,38.95393331176411],[-95.25319042983645,38.95395000167351],[-95.25320155248893,38.953958684423306],[-95.2532557007488,38.95395868213126],[-95.25325569833826,38.95392316033198],[-95.2532384303136,38.95392316128605]]],[[[-95.25238173096007,38.95397019485308],[-95.2523982602874,38.953970194544596],[-95.25239825941804,38.95395531080614],[-95.25239807589404,38.953955310963],[-95.25239807580408,38.9539527893355],[-95.25247583532975,38.95389206822187],[-95.25249804448832,38.9539094086724],[-95.25251418416347,38.95389680540712],[-95.25249605140553,38.9538826482545],[-95.25249604964579,38.9538537117065],[-95.25249360736791,38.95385371150806],[-95.25249360806284,38.95384736870867],[-95.25239014553092,38.953847371754755],[-95.25239014597985,38.95385371458148],[-95.25237579118493,38.95385371505235],[-95.25237579418389,38.95391730009743],[-95.2523995303428,38.95391729935002],[-95.25239953071566,38.95392147653311],[-95.25238312024297,38.95392147785575],[-95.25238312221843,38.953951268770346],[-95.25238173023826,38.95395126912739],[-95.25238173096007,38.95397019485308]]],[[[-95.25333830198733,38.95396070932495],[-95.253338305072,38.95399469995976],[-95.25336613983453,38.95399469877975],[-95.25336613788959,38.953960708172325],[-95.25333830198733,38.95396070932495]]],[[[-95.25326683890944,38.95399975793435],[-95.25333687594754,38.95399975531453],[-95.25333687371922,38.95395959401979],[-95.25334624815697,38.95395959350284],[-95.25334624577354,38.953929119460426],[-95.25334624476405,38.95389258021348],[-95.25334624510292,38.95385196656497],[-95.25326682917513,38.95385196959258],[-95.25326683109691,38.95389258329572],[-95.2532668340728,38.95392951642509],[-95.25325749311497,38.95392951682754],[-95.25325749531581,38.953960083692515],[-95.25325731294491,38.953960083878094],[-95.25325731463116,38.9539989807438],[-95.25326683912229,38.95399898018317],[-95.25326683890944,38.95399975793435]]],[[[-95.25336793246252,38.95396056503417],[-95.25336793670152,38.95401537847452],[-95.25352758727018,38.95401537178531],[-95.25352758406056,38.95396055837227],[-95.25336793246252,38.95396056503417]]],[[[-95.25231218130104,38.954125659712716],[-95.25237395322304,38.95412565735886],[-95.25238884657166,38.95412142398267],[-95.25239624499784,38.95412142447796],[-95.25239624412968,38.95410140376173],[-95.2523829107593,38.95410140410798],[-95.25238291095735,38.95410386355353],[-95.25237844186505,38.954103863986],[-95.25237844210086,38.95410400638504],[-95.25236862557087,38.954104007161874],[-95.25236862439239,38.954086874861645],[-95.25237807498935,38.9540868753262],[-95.25237807218123,38.95404454565968],[-95.25231243258753,38.954044548277565],[-95.25231243431462,38.95406721861407],[-95.25231217807242,38.95406721884985],[-95.25231218130104,38.954125659712716]]],[[[-95.25231422068833,38.954584530302014],[-95.25236872491236,38.95458452873779],[-95.25236872129972,38.954525324532256],[-95.25238330015172,38.95452532396149],[-95.25238329976602,38.954528184437905],[-95.25239575371313,38.95452818397679],[-95.25239575320533,38.9545068474825],[-95.25238344585175,38.95450684781265],[-95.25237809799276,38.95450581895033],[-95.25237809780454,38.95450490330207],[-95.2523142156724,38.954504905223054],[-95.25231422068833,38.954584530302014]]],[[[-95.25320210969215,38.95467576006028],[-95.25319692338002,38.9546798107567],[-95.25321598403549,38.954694691827214],[-95.25323155742065,38.954706850591975],[-95.25325589750248,38.95470684955114],[-95.25325589490878,38.95467575816634],[-95.25320210969215,38.95467576006028]]],[[[-95.25317894079646,38.9546918982146],[-95.25319717582636,38.95470613517961],[-95.25321209309976,38.954694486091384],[-95.25319472178207,38.95468092297877],[-95.25319385806986,38.95468024912872],[-95.25317894079646,38.9546918982146]]],[[[-95.25242453707281,38.95469370540116],[-95.25244049342965,38.95470616354528],[-95.25245872598312,38.954691924591955],[-95.25244277074441,38.954679467378064],[-95.25242453707281,38.95469370540116]]],[[[-95.25312460722854,38.95473428606288],[-95.25312692612708,38.954736095685504],[-95.25316997083456,38.95476970195213],[-95.25318366681856,38.95475900716808],[-95.25313830440068,38.95472359041104],[-95.25312460722854,38.95473428606288]]],[[[-95.25321194499728,38.95477323603402],[-95.2532366170801,38.954753969287886],[-95.25323661382075,38.95470825192453],[-95.25323081388223,38.95470825240429],[-95.2532142950535,38.95469535476761],[-95.25319883375047,38.95470742986325],[-95.25321064429954,38.954716650714715],[-95.25319614122897,38.954727977064294],[-95.25319510503921,38.954727167549365],[-95.25320857246834,38.954716651197415],[-95.25319717529113,38.95470775286386],[-95.253183707827,38.954718270114846],[-95.2531644365727,38.95470322453291],[-95.25314335575811,38.95471968612296],[-95.25321194499728,38.95477323603402]]],[[[-95.25326688810499,38.954736577246734],[-95.2532668892328,38.95475775603493],[-95.25326689086077,38.95477657543083],[-95.25334644980475,38.95477657216176],[-95.2533464380052,38.95473695408101],[-95.25334643540147,38.9547037826723],[-95.25334528231876,38.95470378329343],[-95.25334527136617,38.95467566845406],[-95.2533369194697,38.95467566886451],[-95.25333691666664,38.95463219556063],[-95.2532661113219,38.954632112401704],[-95.25326611220542,38.954630485713466],[-95.25325750410506,38.9546304854557],[-95.25325750723238,38.95467489964616],[-95.2532576838044,38.954674900224454],[-95.25325769177309,38.95470187314331],[-95.25326688575298,38.954701885478414],[-95.25326688810499,38.954736577246734]]],[[[-95.25309181944762,38.95476354253375],[-95.25309182004843,38.95477629847164],[-95.2531111612326,38.95477629798621],[-95.25311115947513,38.954763542020956],[-95.25309181944762,38.95476354253375]]],[[[-95.25319608608334,38.95478321627758],[-95.25326322797868,38.95478321358649],[-95.25326322243188,38.95470473307594],[-95.25325714203298,38.954704733221206],[-95.25325714303986,38.9547077072839],[-95.25323815274731,38.9547077079953],[-95.25323815561075,38.954754386053985],[-95.25321189326739,38.954774893961705],[-95.25314226780262,38.95472053543556],[-95.25313933958668,38.95472282185965],[-95.25318518148798,38.954758612267966],[-95.25319608580537,38.95476712491802],[-95.25319608608334,38.95478321627758]]],[[[-95.2531125892763,38.95477727089506],[-95.25309182034778,38.954777270899406],[-95.25309182115944,38.95478321989789],[-95.25319465833908,38.95478321579745],[-95.25319465625617,38.954767586723],[-95.25318467729086,38.95475979534568],[-95.25316997068511,38.95477127999169],[-95.25312642077594,38.95473727873562],[-95.25311049289228,38.95474971677366],[-95.25310551905201,38.95474583451969],[-95.25309181945931,38.95475653281418],[-95.25309182006418,38.95476242773432],[-95.25311258787018,38.95476242680226],[-95.2531125892763,38.95477727089506]]],[[[-95.25240105739557,38.954754000529164],[-95.25242578283321,38.95477330490465],[-95.2524943657038,38.954719750020786],[-95.25247323167804,38.954703249761565],[-95.25245396239129,38.95471829687984],[-95.25244049287713,38.95470778122952],[-95.25242909768448,38.95471668023963],[-95.25244256604552,38.95472719586393],[-95.25244153043008,38.95472800495421],[-95.25242702473516,38.954716679780645],[-95.2524388353273,38.95470745716198],[-95.25241912060629,38.95469206568765],[-95.25240097980695,38.954692066566466],[-95.25240098093714,38.95470213326707],[-95.2524010536556,38.954702133187936],[-95.25240105739557,38.954754000529164]]],[[[-95.25237444937288,38.954783246441416],[-95.25239058762166,38.95478324587382],[-95.25239058661553,38.9547825591172],[-95.25246161013101,38.95478255695362],[-95.2524616094713,38.954773814162714],[-95.2524473076526,38.95476264793276],[-95.25249830437514,38.95472282550834],[-95.25249540188543,38.954720559542],[-95.25242578343355,38.95477492261619],[-95.25239951878385,38.95475441738231],[-95.25239951548244,38.95470396407215],[-95.25238177174893,38.95470396444434],[-95.25238177176948,38.954704765633146],[-95.25237444596573,38.95470476595816],[-95.25237444937288,38.954783246441416]]],[[[-95.2530405771563,38.95481554304023],[-95.25304057833685,38.954836421723606],[-95.25305834289537,38.954836420841936],[-95.25305834170958,38.954815542158634],[-95.2530405771563,38.95481554304023]]],[[[-95.25294018892313,38.954916976505785],[-95.25302610659749,38.95491697360978],[-95.2530261073116,38.95491535142356],[-95.25303188416905,38.95491535130803],[-95.25303188047884,38.954842353882796],[-95.25303215056168,38.95484235397325],[-95.25303214875271,38.95480482966849],[-95.2530318775168,38.95480482955069],[-95.25303187661163,38.95478608226843],[-95.2529344226648,38.95478608670117],[-95.25293442648946,38.95484235741516],[-95.25293443007905,38.954915354840395],[-95.25294018848605,38.95491535429222],[-95.25294018892313,38.954916976505785]]]]},"properties":{"SDE.FloorAll.FLOORLOCATION":"3"}},{"type":"Feature","geometry":{"type":"Polygon","coordinates":[[[-95.25237082577172,38.95478732782768],[-95.25244393845757,38.95478732471672],[-95.25244393823354,38.954786409968904],[-95.25319381854474,38.95478638172798],[-95.25319381759037,38.95478729734884],[-95.25326693024113,38.954787294619464],[-95.25326692515544,38.954702178408475],[-95.25325959935196,38.95470217878946],[-95.25325959405464,38.95463079091631],[-95.25326691985073,38.9546307905353],[-95.2532669194007,38.95461431705297],[-95.25325959360632,38.954614317433936],[-95.253259588309,38.95454292956031],[-95.253266914096,38.95454292917935],[-95.25326691364592,38.95452645569684],[-95.2532595867075,38.95452645605053],[-95.25325958256339,38.954455068203664],[-95.25326690834122,38.95445506782268],[-95.25326690673806,38.95443859431277],[-95.25325958099687,38.95443859379338],[-95.25325957681773,38.95436720684643],[-95.25326690258652,38.95436720646544],[-95.25326690101828,38.95435073205503],[-95.25325957525126,38.95435073243596],[-95.25325957107214,38.9542793454885],[-95.2532668968318,38.95427934510753],[-95.25326689526361,38.95426287069699],[-95.25325956950563,38.95426287107799],[-95.25325956532656,38.95419148412999],[-95.25326689107708,38.954191483749014],[-95.25326688950892,38.95417500933831],[-95.25325956376005,38.954175009719314],[-95.25325955961594,38.95410362187044],[-95.2532668853574,38.95410362148943],[-95.25326688375421,38.95408714797905],[-95.25325955801449,38.954087148360024],[-95.25325955271725,38.9540157604833],[-95.25326687844962,38.954015760102294],[-95.25326687799956,38.95399928661911],[-95.2532595522689,38.95399928700009],[-95.25325954697168,38.95392789912289],[-95.25326687269494,38.953927898741895],[-95.25326686757441,38.95384278342525],[-95.25319375590021,38.95384278615458],[-95.253193756134,38.95384370090246],[-95.25244388697335,38.95384372917035],[-95.25244388678432,38.95384281352208],[-95.25237077511012,38.9538428157326],[-95.25237077911699,38.95392793194966],[-95.25237810484026,38.95392793162481],[-95.25237810924756,38.95399931950211],[-95.2523707835169,38.95399931982694],[-95.25237078375814,38.95401579331014],[-95.25237811064368,38.95401579301263],[-95.25237811389782,38.95408718086205],[-95.25237078815805,38.954087181186885],[-95.25237078955249,38.9541036546973],[-95.25237811529394,38.95410365437244],[-95.2523781185481,38.95417504222138],[-95.25237079279928,38.954175042546225],[-95.25237079419365,38.954191516056525],[-95.25237811990922,38.954191516632044],[-95.25237812319843,38.954262903580066],[-95.25237079744045,38.954262903904905],[-95.25237079879987,38.9542793783155],[-95.25237812455951,38.954279377990645],[-95.25237812784871,38.95435076493813],[-95.25237080208164,38.95435076526297],[-95.25237080344107,38.95436723967344],[-95.25237812920987,38.954367239348564],[-95.25237813249903,38.95443862629558],[-95.2523708067229,38.9544386266204],[-95.25237080808229,38.95445510103074],[-95.25237813386018,38.954455100705886],[-95.25237813826755,38.95452648858006],[-95.25237081248225,38.95452648890492],[-95.2523708127235,38.954542962387386],[-95.2523781385105,38.95454296206255],[-95.25237814291788,38.95461434993625],[-95.25237081712348,38.954614350261096],[-95.25237081736479,38.95463082374348],[-95.2523781431609,38.95463082341858],[-95.25237814756828,38.954702211291746],[-95.25237082176479,38.954702211616585],[-95.25237082577172,38.95478732782768]]]},"properties":{"SDE.FloorAll.FLOORLOCATION":"4"}}]}
