{"type":"FeatureCollection","features":[{"type":"Feature","geometry":{"type":"Polygon","coordinates":[[[-95.24829190028882,38.952385304931134],[-95.2484764143647,38.95238570885258],[-95.24848017089725,38.95238571689615],[-95.24848413061032,38.952381038882905],[-95.24849456703309,38.952372934913015],[-95.24852386906458,38.95237299947333],[-95.24852395177565,38.952350118419574],[-95.24860549464184,38.95228680219021],[-95.24862449234668,38.95228718815321],[-95.24862474908268,38.95221580096598],[-95.24860365028309,38.95221575446881],[-95.2485747220928,38.952193040187744],[-95.24857489918938,38.95214362659151],[-95.24855473126102,38.952127790175055],[-95.24855514778086,38.95212746750789],[-95.2486021048898,38.95209100530851],[-95.24860293138528,38.95209165487956],[-95.24861124332418,38.95208520109445],[-95.24860297812464,38.952078711686916],[-95.24860131550635,38.952080002438414],[-95.24855503280003,38.95204365981869],[-95.24855669541833,38.95204236906784],[-95.24854843022875,38.95203587965644],[-95.24854759949616,38.95203652504547],[-95.24850131684595,38.95200018240416],[-95.24850214757849,38.95199953701543],[-95.24849388355206,38.951993047627475],[-95.24849305166637,38.95199369298875],[-95.24843933158321,38.95195150960548],[-95.24841273548408,38.95197216082536],[-95.24841190895668,38.95197151215332],[-95.24840359820114,38.95197796505121],[-95.24841351523757,38.95198575269002],[-95.24839356844643,38.952001240882794],[-95.24838447790232,38.95199410281489],[-95.24835788180624,38.952014753121745],[-95.24835705527886,38.95201410444932],[-95.24830220149987,38.95205669761963],[-95.24829389072421,38.952063150509545],[-95.2482947172166,38.95206380008283],[-95.248268121033,38.95208445126938],[-95.24832266879653,38.95212728343156],[-95.24831976010341,38.95212954135974],[-95.24832058659682,38.95213019093282],[-95.24825616036178,38.952180216402475],[-95.24824511355719,38.95218019212945],[-95.24824514998825,38.95217012450171],[-95.24820998761656,38.952170047844334],[-95.24820995450561,38.952179199905736],[-95.24818301954234,38.95217914097943],[-95.24815493020822,38.952082910094234],[-95.24800179665064,38.952110162934886],[-95.24800739246014,38.95212933415621],[-95.24793175904806,38.952129168223884],[-95.24792589866209,38.9521291552825],[-95.24792560256859,38.95221152568991],[-95.24792443002876,38.95221152309063],[-95.24792439141137,38.95222250541147],[-95.2479296655351,38.95222251705332],[-95.24792945781827,38.95228017614712],[-95.24792418369024,38.95228016450525],[-95.2479241638225,38.95228565520178],[-95.247935299503,38.95228567981223],[-95.24793530945396,38.9522829340138],[-95.24801266721377,38.952283103920585],[-95.24801265726578,38.95228584971908],[-95.24801969020581,38.952285865254375],[-95.2480197001535,38.95228311945592],[-95.24809705794871,38.952283288406086],[-95.2480970491571,38.95228603423194],[-95.24810408094409,38.95228604973476],[-95.2481040908885,38.952283303936305],[-95.24816216171921,38.952283431406684],[-95.24829190028882,38.952385304931134]]]},"properties":{"SDE.FloorAll.FLOORLOCATION":"-1"}},{"type":"Feature","geometry":{"type":"Polygon","coordinates":[[[-95.24748087616098,38.95308858437063],[-95.24749255543897,38.953087812625625],[-95.2474918633844,38.953081428134126],[-95.24756427539896,38.95307664221979],[-95.24756496749501,38.95308302581049],[-95.2475766468062,38.95308225315661],[-95.24757595470909,38.95307586956602],[-95.24764836674727,38.95307108269877],[-95.24764905885088,38.9530774662889],[-95.24766073812516,38.95307669452699],[-95.24766004602051,38.9530703109369],[-95.24773245804731,38.95306552401713],[-95.24773315015848,38.95307190760683],[-95.2477448294309,38.95307113583642],[-95.24774413731872,38.95306475224681],[-95.24781654933416,38.953059965274555],[-95.24781724145284,38.953066348863736],[-95.24782892072349,38.95306557708487],[-95.2478282286037,38.953059193495776],[-95.24790064060777,38.953054406471004],[-95.24790133388707,38.953060790087044],[-95.24791301315588,38.95306001829971],[-95.24791232106367,38.95305363381068],[-95.24798473302126,38.95304884763382],[-95.24798542515504,38.95305523122203],[-95.24799710445704,38.953054458525784],[-95.24799641232221,38.953048074937676],[-95.2480559762845,38.95304413731226],[-95.2480537792726,38.95302387427778],[-95.24805421784818,38.95302384503412],[-95.24805439865386,38.95302376641305],[-95.24805929736326,38.95300961628984],[-95.24806360732728,38.95299535035328],[-95.24806732340811,38.95298098199986],[-95.24807044263376,38.952966528282346],[-95.24807295986636,38.95295200259719],[-95.24807487447528,38.95293742115155],[-95.24807618359374,38.952922798297],[-95.24807688540307,38.9529081511137],[-95.2480769805309,38.95289349313493],[-95.24808896182107,38.95289270056139],[-95.24808243513667,38.952832511400416],[-95.24807045385661,38.952833303973236],[-95.24806727804285,38.952818853141196],[-95.24806348694139,38.952804494048856],[-95.24805908456919,38.95279024211238],[-95.24805407382505,38.95277611182011],[-95.24804846326826,38.9527621204984],[-95.24804225806879,38.952748283590665],[-95.24803546458479,38.95273461566742],[-95.2480280902925,38.952721132226785],[-95.24802014497429,38.95270784882172],[-95.24801951114567,38.95270782386316],[-95.2480137539808,38.95265473028647],[-95.24795999096891,38.95265826034075],[-95.24795445043011,38.95263864702762],[-95.24802011979338,38.95262693889043],[-95.24801985908898,38.952626045896125],[-95.2481158548787,38.95260896256798],[-95.2481161156193,38.95260985466171],[-95.24814367307387,38.95260537177837],[-95.24817101672791,38.95260015472233],[-95.24819811743723,38.95259421091313],[-95.24822494032725,38.95258754673297],[-95.2482514562889,38.95258016870092],[-95.24827763373183,38.95257208778341],[-95.2483034412057,38.95256331134525],[-95.24832884942644,38.952553850407554],[-95.24835382676869,38.95254371683722],[-95.24837834744282,38.952532920837086],[-95.24840237971851,38.95252147697523],[-95.24842589542983,38.95250939720071],[-95.24844886973021,38.952496697146145],[-95.24847127326579,38.9524833896336],[-95.24849307996679,38.952469492069234],[-95.24851426617508,38.95245501921274],[-95.24853480463287,38.95243998934331],[-95.24855467276505,38.95242441904875],[-95.24857384789149,38.95240832761819],[-95.24859230506095,38.95239173338553],[-95.24861002508769,38.95237465482152],[-95.24862698633976,38.95235711394377],[-95.24864316963168,38.952339129223034],[-95.24865855444963,38.952320723604686],[-95.24867312387951,38.95230191651462],[-95.24862452401428,38.95227857589287],[-95.24862474908268,38.95221580096598],[-95.24860365028309,38.95221575446881],[-95.24857472205774,38.95219304108812],[-95.24857489915432,38.95214362749192],[-95.24855473122597,38.95212779107546],[-95.24860210485475,38.952091006208896],[-95.24860293138528,38.95209165487956],[-95.24861124332418,38.95208520109445],[-95.24860297812464,38.952078711686916],[-95.24860090224114,38.95207967810307],[-95.24855503280003,38.95204365981869],[-95.24855669541833,38.95204236906784],[-95.24854843022875,38.95203587965644],[-95.24854676876356,38.95203717043448],[-95.24850048611339,38.95200082779284],[-95.24850214754348,38.95199953791582],[-95.24849388355206,38.951993047627475],[-95.24849305166637,38.95199369298875],[-95.24843933158321,38.95195150960548],[-95.24841273548408,38.95197216082536],[-95.24841190895668,38.95197151215332],[-95.24840359816608,38.95197796595158],[-95.24840525122086,38.951979263295726],[-95.24835870829858,38.95201540269455],[-95.24835705524383,38.952014105349726],[-95.24834874447819,38.95202055824365],[-95.24835039749797,38.952021856488955],[-95.24830385451958,38.95205799586563],[-95.24830220149987,38.95205669761963],[-95.24829389068917,38.95206315140998],[-95.2482947172166,38.95206380008283],[-95.248268121033,38.95208445126938],[-95.24832266879653,38.95212728343156],[-95.24831976006837,38.95212954226016],[-95.24832058659682,38.95213019093282],[-95.24825616036178,38.952180216402475],[-95.24824569982681,38.95218019342748],[-95.24824514998825,38.95217012450171],[-95.24820998761656,38.952170047844334],[-95.24820995450561,38.952179199905736],[-95.24818301954234,38.95217914097943],[-95.24815493020822,38.952082910094234],[-95.24800179665064,38.952110162934886],[-95.24800739246014,38.95212933415621],[-95.24793175901299,38.95212916912425],[-95.2479317822439,38.952122761960986],[-95.24793295362909,38.95212276453282],[-95.24793298677591,38.95211361247145],[-95.24793064285265,38.95211360730043],[-95.24793084723926,38.95205686377212],[-95.24793319116064,38.95205686894319],[-95.24793322430736,38.95204771688176],[-95.2479308792332,38.95204771168337],[-95.24793108361943,38.95199096815475],[-95.24793342753861,38.95199097332576],[-95.24793346068526,38.951981821264354],[-95.24793228814926,38.95198181866515],[-95.24793234785554,38.95196534387402],[-95.24788780875961,38.95196524640713],[-95.2478878109007,38.95196433171385],[-95.24787609015611,38.95196430582633],[-95.24787608682668,38.95196522139265],[-95.24779872941504,38.951965051394694],[-95.24779873274545,38.951964135828355],[-95.2477870119658,38.951964110832265],[-95.24778700867031,38.951965025498154],[-95.24770976779274,38.95196485640485],[-95.24770965340252,38.95196394074752],[-95.24769793265799,38.951963914842004],[-95.24769792932624,38.95196483040827],[-95.2476205707273,38.951964661164524],[-95.24762057406,38.951963745598185],[-95.24760885331561,38.95196371968367],[-95.2476088499827,38.951964635249986],[-95.24753149257235,38.951964465073786],[-95.24753149587113,38.95196355040788],[-95.24751977397366,38.951963524456964],[-95.24751977063966,38.951964440023275],[-95.24744241322969,38.95196426978764],[-95.2474424165297,38.95196335512178],[-95.24743069578537,38.95196332918921],[-95.24743021167365,38.95209781844471],[-95.24735707275212,38.95211083411127],[-95.24739253140567,38.95223232219783],[-95.2474297261147,38.95223240409557],[-95.24742863916478,38.95253442683023],[-95.24744036003884,38.9525344518626],[-95.2474403633389,38.95253353719676],[-95.2474989687213,38.952533665969696],[-95.247498965422,38.952534580635565],[-95.24749662148483,38.952534575455765],[-95.24749659491503,38.952541897284576],[-95.24750011139774,38.95254190506797],[-95.24749996310223,38.9525830902698],[-95.24749644661746,38.95258308248642],[-95.24749642004765,38.952590404315195],[-95.24749993653278,38.95259041209858],[-95.2474997882721,38.95263159639986],[-95.24749627178491,38.95263158861653],[-95.24749624521512,38.952638910445245],[-95.2474997617026,38.95263891822865],[-95.24749961340666,38.952680103430176],[-95.24749609691713,38.95268009564678],[-95.24749607150035,38.9526874175029],[-95.24749841544259,38.9526874226827],[-95.2474984228137,38.95268877469639],[-95.24737840009821,38.9526967299256],[-95.24738415675442,38.952749824434036],[-95.2473837181803,38.952749853675165],[-95.24737869397953,38.95276399268242],[-95.24737428357018,38.95277825621196],[-95.24737049338434,38.952792627293164],[-95.24736732744273,38.95280709160209],[-95.24736478763515,38.952821630257766],[-95.2473628792056,38.952836227162784],[-95.24736160390364,38.952850867037775],[-95.24736096127775,38.952865531847586],[-95.24736095426576,38.95288020543985],[-95.24733963004157,38.95288161515352],[-95.24734061838411,38.95289073469164],[-95.24734178598389,38.952890656970155],[-95.24734516660114,38.952932684790675],[-95.24734615494512,38.95294180432871],[-95.24736720841048,38.95294041251803],[-95.24737054542226,38.95295484016283],[-95.24737446414595,38.95296917887896],[-95.2473789617186,38.9529834132775],[-95.24738403174777,38.95299752968829],[-95.24738967018226,38.95301151359541],[-95.24739587174764,38.953025352256404],[-95.24740263008641,38.9530390311006],[-95.24740993765305,38.953052536430356],[-95.24741778805492,38.9530658545754],[-95.2474179835208,38.95306590337624],[-95.24741842209687,38.95306587413495],[-95.24742061889287,38.95308613808176],[-95.24748018407242,38.95308220077945],[-95.24748087616098,38.95308858437063]]]},"properties":{"SDE.FloorAll.FLOORLOCATION":"1"}},{"type":"Feature","geometry":{"type":"Polygon","coordinates":[[[-95.24748087616098,38.95308858437063],[-95.24749255547403,38.95308781172525],[-95.2474918633844,38.953081428134126],[-95.24756427543402,38.953076641319434],[-95.24756496753007,38.9530830249101],[-95.2475766468062,38.95308225315661],[-95.24757595470909,38.95307586956602],[-95.24764836674727,38.95307108269877],[-95.24764905885088,38.9530774662889],[-95.24766073812516,38.95307669452699],[-95.24766004602051,38.9530703109369],[-95.24773245804731,38.95306552401713],[-95.24773315015848,38.95307190760683],[-95.2477448294309,38.95307113583642],[-95.24774413735376,38.95306475134644],[-95.24781654933416,38.953059965274555],[-95.24781724145284,38.953066348863736],[-95.24782892191163,38.95306557621186],[-95.2478282297919,38.95305919262275],[-95.24790064179592,38.95305440559799],[-95.24790133388707,38.953060790087044],[-95.24791301319094,38.95306001739933],[-95.24791232106367,38.95305363381068],[-95.2479847330563,38.95304884673342],[-95.2479854251901,38.95305523032161],[-95.24799710445704,38.953054458525784],[-95.24799641232221,38.953048074937676],[-95.2480559774376,38.95304413733963],[-95.24801375516896,38.952654729413446],[-95.24796009649465,38.952658277265265],[-95.24796004815421,38.952657829109846],[-95.24795440944376,38.95263863253634],[-95.24815274340064,38.95260333580828],[-95.24814536935186,38.952578283347904],[-95.24818442384588,38.952570502690705],[-95.24820428626064,38.95256590383819],[-95.24822343275768,38.95256104646148],[-95.24823183278248,38.95258008325417],[-95.24823848348267,38.952578296264136],[-95.24823010421237,38.95255925996458],[-95.24826776398893,38.95254814048059],[-95.24830518075028,38.95253534704832],[-95.24831624540037,38.952553534136364],[-95.24832259960247,38.95255118044336],[-95.2483115548695,38.95253298571763],[-95.24834739335388,38.952518663284295],[-95.24838274998041,38.95250269458081],[-95.24839634264933,38.952519805215],[-95.24840232078346,38.95251691267164],[-95.24838874810216,38.9524997925991],[-95.2484223188001,38.95248244047353],[-95.24845517595936,38.952463493358195],[-95.24847112600324,38.95247931530298],[-95.24847665395016,38.95247592000252],[-95.24846072158803,38.952460088564685],[-95.24849204634339,38.952439619850885],[-95.2485215652704,38.95241821966366],[-95.24853975208751,38.95243250041559],[-95.24854476006048,38.95242864576391],[-95.24848329813666,38.95238039457656],[-95.24860339467888,38.95228714168335],[-95.24862449234668,38.95228718815321],[-95.24862474908268,38.95221580096598],[-95.24861856903289,38.95221578678214],[-95.24858177774776,38.952186897253185],[-95.24858206525903,38.952106566131725],[-95.24860210604288,38.952091005335895],[-95.24860293138528,38.95209165487956],[-95.24861124332418,38.95208520109445],[-95.24849388355206,38.951993047627475],[-95.24849305281951,38.9519936930161],[-95.24843933158321,38.95195150960548],[-95.24841273548408,38.95197216082536],[-95.24841190895668,38.95197151215332],[-95.24840359820114,38.95197796505121],[-95.24840525122086,38.951979263295726],[-95.24835870829858,38.95201540269455],[-95.24835705527886,38.95201410444932],[-95.24834874447819,38.95202055824365],[-95.24835039749797,38.952021856488955],[-95.24830385451958,38.95205799586563],[-95.24830220149987,38.95205669761963],[-95.24829389072421,38.952063150509545],[-95.2482947172166,38.95206380008283],[-95.248268121033,38.95208445126938],[-95.24832266879653,38.95212728343156],[-95.24825567780714,38.95217930011855],[-95.24824511688186,38.952179276563136],[-95.24824514998825,38.95217012450171],[-95.24820998761656,38.952170047844334],[-95.24820995118053,38.952180115472025],[-95.24818328628956,38.95218005664755],[-95.24815493136131,38.9520829101216],[-95.24800179665064,38.952110162934886],[-95.24800739246014,38.95212933415621],[-95.24793175904806,38.952129168223884],[-95.2479317822439,38.952122761960986],[-95.24793295478223,38.952122764560194],[-95.24793346072033,38.95198182036392],[-95.24793228818432,38.95198181776478],[-95.24793234785554,38.95196534387402],[-95.24788780875961,38.95196524640713],[-95.2478878120889,38.951964330840845],[-95.24743069582043,38.95196332828879],[-95.24743021167365,38.95209781844471],[-95.24735707275212,38.95211083411127],[-95.24739253140567,38.95223232219783],[-95.24742972730286,38.95223240322255],[-95.24742863919985,38.952534425929855],[-95.24749662148483,38.952534575455765],[-95.24749659491503,38.952541897284576],[-95.24749893885246,38.95254190246436],[-95.24749879059131,38.95258308676583],[-95.2474964466525,38.95258308158605],[-95.2474964200827,38.952590403414845],[-95.24749876517488,38.95259040862201],[-95.24749861687847,38.95263159382372],[-95.24749627178491,38.95263158861653],[-95.2474962463682,38.95263891047263],[-95.24749859030885,38.95263891565247],[-95.24749844201224,38.95268010085397],[-95.24749609807023,38.952680095674154],[-95.24749607150035,38.9526874175029],[-95.24749841544259,38.9526874226827],[-95.24749842354606,38.95268878552847],[-95.24737840009821,38.9526967299256],[-95.24739145106636,38.95281710920055],[-95.2473700065518,38.95281852597685],[-95.24737062020286,38.95281497890202],[-95.2473659557158,38.95281448603587],[-95.24736095545393,38.952880204566824],[-95.24733963007662,38.95288161425313],[-95.24734615494512,38.95294180432871],[-95.24736748034043,38.952940394641224],[-95.24738655955616,38.95300452103179],[-95.24739103305642,38.9530034277111],[-95.24738968197624,38.953000007024485],[-95.24741112658049,38.95299858934415],[-95.24742061892795,38.95308613718137],[-95.24748018410747,38.95308219987907],[-95.24748087616098,38.95308858437063]]]},"properties":{"SDE.FloorAll.FLOORLOCATION":"2"}},{"type":"Feature","geometry":{"type":"MultiPolygon","coordinates":[[[[-95.24793227719367,38.952573108072315],[-95.24793306331958,38.95257580247209],[-95.24793413257261,38.95257946610167],[-95.24795155153271,38.95263914057993],[-95.24799269226138,38.95263181956564],[-95.24809816145455,38.952613049623366],[-95.24810273251555,38.95261223616927],[-95.2481526852892,38.952603346144905],[-95.24815184616803,38.952600471145026],[-95.24821728302646,38.95258669897983],[-95.24826656135969,38.95257262977793],[-95.2482709661757,38.95257137257344],[-95.24828436390492,38.95256754763055],[-95.24834905158276,38.95254390361074],[-95.24841085308867,38.95251594808696],[-95.2484360075769,38.952502152518335],[-95.24843984403329,38.95250004818488],[-95.24846930085391,38.95248389166857],[-95.24852394670165,38.952447980573695],[-95.24857437606974,38.952408487052786],[-95.24862020559998,38.95236571203512],[-95.24862065809816,38.952365206371496],[-95.2486233442561,38.95236220144611],[-95.24866108677223,38.952319980708566],[-95.248678131871,38.952298060956736],[-95.24863858690505,38.95227906914661],[-95.24863885233742,38.95220484871311],[-95.2486045427963,38.95220477439042],[-95.24859961396821,38.95220090291397],[-95.24859630787618,38.95219830733079],[-95.24858177659462,38.952186897225836],[-95.248582065224,38.95210656703213],[-95.24860210485475,38.952091006208896],[-95.24860293138528,38.95209165487956],[-95.24861124217111,38.9520852010671],[-95.24860297812464,38.952078711686916],[-95.24855669541833,38.95204236906784],[-95.24849388355206,38.951993047627475],[-95.24849305166637,38.95199369298875],[-95.24843933158321,38.95195150960548],[-95.24841273548408,38.95197216082536],[-95.24841190895668,38.95197151215332],[-95.24829389068917,38.95206315140998],[-95.2482947172166,38.95206380008283],[-95.248268121033,38.95208445126938],[-95.2483152301468,38.95212144267626],[-95.24827022830861,38.95215638574269],[-95.24826690305618,38.95215896723603],[-95.24825133827547,38.95217105364511],[-95.24824514666356,38.95217104006804],[-95.24824514998825,38.95217012450171],[-95.24820998646345,38.95217004781698],[-95.2482099831384,38.95217096338327],[-95.2481806130874,38.95217089892964],[-95.24815493020822,38.952082910094234],[-95.24810175381175,38.95209237337779],[-95.24809718278435,38.95209318683194],[-95.24800179665064,38.952110162934886],[-95.24800739246014,38.95212933415621],[-95.2480084617103,38.952132997785206],[-95.24801303274127,38.95213218433458],[-95.24801680022891,38.9521112472677],[-95.24801631673859,38.95224604563271],[-95.24795641095297,38.95224591418513],[-95.2479379341706,38.95218670215625],[-95.24793821676326,38.95218661784057],[-95.24793849432658,38.952186514479756],[-95.24793875760061,38.952186392755266],[-95.2479390065853,38.95218625266702],[-95.2479392400224,38.95218609688887],[-95.24793945441753,38.952185926239146],[-95.24793964861759,38.9521857406904],[-95.24793982251747,38.95218554294382],[-95.24793997262262,38.95218533381772],[-95.2479400988281,38.95218511601326],[-95.2479402010987,38.952184890430814],[-95.24794027709324,38.952184657916064],[-95.24794032667138,38.9521844220706],[-95.24794034983329,38.952184182894406],[-95.24794034647363,38.9521839430886],[-95.24794031648736,38.9521837053544],[-95.24794025987443,38.952183469691875],[-95.24794017768279,38.95218323882951],[-95.24794006984236,38.95218301456811],[-95.24793993743612,38.952182798735834],[-95.247939780429,38.95218259223305],[-95.24793960217517,38.952182397843096],[-95.24793940263955,38.95218221646633],[-95.2479391829402,38.95218204903054],[-95.24793894534835,38.952181896490856],[-95.24793869206499,38.95218176160319],[-95.24793842539628,38.95218164442234],[-95.24793814534235,38.95218154494823],[-95.24793795578435,38.952181492683586],[-95.24795186726483,38.95213286833064],[-95.24794932713748,38.9521328630087],[-95.24794934010086,38.95212920974746],[-95.2479446522533,38.95212919940601],[-95.24793175894288,38.95212917092506],[-95.2479317822439,38.952122761960986],[-95.24793295362909,38.95212276453282],[-95.24793346072033,38.95198182036392],[-95.24793228818432,38.95198181776478],[-95.24793234785554,38.95196534387402],[-95.24788780760653,38.95196524637977],[-95.2478878109007,38.95196433171385],[-95.24743069463229,38.95196332916185],[-95.24743038472695,38.95204935913303],[-95.24742686942187,38.95204935137493],[-95.24742685611595,38.95205301273971],[-95.24743037142122,38.952053020497786],[-95.2474302105205,38.95209781841732],[-95.24735707159904,38.95211083408388],[-95.24736957343393,38.95215366697027],[-95.24736614487455,38.952154276807285],[-95.24736718660441,38.9521578460621],[-95.2473706151639,38.95215723622504],[-95.24739253140567,38.95223232219783],[-95.24742972614978,38.95223240319516],[-95.24742943611322,38.95231294336849],[-95.24742591964193,38.95231293558302],[-95.24742590637095,38.952316596047254],[-95.24742942284246,38.95231660383276],[-95.2474289624153,38.95244473459738],[-95.24742544593744,38.95244472681184],[-95.24742543263137,38.95244838817648],[-95.24742894910945,38.95244839596202],[-95.24742863919985,38.952534425929855],[-95.24787638225824,38.95253540777438],[-95.24787622422858,38.9525793387751],[-95.24791666210687,38.95257942720353],[-95.24792134998428,38.952579437546056],[-95.24793014061922,38.95257945695839],[-95.24793015386416,38.952575796494166],[-95.24793037700178,38.952513561343835],[-95.24795675007029,38.95251361870375],[-95.24793698632894,38.95245028546514],[-95.24793727004077,38.95245020207722],[-95.24793754648707,38.95245009778866],[-95.24793781091512,38.952449976091465],[-95.24793805986569,38.95244983690368],[-95.24793829333876,38.952449680225165],[-95.24793850773464,38.95244950957542],[-95.24793870193547,38.95244932402665],[-95.24793887468286,38.95244912625272],[-95.2479390259067,38.952448918054415],[-95.24793915214768,38.95244869934959],[-95.24793925441865,38.95244847376712],[-95.24793933041343,38.952448241252405],[-95.24793937999183,38.9524480054069],[-95.24793940315377,38.95244776623072],[-95.24793939979413,38.95244752642492],[-95.24793936980777,38.95244728869077],[-95.24793931319465,38.95244705302822],[-95.24793923100269,38.95244682216587],[-95.24793912200876,38.9524465978771],[-95.24793898960199,38.952446382044776],[-95.24793883371231,38.952446176469785],[-95.24793865433978,38.95244598115208],[-95.2479384548034,38.95244579977531],[-95.24793823625642,38.9524456323669],[-95.24793799866363,38.95244547982719],[-95.24793774537932,38.95244534493955],[-95.24793747755659,38.952445227731296],[-95.2479371986547,38.95244512828461],[-95.24793700909595,38.95244507601997],[-95.24794240547078,38.95242819258144],[-95.24794230058681,38.95245730058214],[-95.24798273839541,38.952457388987526],[-95.24798256053369,38.952506811585515],[-95.24800190063769,38.9525068533976],[-95.2480017675396,38.95254392035277],[-95.24798242746051,38.9525438776403],[-95.24798233982548,38.95256842224315],[-95.24797459003929,38.952569801910855],[-95.24797341792092,38.952565786164364],[-95.24793227719367,38.952573108072315]]],[[[-95.24793527229507,38.95256299892387],[-95.24793496783414,38.95256302233835],[-95.24793466602628,38.95256306654399],[-95.24793437036594,38.952563130722574],[-95.24793408315924,38.95256321492871],[-95.2479338067125,38.95256331921728],[-95.24793354228399,38.95256344091442],[-95.24793329333302,38.95256358010224],[-95.2479330610127,38.952563736808116],[-95.24793284661641,38.95256390745782],[-95.24793265126215,38.95256409297923],[-95.24793247851447,38.95256429075314],[-95.24793232844348,38.952564498978816],[-95.24793220104917,38.95256471765631],[-95.24793209993109,38.95256494326609],[-95.24793202393616,38.95256517578082],[-95.24793197320456,38.95256541159892],[-95.24793195004257,38.95256565077509],[-95.24793195340217,38.9525658905809],[-95.24793198338857,38.952566128315055],[-95.24793204000177,38.952566363977596],[-95.24793212334693,38.952566594867335],[-95.24793223118792,38.95256681912873],[-95.2479323635949,38.95256703496106],[-95.24793251948482,38.952567240536055],[-95.24793269885765,38.95256743585379],[-95.24793289839434,38.952567617230535],[-95.24793311809486,38.95256778466635],[-95.2479333545349,38.95256793717866],[-95.24793360781963,38.95256807206635],[-95.2479338756428,38.952568189274594],[-95.24793415454519,38.952568288721295],[-95.24793444463184,38.952568367705325],[-95.24793474125528,38.952568427017574],[-95.24793504445053,38.95256846575761],[-95.2479353495701,38.95256848471637],[-95.24793565668413,38.95256848209307],[-95.24793596229819,38.952568458705954],[-95.24793626295295,38.95256841447292],[-95.24793655864839,38.952568349394],[-95.2479368458551,38.952568265187786],[-95.24793712226675,38.95256816179963],[-95.24793738673037,38.9525680392021],[-95.24793763568134,38.95256790001429],[-95.24793786911971,38.95256774423616],[-95.24793808355106,38.95256757268601],[-95.2479382777522,38.952567387137286],[-95.24793845046482,38.952567190263714],[-95.24793860172396,38.95256698116498],[-95.24793872793005,38.95256676336056],[-95.24793883023632,38.95256653687776],[-95.24793890619618,38.95256630526339],[-95.24793895580972,38.95256606851752],[-95.24793897897167,38.95256582934131],[-95.24793897557701,38.95256559043596],[-95.24793894562562,38.95256535180139],[-95.2479388890124,38.95256511613886],[-95.24793880678527,38.9525648861769],[-95.24793869779111,38.95256466188809],[-95.24793856538416,38.95256444605582],[-95.2479384095293,38.95256423958041],[-95.24793823012139,38.95256404516311],[-95.24793803061975,38.95256386288596],[-95.2479378120724,38.95256369547754],[-95.24793757444414,38.95256354383824],[-95.24793732119447,38.95256340805019],[-95.24793705337125,38.95256329084192],[-95.24793683708394,38.95256321360974],[-95.2479367744339,38.9525631922956],[-95.24793648553542,38.95256311243856],[-95.2479361877589,38.952563053098956],[-95.24793588571677,38.952563014386286],[-95.24793557940907,38.95256299630058],[-95.24793527229507,38.95256299892387]]],[[[-95.24793667905116,38.95257068192042],[-95.24793680943779,38.95257112751728],[-95.24793706898788,38.95257202048443],[-95.24793878329274,38.95257171510731],[-95.24793852255448,38.95257082301317],[-95.247938393356,38.9525703765433],[-95.24793667905116,38.95257068192042]]]]},"properties":{"SDE.FloorAll.FLOORLOCATION":"ROOF"}}]}
