{"type":"FeatureCollection","features":[{"type":"Feature","geometry":{"type":"Polygon","coordinates":[[[-95.2414503928135,38.95943727081547],[-95.2414535257092,38.95943602505335],[-95.24150889047569,38.95941401577711],[-95.24151899638477,38.95942951217661],[-95.24155033458213,38.95941705385214],[-95.24154022866793,38.959401557455344],[-95.24159872627096,38.959378302371576],[-95.24142108001227,38.959105896061615],[-95.24135474807787,38.95913226495032],[-95.2413707034624,38.95915673256293],[-95.24128870237683,38.95918933100309],[-95.2414503928135,38.95943727081547]]]},"properties":{"SDE.FloorAll.FLOORLOCATION":"-1"}},{"type":"Feature","geometry":{"type":"Polygon","coordinates":[[[-95.2414503928135,38.95943727081547],[-95.24150889047569,38.95941401577711],[-95.24151899638477,38.95942951217661],[-95.24155033458213,38.95941705385214],[-95.24154022866793,38.959401557455344],[-95.24159872627096,38.959378302371576],[-95.24142108001227,38.959105896061615],[-95.24135474807787,38.95913226495032],[-95.2413707034624,38.95915673256293],[-95.24128870237683,38.95918933100309],[-95.2414503928135,38.95943727081547]]]},"properties":{"SDE.FloorAll.FLOORLOCATION":"1"}},{"type":"Feature","geometry":{"type":"Polygon","coordinates":[[[-95.2414503916603,38.959437270788044],[-95.24150889047569,38.95941401577711],[-95.24151899523153,38.959429512149164],[-95.24155033342886,38.95941705382471],[-95.24154022866793,38.959401557455344],[-95.24159872627096,38.959378302371576],[-95.24149341432724,38.95921681597953],[-95.2414287800463,38.959242510627895],[-95.2414155495241,38.95922222285657],[-95.24141395398917,38.95921977591599],[-95.24139488940999,38.959227354973585],[-95.24139648497957,38.959229801014075],[-95.24140971549771,38.959250088787535],[-95.24134507996754,38.95927578426214],[-95.2414503916603,38.959437270788044]]]},"properties":{"SDE.FloorAll.FLOORLOCATION":"2"}},{"type":"Feature","geometry":{"type":"Polygon","coordinates":[[[-95.2414503916603,38.959437270788044],[-95.24150889047569,38.95941401577711],[-95.24151899526666,38.95942951124881],[-95.24155033342886,38.95941705382471],[-95.24154022866793,38.959401557455344],[-95.24159872627096,38.959378302371576],[-95.24149334791653,38.95921671346215],[-95.24134501355701,38.95927568174464],[-95.2414503916603,38.959437270788044]]]},"properties":{"SDE.FloorAll.FLOORLOCATION":"3"}},{"type":"Feature","geometry":{"type":"Polygon","coordinates":[[[-95.2414503916603,38.959437270788044],[-95.24150888932242,38.95941401574966],[-95.24151899526666,38.95942951124881],[-95.24155033342886,38.95941705382471],[-95.24154022866793,38.959401557455344],[-95.24159872627096,38.959378302371576],[-95.24159188337146,38.959367808812566],[-95.24159501741478,38.95936656307403],[-95.24157865781397,38.959341476649776],[-95.24156229710665,38.95931638929532],[-95.24155916306495,38.959317635032946],[-95.2415476554396,38.95929999010907],[-95.2415507894807,38.95929874437174],[-95.24153442771026,38.959273655185086],[-95.24151806818755,38.95924856785168],[-95.24151493414809,38.95924981358813],[-95.24149341432724,38.95921681597953],[-95.2414965484008,38.95921556934331],[-95.24148551242612,38.95919864670159],[-95.24151371649026,38.95918743412236],[-95.24149018078427,38.959151344207676],[-95.24146664510225,38.9591152542881],[-95.24143844105943,38.95912646685595],[-95.24142261739638,38.959102202459334],[-95.24134531685986,38.95913293277515],[-95.24126801629137,38.95916366213902],[-95.24128383876193,38.95918792652924],[-95.24130737552805,38.95922401651307],[-95.24133091004687,38.95926010553679],[-95.24134194595898,38.95927702909351],[-95.24134508000269,38.959275783361726],[-95.24136659973712,38.959308781898066],[-95.24136346569229,38.95931002763041],[-95.24137982632757,38.959335115012905],[-95.24139618585637,38.95936020146525],[-95.24139931990287,38.95935895573203],[-95.2414108285486,38.959376603399114],[-95.24140769450152,38.95937784913263],[-95.24142405516822,38.959402936508795],[-95.2414404147284,38.95942802295475],[-95.24144354877706,38.959426777220315],[-95.2414503916603,38.959437270788044]]]},"properties":{"SDE.FloorAll.FLOORLOCATION":"ROOF"}}]}
