{"type":"FeatureCollection","features":[{"type":"Feature","geometry":{"type":"Polygon","coordinates":[[[-95.24129060878256,38.958950711573834],[-95.24137393855143,38.958981186492764],[-95.24135902197891,38.959006051536456],[-95.24135955231444,38.95900624530098],[-95.24142597768339,38.959030537514835],[-95.24154580937842,38.95883079529135],[-95.24154572974277,38.95883076545872],[-95.24154672361516,38.95882910831503],[-95.24159197041507,38.95875368679714],[-95.24153252488598,38.95873194627764],[-95.2415419720093,38.95871619948464],[-95.24151065772116,38.95870474701022],[-95.24150121055732,38.95872049470103],[-95.24144176393087,38.95869875410748],[-95.24129060878256,38.958950711573834]]]},"properties":{"SDE.FloorAll.FLOORLOCATION":"-1"}},{"type":"Feature","geometry":{"type":"Polygon","coordinates":[[[-95.24129060878256,38.958950711573834],[-95.24137340821606,38.958980992728314],[-95.24135849167855,38.959005856871535],[-95.2414258991656,38.95903050860997],[-95.24154572970764,38.958830766359114],[-95.24154672361516,38.95882910831503],[-95.24155418185106,38.958816675781186],[-95.24155517687629,38.95881501866482],[-95.24159197041507,38.95875368679714],[-95.24153252488598,38.95873194627764],[-95.2415419720093,38.95871619948464],[-95.2415101262343,38.95870455321896],[-95.24150067910551,38.95872030000935],[-95.24144176393087,38.95869875410748],[-95.24129060878256,38.958950711573834]]]},"properties":{"SDE.FloorAll.FLOORLOCATION":"1"}},{"type":"Feature","geometry":{"type":"Polygon","coordinates":[[[-95.2414937691394,38.95891737638526],[-95.24159197041507,38.95875368679714],[-95.24153252488598,38.95873194627764],[-95.2415419720093,38.95871619948464],[-95.24150999425389,38.958704504116405],[-95.24150054708988,38.95872025180718],[-95.24144176393087,38.95869875410748],[-95.24134356238372,38.95886244356914],[-95.2414072551496,38.95888573711076],[-95.24139584130039,38.95890476082738],[-95.2413974345762,38.95890534307571],[-95.24141627598244,38.95891223422066],[-95.24141826642439,38.95891296200332],[-95.2414296791157,38.958893938257056],[-95.2414937691394,38.95891737638526]]]},"properties":{"SDE.FloorAll.FLOORLOCATION":"2"}},{"type":"Feature","geometry":{"type":"Polygon","coordinates":[[[-95.24134356238372,38.95886244356914],[-95.2414937691394,38.95891737638526],[-95.24159197041507,38.95875368679714],[-95.24153252488598,38.95873194627764],[-95.2415419720093,38.95871619948464],[-95.2415101262343,38.95870455321896],[-95.24151006449748,38.958704656292504],[-95.24150067910551,38.95872030000935],[-95.24144176393087,38.95869875410748],[-95.24134356238372,38.95886244356914]]]},"properties":{"SDE.FloorAll.FLOORLOCATION":"3"}},{"type":"Feature","geometry":{"type":"Polygon","coordinates":[[[-95.24142848782361,38.95903347665595],[-95.24144357721352,38.959008323717796],[-95.24146905345795,38.95901764109463],[-95.24149001211636,38.95898270527729],[-95.24151144231107,38.95894698489134],[-95.24148596489813,38.95893766839676],[-95.24149735285926,38.9589186864135],[-95.24149390230858,38.95891742461486],[-95.24151402009973,38.95888389182643],[-95.24152931431938,38.95885839858137],[-95.24154460856312,38.95883290443391],[-95.24155536688822,38.95881497091417],[-95.24157066107804,38.958789477663515],[-95.2415859552568,38.95876398441084],[-95.24159235290774,38.95875332098629],[-95.24153264104112,38.95873148400782],[-95.2415418400288,38.95871615038216],[-95.24150999425389,38.958704504116405],[-95.24150079526082,38.958719837739565],[-95.24144161493737,38.958698194505516],[-95.24143521726867,38.95870885792174],[-95.24141992304746,38.958734351154696],[-95.24140462881519,38.95875984438555],[-95.2413938716838,38.9587777761181],[-95.24137857617414,38.95880327201915],[-95.24136328191207,38.958828765244434],[-95.2413431652183,38.958862298034326],[-95.24134024612557,38.95886123092349],[-95.24127138092597,38.958976020172784],[-95.24134993434285,38.95900474844101],[-95.24142848782361,38.95903347665595]]]},"properties":{"SDE.FloorAll.FLOORLOCATION":"ROOF"}}]}
