{"type":"FeatureCollection","features":[{"type":"Feature","geometry":{"type":"Polygon","coordinates":[[[-95.24698377511932,38.96209345863894],[-95.2472388327056,38.962182308754],[-95.24721476983365,38.9622244123028],[-95.24740345261142,38.96229014065318],[-95.24754402612504,38.96204416814191],[-95.24760809524427,38.962066486556445],[-95.24761569713014,38.96205861636081],[-95.24762294323821,38.96205054485741],[-95.24762982399184,38.962042280831234],[-95.24763633320391,38.96203383495017],[-95.24764246010943,38.962025216872206],[-95.24764819963958,38.96201643819307],[-95.24765354452428,38.962007507752446],[-95.24765848735308,38.96199843799168],[-95.24766302197408,38.961989238678214],[-95.24766714328348,38.96197992230814],[-95.24767084743597,38.96197049870367],[-95.24767412813937,38.96196098123386],[-95.24767698270159,38.96195137974838],[-95.24767940720722,38.96194170587011],[-95.24761667636622,38.961919853650095],[-95.24784351863276,38.96152292398437],[-95.2473510758423,38.961351379784894],[-95.2470124148489,38.96194396114851],[-95.24701080904892,38.96194340121344],[-95.2470072265471,38.96194966979394],[-95.24700883234722,38.961950229729034],[-95.24699115892861,38.96198115382983],[-95.24703852724858,38.96199765517306],[-95.24698377511932,38.96209345863894]]]},"properties":{"SDE.FloorAll.FLOORLOCATION":"-1"}},{"type":"Feature","geometry":{"type":"Polygon","coordinates":[[[-95.24740345488287,38.96229014160832],[-95.24748364188329,38.96214983181887],[-95.24750598684477,38.96215761530781],[-95.24750885209227,38.96215260131518],[-95.24749841421377,38.962148964933036],[-95.24751274404832,38.962123891450474],[-95.24752786620434,38.962129158492054],[-95.24753073148423,38.96212414359843],[-95.24750182770838,38.96211407482516],[-95.24754335426529,38.9620414124692],[-95.24760842556557,38.96206408091671],[-95.2476160279031,38.962056228756246],[-95.24762327565125,38.96204817441506],[-95.24763016031633,38.96203992850621],[-95.24763667344,38.962031500742484],[-95.24764280768181,38.96202290176438],[-95.24764855458336,38.96201414128469],[-95.24765390799269,38.962005229070904],[-95.24765886049943,38.96199617756436],[-95.24766340822315,38.96198699748759],[-95.24766754270543,38.961977698553476],[-95.24767126111384,38.961968294213094],[-95.24767455848499,38.961958793360985],[-95.24767743083315,38.96194920942091],[-95.24767987543122,38.96193955314292],[-95.24761571276782,38.96191732717372],[-95.24768937818028,38.961788427873664],[-95.24756305584043,38.96174442269154],[-95.24757589290427,38.96172196066584],[-95.24733689702713,38.96163870524764],[-95.2473241788565,38.961660958283076],[-95.24719745492027,38.961616813381255],[-95.24693545749172,38.96207524854279],[-95.24693779789352,38.962076063843966],[-95.2469350515294,38.96208086975939],[-95.2469139081673,38.96207350491875],[-95.24691474316522,38.962072042228755],[-95.24691313732801,38.96207148319277],[-95.24688985095644,38.96211222894392],[-95.24689145679432,38.96211278798023],[-95.24689235240695,38.962111221286236],[-95.24691169064289,38.96211795747459],[-95.24690148196747,38.96213581980123],[-95.24722177145524,38.96224739664513],[-95.24723156384526,38.96223026251262],[-95.24740345488287,38.96229014160832]]]},"properties":{"SDE.FloorAll.FLOORLOCATION":"1"}},{"type":"Feature","geometry":{"type":"MultiPolygon","coordinates":[[[[-95.24750748215274,38.96184003384799],[-95.24757507162846,38.961721767234216],[-95.24755151962603,38.961713562168484],[-95.24755175868614,38.96171314426748],[-95.24736013445165,38.96164639099435],[-95.24735989539063,38.96164680889498],[-95.24733634340306,38.961638604685916],[-95.24726875357248,38.96175687206176],[-95.24728641759503,38.96176302500422],[-95.24728617853323,38.961763442904626],[-95.24738788042585,38.96179887185852],[-95.24748904376372,38.96183411219736],[-95.24748928282456,38.96183369429649],[-95.24750748215274,38.96184003384799]]],[[[-95.24714429333548,38.96207180103084],[-95.24729041779739,38.96212270430173],[-95.24729400028285,38.962116435712595],[-95.24729346501412,38.96211624906887],[-95.24732594638269,38.96205941476135],[-95.24732648165106,38.962059601404924],[-95.24733006413013,38.962053332814584],[-95.24725700133614,38.96202788166354],[-95.24718393978306,38.962002429593355],[-95.2471803572936,38.96200869817919],[-95.24718089256122,38.962008884823376],[-95.24714841109927,38.96206571909053],[-95.24714787583132,38.96206553244616],[-95.24714429333548,38.96207180103084]]]]},"properties":{"SDE.FloorAll.FLOORLOCATION":"2"}}]}
