{"type":"FeatureCollection","features":[{"type":"Feature","geometry":{"type":"Polygon","coordinates":[[[-95.24961523360292,38.95796545006154],[-95.24965938490425,38.95788813138296],[-95.24966326607115,38.957889482458945],[-95.24966081969572,38.957893766529395],[-95.24967152591957,38.957897493811],[-95.24967898398414,38.957884432632305],[-95.24968634431833,38.95788699456946],[-95.24968992407034,38.95788072584936],[-95.24968136000798,38.95787774422749],[-95.24972479764482,38.95780167662097],[-95.24973336169985,38.95780465823966],[-95.2497369425967,38.95779838954544],[-95.249729582305,38.957795826711056],[-95.24973704034814,38.957782765528535],[-95.24972633410312,38.957779039153294],[-95.2497238877353,38.95778332322518],[-95.2497202742118,38.95778206501731],[-95.24980547323305,38.95763286584786],[-95.24979205089402,38.9576281936552],[-95.24979828752896,38.9576172727454],[-95.24985720979555,38.95763778443365],[-95.24986795018971,38.95761897648339],[-95.24987544374558,38.95762158482782],[-95.24988069442348,38.95761238980497],[-95.24987908866416,38.95761183080976],[-95.24991297956518,38.95755248152548],[-95.24991458528844,38.95755304142059],[-95.24991935904528,38.957544682235294],[-95.24991775213395,38.95754412321334],[-95.2499253896956,38.95753074814548],[-95.24994466106317,38.957537457033276],[-95.24997115224106,38.957491063966955],[-95.250027091856,38.95751053691134],[-95.25002637591537,38.957511790657456],[-95.25003949073829,38.95751635639489],[-95.25004521829612,38.95750632552454],[-95.2500299624406,38.957501015063976],[-95.25006337510027,38.95744250154771],[-95.25007809566998,38.957447626273414],[-95.25008286940037,38.95743926708131],[-95.25008179888398,38.9574388947199],[-95.25011568837883,38.95737954534817],[-95.25011676004765,38.95737991773662],[-95.25012200952298,38.95737072267529],[-95.25010969875268,38.95736643647052],[-95.25010898277998,38.957367691117554],[-95.25003671695387,38.9573425344906],[-95.25003743289258,38.95734128074436],[-95.2500352918984,38.95734053512026],[-95.25006870447778,38.95728202160166],[-95.25007031023117,38.95728258059424],[-95.25007603891886,38.95727254974952],[-95.25006319174094,38.95726807778183],[-95.2500624758034,38.957269331528245],[-95.24998753382961,38.9572432435161],[-95.24998824980327,38.957241988869775],[-95.24997647314919,38.95723788925481],[-95.24997527911403,38.957239979713414],[-95.24995012005814,38.957231221485436],[-95.24995572866683,38.95722139958605],[-95.24993003553462,38.95721245474954],[-95.24992442692312,38.95722227664773],[-95.24989926787983,38.957213518408686],[-95.24990046072847,38.957211428823946],[-95.24988975459644,38.95720770156327],[-95.24988856174747,38.95720979114794],[-95.24986340271309,38.95720103290114],[-95.24986901133138,38.95719121100586],[-95.24984331703287,38.957182267023185],[-95.24983770841172,38.957192088917196],[-95.24981254938992,38.95718333065934],[-95.2498137422757,38.95718124017511],[-95.24980303611773,38.957177513806805],[-95.24980184326672,38.957179603390585],[-95.24972583100909,38.95715314194472],[-95.24972702501509,38.9571510523891],[-95.2497163188663,38.95714732601281],[-95.24971512486007,38.95714941556832],[-95.24963911266734,38.95712295406555],[-95.24964030667539,38.95712086451081],[-95.24962960057071,38.957117137226106],[-95.2496284077156,38.95711922680809],[-95.24955239555275,38.957092766148854],[-95.24955358840968,38.9570906765676],[-95.24954288231416,38.95708694927487],[-95.24954168945703,38.95708903885599],[-95.24946460688673,38.95706220487231],[-95.24946579974568,38.95706011529194],[-95.24945509365946,38.95705638799112],[-95.2494543777133,38.95705764173379],[-95.24944902521209,38.957055778997024],[-95.24944544548045,38.95706204771014],[-95.24945240369054,38.95706447034854],[-95.24941571193395,38.95712872601754],[-95.24940875256563,38.957126303349575],[-95.2494051728269,38.957132572061404],[-95.24941213219572,38.95713499472956],[-95.2493784169859,38.957194035317784],[-95.24937681124,38.957193476315666],[-95.2493720385959,38.95720183550619],[-95.24937364434196,38.95720239450841],[-95.249339753156,38.95726174363683],[-95.24933814740885,38.95726118463416],[-95.24933337363748,38.9572695428953],[-95.2493344441123,38.95726991616401],[-95.24933396719636,38.95727075200107],[-95.2493446733087,38.95727447931306],[-95.24934538929406,38.957273224670715],[-95.24942140153838,38.95729968636562],[-95.24942068558916,38.95730094010806],[-95.24942550283524,38.95730261711252],[-95.24943735365015,38.95732675998167],[-95.2494310600491,38.957328643841144],[-95.24943399686477,38.95733462554665],[-95.2494402904312,38.957332742587404],[-95.24945455288652,38.9573617993666],[-95.24944825931787,38.95736368232664],[-95.24945119610138,38.9573696649321],[-95.24945819974666,38.95736756900464],[-95.24951773728257,38.957492364477545],[-95.24950937992332,38.957507001283005],[-95.24924625978142,38.95758573744126],[-95.24904961772265,38.95751728240785],[-95.24903470147062,38.957543403784264],[-95.24903189084718,38.95754242505837],[-95.24903433721354,38.95753814190143],[-95.24902363107762,38.957534414560854],[-95.24901617292889,38.957547475697844],[-95.24901751104309,38.95754794183725],[-95.24895945387239,38.95764960768242],[-95.24896775139268,38.9576524965172],[-95.24897019780178,38.95764821246126],[-95.24897528269804,38.957649982352194],[-95.2489311307973,38.95772730077185],[-95.24896325613041,38.95773848478084],[-95.24896209492064,38.95773916739405],[-95.24896632420912,38.95774355486966],[-95.24897060045386,38.957741041878435],[-95.24899831056578,38.95775068816983],[-95.24900761813046,38.9577343877516],[-95.24899597242204,38.95773033350231],[-95.24899896082164,38.95772938422064],[-95.24899631240363,38.95772429705316],[-95.24899142604765,38.95772584838186],[-95.24899327225019,38.95772939344535],[-95.24896640031818,38.95772003920992],[-95.24898632832411,38.95768514256522],[-95.2495002051687,38.957864032755715],[-95.24949197047808,38.95787845257173],[-95.24948956183461,38.957877614070945],[-95.24948669801896,38.9578826290421],[-95.24948910666257,38.957883467542935],[-95.249476099288,38.95790624655246],[-95.24950928734191,38.95791779988439],[-95.24951203350953,38.95791299030477],[-95.24955592894808,38.95792827094599],[-95.24954805223811,38.95794206389431],[-95.24957590944881,38.95795176039698],[-95.24957622612902,38.957955872987995],[-95.24958323256524,38.9579553975201],[-95.24958310691036,38.95795426620598],[-95.24961523360292,38.95796545006154]]]},"properties":{"SDE.FloorAll.FLOORLOCATION":"1"}},{"type":"Feature","geometry":{"type":"MultiPolygon","coordinates":[[[[-95.2496023752104,38.95798804966987],[-95.24965941729604,38.95788815918809],[-95.24966450219176,38.95788992994914],[-95.2496620558514,38.95789421311925],[-95.24967155715818,38.95789752158876],[-95.24967901637595,38.95788446043737],[-95.24968637671014,38.95788702237455],[-95.24968995649718,38.95788075275408],[-95.24968139124654,38.95787777200525],[-95.24972482888337,38.9578017043987],[-95.24973339409158,38.95780468604474],[-95.24973697387034,38.95779841642276],[-95.24972961354354,38.95779585448878],[-95.24973707158668,38.95778279330624],[-95.24972663413355,38.95777915982447],[-95.24972418776575,38.95778344389637],[-95.24972030660358,38.9577820928224],[-95.24980539052986,38.95763309279724],[-95.24978877718502,38.9576273094069],[-95.24979514020502,38.957616166188934],[-95.24985619665698,38.95763742064094],[-95.24986669801879,38.9576190305967],[-95.24987419153962,38.957621639841605],[-95.24987944221769,38.95761244481879],[-95.24987783645834,38.95761188582364],[-95.24991172736046,38.95755253653968],[-95.2499133331187,38.95755309553442],[-95.24991810572251,38.957544736321836],[-95.24991649996443,38.9575441773272],[-95.24994991389156,38.9574856638712],[-95.24995151964863,38.95748622286539],[-95.24995223559029,38.9574849691197],[-95.25002583849887,38.9575105918994],[-95.25002512255824,38.95751184564555],[-95.25003823738109,38.95751641138309],[-95.25004396609235,38.95750638054017],[-95.25002871027193,38.95750106917898],[-95.25006212289762,38.95744255656353],[-95.25007684350221,38.957447680388995],[-95.25008161723275,38.95743932119695],[-95.25008054671639,38.957438948835524],[-95.2501144362123,38.957379599464105],[-95.25011550669292,38.95737997272567],[-95.25012075732165,38.95737077769175],[-95.25010844539821,38.95736649145945],[-95.25010772946048,38.95736774520615],[-95.250035464788,38.95734258860574],[-95.25003618072675,38.95734133485951],[-95.2500340397325,38.957340589235386],[-95.25006745227795,38.957282076617574],[-95.25006905803131,38.957282635610134],[-95.25007478556601,38.95727260473813],[-95.25006193842317,38.95726813186991],[-95.25006122248564,38.9572693856163],[-95.24998628051223,38.95724329760339],[-95.24998699760407,38.9572420438848],[-95.24997547034609,38.95723803129522],[-95.2499742774992,38.95724012088075],[-95.24994886789419,38.95723127559966],[-95.24995459659497,38.957221244760895],[-95.24992890227472,38.95721230079721],[-95.24992317360606,38.95722233073428],[-95.24989719460002,38.95721328718491],[-95.24989838744872,38.957211197600145],[-95.2498888816459,38.95720788813925],[-95.24988768879689,38.957209977723934],[-95.24986215051452,38.9572010879148],[-95.24986787807201,38.957191057052945],[-95.24984218380875,38.95718211216962],[-95.24983645624832,38.957192143030206],[-95.24981060596342,38.957183143970454],[-95.24981179881424,38.95718105438656],[-95.24980167688595,38.95717753113322],[-95.24980048403495,38.95717962071701],[-95.24972340126767,38.957152786905446],[-95.2497245941205,38.957150697322504],[-95.24971506443227,38.95714737916934],[-95.24971387039096,38.95714946962527],[-95.24963678768938,38.95712263575615],[-95.24963798173252,38.95712054530101],[-95.24962847249448,38.95711723573668],[-95.24962727963931,38.95711932531868],[-95.24955019700353,38.957092491391954],[-95.2495513898605,38.95709040181072],[-95.24954204808213,38.95708714938388],[-95.24954085407175,38.95708923893761],[-95.24946377150154,38.95706240495339],[-95.24946496551374,38.957060315400426],[-95.24945532989973,38.95705696136713],[-95.24945461395356,38.957058215109804],[-95.249435461188,38.957051547702406],[-95.24943188145538,38.95705781641505],[-95.24945115149406,38.957064525357765],[-95.2494146356826,38.95712847157414],[-95.24939536444174,38.95712176349848],[-95.24939130778772,38.95712886804716],[-95.24941057784193,38.95713557699656],[-95.24937716478709,38.95719409032619],[-95.24937555907624,38.9571935304237],[-95.24937078527881,38.9572018895868],[-95.24937239102485,38.957202448589015],[-95.24937118449452,38.957204563078434],[-95.24937225496855,38.95720493634684],[-95.24935842649232,38.95722915224228],[-95.24935735598295,38.95722877987411],[-95.24935353716505,38.957235467389566],[-95.24936370688265,38.957239008038165],[-95.24936418498619,38.95723817132795],[-95.24936712884366,38.95723919646558],[-95.24935937226739,38.957252780463094],[-95.24935807623172,38.95726134740169],[-95.2493597228043,38.95726818350273],[-95.24936840342325,38.95727321009129],[-95.2493824531568,38.957278100896204],[-95.2493783953043,38.95728520631739],[-95.24938696047033,38.95728818708875],[-95.24938743738578,38.957287351251495],[-95.24942151683672,38.95729921505662],[-95.24942032281919,38.95730130460906],[-95.24942425063453,38.957302672121436],[-95.24943610144902,38.957326814990715],[-95.24942980788302,38.95732869794975],[-95.2494327446635,38.95733468055567],[-95.24943903826504,38.957332796696086],[-95.24944920462393,38.95735350919535],[-95.24951709602051,38.95749181754265],[-95.2495082111011,38.957507375502],[-95.2492462728138,38.95758575847861],[-95.24904965011399,38.957517310213134],[-95.24903473270884,38.95754343156218],[-95.2490320564453,38.95754250018421],[-95.2490345028467,38.957538216126856],[-95.24902379671082,38.95753448878636],[-95.2490163385621,38.9575475499233],[-95.24900897828753,38.95754498794354],[-95.24900671031506,38.957548958101505],[-95.24899433238389,38.95754464855463],[-95.24894898412133,38.95762405917623],[-95.24896136321685,38.95762836875531],[-95.24895909639227,38.95763233893967],[-95.24896766039444,38.95763532061493],[-95.24896073863633,38.95764744097966],[-95.24896903615642,38.957650329814314],[-95.2489709461539,38.957646986526946],[-95.24897603105012,38.95764875641783],[-95.24891827222945,38.957749900304805],[-95.24893956955518,38.95775731442407],[-95.24893848472229,38.95775843684462],[-95.2489440996149,38.95776174418474],[-95.24894616226527,38.957759609457504],[-95.24957448499434,38.957978340675155],[-95.24957382995207,38.957980965725035],[-95.24958073314679,38.957982016285385],[-95.2495810777456,38.95798063567246],[-95.2496023752104,38.95798804966987]]],[[[-95.24929429224329,38.95743111558337],[-95.24929374452739,38.95743127922927],[-95.24929752089301,38.95743897065276],[-95.24930791834088,38.95743585936],[-95.24930770874857,38.95743543171313],[-95.2493980098935,38.957408410360486],[-95.24940339149447,38.957419373456666],[-95.24940722207901,38.95741822694919],[-95.24939125375106,38.95738569692935],[-95.24939727404218,38.957383895809336],[-95.24939433726261,38.957377913202514],[-95.24938831809014,38.95737971525019],[-95.24938490007646,38.95737275150858],[-95.24937405450525,38.95735065843548],[-95.24938007482879,38.95734885641591],[-95.24937713801714,38.957342874709084],[-95.24937111772907,38.957344675828075],[-95.24936534364639,38.95733291304472],[-95.2493658913614,38.957332749398454],[-95.24936211618218,38.9573250571041],[-95.24936156843222,38.95732522165071],[-95.24936135883988,38.95732479400393],[-95.24935205568751,38.957327577981815],[-95.24935226527977,38.9573280056286],[-95.24932927952331,38.957334883705876],[-95.2493324259228,38.9573412930608],[-95.24936088425365,38.9573327775109],[-95.24936686149941,38.95734495517163],[-95.24927163552654,38.957373451222765],[-95.24926565832982,38.95736127265678],[-95.24929302124609,38.957353084415075],[-95.24928987600288,38.95734667508644],[-95.24926743679642,38.95735338947824],[-95.2492672272046,38.95735296183131],[-95.2492568297321,38.95735607402081],[-95.24926060493651,38.95736376541818],[-95.24926115149879,38.95736360174508],[-95.24926608070032,38.957373642976904],[-95.24924966293062,38.95737855627901],[-95.24925196973417,38.957383256821615],[-95.249268388658,38.95737834354652],[-95.24929429224329,38.95743111558337]]]]},"properties":{"SDE.FloorAll.FLOORLOCATION":"2"}},{"type":"Feature","geometry":{"type":"Polygon","coordinates":[[[-95.24986889816988,38.9576238628785],[-95.2498696141495,38.957622608232946],[-95.24987156952649,38.9576232890752],[-95.2498761042607,38.95761534779773],[-95.24986994882651,38.95761320558288],[-95.24987567641625,38.957603174720994],[-95.24988022724374,38.95760475796777],[-95.24988380696426,38.95759848924153],[-95.24987925617212,38.9575969050945],[-95.24989500819471,38.95756932002455],[-95.24989955898543,38.95757090417095],[-95.24990313873757,38.957564634543765],[-95.24989858906534,38.95756305132524],[-95.24990383973585,38.95755385630127],[-95.24990999513092,38.95755599941471],[-95.2499147688885,38.957547640229656],[-95.24990861234085,38.95754549708909],[-95.24991434107284,38.95753546625259],[-95.24991889070863,38.95753705037087],[-95.24992247045734,38.95753078074302],[-95.24991792082187,38.95752919662488],[-95.24993367277925,38.95750161244993],[-95.24993822244834,38.95750319566707],[-95.24994180215857,38.957496926939],[-95.24993725252486,38.95749534282161],[-95.24994250318534,38.95748614779585],[-95.24994922914503,38.957488489191434],[-95.2499494681767,38.9574880712853],[-95.24995053865801,38.95748844454836],[-95.24995220960815,38.95748551825051],[-95.24996933881465,38.957491481481156],[-95.24996766790015,38.95749440687889],[-95.25002250170596,38.95751349490992],[-95.25002178573013,38.957514749556445],[-95.25003490058839,38.95751931439396],[-95.2500406281471,38.957509283523855],[-95.25002537229129,38.95750397306268],[-95.25005878495614,38.957445459547756],[-95.25007350552607,38.95745058427402],[-95.25007827925727,38.957442225082126],[-95.25007720874086,38.95744185272064],[-95.25011109824092,38.9573825033503],[-95.25011216990977,38.95738287573878],[-95.25011742053915,38.95737368070503],[-95.25010510858043,38.957369395372815],[-95.25010439264263,38.95737064911941],[-95.25003212681513,38.95734549248962],[-95.25003284275397,38.957344238743396],[-95.25003070175971,38.95734349311918],[-95.25006435337457,38.95728456169562],[-95.25006595912797,38.95728512068822],[-95.25007073284888,38.95727676149657],[-95.25006859066801,38.957276016746086],[-95.25006930664051,38.95727476209926],[-95.25005967212184,38.957271408143576],[-95.25005895618418,38.95727266188997],[-95.24998212261349,38.95724591527597],[-95.2499828385522,38.95724466153005],[-95.24997320288854,38.95724130753984],[-95.24997248694964,38.95724256128571],[-95.24997141643689,38.957242188923274],[-95.24996879171182,38.95724678600035],[-95.24995594454536,38.95724231402081],[-95.24995856930612,38.95723771604358],[-95.24995054054904,38.957234921072924],[-95.24994791466973,38.957239518122215],[-95.24991258468484,38.957227220161805],[-95.24991521060097,38.957222622212896],[-95.24990721486948,38.95721983883716],[-95.24990458898797,38.95722443588552],[-95.24989172589517,38.95721995811353],[-95.24989506771733,38.9572141073201],[-95.24988554367334,38.957210792018955],[-95.24988220300375,38.95721664283941],[-95.24986935584825,38.957212170850276],[-95.24987198057842,38.957207573775385],[-95.24986395186322,38.957204777898305],[-95.2498613259444,38.9572093758461],[-95.24982599602464,38.95719707695885],[-95.24982862194531,38.95719247901191],[-95.24982062622067,38.9571896956302],[-95.24981800029954,38.95719429357699],[-95.24980513721769,38.95718981579538],[-95.24980847908066,38.957183964104054],[-95.24979882638091,38.95718060338632],[-95.24979548451729,38.9571864550774],[-95.24978263737275,38.95718198307856],[-95.24978526329572,38.957177385132596],[-95.24977723339916,38.95717459012257],[-95.24977460747577,38.957179188068366],[-95.24973927873938,38.95716688918204],[-95.24974190351139,38.957162291209684],[-95.24973390779355,38.957159507821984],[-95.24973128190298,38.95716410486644],[-95.2497184199853,38.95715962710259],[-95.24972176066576,38.95715377628675],[-95.2497121170947,38.95715041848182],[-95.24970877522534,38.95715627017041],[-95.24969592809177,38.957151798161966],[-95.24969855401919,38.957147200217946],[-95.24969052412953,38.95714440520192],[-95.24968789938985,38.95714900227271],[-95.24965256949542,38.95713670423298],[-95.24965519427192,38.957132106262584],[-95.24964719856092,38.95712932286891],[-95.24964457381904,38.95713391993876],[-95.24963171075916,38.95712944213792],[-95.24963505144537,38.95712359132457],[-95.24962541696786,38.95712023733281],[-95.2496220751278,38.95712608811846],[-95.2496092280052,38.95712161610049],[-95.2496118539372,38.95711701815841],[-95.24960382405433,38.957114223136365],[-95.24960119812194,38.957118821078275],[-95.24956586944587,38.957106522139064],[-95.2495684942269,38.95710192417058],[-95.24956049852271,38.95709914077094],[-95.24955787262313,38.95710373781148],[-95.24954501072742,38.95709926002837],[-95.24954835141936,38.95709340921752],[-95.24953871695011,38.957090055218536],[-95.2495353751043,38.95709590600173],[-95.24952252799265,38.95709143397412],[-95.24952515277593,38.95708683600663],[-95.24951712405318,38.95708404100591],[-95.24951449811624,38.95708863894589],[-95.24947916947035,38.957076339980226],[-95.2494817942559,38.95707174201374],[-95.24947379855854,38.95706895860809],[-95.2494711726194,38.95707355654708],[-95.24945831073465,38.957069078754316],[-95.2494616514674,38.95706322704557],[-95.24945050466813,38.95705934599453],[-95.24944978753359,38.9570606006102],[-95.24937377668886,38.95703413896076],[-95.24937449263625,38.95703288521857],[-95.24936485703026,38.95702953117777],[-95.24936414108278,38.95703078491988],[-95.24936200010504,38.95703003928329],[-95.2493569872834,38.95703881635088],[-95.24935805778989,38.95703918871899],[-95.24932392878821,38.957098955775884],[-95.24932285828102,38.95709858340743],[-95.24931856258698,38.95710610585839],[-95.24931963305926,38.957106479127276],[-95.24931915614422,38.95710731496431],[-95.24932022665156,38.957107687332766],[-95.24931974858337,38.957108523142416],[-95.24932525819298,38.95711044188342],[-95.24936983046709,38.957201243287514],[-95.24936940185019,38.957201371907786],[-95.2493674484385,38.95720479347896],[-95.24936905418453,38.95720535248121],[-95.24936784650087,38.957207466943245],[-95.24936891700997,38.95720783931126],[-95.249355088497,38.957232056106676],[-95.24935401798759,38.95723168373854],[-95.24935019920433,38.95723837035346],[-95.24936037007528,38.957241911029676],[-95.24936084699073,38.957241075192506],[-95.24936379084826,38.95724210033029],[-95.249356034306,38.95725568342715],[-95.24935473823486,38.95726425126606],[-95.24935638480719,38.95727108736713],[-95.24936506546133,38.95727611305556],[-95.24937911519518,38.95728100386089],[-95.24937505849537,38.95728810930934],[-95.24938362247345,38.95729109095396],[-95.2493841005421,38.957290255144066],[-95.2494172882918,38.95730180850293],[-95.24941622307084,38.957303673100945],[-95.24942182383242,38.957305622838504],[-95.2494210495253,38.95730585500995],[-95.24943304907038,38.9573302988121],[-95.2493687433864,38.957349541089044],[-95.2493620068347,38.95733581603628],[-95.24936255339654,38.957335652362666],[-95.2493585685902,38.95732753332182],[-95.24934871768727,38.957330481845986],[-95.2493489273146,38.95733090859243],[-95.24932867782614,38.95733696838396],[-95.24933182422568,38.95734337773894],[-95.24933291850282,38.95734305041937],[-95.24933997060869,38.957357416521205],[-95.24934133932028,38.957357007392204],[-95.24934143983653,38.95735721255246],[-95.24929330308666,38.957371616680554],[-95.24931224866738,38.95741021499946],[-95.2493603854747,38.957395809963124],[-95.2493605052769,38.95739605343234],[-95.24935913768286,38.957396463489296],[-95.24936679293293,38.95741205965041],[-95.24936569865487,38.95741238697027],[-95.24936894983996,38.95741901059772],[-95.24939467192637,38.95741131332561],[-95.249400053492,38.95742227732235],[-95.24940388407681,38.95742113081495],[-95.2493872013736,38.9573871445911],[-95.24945150596861,38.95736790137622],[-95.24951422908758,38.95749296798822],[-95.24951485657975,38.95749318655065],[-95.24951179579385,38.95749854742598],[-95.24951286630812,38.957498919792705],[-95.24951238939279,38.957499755630494],[-95.24952202391663,38.95750310963153],[-95.24952488886757,38.95749809468668],[-95.24953773605326,38.957502566713934],[-95.24953534913635,38.95750674674895],[-95.24954337790783,38.95750954174827],[-95.24954576482442,38.95750536171312],[-95.24958109484949,38.957517660685376],[-95.24957870793457,38.95752184072127],[-95.24958673786273,38.957524635744974],[-95.24958912474217,38.95752045660927],[-95.24960197193599,38.95752492862939],[-95.24959910698941,38.95752994357607],[-95.24960874263967,38.95753329849766],[-95.24961160646755,38.95752828262299],[-95.24962445362915,38.95753275554097],[-95.24962206675134,38.957536934677385],[-95.2496300966829,38.95753972969806],[-95.24963248356035,38.95753555056148],[-95.24966781361555,38.957547849507336],[-95.24966542673982,38.957552028644606],[-95.2496734555216,38.957554823634915],[-95.249675842397,38.95755064449748],[-95.24968868960177,38.95755511650795],[-95.24968582577827,38.95756013238455],[-95.24969546147175,38.95756348639851],[-95.24969832529469,38.9575584705217],[-95.24971117246727,38.95756294343009],[-95.24970878559361,38.957567122568264],[-95.24971681553204,38.957569917582916],[-95.24971920240532,38.95756573844458],[-95.24975453133757,38.957578037336624],[-95.24975214561908,38.95758221650303],[-95.24976017437274,38.95758501238772],[-95.24976256127904,38.95758083234814],[-95.24977540849478,38.95758530434895],[-95.24977254467616,38.957590320227666],[-95.2497821803779,38.95759367423447],[-95.2497850441609,38.95758865925589],[-95.2497978913795,38.957593131254285],[-95.24979550450989,38.957597310394235],[-95.24980353442014,38.95760010630327],[-95.24980592017121,38.95759592623542],[-95.24984125028675,38.957608225128325],[-95.24983886338424,38.95761240516958],[-95.24984689333289,38.957615200175226],[-95.24984928023508,38.95761102013385],[-95.24986212742678,38.95761549302545],[-95.24985926249498,38.95762050797854],[-95.24986889816988,38.9576238628785]]]},"properties":{"SDE.FloorAll.FLOORLOCATION":"3"}},{"type":"Feature","geometry":{"type":"Polygon","coordinates":[[[-95.24986978421715,38.95762417048435],[-95.2498705001967,38.9576229158388],[-95.24987157067973,38.95762328910256],[-95.24987586753457,38.95761576575839],[-95.24986944334395,38.95761352975004],[-95.24987517093379,38.95760349888816],[-95.24987998936446,38.95760517590102],[-95.2498835691201,38.95759890627447],[-95.24987875184297,38.957597229289064],[-95.24989450383075,38.95756964511955],[-95.2498993211064,38.95757132210433],[-95.2499029008586,38.95756505247707],[-95.24989808358326,38.957563375492505],[-95.24990381116501,38.95755334462918],[-95.2499110382304,38.95755586013299],[-95.24991533392377,38.95754833675995],[-95.24990810685897,38.9575458212564],[-95.24991383559106,38.957535790419925],[-95.24991865286484,38.95753746740387],[-95.2499222325786,38.95753119867643],[-95.24991741530509,38.9575295216926],[-95.2499331672978,38.95750193661736],[-95.24993798456973,38.95750361360052],[-95.24994156431505,38.95749734397206],[-95.24993674704346,38.95749566698905],[-95.24994211664331,38.95748626299657],[-95.24994639979182,38.95748775427557],[-95.24994675776276,38.95748712740272],[-95.25002250285911,38.95751349493728],[-95.2500217869184,38.957514748683415],[-95.25003490174157,38.95751931442132],[-95.25004062930029,38.9575092835512],[-95.2500253734795,38.95750397218961],[-95.25005878610932,38.95744545957511],[-95.25007350671433,38.95745058340099],[-95.25007828044546,38.95744222420909],[-95.25007720992907,38.95744185184761],[-95.25011109942919,38.95738250247721],[-95.25011217106301,38.957382875766164],[-95.25011742169238,38.957373680732374],[-95.25010510976864,38.95736939449974],[-95.25010439383082,38.95737064824638],[-95.25003212800334,38.95734549161657],[-95.25003284394217,38.95734423787037],[-95.25001946151424,38.95733957926673],[-95.25001779060537,38.95734250466521],[-95.2499412428174,38.95731585763011],[-95.24994291372874,38.9573129322327],[-95.24993327809273,38.957309577338826],[-95.2499323230863,38.95731124989085],[-95.2494162592282,38.95713159858775],[-95.24937751867995,38.957199441182986],[-95.2493697300809,38.95720079750335],[-95.24936744847355,38.957204792578544],[-95.24936905421957,38.957205351580846],[-95.24936784768909,38.95720746607018],[-95.24936891816314,38.95720783933863],[-95.24935508968521,38.95723205523366],[-95.24935401917581,38.95723168286546],[-95.2493502003575,38.957238370380814],[-95.24936037011031,38.9572419101293],[-95.24936084817894,38.95724107431949],[-95.24936379203648,38.957242099457225],[-95.24935615565813,38.95725547181457],[-95.24935477376334,38.95726402049415],[-95.24935638599538,38.95727108649411],[-95.24936506661452,38.957276113082905],[-95.24937911634835,38.95728100388826],[-95.2493750585304,38.957288108408946],[-95.24938362366166,38.957291090080936],[-95.24938410057715,38.95729025424368],[-95.24941818002894,38.957302118049775],[-95.24941711480797,38.95730398264778],[-95.24942075450977,38.95730524959792],[-95.24951306942418,38.957493314486555],[-95.24951520738422,38.957493307525624],[-95.24951214659839,38.95749866840102],[-95.24951321711261,38.95749904076769],[-95.2495127390441,38.95749987657813],[-95.24952344520051,38.957503603873484],[-95.24952630899821,38.95749858890131],[-95.24953915618407,38.95750306092836],[-95.24953700833638,38.95750682215773],[-95.24954503822613,38.95750961808474],[-95.24954718610852,38.9575058559548],[-95.2495825161341,38.95751815492664],[-95.24958036828824,38.957521916156814],[-95.24958839702819,38.957524712053456],[-95.24959054490873,38.957520949922696],[-95.24960285682764,38.95752523620991],[-95.24959999303428,38.95753025118398],[-95.24960962868462,38.957533606105514],[-95.24961249251245,38.957528590230794],[-95.2496253396742,38.95753306314866],[-95.24962319183017,38.95753682437964],[-95.24963122176175,38.9575396194003],[-95.24963336960545,38.957535858169166],[-95.249668699661,38.95754815711468],[-95.2496665506656,38.957551918319105],[-95.24967458060063,38.957554713336734],[-95.24967672844245,38.95755095210482],[-95.24968957564734,38.957555424115185],[-95.24968671182391,38.95756043999177],[-95.2496963475175,38.9575637940057],[-95.24969921134041,38.95755877812884],[-95.2497120585131,38.95756325103711],[-95.24970991067278,38.95756701226968],[-95.24971793945801,38.95756980725697],[-95.2497200884512,38.957566046051554],[-95.24975541738371,38.95757834494332],[-95.24975326954525,38.9575821061767],[-95.24976129945209,38.95758490208868],[-95.24976344732526,38.95758113995477],[-95.2497762945061,38.957585612855915],[-95.2497734307226,38.957590627834264],[-95.2497830652712,38.95759398181358],[-95.24978593020731,38.95758896686241],[-95.24979877742602,38.95759343886064],[-95.24979662958945,38.957597200094796],[-95.24980465834649,38.95759999597645],[-95.24980680621782,38.95759623384173],[-95.24984213633371,38.9576085327344],[-95.2498399884639,38.95761229486974],[-95.24984801841265,38.957615089875326],[-95.24985016628206,38.957611327739805],[-95.24986301347387,38.957615800631366],[-95.24986014854213,38.95762081558447],[-95.24986978421715,38.95762417048435]]]},"properties":{"SDE.FloorAll.FLOORLOCATION":"4"}},{"type":"Feature","geometry":{"type":"Polygon","coordinates":[[[-95.24950162718356,38.95726512509078],[-95.24958515646149,38.957435292260904],[-95.24982665750062,38.95751936250406],[-95.24983071416831,38.957512257039966],[-95.24959298267733,38.957429499186965],[-95.24950978816348,38.95726001317909],[-95.24998806896677,38.95742651033604],[-95.24998365434952,38.95743424267862],[-95.24997206783,38.95743020975823],[-95.24994887282445,38.95747082845197],[-95.24997135572698,38.95747865442332],[-95.24997970802417,38.957464026479066],[-95.25000647407695,38.957473343721205],[-95.24999215403656,38.95749842041425],[-95.25002105994996,38.95750848325056],[-95.25005022151059,38.95745741576555],[-95.25002131446072,38.95744735290913],[-95.25001916660536,38.95745111504786],[-95.24999240171249,38.95744179783598],[-95.24999454956901,38.9574380356977],[-95.24999275361134,38.95743741090963],[-95.2500012271796,38.9574225731513],[-95.24951051265495,38.95725174720832],[-95.24949200652979,38.95725325844632],[-95.24946461544474,38.9572437225773],[-95.24947228643818,38.957230290652404],[-95.24937268800193,38.95719561804116],[-95.24936744847355,38.957204792578544],[-95.24936905421957,38.957205351580846],[-95.24933516418155,38.95726470073524],[-95.24933355728122,38.95726414170516],[-95.24932878462722,38.95727250089388],[-95.24932985513712,38.95727287326223],[-95.2493293782211,38.95727370909926],[-95.24934008318041,38.95727743638432],[-95.24934079913088,38.957276182642374],[-95.24941770196058,38.957302953859845],[-95.24941711480797,38.95730398264778],[-95.24942803387873,38.95730778439823],[-95.24946055760245,38.95725082800136],[-95.24950162718356,38.95726512509078]]]},"properties":{"SDE.FloorAll.FLOORLOCATION":"5"}},{"type":"Feature","geometry":{"type":"Polygon","coordinates":[[[-95.24951197844594,38.95749109502477],[-95.2495072046796,38.95749945329291],[-95.24987254743003,38.957626635085816],[-95.24994987435943,38.95749121898379],[-95.2500357904063,38.95752112713317],[-95.25012027750788,38.957373171680516],[-95.25003509843783,38.95734351989399],[-95.25007607047814,38.95727176823504],[-95.24997008166832,38.95723487266523],[-95.2499688876681,38.95723696222338],[-95.24946780664428,38.95706252681428],[-95.2494689995032,38.957060437233906],[-95.24936301136192,38.95702354020833],[-95.24931541935904,38.957106882044144],[-95.2493250595159,38.95711023799931],[-95.24936961246881,38.957201001994875],[-95.24932830655803,38.95727333670355],[-95.24942091267353,38.95730557508736],[-95.2494330479522,38.95733029788436],[-95.24936874453958,38.957349541116386],[-95.2493620068347,38.95733581603628],[-95.24936255343158,38.9573356514623],[-95.24935856649404,38.95732752786473],[-95.24934871772233,38.9573304809456],[-95.2493489273146,38.95733090859243],[-95.24926409997977,38.957356292466976],[-95.24926388818666,38.95735586206415],[-95.2492534928097,38.95735897971045],[-95.24925726696584,38.95736666837935],[-95.24925781471643,38.957366503833235],[-95.24929095427089,38.95743401854548],[-95.24929040770809,38.95743418221876],[-95.24929418292037,38.95744187361499],[-95.24930457830767,38.95743875596507],[-95.24930437192964,38.957438334703006],[-95.2493295463143,38.95743080109127],[-95.24932912709431,38.957429946697985],[-95.24938823241233,38.95741226005243],[-95.24938865163287,38.95741311444551],[-95.24939850044952,38.95741016046088],[-95.24938720140864,38.957387143690674],[-95.24945148783594,38.9573678630946],[-95.24951197844594,38.95749109502477]]]},"properties":{"SDE.FloorAll.FLOORLOCATION":"ROOF"}}]}
