{"type":"FeatureCollection","features":[{"type":"Feature","geometry":{"type":"Polygon","coordinates":[[[-95.25479760988446,38.95481997520903],[-95.25491891852603,38.954821115299595],[-95.25491926252036,38.95479915071673],[-95.25501830121023,38.95480009597625],[-95.25501835794343,38.95479643564894],[-95.2552108683482,38.95479827162632],[-95.2552123646853,38.954702637690794],[-95.25521705249409,38.95470268288116],[-95.2552178548598,38.95465143398609],[-95.25521052948245,38.95465136420487],[-95.25521160307753,38.954582727219346],[-95.25522039371755,38.954582811862565],[-95.25522060821797,38.95456908409979],[-95.25521181754473,38.95456900035701],[-95.2552128922905,38.954500363398346],[-95.25522168180201,38.954500447113766],[-95.25522189742016,38.95448672027859],[-95.25521310675715,38.954486636535854],[-95.25521418034724,38.954417999549435],[-95.25522297100174,38.95441808329206],[-95.2552231854662,38.954404356429514],[-95.25521439481345,38.954404272686894],[-95.2552154695542,38.95433563572727],[-95.25522425904524,38.95433571944251],[-95.25522447469734,38.954321991706756],[-95.25521568405482,38.95432190796425],[-95.25521675760494,38.954253271877285],[-95.25522408294108,38.95425334165812],[-95.25522687466743,38.95407488622014],[-95.25498631270709,38.95407259117126],[-95.2549861518163,38.954082886543254],[-95.25495919502129,38.954082629520826],[-95.25495935591601,38.95407233414888],[-95.254908811361,38.95407185208875],[-95.25490988250974,38.95400340429509],[-95.25491794044852,38.95400348152827],[-95.2549181528714,38.953989868170204],[-95.25491009489919,38.9539897918375],[-95.25491117091042,38.95392104044619],[-95.2549192288398,38.9539211176793],[-95.25491944241533,38.95390750434844],[-95.25491138445253,38.95390742801582],[-95.25491154955444,38.953896846154166],[-95.25501586203298,38.95389784151153],[-95.255019184347,38.95368552523924],[-95.25491349572206,38.95368451712127],[-95.2549136597384,38.953673992912094],[-95.2549230952522,38.95367408293579],[-95.25492462034073,38.95357661838117],[-95.2548288058159,38.953575704281],[-95.25482872807082,38.95358073757589],[-95.25413019413786,38.95357407041954],[-95.25413027308583,38.95356903715242],[-95.25403445858154,38.953568122396035],[-95.25403293230116,38.95366558603862],[-95.25404428998434,38.95366569462303],[-95.25404321421952,38.953734388355066],[-95.25403515631237,38.95373431106114],[-95.25403494372028,38.95374792441784],[-95.2540430004758,38.953748001684474],[-95.25404192365805,38.95381675216827],[-95.25403386685971,38.95381667580195],[-95.25403365314891,38.95383028823083],[-95.25404171106699,38.95383036552486],[-95.25404063424672,38.95389911600819],[-95.25403257628581,38.95389903961448],[-95.25403236372775,38.953912652070585],[-95.25404042050204,38.95391272933741],[-95.2540393447974,38.95398148074793],[-95.25403128686214,38.953981403453724],[-95.25403107311541,38.95399501678285],[-95.2540391310872,38.953995093176644],[-95.25403805422694,38.954063844559414],[-95.2540299962823,38.954063767265126],[-95.25402978368818,38.95407738062145],[-95.25403784051623,38.954077456988045],[-95.25403676480659,38.954146208397624],[-95.25402870685258,38.954146131103265],[-95.25402849310483,38.954159744432154],[-95.25403655106041,38.954159821726556],[-95.25403549009907,38.954227539781485],[-95.25402333043603,38.954227423919704],[-95.2540231008529,38.95424206877462],[-95.25403526163656,38.95424218556409],[-95.25403430537597,38.954303197389194],[-95.25401864744049,38.95430304823995],[-95.25401826957426,38.95432718487564],[-95.25402625371264,38.95432726132316],[-95.25402522156486,38.9543932271797],[-95.25402263942395,38.954393202071934],[-95.2540224256743,38.9544068154006],[-95.25403048365801,38.954406892695424],[-95.25402960266877,38.95446311449619],[-95.25402066664358,38.954463029022655],[-95.25402035078152,38.95448316298977],[-95.25401610258223,38.95448312185402],[-95.2540159888073,38.95449032894883],[-95.25402844270819,38.954490448174234],[-95.25402740986195,38.954555481246835],[-95.25401936569905,38.95455540427956],[-95.25401900356103,38.954578512089846],[-95.25401460880111,38.95457847018666],[-95.25401358035455,38.95464413241735],[-95.25402046613479,38.95464419817121],[-95.25402028187926,38.95465592323332],[-95.25402130758995,38.954655933107084],[-95.25401919518286,38.95479079625888],[-95.25459928661908,38.954796330983335],[-95.2545991718163,38.95480365521178],[-95.25460386078454,38.95480370045426],[-95.25460397548194,38.954796378926986],[-95.2546686579036,38.95479699580441],[-95.25466854310798,38.95480432003302],[-95.25467323092317,38.95480436524538],[-95.25467334561338,38.95479704371799],[-95.25473993405967,38.95479767955247],[-95.25473981927145,38.954805003781125],[-95.25474450722665,38.954805045389016],[-95.25474462190945,38.95479772386157],[-95.25479531322289,38.95479821486316],[-95.25479519854531,38.95480553639067],[-95.25479783608789,38.9548055618914],[-95.25479760988446,38.95481997520903]]]},"properties":{"SDE.FloorAll.FLOORLOCATION":"1"}},{"type":"Feature","geometry":{"type":"Polygon","coordinates":[[[-95.25401383900112,38.954816898614354],[-95.25424925179874,38.95481914667571],[-95.25424933806106,38.95481359808247],[-95.25479689625314,38.954818824572826],[-95.25479685620816,38.95482134164288],[-95.25491816488702,38.95482248083387],[-95.25491850884663,38.95480051715147],[-95.25501725219128,38.95480145902387],[-95.25501719902744,38.954804908549434],[-95.25521703596688,38.95480681523773],[-95.2552186287338,38.95470501200808],[-95.25521628423523,38.954704989849496],[-95.25521710119338,38.95465280042272],[-95.25520918970045,38.954652724876674],[-95.25521026329689,38.95458408789121],[-95.25521905397197,38.95458417163411],[-95.25521926843773,38.954570444771704],[-95.25521047891748,38.954570361056156],[-95.25521155251137,38.95450172407023],[-95.25522034317623,38.95450180781301],[-95.25522055767645,38.95448808005014],[-95.25521176701332,38.95448799630736],[-95.25521284056974,38.95441936022135],[-95.25522163122437,38.95441944396402],[-95.2552218457241,38.95440571620109],[-95.2552130562243,38.954405632485674],[-95.25521412977824,38.95433699639922],[-95.25522292042263,38.954337080141805],[-95.25522313492186,38.95432335237875],[-95.25521434427914,38.95432326863613],[-95.25521541786559,38.95425463164877],[-95.25522362235262,38.95425471052698],[-95.25522641408014,38.95407625508904],[-95.25490883190739,38.95407322513854],[-95.25490100997087,38.954573032389405],[-95.25490437902141,38.95457306439304],[-95.25490444111412,38.9545691176034],[-95.25490971502865,38.95456916857255],[-95.25490828776262,38.95466039806898],[-95.25481638657918,38.95465952077279],[-95.25481646236327,38.954654716342596],[-95.25410898061949,38.95464796361885],[-95.25410890594048,38.954652768075874],[-95.25401642327411,38.95465188448467],[-95.25401561716477,38.95470332616529],[-95.25400960711048,38.95470326853528],[-95.25400949235173,38.95471059006208],[-95.25401550244156,38.954710646791646],[-95.25401383900112,38.954816898614354]]]},"properties":{"SDE.FloorAll.FLOORLOCATION":"2"}},{"type":"Feature","geometry":{"type":"Polygon","coordinates":[[[-95.2547972935291,38.95482149348968],[-95.25491684312344,38.95482263428975],[-95.25491717969845,38.954801128253976],[-95.25501094442417,38.954802023451336],[-95.25501091607487,38.9548038531648],[-95.2552148536618,38.95480579656109],[-95.255216171184,38.954721603928434],[-95.25521383129752,38.95472158187902],[-95.25521471379454,38.95466535652342],[-95.25524283612488,38.95466562485192],[-95.25524287300414,38.95466333751901],[-95.25524290876517,38.95466104925841],[-95.25524294452622,38.95465876099785],[-95.25524298025228,38.95465647363763],[-95.25524301601331,38.95465418537707],[-95.25524305289255,38.954651898044176],[-95.2552430898067,38.95464960981087],[-95.25524312556777,38.9546473215503],[-95.25524316244696,38.95464503421741],[-95.25524319820798,38.95464274595681],[-95.25524323508722,38.9546404586239],[-95.25524327084823,38.95463817036332],[-95.25524330660923,38.95463588210274],[-95.25524334233528,38.954633594742525],[-95.25524337809632,38.954631306481936],[-95.25524341382238,38.954629019121754],[-95.25524344958335,38.95462673086119],[-95.25524348646259,38.95462444352825],[-95.25524352222357,38.95462215526767],[-95.25524355798456,38.95461986700709],[-95.2552435937106,38.95461757964685],[-95.25524362947158,38.95461529138629],[-95.25524366519765,38.95461300402608],[-95.25524370095864,38.9546107157655],[-95.2552437367196,38.95460842750492],[-95.25524377244562,38.954606140144676],[-95.25524380820664,38.954603851884094],[-95.25524384393266,38.9546015645239],[-95.25524387969362,38.954599276263274],[-95.2552439154546,38.9545969880027],[-95.25524395118062,38.95459470064252],[-95.25524398694162,38.95459241238189],[-95.25524402266763,38.95459012502169],[-95.25524405842859,38.95458783676112],[-95.25524409415458,38.95458554940086],[-95.25524412991552,38.95458326114031],[-95.25524416567652,38.95458097287968],[-95.25524420140253,38.95457868551946],[-95.25524423716347,38.9545763972589],[-95.25524427288944,38.954574109898694],[-95.25524430865039,38.95457182163807],[-95.25524434441138,38.95456953337749],[-95.25524438013736,38.954567246017255],[-95.25524441589829,38.95456495775667],[-95.25524445162425,38.954562670396456],[-95.2552444873852,38.954560382135845],[-95.25524452314616,38.95455809387524],[-95.25524455887214,38.954555806515046],[-95.25524459463306,38.95455351825442],[-95.255244630359,38.954551230894225],[-95.25524466611999,38.9545489426336],[-95.25524470184594,38.95454665527337],[-95.25524473760684,38.9545443670128],[-95.25524477336778,38.95454207875217],[-95.25524480909371,38.95453979139195],[-95.25524484485469,38.95453750313138],[-95.25524488058062,38.95453521577112],[-95.25524491634152,38.954532927510535],[-95.25524495210243,38.95453063924991],[-95.25524498782835,38.9545283518897],[-95.2552450235893,38.954526063629096],[-95.25524505931524,38.95452377626888],[-95.25524509507612,38.95452148800826],[-95.25524513083701,38.954519199747665],[-95.25524516656294,38.95451691238741],[-95.25524520232389,38.954514624126816],[-95.2552452380498,38.954512336766605],[-95.25524527381067,38.95451004850597],[-95.2552453095366,38.95450776114575],[-95.25524534529751,38.954505472885174],[-95.25524538221154,38.95450318465183],[-95.25524541793743,38.95450089729164],[-95.25524545369831,38.95449860903099],[-95.25524548942425,38.95449632167077],[-95.25524552518512,38.95449403341016],[-95.25524556094598,38.95449174514952],[-95.25524559667188,38.95448945778932],[-95.25524563243273,38.95448716952871],[-95.25524566815868,38.95448488216846],[-95.25524570391953,38.95448259390785],[-95.25524573968036,38.95448030564723],[-95.25524577540627,38.95447801828701],[-95.25524581116716,38.954475730026395],[-95.25524584689305,38.95447344266616],[-95.25524588265388,38.95447115440552],[-95.25524591837976,38.95446886704531],[-95.25524595414059,38.95446657878467],[-95.25524598990147,38.95446429052408],[-95.25524602562736,38.95446200316384],[-95.25524606138819,38.954459714903216],[-95.25524609711404,38.95445742754297],[-95.25524613287487,38.95445513928238],[-95.25524616863574,38.95445285102175],[-95.25524620436161,38.95445056366151],[-95.25524624012242,38.954448275400864],[-95.25524627584826,38.95444598804063],[-95.25524631160907,38.95444369978004],[-95.25524634736993,38.95444141151937],[-95.25524638309578,38.954439124159165],[-95.25524641885659,38.95443683589854],[-95.25524645458243,38.954434548538266],[-95.25524649034328,38.95443226027766],[-95.25524652606912,38.954429972917424],[-95.25524656182992,38.95442768465681],[-95.2552465975907,38.95442539639619],[-95.25524663331653,38.95442310903593],[-95.2552466690774,38.95442082077529],[-95.2552467048032,38.954418533415044],[-95.255246740564,38.954416245154434],[-95.25524677632478,38.95441395689379],[-95.25524681205057,38.954411669533584],[-95.25524684781142,38.954409381272924],[-95.25524688353724,38.95440709391268],[-95.255246919298,38.95440480565207],[-95.25524695505878,38.9544025173914],[-95.25524699078457,38.95440023003118],[-95.2552470265454,38.95439794177051],[-95.25524706227122,38.954395654410305],[-95.25524709803197,38.95439336614966],[-95.25524713375776,38.954391078789435],[-95.25524716951853,38.954388790528775],[-95.25524720527933,38.95438650226818],[-95.25524724100512,38.95438421490789],[-95.25524727676587,38.954381926647265],[-95.25524731249166,38.954379639287026],[-95.25524734825244,38.954377351026366],[-95.25524738401322,38.95437506276576],[-95.25524741973896,38.95437277540549],[-95.25524745549971,38.95437048714487],[-95.25524749122549,38.95436819978461],[-95.25524752698627,38.95436591152394],[-95.255247562747,38.954363623263326],[-95.25524759847278,38.954361335903094],[-95.2552476342335,38.95435904764241],[-95.25524766995926,38.954356760282174],[-95.25524770572004,38.95435447202156],[-95.25524774144579,38.95435218466126],[-95.2552477772065,38.954349896400636],[-95.25524781296723,38.95434760813996],[-95.25524784869299,38.95434532077973],[-95.25524788445374,38.95434303251911],[-95.25524792017949,38.95434074515885],[-95.25524795594019,38.95433845689818],[-95.2552479917009,38.95433616863756],[-95.25524802742669,38.95433388127727],[-95.25524806318738,38.95433159301665],[-95.25524809891313,38.9543293056564],[-95.25524813467382,38.95432701739573],[-95.2552481704345,38.954324729135095],[-95.25524820616029,38.954322441774856],[-95.25524824192097,38.95432015351419],[-95.2552482776467,38.95431786615393],[-95.25524831340738,38.95431557789326],[-95.2552483491331,38.954313290532994],[-95.25524838489383,38.95431100227238],[-95.25524842065451,38.9543087140117],[-95.25524845638022,38.954306426651456],[-95.2552484921409,38.954304138390825],[-95.2552485278666,38.95430185103051],[-95.25524856362732,38.954299562769876],[-95.25524859938798,38.95429727450924],[-95.25524863511369,38.95429498714898],[-95.25524867087435,38.954292698888324],[-95.25524870660001,38.95429041152806],[-95.25524874236073,38.95428812326739],[-95.2552487781214,38.954285835006765],[-95.25524881384709,38.954283547646476],[-95.25524884960774,38.95428125938582],[-95.25524888533347,38.95427897202556],[-95.25524892109411,38.95427668376489],[-95.2552489568198,38.95427439640462],[-95.25524899258043,38.954272108144],[-95.25524902834107,38.9542698198833],[-95.25524906406679,38.954267532523026],[-95.25524909982742,38.95426524426237],[-95.2552491355531,38.9542629569021],[-95.25524917131372,38.954260668641474],[-95.25524920707434,38.954258380380786],[-95.25524924280005,38.954256093020525],[-95.25524927856068,38.95425380475987],[-95.25524931428635,38.95425151739957],[-95.25524935004694,38.95424922913894],[-95.25524938580756,38.95424694087829],[-95.25524942153325,38.954244653518],[-95.25524946467661,38.95424190761067],[-95.25522133556093,38.95424164002038],[-95.2552239128305,38.954076911445235],[-95.25491683689691,38.95407398244284],[-95.2549195799355,38.95389867291099],[-95.25501583448978,38.95389959103529],[-95.25501915680405,38.95368727476304],[-95.25492290253875,38.9536863566415],[-95.25492462034073,38.95357661838117],[-95.25447954002844,38.95357237080608],[-95.25403445861652,38.95356812149562],[-95.25401740349817,38.95465707621854],[-95.2540165756357,38.954709909774465],[-95.25395680153474,38.954709338489295],[-95.25395637092403,38.95473679308214],[-95.25401614620141,38.954737364394816],[-95.25401531833707,38.954790197950395],[-95.25410673857075,38.95479107079549],[-95.2541066742592,38.95479522211089],[-95.25479760063256,38.95480181714038],[-95.2547972935291,38.95482149348968]]]},"properties":{"SDE.FloorAll.FLOORLOCATION":"ROOF"}}]}
