{"type":"FeatureCollection","features":[{"type":"Feature","geometry":{"type":"Polygon","coordinates":[[[-95.25043736244434,38.965130000871476],[-95.250487618132,38.96512324642272],[-95.25050841456586,38.96512045186822],[-95.2505621365036,38.96511323163227],[-95.25055099923335,38.96506272162085],[-95.25060298853425,38.965055735158096],[-95.25058091205217,38.96495561745705],[-95.25058264575675,38.9649553845922],[-95.25058204913168,38.96495267939115],[-95.25054623655933,38.964957491735845],[-95.25053006221118,38.96495966589929],[-95.25052608414286,38.964941626403665],[-95.25052170868943,38.96492178404968],[-95.250469719479,38.96492877047609],[-95.2504685262731,38.9649233591725],[-95.2504234683792,38.96492941494368],[-95.25042466158177,38.96493482624779],[-95.25039346873724,38.964939018096715],[-95.25040778809762,38.96500395917786],[-95.25035795027401,38.96501065680834],[-95.25035673849013,38.96500515944661],[-95.25028784721944,38.965014418031515],[-95.25030102981194,38.96499371949483],[-95.25025536637823,38.96497599466404],[-95.25025366970497,38.9649786581022],[-95.25025013413564,38.964977285511196],[-95.2502434800917,38.96498773422606],[-95.2502470156614,38.964989106817264],[-95.25024584148196,38.96499095081566],[-95.2502292040744,38.96501707209656],[-95.25024390021282,38.9650227765692],[-95.25023006958251,38.96504449433769],[-95.25023584206396,38.96504673468091],[-95.25027391010185,38.9650615117481],[-95.25027639940598,38.96507280453494],[-95.25032876476384,38.96506576672977],[-95.25033174885901,38.96507929637016],[-95.25035254416782,38.96507650091581],[-95.25034956118711,38.96506297220374],[-95.25036891286385,38.96506037142521],[-95.25036630368348,38.96504853956986],[-95.25038494748752,38.965046033755144],[-95.25039330095066,38.96508391561421],[-95.25042622410729,38.965079490820806],[-95.25043736244434,38.965130000871476]]]},"properties":{"SDE.FloorAll.FLOORLOCATION":"-1"}},{"type":"Feature","geometry":{"type":"Polygon","coordinates":[[[-95.25043567539896,38.9651250582102],[-95.25056139386061,38.96510852315315],[-95.25055165632287,38.965063397798176],[-95.25060367461938,38.96505655621843],[-95.25058081427996,38.96495062325943],[-95.25058211848983,38.96495045140772],[-95.25058153458637,38.96494774560707],[-95.2505295128728,38.964954587995315],[-95.25052133343532,38.964916682335435],[-95.25046931289208,38.964923524724],[-95.2504681440811,38.964918109492714],[-95.25042305876674,38.96492403934337],[-95.25042422760939,38.96492945367472],[-95.25039301502868,38.96493355943923],[-95.25040703735161,38.964998539439534],[-95.25033710831511,38.965007797778796],[-95.25033705821853,38.965007572186096],[-95.25032435011268,38.96500928057112],[-95.25032439905593,38.965009506136454],[-95.25030533981423,38.965012067879385],[-95.25029205381617,38.96501385358098],[-95.25029200371966,38.965013627988235],[-95.25028536016126,38.96501452037456],[-95.25028541025769,38.9650147459673],[-95.25028409779752,38.96501492212624],[-95.25029828116205,38.96499265305608],[-95.25020078162461,38.96495480573804],[-95.25019060388058,38.96497078641628],[-95.25018824189615,38.96496986973518],[-95.2501883722403,38.96496966464344],[-95.25017603810147,38.96496487684518],[-95.25017590775725,38.96496508193691],[-95.25015045256457,38.96495520018463],[-95.25015058290876,38.96495499509292],[-95.25013824877509,38.96495020729064],[-95.2501381184308,38.96495041238235],[-95.25013391871681,38.964948782509865],[-95.25013286905913,38.964948375498736],[-95.25013078138413,38.964951653309825],[-95.25010388306781,38.96494121191038],[-95.25010401341217,38.96494100681869],[-95.2500908923645,38.964935912859275],[-95.25009076202011,38.96493611795091],[-95.25007777171385,38.96493107575662],[-95.25007170418127,38.96494060199943],[-95.25007144147865,38.964940500239706],[-95.25006491660285,38.96495074382539],[-95.25006517927049,38.964950846485536],[-95.2500580027053,38.964962114628605],[-95.25005774000265,38.9649620128688],[-95.2500512162762,38.964972256481055],[-95.25005147897892,38.96497235824086],[-95.25004541140417,38.96498188538268],[-95.25011101794614,38.96500735251673],[-95.25010814708331,38.96501185994973],[-95.25014226327711,38.96502510318837],[-95.25014513298498,38.96502059572718],[-95.25016796469959,38.96502945816648],[-95.25015739593927,38.96504605321654],[-95.25016080639682,38.96504737778216],[-95.25015728388361,38.96505290887429],[-95.25017469110522,38.965059666289676],[-95.25017456076084,38.96505987138143],[-95.2501981737518,38.96506903712842],[-95.25019830521437,38.96506883296437],[-95.25021449335651,38.96507511716104],[-95.25021214502796,38.96507880425672],[-95.25025625616583,38.96509592812664],[-95.25026546321445,38.96509469007862],[-95.2502655133109,38.965094915671344],[-95.25027822139852,38.965093208193196],[-95.25027817245537,38.965092982627795],[-95.25029174743183,38.96509115781761],[-95.2502873759125,38.965071334472704],[-95.2502923867372,38.965070661119],[-95.2502924368337,38.96507088671175],[-95.25031178501976,38.965068286761124],[-95.25031173607651,38.965068061195765],[-95.25032964301096,38.96506565417431],[-95.25032969310757,38.965065879767025],[-95.25034240122349,38.96506417138141],[-95.2503423510918,38.96506394668912],[-95.25037051292415,38.965060161529905],[-95.25036927546084,38.965054552708935],[-95.25036754290643,38.96505478559798],[-95.25036525463821,38.96504440781664],[-95.25038386268292,38.96504196063501],[-95.250392991794,38.96508426606933],[-95.25042593793917,38.96507993284472],[-95.25043567539896,38.9651250582102]]]},"properties":{"SDE.FloorAll.FLOORLOCATION":"1"}},{"type":"Feature","geometry":{"type":"Polygon","coordinates":[[[-95.25043470263965,38.96512605713227],[-95.25056034354674,38.96510917146368],[-95.25055039945777,38.96506407365515],[-95.2506023887947,38.96505708629226],[-95.25057867164709,38.96494952793769],[-95.25052668238688,38.96495651528999],[-95.2505183288673,38.9649186334401],[-95.25039268832379,38.96493551816306],[-95.25040700768274,38.965000459244344],[-95.2503051886453,38.96501414341852],[-95.25030513854875,38.965013917825786],[-95.25029243047601,38.9650156253069],[-95.25029248057253,38.96501585089964],[-95.2502814040836,38.965017339319395],[-95.25029735546289,38.96499229404711],[-95.2502049801872,38.96495643558075],[-95.25020276217118,38.96495991848489],[-95.25020263139643,38.96495986761882],[-95.25019610653789,38.96497011121186],[-95.25019623846596,38.96497016210529],[-95.25019454179068,38.96497282554258],[-95.25013706966905,38.964950516386594],[-95.250135243836,38.96495338404162],[-95.25013078257246,38.96495165243673],[-95.25013091288173,38.964951448245436],[-95.25011779067688,38.964946354261684],[-95.25011766033255,38.96494655935341],[-95.25010311093105,38.96494091151623],[-95.25010330520668,38.96494060610231],[-95.25009018415915,38.96493551214279],[-95.25008998988343,38.96493581755669],[-95.25007777174889,38.96493107485621],[-95.25007150745873,38.96494091096018],[-95.25007124475611,38.96494080920041],[-95.25006524237646,38.96495023334725],[-95.25006471988033,38.96495105278608],[-95.25006498258294,38.96495115454584],[-95.25005807523544,38.96496200099194],[-95.25005781253269,38.96496189923219],[-95.25005128765298,38.964972142817096],[-95.25005155035568,38.964972244576906],[-95.2500454114392,38.9649818844823],[-95.25005761364409,38.964986621400854],[-95.25005741688634,38.96498693126194],[-95.25006948831819,38.96499161731304],[-95.25007053797616,38.96499202432474],[-95.25007073588715,38.964991714491],[-95.25017137634484,38.96503078185872],[-95.25016772230062,38.96503651891597],[-95.25016759152572,38.96503646804986],[-95.25016106780835,38.965046711668215],[-95.25016119858329,38.96504676253429],[-95.25015728388361,38.96505290887429],[-95.25015741465852,38.96505295974041],[-95.25017614105772,38.965060228791295],[-95.25017601071336,38.965060433883025],[-95.25019962597632,38.96506960058484],[-95.25019975632065,38.96506939549306],[-95.25021449339154,38.965075116260664],[-95.25021214502796,38.96507880425672],[-95.25023111023863,38.96508616638032],[-95.25023099219828,38.96508635193693],[-95.25024253825174,38.96509083445122],[-95.25024265629207,38.965090648894574],[-95.25025465841732,38.96509530714666],[-95.25026652502653,38.965093686961055],[-95.25026652847018,38.96509386548513],[-95.25027923771093,38.96509215803413],[-95.25027919358854,38.96509195691618],[-95.25029106134998,38.96509033675546],[-95.25028687921184,38.96507137226166],[-95.25036891286385,38.96506037142521],[-95.25036538573653,38.965044361358025],[-95.25038228538219,38.96504208995996],[-95.25039183085775,38.96508538399664],[-95.25042475747509,38.965080959285665],[-95.25043470263965,38.96512605713227]]]},"properties":{"SDE.FloorAll.FLOORLOCATION":"2"}},{"type":"Feature","geometry":{"type":"Polygon","coordinates":[[[-95.25017626988284,38.96505605737645],[-95.2502093353325,38.965068892656824],[-95.25022786378082,38.96503980072631],[-95.25025253209336,38.96504937631041],[-95.25024940058458,38.96505429303022],[-95.25026042238063,38.965058572051326],[-95.25026355392383,38.9650536544309],[-95.25028039713173,38.96506019207519],[-95.25033097767573,38.96505339492996],[-95.25032873933435,38.965043247242626],[-95.25033162767025,38.965042859713755],[-95.25032879386644,38.96503000685144],[-95.25032590553106,38.96503039438029],[-95.25032351917302,38.965019570869806],[-95.25029492450426,38.965023414246424],[-95.25024952494434,38.965005790299585],[-95.25026805335959,38.96497669836247],[-95.25023498797738,38.96496386219836],[-95.25021645836354,38.96499295500327],[-95.25009836636103,38.96494711387685],[-95.25009092911266,38.964958792205316],[-95.25008384319952,38.9649560412554],[-95.25007705763521,38.96496669502504],[-95.25008414358419,38.964969445074985],[-95.2500767051778,38.96498112337516],[-95.25013312764679,38.96500302554985],[-95.2501299961318,38.96500794226647],[-95.2501410179134,38.965012221298934],[-95.25014414946284,38.965007303681695],[-95.2501947983764,38.96502696455076],[-95.25017626988284,38.96505605737645]]]},"properties":{"SDE.FloorAll.FLOORLOCATION":"3"}},{"type":"Feature","geometry":{"type":"MultiPolygon","coordinates":[[[[-95.25024986164001,38.96500621555053],[-95.25022026713219,38.96501516586751],[-95.2502187007658,38.96501762511369],[-95.25021713436428,38.96502008526026],[-95.25023284386008,38.96505914373313],[-95.25027928748402,38.96507717095787],[-95.25028842748007,38.9650446921901],[-95.25028703111312,38.965012607045715],[-95.25029819486154,38.964995078907144],[-95.25026512824188,38.96498224452506],[-95.25024986164001,38.96500621555053]]],[[[-95.25054684883987,38.96496658968966],[-95.25054677936059,38.96496659525209],[-95.25054671201282,38.96496660537109],[-95.25054664564324,38.964966620019425],[-95.25054658144012,38.964966638324064],[-95.25054651933351,38.964966662085715],[-95.25054645939343,38.964966689503655],[-95.25054640392652,38.96496672063252],[-95.25054635177942,38.96496675544503],[-95.25054630295219,38.96496679394115],[-95.25054625978643,38.964966835275206],[-95.25054622109383,38.96496688032015],[-95.25054618694448,38.96496692727533],[-95.25054615849163,38.964966976167965],[-95.25054613573528,38.96496702699817],[-95.25054611871059,38.964967078865506],[-95.25054610741738,38.964967131769896],[-95.25054610185573,38.96496718571147],[-95.25054610324905,38.96496723891672],[-95.25054610922061,38.96496729313177],[-95.25054612218212,38.96496734571013],[-95.25054614094526,38.96496739752477],[-95.25054616554497,38.96496744767535],[-95.25054619482813,38.96496749613457],[-95.25054622994784,38.964967542929685],[-95.25054626982097,38.96496758623264],[-95.25054631556574,38.964967626971166],[-95.25054636487558,38.96496766509053],[-95.25054641782053,38.96496769878997],[-95.25054647436554,38.964967728969846],[-95.25054653451053,38.96496775563023],[-95.2505465971374,38.96496777784334],[-95.25054666224598,38.96496779560914],[-95.25054672868303,38.96496780890033],[-95.25054679760186,38.96496781774424],[-95.25054686554253,38.96496782205885],[-95.25054693484667,38.964967820998424],[-95.25054700313763,38.964967816309105],[-95.2505470704854,38.96496780619006],[-95.25054713685498,38.964967791541746],[-95.25054720224642,38.9649677723641],[-95.25054726431802,38.96496774950282],[-95.25054732310478,38.96496772205752],[-95.25054737857172,38.96496769092862],[-95.25054743190712,38.9649676552431],[-95.25054747958106,38.96496761671964],[-95.25054752274683,38.9649675753856],[-95.2505475625577,38.964967531268364],[-95.25054759555374,38.96496748428587],[-95.2505476240066,38.9649674353932],[-95.25054764676294,38.96496738456297],[-95.25054766378761,38.96496733269567],[-95.25054767511587,38.96496727889086],[-95.25054768064247,38.96496722584965],[-95.2505476804375,38.96496717177134],[-95.25054767327761,38.9649671184294],[-95.2505476603161,38.964967065851056],[-95.25054764155294,38.96496701403641],[-95.25054761814155,38.96496696301274],[-95.25054758770511,38.96496691452626],[-95.25054755255037,38.964966868631514],[-95.25054751271226,38.96496682442814],[-95.25054746812079,38.96496678371697],[-95.25054741877595,38.96496674649801],[-95.25054736586605,38.964966711898185],[-95.2505473081677,38.96496668169092],[-95.25054724798767,38.964966655930965],[-95.25054718536082,38.96496663371786],[-95.25054712025224,38.96496661595207],[-95.25054705381518,38.964966602660866],[-95.25054698604966,38.96496659384431],[-95.2505469169557,38.96496658950233],[-95.25054684883987,38.96496658968966]]],[[[-95.25053730547708,38.96496567216854],[-95.2505370044586,38.96496569477146],[-95.25053670724772,38.964965738192824],[-95.25053641615109,38.96496580248733],[-95.25053613242714,38.964965884981105],[-95.25053586061911,38.964965987584385],[-95.25053559967864,38.96496610756857],[-95.25053535421915,38.964966245043044],[-95.25053512427554,38.96496639910749],[-95.25053491337792,38.96496656804313],[-95.25053472156127,38.964966750949564],[-95.25053455008403,38.964966945152916],[-95.25053440237107,38.96496715163564],[-95.25053427740914,38.964967366768875],[-95.25053417757513,38.964967588806495],[-95.25053410171549,38.96496781772107],[-95.25053405224212,38.96496805086623],[-95.25053402922492,38.96496828644119],[-95.25053403273405,38.96496852264503],[-95.25053406283959,38.9649687576771],[-95.25053411845815,38.964968989709206],[-95.25053419965994,38.96496921694057],[-95.25053430651492,38.964969437570446],[-95.2505344379048,38.96496965067095],[-95.25053459159304,38.964969854386794],[-95.25053476768474,38.9649700460167],[-95.2505349650265,38.964970225533335],[-95.25053518141685,38.96497039018081],[-95.25053541454912,38.964970539904435],[-95.25053566449334,38.96497067290345],[-95.25053592778957,38.96497078909579],[-95.25053620335466,38.96497088665335],[-95.25053648891684,38.96497096462099],[-95.25053678213456,38.96497102384448],[-95.25053708080623,38.9649710615679],[-95.25053738255507,38.96497107953738],[-95.25053768392125,38.96497107767085],[-95.25053798497478,38.96497105416747],[-95.250538283339,38.964971010773475],[-95.25053857443562,38.964970946478964],[-95.25053885700629,38.96497086395782],[-95.2505391299677,38.96497076138191],[-95.2505393897548,38.964970641370364],[-95.25053963636766,38.96497050392318],[-95.25053986515793,38.96497034983139],[-95.25054007720887,38.96497018092309],[-95.25054026899048,38.96496999891706],[-95.25054043934944,38.96496980378596],[-95.2505405881807,38.964969598230965],[-95.25054071314253,38.964969383097724],[-95.25054081301163,38.96496916015974],[-95.25054088771792,38.96496893121777],[-95.25054093719126,38.964968698072596],[-95.25054096020843,38.9649684624977],[-95.25054095669927,38.96496822629381],[-95.25054092774707,38.96496799128908],[-95.25054087097513,38.96496775922967],[-95.25054078977331,38.964967531998305],[-95.25054068291831,38.96496731136844],[-95.25054055268173,38.964967098295254],[-95.25054039899348,38.96496689457943],[-95.25054022174848,38.96496670292219],[-95.25054002552503,38.96496652433332],[-95.25053980916971,38.964966358785446],[-95.25053957488409,38.96496620903448],[-95.25053932493988,38.964966076035495],[-95.25053906164364,38.96496595984313],[-95.25053878607858,38.9649658622856],[-95.25053850051641,38.964965784317926],[-95.25053820845207,38.964965725121836],[-95.25053790978046,38.96496568739843],[-95.25053760803156,38.96496566942894],[-95.25053730547708,38.96496567216854]]],[[[-95.25006204976575,38.96496295051014],[-95.25007149769658,38.964966617244485],[-95.25008092705403,38.96496414530038],[-95.25007775961235,38.964956782886674],[-95.25006831283581,38.96495311618016],[-95.25006204976575,38.96496295051014]]],[[[-95.25014224316199,38.96497696292684],[-95.25016778930119,38.96497026611721],[-95.25015072549952,38.96496364301558],[-95.25013359578953,38.964956993114065],[-95.25014224316199,38.96497696292684]]],[[[-95.25054152670633,38.96500188249904],[-95.25054145838031,38.96500188808874],[-95.25054139106754,38.965001897307374],[-95.25054132469786,38.965001911955724],[-95.25054126045974,38.96500193116072],[-95.25054119838809,38.96500195402199],[-95.250541138448,38.965001981439926],[-95.25054108294601,38.96500201346919],[-95.2505410307989,38.9650020482817],[-95.2505409819716,38.96500208677781],[-95.25054093880581,38.96500212811182],[-95.25054090014827,38.96500217225643],[-95.25054086599884,38.96500221921158],[-95.25054083754604,38.965002268104236],[-95.25054081478967,38.96500231893441],[-95.25054079772988,38.965002371702134],[-95.25054078643673,38.965002424606574],[-95.25054078091009,38.96500247764778],[-95.25054078226837,38.965002531753406],[-95.25054078827495,38.96500258506802],[-95.25054080120144,38.96500263854676],[-95.25054081996456,38.96500269036139],[-95.25054084456434,38.96500274051198],[-95.25054087384744,38.965002788971184],[-95.25054090900225,38.965002834865935],[-95.25054094884037,38.965002879069324],[-95.25054099343185,38.96500291978046],[-95.25054104277673,38.965002956999435],[-95.25054109683994,38.965002991626605],[-95.25054115338494,38.96500302180654],[-95.25054121353006,38.965003048466876],[-95.25054127619195,38.965003069779584],[-95.25054134126555,38.9650030884458],[-95.25054140770263,38.96500310173699],[-95.2505414754682,38.965003110553596],[-95.25054154459723,38.965003113995124],[-95.25054161386639,38.965003113835145],[-95.25054168219233,38.96500310824541],[-95.25054174954018,38.96500309812637],[-95.2505418158748,38.96500308437843],[-95.25054188011292,38.965003065173384],[-95.25054194221956,38.96500304141178],[-95.25054200215972,38.96500301399383],[-95.25054205762669,38.965002982864966],[-95.25054210977379,38.96500294805246],[-95.25054215860104,38.965002909556326],[-95.25054220176683,38.9650028682223],[-95.25054224045945,38.96500282317732],[-95.25054227460883,38.965002776222185],[-95.25054230306169,38.96500272732951],[-95.25054232581799,38.9650026764993],[-95.25054234284276,38.96500262463201],[-95.25054235413599,38.96500257172754],[-95.25054235969758,38.96500251778597],[-95.25054235830432,38.96500246458075],[-95.2505423522977,38.96500241126611],[-95.25054233937125,38.96500235778738],[-95.25054232060809,38.965002305972746],[-95.2505422960083,38.965002255822135],[-95.25054226672519,38.96500220736294],[-95.25054223157045,38.9650021614682],[-95.25054219173234,38.96500211726487],[-95.25054214714082,38.96500207655365],[-95.25054209779597,38.96500203933469],[-95.25054204373268,38.96500200470753],[-95.25054198718767,38.965001974527645],[-95.25054192704259,38.96500194786726],[-95.25054186441578,38.96500192565415],[-95.25054179930713,38.965001907888336],[-95.25054173287002,38.965001894597144],[-95.2505416651045,38.96500188578061],[-95.25054159601049,38.96500188143864],[-95.25054152670633,38.96500188249904]]],[[[-95.2505420081466,38.96500369095493],[-95.25054193985562,38.96500369564432],[-95.25054187250781,38.965003705763294],[-95.25054180613817,38.965003720411666],[-95.25054174190001,38.96500373961668],[-95.25054167982839,38.96500376247794],[-95.25054161988828,38.96500378989584],[-95.25054156442131,38.96500382102472],[-95.25054151223918,38.96500385673766],[-95.2505414634119,38.96500389523375],[-95.25054142024614,38.965003936567776],[-95.25054138158853,38.96500398071235],[-95.25054134743917,38.96500402766752],[-95.25054131898631,38.9650040765602],[-95.25054129622994,38.96500412739037],[-95.25054127920521,38.96500417925771],[-95.25054126787698,38.965004233062544],[-95.25054126235035,38.96500428610371],[-95.25054126370864,38.96500434020934],[-95.2505412697152,38.96500439352397],[-95.25054128267674,38.96500444610228],[-95.25054130143988,38.96500449791694],[-95.2505413260046,38.96500454896792],[-95.25054135528775,38.96500459742712],[-95.2505413904425,38.9650046433219],[-95.25054143031566,38.965004686624845],[-95.25054147602543,38.965004728263764],[-95.2505415253703,38.96500476548273],[-95.25054157831529,38.96500479918215],[-95.25054163482528,38.965004830262444],[-95.25054169500535,38.96500485602242],[-95.25054175763223,38.9650048782355],[-95.25054182274087,38.96500489600136],[-95.25054188917794,38.96500490929256],[-95.25054195694351,38.96500491810912],[-95.25054202603752,38.96500492245107],[-95.25054209530667,38.96500492229105],[-95.25054216363266,38.965004916701375],[-95.25054223098047,38.96500490658231],[-95.25054229735012,38.96500489193397],[-95.25054236155326,38.96500487362935],[-95.2505424248132,38.96500484989506],[-95.25054248360001,38.96500482244977],[-95.25054253906697,38.96500479132088],[-95.25054259121409,38.965004756508385],[-95.25054264004135,38.96500471801228],[-95.25054268320713,38.965004676678255],[-95.25054272305306,38.96500463166063],[-95.25054275604913,38.96500458467813],[-95.250542784502,38.96500453578543],[-95.25054280725834,38.96500448495525],[-95.25054282428307,38.96500443308796],[-95.25054283557628,38.965004380183494],[-95.25054284113791,38.96500432624192],[-95.25054284089791,38.965004273064054],[-95.25054283377307,38.96500421882168],[-95.25054282081156,38.96500416624334],[-95.2505428020484,38.96500411442868],[-95.25054277860195,38.96500406430544],[-95.2505427481655,38.9650040158189],[-95.25054271304577,38.96500396902375],[-95.25054267317263,38.965003925720765],[-95.25054262858112,38.96500388500963],[-95.25054257927127,38.96500384689025],[-95.25054252517297,38.96500381316348],[-95.25054246862796,38.96500378298356],[-95.25054240848293,38.96500375632323],[-95.25054234585605,38.9650037341101],[-95.25054228074741,38.96500371634429],[-95.25054221431034,38.9650037030531],[-95.25054214654477,38.9650036942365],[-95.25054207745077,38.965003689894594],[-95.2505420081466,38.96500369095493]]],[[[-95.25019890480971,38.96497008023774],[-95.25019435940453,38.96497721648715],[-95.25021314253557,38.96499860365122],[-95.25023180134298,38.9649693057277],[-95.25020582073509,38.96495922046878],[-95.25019890480971,38.96497008023774]]],[[[-95.25054261054117,38.96500595108839],[-95.2505425422152,38.96500595667809],[-95.25054247486734,38.96500596679712],[-95.25054240853272,38.96500598054508],[-95.25054234314125,38.96500599972271],[-95.2505422810346,38.96500602348437],[-95.25054222224779,38.965006050929674],[-95.25054216678083,38.96500608205859],[-95.25054211348042,38.96500611684373],[-95.25054206580646,38.965006155367185],[-95.25054202264066,38.96500619670119],[-95.25054198279474,38.965006241718825],[-95.25054194983369,38.96500628780095],[-95.2505419213458,38.96500633759401],[-95.25054189862455,38.96500638752378],[-95.25054188156474,38.9650064402915],[-95.25054187027149,38.96500649319596],[-95.25054186470993,38.96500654713752],[-95.25054186494988,38.96500660031539],[-95.2505418721098,38.96500665365738],[-95.25054188503626,38.965006707136105],[-95.25054190379942,38.96500675895076],[-95.25054192724585,38.965006809073984],[-95.2505419576823,38.96500685756055],[-95.25054199283706,38.965006903455304],[-95.25054203267518,38.96500694765867],[-95.25054207726667,38.96500698836984],[-95.25054212661155,38.965007025588804],[-95.25054217952152,38.96500706018864],[-95.25054223721983,38.965007090395844],[-95.25054229736493,38.96500711705625],[-95.25054235999177,38.965007139269346],[-95.2505424251004,38.96500715703514],[-95.25054249153752,38.96500717032635],[-95.25054255930306,38.9650071791429],[-95.25054262843209,38.96500718258448],[-95.25054269654794,38.96500718239712],[-95.25054276602725,38.96500717683476],[-95.25054283334002,38.96500716761613],[-95.25054289970967,38.96500715296778],[-95.25054296394785,38.965007133762775],[-95.25054302601947,38.96500711090151],[-95.25054308595958,38.965007083483535],[-95.25054314146156,38.96500705145427],[-95.25054319360868,38.96500701664178],[-95.250543242436,38.96500697814567],[-95.2505432856018,38.96500693681164],[-95.25054332425931,38.96500689266707],[-95.25054335840875,38.965006845711905],[-95.25054338686155,38.965006796819246],[-95.2505434096179,38.96500674598908],[-95.25054342667771,38.96500669322135],[-95.25054343797088,38.96500664031691],[-95.25054344349749,38.96500658727576],[-95.2505434421392,38.965006533170104],[-95.25054343613263,38.96500647985546],[-95.25054342320614,38.96500642637674],[-95.25054340444302,38.96500637456209],[-95.25054337984325,38.965006324411526],[-95.25054335056012,38.965006275952305],[-95.25054331540532,38.96500623005753],[-95.2505432755672,38.965006185854165],[-95.2505432298224,38.96500614511567],[-95.25054318047754,38.96500610789669],[-95.25054312756761,38.96500607329688],[-95.2505430710226,38.96500604311699],[-95.2505430108775,38.96500601645659],[-95.25054294825063,38.965005994243505],[-95.25054288314197,38.96500597647771],[-95.2505428167049,38.965005963186535],[-95.25054274778603,38.96500595434261],[-95.25054267981031,38.96500595092838],[-95.25054261054117,38.96500595108839]]],[[[-95.25054309198154,38.9650077595443],[-95.25054302365552,38.965007765134054],[-95.25054295634268,38.965007774352664],[-95.25054288997306,38.96500778900103],[-95.25054282573494,38.965007808206046],[-95.2505427636633,38.96500783106728],[-95.25054270372321,38.9650078584852],[-95.25054264822121,38.96500789051447],[-95.25054259607403,38.965007925326965],[-95.25054254724678,38.96500796382313],[-95.250542504081,38.96500800515716],[-95.25054246427008,38.96500804927439],[-95.25054243127403,38.96500809625689],[-95.25054240282117,38.96500814514953],[-95.25054238006486,38.96500819597974],[-95.25054236300505,38.96500824874748],[-95.25054235171189,38.965008301651906],[-95.25054234618527,38.96500835469306],[-95.2505423463902,38.96500840877136],[-95.25054235355012,38.96500846211334],[-95.25054236647662,38.96500851559208],[-95.25054238523973,38.96500856740673],[-95.25054240868621,38.96500861752995],[-95.25054243912261,38.96500866601651],[-95.25054247427742,38.96500871191126],[-95.25054251411557,38.96500875611458],[-95.25054255870705,38.96500879682578],[-95.25054260805193,38.96500883404476],[-95.25054266211517,38.96500886867191],[-95.25054271866018,38.96500889885181],[-95.25054277880527,38.965008925512194],[-95.2505428414321,38.965008947725295],[-95.25054290654079,38.9650089654911],[-95.25054297297787,38.96500897878231],[-95.25054304074342,38.965008987598864],[-95.25054310987248,38.965008991040456],[-95.25054317914163,38.96500899088041],[-95.2505432474676,38.965008985290716],[-95.25054331481545,38.96500897517168],[-95.25054338115005,38.96500896142372],[-95.25054344538817,38.96500894221872],[-95.25054350749485,38.96500891845708],[-95.25054356743496,38.96500889103913],[-95.25054362290197,38.96500885991024],[-95.25054367504907,38.96500882509775],[-95.25054372387635,38.96500878660163],[-95.25054376704212,38.9650087452676],[-95.2505438057347,38.965008700222626],[-95.25054383984912,38.96500865416786],[-95.250543868337,38.96500860437479],[-95.25054389105827,38.96500855444499],[-95.25054390811806,38.96500850167729],[-95.25054391941124,38.965008448772835],[-95.25054392497287,38.96500839483129],[-95.25054392357957,38.96500834162602],[-95.250543917573,38.96500828831141],[-95.2505439046465,38.96500823483267],[-95.25054388588337,38.96500818301802],[-95.2505438612836,38.96500813286742],[-95.25054383200049,38.96500808440825],[-95.25054379684569,38.96500803851351],[-95.2505437570076,38.96500799431012],[-95.25054371126276,38.965007953571636],[-95.25054366307117,38.96500791638001],[-95.25054360900795,38.96500788175281],[-95.25054355246293,38.96500785157292],[-95.25054349231785,38.965007824912554],[-95.25054342969104,38.96500780269945],[-95.25054336458237,38.96500778493367],[-95.25054329814527,38.965007771642455],[-95.25054323037973,38.965007762825856],[-95.2505431612507,38.96500775938432],[-95.25054309198154,38.9650077595443]]],[[[-95.25054373469426,38.96501017023688],[-95.25054366636824,38.96501017582661],[-95.25054359786708,38.96501018591825],[-95.25054353149744,38.965010200566624],[-95.25054346729435,38.96501021887123],[-95.25054340518768,38.965010242632886],[-95.25054334640087,38.96501027007817],[-95.25054328978061,38.9650103011797],[-95.25054323763345,38.96501033599219],[-95.25054318995949,38.96501037451563],[-95.25054314560536,38.965010416722755],[-95.25054310694782,38.96501046086733],[-95.25054307279838,38.965010507822505],[-95.25054304434552,38.965010556715136],[-95.25054302158922,38.96501060754536],[-95.25054300456445,38.965010659412705],[-95.25054299327128,38.9650107123171],[-95.25054298886295,38.96501076628601],[-95.25054298906792,38.96501082036429],[-95.25054299622781,38.965010873706284],[-95.25054300803602,38.965010926257264],[-95.25054302679914,38.96501097807196],[-95.25054305139892,38.96501102822252],[-95.25054308068205,38.96501107668175],[-95.2505431158018,38.96501112347687],[-95.25054315682826,38.96501116680717],[-95.25054320141977,38.96501120751831],[-95.25054325072962,38.96501124563771],[-95.25054330367455,38.96501127933715],[-95.2505433602196,38.96501130951701],[-95.25054342036469,38.96501133617742],[-95.25054348299153,38.96501135839047],[-95.25054354810021,38.96501137615632],[-95.25054361569059,38.96501138947487],[-95.25054368345616,38.96501139829144],[-95.25054375139688,38.96501140260606],[-95.25054382070108,38.96501140154562],[-95.250543888992,38.9650113968563],[-95.25054395749318,38.96501138676463],[-95.2505440238628,38.96501137211629],[-95.250544088101,38.96501135291128],[-95.25054415017256,38.96501133005001],[-95.25054420895937,38.965011302604736],[-95.25054426557969,38.965011271503165],[-95.25054431776184,38.96501123579028],[-95.2505443654358,38.96501119726684],[-95.25054440975488,38.965011155960184],[-95.25054444841248,38.96501111181558],[-95.25054448256186,38.965011064860406],[-95.25054451101472,38.965011015967725],[-95.25054453377102,38.965010965137544],[-95.25054455079581,38.96501091327024],[-95.25054456208902,38.9650108603658],[-95.2505445664973,38.96501080639688],[-95.25054456629238,38.96501075231857],[-95.25054455913245,38.96501069897662],[-95.25054454617091,38.9650106463983],[-95.25054452856111,38.96501059461098],[-95.25054450396132,38.965010544460384],[-95.25054447352491,38.96501049597385],[-95.25054443840513,38.96501044917867],[-95.25054439853201,38.96501040587572],[-95.25054435394053,38.96501036516455],[-95.25054430463062,38.96501032704521],[-95.25054425168565,38.9650102933458],[-95.25054419402238,38.96501026223813],[-95.25054413499555,38.9650102365055],[-95.25054407121542,38.96501021426506],[-95.25054400726009,38.965010196526606],[-95.25054393966965,38.96501018320805],[-95.25054387190409,38.9650101743915],[-95.25054380281011,38.96501017004953],[-95.25054373469426,38.96501017023688]]],[[[-95.25054421613464,38.96501197869282],[-95.25054414780863,38.96501198428253],[-95.25054407930752,38.96501199437423],[-95.25054401293788,38.9650120090226],[-95.25054394873473,38.96501202732717],[-95.25054388662808,38.96501205108884],[-95.25054382784126,38.965012078534095],[-95.25054377122099,38.965012109635666],[-95.25054371907387,38.96501214444815],[-95.2505436713999,38.96501218297163],[-95.25054362708083,38.96501222427828],[-95.25054358838818,38.965012269323296],[-95.25054355423883,38.96501231627847],[-95.25054352578596,38.96501236517111],[-95.25054350302959,38.96501241600129],[-95.25054348600483,38.965012467868576],[-95.25054347471165,38.96501252077306],[-95.25054347030331,38.96501257474197],[-95.25054347054333,38.96501262791986],[-95.25054347766816,38.965012682162254],[-95.2505434906297,38.965012734740554],[-95.25054350823952,38.96501278652788],[-95.25054353283929,38.96501283667848],[-95.25054356327577,38.965012885165024],[-95.25054359839551,38.965012931960146],[-95.25054363826865,38.9650129752631],[-95.25054368286015,38.96501301597428],[-95.25054373217,38.96501305409363],[-95.25054378511496,38.96501308779305],[-95.25054384281333,38.96501311800033],[-95.25054390180509,38.96501314463332],[-95.25054396558528,38.96501316687377],[-95.2505440295406,38.96501318461226],[-95.25054409713103,38.96501319793083],[-95.25054416489657,38.96501320674738],[-95.25054423399058,38.96501321108935],[-95.25054430214146,38.96501321000158],[-95.25054437043246,38.96501320531227],[-95.25054443893356,38.965013195220585],[-95.2505445053032,38.965013180572235],[-95.25054456954139,38.965013161367224],[-95.25054463161302,38.965013138505995],[-95.25054469039983,38.96501311106067],[-95.2505447470201,38.96501307995913],[-95.25054479920226,38.96501304424625],[-95.25054484687621,38.96501300572279],[-95.25054489119529,38.96501296441611],[-95.2505449298529,38.96501292027151],[-95.25054496400227,38.96501287331637],[-95.25054499245515,38.96501282442366],[-95.2505450152115,38.965012773593486],[-95.25054503223627,38.96501272172619],[-95.25054504356446,38.96501266792136],[-95.25054504793778,38.96501261485284],[-95.25054504773279,38.96501256077453],[-95.25054504057292,38.965012507432526],[-95.25054502876469,38.96501245488159],[-95.25054501000157,38.96501240306693],[-95.2505449854368,38.965012352015926],[-95.25054495615369,38.965012303556705],[-95.25054492099888,38.96501225766199],[-95.25054487997245,38.96501221433168],[-95.25054483541597,38.96501217272014],[-95.25054478607107,38.96501213550117],[-95.25054473312613,38.96501210180172],[-95.25054467661613,38.96501207072143],[-95.250544616436,38.96501204496144],[-95.25054455380912,38.965012022748375],[-95.25054448870047,38.96501200498254],[-95.25054442111005,38.965011991664014],[-95.25054435334452,38.9650119828474],[-95.2505442854038,38.96501197853279],[-95.25054421613464,38.96501197869282]]],[[[-95.25039547885007,38.96501054814404],[-95.25039691005846,38.965015924536964],[-95.25040379674185,38.96501480629468],[-95.25040236553296,38.9650094299019],[-95.25039547885007,38.96501054814404]]],[[[-95.25042745211553,38.965016028710366],[-95.25042738263618,38.96501603427268],[-95.25042731528835,38.96501604439164],[-95.25042724891868,38.96501605903993],[-95.25042718471548,38.96501607734449],[-95.2504271226088,38.965016101106066],[-95.25042706266863,38.96501612852396],[-95.2504270072016,38.96501615965275],[-95.25042695505442,38.965016194465214],[-95.25042690622706,38.965016232961304],[-95.25042686302616,38.96501627519565],[-95.25042682436853,38.9650163193402],[-95.25042679021907,38.96501636629533],[-95.25042676176614,38.965016415187954],[-95.25042673900968,38.96501646601811],[-95.25042672198484,38.965016517885424],[-95.25042671069158,38.96501657078983],[-95.25042670512984,38.96501662473141],[-95.25042670648804,38.96501667883703],[-95.25042671249452,38.96501673215169],[-95.25042672545597,38.965016784730004],[-95.25042674421898,38.965016836544706],[-95.2504267688187,38.965016886695324],[-95.25042679810171,38.96501693515453],[-95.25042683322144,38.96501698194973],[-95.25042687309453,38.96501702525271],[-95.25042691883927,38.965017065991304],[-95.25042696814906,38.96501710411071],[-95.25042702109396,38.96501713781022],[-95.25042707763893,38.96501716799015],[-95.25042713778399,38.965017194650585],[-95.25042720041084,38.9650172168637],[-95.25042726551946,38.96501723462962],[-95.25042733195652,38.96501724792087],[-95.2504274008754,38.96501725676485],[-95.2504274688161,38.96501726107953],[-95.25042753812029,38.96501726001921],[-95.25042760641126,38.96501725532994],[-95.25042767375912,38.965017245210994],[-95.25042774012879,38.96501723056273],[-95.25042780552032,38.96501721138513],[-95.25042786759198,38.965017188523916],[-95.25042792637885,38.96501716107869],[-95.25042798184586,38.96501712994985],[-95.25042803518137,38.96501709426437],[-95.2504280828554,38.96501705574095],[-95.25042812602126,38.96501701440697],[-95.25042816583225,38.965016970289774],[-95.25042819882839,38.9650169233073],[-95.25042822728135,38.96501687441465],[-95.25042825003773,38.965016823584484],[-95.25042826706257,38.96501677171718],[-95.2504282783559,38.96501671881276],[-95.25042828391757,38.96501666487119],[-95.25042828371272,38.965016610792894],[-95.2504282765529,38.965016557450916],[-95.25042826359152,38.9650165048726],[-95.25042824482841,38.965016453057935],[-95.25042822138205,38.96501640293466],[-95.25042819098071,38.96501635354765],[-95.25042815582603,38.96501630765291],[-95.25042811595294,38.96501626434987],[-95.2504280713615,38.96501622363866],[-95.25042802205172,38.96501618551928],[-95.25042796910681,38.965016151819775],[-95.25042791144351,38.96501612071211],[-95.25042785126342,38.96501609495204],[-95.25042778863663,38.96501607273887],[-95.25042772352798,38.96501605497303],[-95.2504276570909,38.96501604168175],[-95.25042758932537,38.965016032865115],[-95.25042752023137,38.9650160285231],[-95.25042745211553,38.965016028710366]]],[[[-95.25013005481773,38.9650026363496],[-95.25012535696813,38.96501001141066],[-95.25013795496771,38.96501490100123],[-95.25014265166303,38.96500752591234],[-95.25013948536633,38.9650001635277],[-95.25013005481773,38.9650026363496]]],[[[-95.25047657362329,38.965023500231574],[-95.25048158997264,38.96501799644043],[-95.25047454013911,38.96501408018659],[-95.25047657362329,38.965023500231574]]],[[[-95.25037339830784,38.965035103824505],[-95.2503733288285,38.965035109386754],[-95.25037326148059,38.96503511950567],[-95.25037319514593,38.965035133253544],[-95.25037313090773,38.96503515245844],[-95.250373068801,38.96503517622004],[-95.25037300886079,38.965035203637875],[-95.25037295339375,38.965035234766674],[-95.25037290124648,38.9650352695791],[-95.25037285241909,38.96503530807513],[-95.25037280925321,38.96503534940909],[-95.25037277056049,38.965035394454034],[-95.25037273641095,38.96503544140915],[-95.25037270795796,38.96503549030175],[-95.25037268520153,38.96503554113191],[-95.25037266817662,38.965035592999236],[-95.25037265688331,38.96503564590361],[-95.25037265132154,38.965035699845174],[-95.25037265271472,38.965035753050465],[-95.25037265987447,38.965035806392464],[-95.25037267164754,38.96503585984381],[-95.25037269041054,38.96503591165848],[-95.25037271501022,38.96503596180914],[-95.25037274429322,38.965036010268406],[-95.25037277944793,38.965036056163186],[-95.25037282043927,38.96503610039391],[-95.25037286503068,38.965036141105166],[-95.25037291437549,38.96503617832418],[-95.25037296728534,38.96503621292409],[-95.2503730238303,38.9650362431041],[-95.25037308397536,38.96503626976453],[-95.25037314660217,38.96503629197771],[-95.25037321171078,38.96503630974366],[-95.2503732781479,38.96503632303498],[-95.25037334706678,38.96503633187896],[-95.25037341500752,38.965036336193684],[-95.25037348431172,38.96503633513338],[-95.25037355263774,38.965036329543786],[-95.25037361995061,38.96503632032522],[-95.2503736863203,38.965036305676996],[-95.25037375171179,38.96503628649942],[-95.25037381378351,38.965036263638254],[-95.25037387257042,38.965036236193036],[-95.25037392922586,38.96503620419119],[-95.25037398137304,38.96503616937877],[-95.25037402904715,38.965036130855395],[-95.25037407336634,38.96503608954878],[-95.25037411202406,38.96503604540423],[-95.25037414502027,38.965035998421776],[-95.25037417347326,38.96503594952914],[-95.2503741962297,38.965035898698986],[-95.25037421440788,38.96503584685904],[-95.25037422458293,38.96503579302691],[-95.25037423010966,38.965035739985716],[-95.25037422990486,38.96503568590743],[-95.25037422274505,38.96503563256544],[-95.25037420981869,38.96503557908671],[-95.25037419102065,38.965035528172415],[-95.25037416760932,38.96503547714872],[-95.25037413717301,38.96503542866213],[-95.25037410201831,38.96503538276733],[-95.25037406218031,38.96503533856394],[-95.25037401758891,38.96503529785272],[-95.25037396824403,38.965035260633684],[-95.25037391533418,38.96503522603377],[-95.2503738576359,38.96503519582644],[-95.25037379745584,38.965035170066386],[-95.25037373482903,38.96503514785317],[-95.25037366975546,38.96503512918685],[-95.25037360331832,38.96503511589558],[-95.25037353555275,38.96503510707891],[-95.2503734664237,38.96503510363722],[-95.25037339830784,38.965035103824505]]],[[[-95.25032301957485,38.96503306476587],[-95.2503181067528,38.96503371160554],[-95.25031959139626,38.96504059250825],[-95.25032107715833,38.96504747433869],[-95.25032598994623,38.96504682839927],[-95.25032859138078,38.965046486338224],[-95.25032710561804,38.96503960450785],[-95.25032562100888,38.965032722704876],[-95.25032301957485,38.96503306476587]]]]},"properties":{"SDE.FloorAll.FLOORLOCATION":"ROOF"}}]}
