{"type":"FeatureCollection","features":[{"type":"Feature","geometry":{"type":"Polygon","coordinates":[[[-95.2463501245948,38.957840645947186],[-95.246343319468,38.95785254543259],[-95.24653941323444,38.957920902850475],[-95.24653973097892,38.95792101313594],[-95.24664988384198,38.957728381144975],[-95.2464976251219,38.9576753051881],[-95.24647480555487,38.957715210269754],[-95.24637874218826,38.957681722123134],[-95.2463808924806,38.95767796190748],[-95.24636403371738,38.957672084772796],[-95.24636188338924,38.957675845888566],[-95.24633405458015,38.957666144769085],[-95.24633620490943,38.95766238365382],[-95.24631907967311,38.95765641366609],[-95.24631692818986,38.957660174753634],[-95.24622059733939,38.957626593601944],[-95.24624341590317,38.95758668764222],[-95.24609169302421,38.95753379780049],[-95.24605728555656,38.95759396830972],[-95.24600965428688,38.9575773647085],[-95.2459861184627,38.957618523415626],[-95.24599093557877,38.95762020236351],[-95.24598233310883,38.95763524497052],[-95.24597751714509,38.9576335660497],[-95.24595398013027,38.95767472472278],[-95.24600161145247,38.95769132834674],[-95.24598154013177,38.95772642839139],[-95.24613326215344,38.95777931924941],[-95.24613899713577,38.95776929053736],[-95.24625138409321,38.957808468486654],[-95.24623549455748,38.95783625621089],[-95.24624009074488,38.957837858703854],[-95.24624439016529,38.957830339150675],[-95.24626441255491,38.95783731883651],[-95.2462601131362,38.957844838390386],[-95.2462967722629,38.95785761784811],[-95.24629737047572,38.957856573115386],[-95.24631931289922,38.95786422204045],[-95.2463346053494,38.957837479065084],[-95.24633674513137,38.95783822563048],[-95.24633781529994,38.957836354867624],[-95.2463501245948,38.957840645947186]]]},"properties":{"SDE.FloorAll.FLOORLOCATION":"-1"}},{"type":"Feature","geometry":{"type":"Polygon","coordinates":[[[-95.24638717447814,38.95787432777264],[-95.24653943235563,38.95792740474667],[-95.24664958522946,38.957734772756055],[-95.24649706005009,38.95768160305227],[-95.24647089489183,38.95772735874626],[-95.24647678249353,38.957729410969065],[-95.24640187382153,38.95786040866379],[-95.24639625384572,38.95785844931094],[-95.24638717447814,38.95787432777264]]]},"properties":{"SDE.FloorAll.FLOORLOCATION":"-2"}},{"type":"Feature","geometry":{"type":"Polygon","coordinates":[[[-95.24639600539625,38.95786337491775],[-95.24639027047779,38.957873402742045],[-95.2465403885688,38.95792573315038],[-95.24664958519439,38.957734773656476],[-95.24649946742805,38.95768244338865],[-95.24647700701574,38.95772172163589],[-95.24637880151991,38.95768748777216],[-95.24638096663294,38.95768370267416],[-95.24637775520146,38.95768258368653],[-95.24639418221066,38.957653856113595],[-95.24633885828572,38.9576345699552],[-95.24632243125853,38.95766329752037],[-95.24631915263214,38.9576621553058],[-95.2463169887047,38.95766593952964],[-95.24622065669314,38.95763235835066],[-95.24624311837266,38.95759308018016],[-95.24609353647394,38.95754093513452],[-95.2460600840362,38.95759943492496],[-95.24601245391536,38.95758283135227],[-95.24595773482872,38.95767851974902],[-95.24600536611928,38.9576951242718],[-95.24598433861085,38.957731895008386],[-95.24613392086805,38.95778403929364],[-95.24613965466241,38.95777401145454],[-95.24625204278091,38.95781318943057],[-95.24623615212627,38.957840976227104],[-95.24629609288695,38.95786187172061],[-95.24630911490574,38.957839098798665],[-95.24629265810309,38.95783336187869],[-95.24629552560289,38.95782834706859],[-95.24639600539625,38.95786337491775]]]},"properties":{"SDE.FloorAll.FLOORLOCATION":"1"}},{"type":"Feature","geometry":{"type":"Polygon","coordinates":[[[-95.24639600539625,38.95786337491775],[-95.24639027047779,38.957873402742045],[-95.2465403885688,38.95792573315038],[-95.24664958519439,38.957734773656476],[-95.24649946742805,38.95768244338865],[-95.24647700701574,38.95772172163589],[-95.24637880151991,38.95768748777216],[-95.24638096663294,38.95768370267416],[-95.2463726704731,38.95768081098053],[-95.24637050654796,38.95768459520537],[-95.24632555134119,38.95766892407381],[-95.24632771642142,38.957665139877165],[-95.24631915263214,38.9576621553058],[-95.2463169887047,38.95766593952964],[-95.24622065669314,38.95763235835066],[-95.24624311837266,38.95759308018016],[-95.24609353647394,38.95754093513452],[-95.2460600840362,38.95759943492496],[-95.24601245391536,38.95758283135227],[-95.24595773482872,38.95767851974902],[-95.24600536611928,38.9576951242718],[-95.24598433861085,38.957731895008386],[-95.24613392086805,38.95778403929364],[-95.24613965466241,38.95777401145454],[-95.24625204278091,38.95781318943057],[-95.24623615212627,38.957840976227104],[-95.24629743098916,38.957862337891385],[-95.24631045300761,38.95783956496927],[-95.24629265810309,38.95783336187869],[-95.24629552560289,38.95782834706859],[-95.24639600539625,38.95786337491775]]]},"properties":{"SDE.FloorAll.FLOORLOCATION":"2"}},{"type":"Feature","geometry":{"type":"Polygon","coordinates":[[[-95.24639600539625,38.95786337491775],[-95.24639027047779,38.957873402742045],[-95.2465403885688,38.95792573315038],[-95.24664958519439,38.957734773656476],[-95.24649946742805,38.95768244338865],[-95.24647700701574,38.95772172163589],[-95.24637880151991,38.95768748777216],[-95.24638096663294,38.95768370267416],[-95.2463726704731,38.95768081098053],[-95.24637050654796,38.95768459520537],[-95.24632555134119,38.95766892407381],[-95.24632771642142,38.957665139877165],[-95.24631915263214,38.9576621553058],[-95.2463169887047,38.95766593952964],[-95.24622065669314,38.95763235835066],[-95.24624311837266,38.95759308018016],[-95.24609353647394,38.95754093513452],[-95.2460600840362,38.95759943492496],[-95.24601245391536,38.95758283135227],[-95.24595773482872,38.95767851974902],[-95.24600536611928,38.9576951242718],[-95.24598433861085,38.957731895008386],[-95.24613392086805,38.95778403929364],[-95.24613965466241,38.95777401145454],[-95.24625204278091,38.95781318943057],[-95.24623615212627,38.957840976227104],[-95.24629743098916,38.957862337891385],[-95.24631045300761,38.95783956496927],[-95.24629265810309,38.95783336187869],[-95.24629552560289,38.95782834706859],[-95.24639600539625,38.95786337491775]]]},"properties":{"SDE.FloorAll.FLOORLOCATION":"3"}},{"type":"Feature","geometry":{"type":"Polygon","coordinates":[[[-95.24638203921684,38.9578665039389],[-95.2463764181778,38.95787633439504],[-95.24653668871257,38.957932203505955],[-95.24661058650734,38.957802972458836],[-95.24658042078268,38.957792457073076],[-95.24658604293994,38.957782626634355],[-95.24661620750801,38.95779314199133],[-95.24664958522946,38.957734772756055],[-95.2464893150881,38.957678902899815],[-95.24646649170485,38.95771881690161],[-95.24636865064609,38.9576847097445],[-95.24636652887584,38.957688419267505],[-95.2463224619361,38.95767305762289],[-95.24632458255498,38.957669348073296],[-95.24622831661368,38.95763578919823],[-95.24625114010466,38.95759587524303],[-95.24609139555031,38.95754018853721],[-95.24605860333524,38.95759753331637],[-95.24601191274448,38.95758125667364],[-95.24595241851641,38.95768529776204],[-95.24599910919729,38.957701573528226],[-95.24597849775037,38.957737619647304],[-95.24613824266187,38.95779330650775],[-95.2461438637274,38.9577834760631],[-95.24624747511076,38.95781959500646],[-95.24623482716041,38.957841713504024],[-95.2462386307538,38.95784303942193],[-95.2462383966275,38.957843449326425],[-95.24624718362102,38.95784651220373],[-95.2462474177122,38.95784610319963],[-95.24625082728011,38.95784729178482],[-95.24625059315393,38.95784770168931],[-95.24625938130171,38.9578507645931],[-95.2462596154279,38.95785035468859],[-95.24629489546612,38.95786265348382],[-95.24630754340143,38.957840534979724],[-95.24638203921684,38.9578665039389]]]},"properties":{"SDE.FloorAll.FLOORLOCATION":"4"}}]}
