{"type":"FeatureCollection","features":[{"type":"Feature","geometry":{"type":"Polygon","coordinates":[[[-95.2426175084744,38.957406359656844],[-95.24265208871765,38.95740636642559],[-95.24265209545531,38.95738394315915],[-95.24266967816878,38.95738394673883],[-95.24266972561621,38.95722641340365],[-95.2426700187719,38.957226414066746],[-95.24267002266568,38.95721474507326],[-95.24266972951004,38.95721474441015],[-95.24266973614445,38.95719140639573],[-95.24267002933512,38.95719140615843],[-95.24267003322889,38.95717973716493],[-95.24266974003828,38.95717973740221],[-95.24266975430022,38.957131231004894],[-95.24265231824478,38.957131227306604],[-95.24265231853808,38.957130983081086],[-95.24263737334273,38.957130980037654],[-95.2426373730494,38.95713122426315],[-95.24261217118837,38.95713121972377],[-95.2426121708846,38.957130990804934],[-95.24259722565415,38.95713098865668],[-95.24259722595784,38.95713121757555],[-95.24257202413189,38.95713121212707],[-95.2425720238283,38.95713098320818],[-95.24255707859786,38.95713098105479],[-95.24255707890138,38.95713120997364],[-95.24253964284601,38.957131206258396],[-95.24253963793423,38.957144705620244],[-95.24253934474375,38.95714470585719],[-95.24253934198158,38.957156374878174],[-95.24253963517216,38.95715637464124],[-95.24253962730646,38.95717971352867],[-95.24253933415096,38.957179712865276],[-95.2425393313888,38.957191381886204],[-95.24253962454435,38.95719138254962],[-95.24253961671378,38.95721472053664],[-95.24253932352302,38.95721472077358],[-95.24253932076088,38.9572263897945],[-95.24253961279851,38.95722638953013],[-95.24253959380384,38.957288625107935],[-95.2425393006479,38.9572886244445],[-95.2425392978506,38.957300294365744],[-95.24253959104172,38.95730029412876],[-95.24253958321115,38.95732363211556],[-95.24253929001995,38.957323632352484],[-95.24253928725777,38.95733530137332],[-95.24253958044903,38.957335301136396],[-95.24253957261848,38.957358639123086],[-95.2425392794271,38.95735863936005],[-95.24253927666493,38.95737030838084],[-95.24253956870315,38.95737030811643],[-95.24253956490944,38.95738380840581],[-95.24255700106227,38.95738381122067],[-95.2425570013658,38.95738404013952],[-95.24257194661463,38.95738404319333],[-95.242571946311,38.95738381427446],[-95.24259714826213,38.9573838188226],[-95.24259714856579,38.95738404774146],[-95.24261209381461,38.95738405079006],[-95.24261209466407,38.95738382189866],[-95.24261751503599,38.95738382283138],[-95.2426175084744,38.957406359656844]]]},"properties":{"SDE.FloorAll.FLOORLOCATION":"1"}},{"type":"Feature","geometry":{"type":"Polygon","coordinates":[[[-95.24253956494456,38.95738380750545],[-95.24266967801678,38.95738383227941],[-95.24266971627121,38.957255472342],[-95.24272246550412,38.95725548219211],[-95.24272245728716,38.95728019273692],[-95.24283615905694,38.95728021367587],[-95.24283619747784,38.95715391305188],[-95.24278989595985,38.95715390427446],[-95.24278989650446,38.95715344646417],[-95.24276879682063,38.957153443079484],[-95.24276879742912,38.95715390091725],[-95.24272249591115,38.957153892112935],[-95.24272247177265,38.95723443148333],[-95.24266972255546,38.95723442163322],[-95.24266975433534,38.957131230104515],[-95.2425396416928,38.95713120623099],[-95.24253956494456,38.95738380750545]]]},"properties":{"SDE.FloorAll.FLOORLOCATION":"2"}},{"type":"Feature","geometry":{"type":"Polygon","coordinates":[[[-95.24253964284601,38.957131206258396],[-95.24253956490944,38.95738380840581],[-95.24266967801678,38.95738383227941],[-95.24266975545339,38.95713123103232],[-95.24253964284601,38.957131206258396]]]},"properties":{"SDE.FloorAll.FLOORLOCATION":"3"}},{"type":"Feature","geometry":{"type":"Polygon","coordinates":[[[-95.24256746819067,38.957168849864125],[-95.24256741483737,38.95734617490977],[-95.24264228770733,38.957346188233366],[-95.24264234199089,38.95716886411554],[-95.24256746819067,38.957168849864125]]]},"properties":{"SDE.FloorAll.FLOORLOCATION":"4"}},{"type":"Feature","geometry":{"type":"Polygon","coordinates":[[[-95.24254908218374,38.95738495219987],[-95.24255122101343,38.957384952597856],[-95.2425512217498,38.95738372063819],[-95.24265748686325,38.95738373972391],[-95.2426574861287,38.957384971683645],[-95.24265962495839,38.95738497207964],[-95.2426596256929,38.957383740119965],[-95.24266967806972,38.95738374215798],[-95.24266969137592,38.95733881090589],[-95.24267126926206,38.957338810578804],[-95.24267126976893,38.95733714061741],[-95.24266969188284,38.95733714094446],[-95.2426697404871,38.957177832219166],[-95.24267131836963,38.95717783189213],[-95.24267131887652,38.95717616193067],[-95.24266974099407,38.95717616225776],[-95.24266974378124,38.95716742132416],[-95.24266975433534,38.957131230104515],[-95.24265970199443,38.95713122806649],[-95.24265970272891,38.957129996106744],[-95.24265756390696,38.95712999571076],[-95.24265756317243,38.95713122767046],[-95.2425512984385,38.9571312085848],[-95.24255129917486,38.95712997662507],[-95.24254916035292,38.95712997622705],[-95.2425491596165,38.9571312081868],[-95.24253910727559,38.95713120613828],[-95.24253909388642,38.95717613739114],[-95.24253751600392,38.95717613771644],[-95.2425375154939,38.957177807677844],[-95.24253909337642,38.9571778073526],[-95.24253904447777,38.95733711607784],[-95.2425374665917,38.95733711640308],[-95.24253746608161,38.95733878636451],[-95.24253904396772,38.957338786039216],[-95.24253903054336,38.95738371819168],[-95.24254908292016,38.95738372024015],[-95.24254908218374,38.95738495219987]]]},"properties":{"SDE.FloorAll.FLOORLOCATION":"ROOF"}}]}
