{"type":"FeatureCollection","features":[{"type":"Feature","geometry":{"type":"Polygon","coordinates":[[[-95.24327361500256,38.956233108883914],[-95.24327973641502,38.95623312645614],[-95.24328108094936,38.956233130486574],[-95.24328109451172,38.956230355931716],[-95.24331595560719,38.9562304566129],[-95.24331594729043,38.956232297621476],[-95.24332341323715,38.95623231922143],[-95.2433234221451,38.95623049264657],[-95.24335771081078,38.956230591420876],[-95.24335770186862,38.95623241889617],[-95.2433651678154,38.95623244049343],[-95.24336517675734,38.95623061301814],[-95.24339988549394,38.95623071365654],[-95.24339987655286,38.95623254113181],[-95.24340734249964,38.9562325627264],[-95.24340735144052,38.95623073525113],[-95.24344106575238,38.95623102942989],[-95.24344105754818,38.95623266045523],[-95.24344852349498,38.956232682047144],[-95.243448531699,38.95623105102181],[-95.2434845561058,38.956231155878264],[-95.24348454793774,38.95623278600324],[-95.24349204390221,38.95623280740477],[-95.24349205117552,38.95623128901066],[-95.24352493757867,38.95623138413754],[-95.2435249302709,38.95623290343208],[-95.2435323962178,38.95623292501861],[-95.24353240326667,38.95623129396578],[-95.24356694234702,38.95623139412563],[-95.24356693533406,38.956233024278006],[-95.24357412427374,38.95623304558481],[-95.24357413128654,38.956231415432434],[-95.2436087569603,38.95623151493477],[-95.24360874991318,38.95623314598757],[-95.24361895804498,38.95623317508201],[-95.2436192492846,38.956171895886335],[-95.2436577942596,38.95617200744051],[-95.24365818583411,38.95608971402392],[-95.24361869453209,38.95608959979813],[-95.2436188730799,38.95605184084119],[-95.24344760920613,38.95605134430058],[-95.24344767416468,38.956037603037984],[-95.24340070889369,38.956037466954065],[-95.24340068767603,38.95604194734918],[-95.24334719823423,38.95604179221254],[-95.24334714777821,38.95605229030509],[-95.24327434546062,38.956052079698736],[-95.24327417214111,38.95608857526388],[-95.24323193750791,38.95608845335749],[-95.24323159843586,38.956159651226876],[-95.2432750656816,38.956159777205436],[-95.2432747437811,38.95622745799355],[-95.24327364162374,38.95622745431866],[-95.24327361500256,38.956233108883914]]]},"properties":{"SDE.FloorAll.FLOORLOCATION":"-1"}},{"type":"Feature","geometry":{"type":"Polygon","coordinates":[[[-95.24327566299714,38.956235200659506],[-95.2432822686776,38.95623520180784],[-95.24328226851318,38.95623422938019],[-95.2433163795739,38.956234235623654],[-95.2433163797388,38.95623520805131],[-95.24332358328928,38.95623520989407],[-95.24332358427742,38.9562342374938],[-95.24335816052313,38.95623424306938],[-95.2433581606886,38.95623521549703],[-95.24336545198554,38.956235216719755],[-95.24336545181995,38.9562342442921],[-95.2434003685324,38.95623425074017],[-95.24340036754528,38.95623522314039],[-95.24340765884222,38.956235224360405],[-95.24340765982923,38.95623425196023],[-95.24344165200789,38.956234258044056],[-95.24344165217452,38.956235230471684],[-95.24344894347142,38.956235231689114],[-95.24344894330468,38.956234259261514],[-95.24348383461228,38.95623426598165],[-95.24348383362631,38.95623523838189],[-95.24349112492322,38.95623523959665],[-95.24349112475596,38.95623426716905],[-95.24352590067603,38.95623427293569],[-95.24352590084382,38.95623524536331],[-95.24353162530652,38.956235141732904],[-95.24353160287565,38.95623343788113],[-95.24353208532305,38.956233438536316],[-95.24353208685565,38.95623159376163],[-95.2435327343823,38.95623159383532],[-95.24353274119119,38.95621084865914],[-95.24360010801709,38.956210860482614],[-95.24360010896085,38.95620991872312],[-95.24360168797493,38.956209918410835],[-95.2436016985703,38.95617244115005],[-95.24365975089081,38.956172357669566],[-95.24365975583021,38.95615604017648],[-95.24366098162159,38.956156040478355],[-95.24366098213135,38.956154606638805],[-95.24365884449203,38.9561546062887],[-95.24365884999693,38.95613561036328],[-95.24366089642977,38.956135611248826],[-95.24366089689337,38.95613423779036],[-95.24365883774055,38.95613423750363],[-95.24365885080843,38.956089651425906],[-95.24361743931016,38.95608964385745],[-95.24361744943772,38.95605294794888],[-95.24361624674664,38.95605294729445],[-95.24361624588138,38.95605252549978],[-95.24361087642123,38.95605252401919],[-95.24361087674933,38.95605150924574],[-95.24327985611252,38.95605145008829],[-95.24327985582259,38.95605187185555],[-95.24327474718945,38.95605187115362],[-95.24327474709318,38.95605237673959],[-95.24327375794915,38.95605237575168],[-95.24327374632809,38.95608937173744],[-95.243232541423,38.95608936443749],[-95.24323252781465,38.95613354315423],[-95.24323092573886,38.956133542913086],[-95.2432309251605,38.956134741531024],[-95.24323471568474,38.95613474153577],[-95.24323470902948,38.9561536752519],[-95.24323470891699,38.95615444760061],[-95.24323101651659,38.956154447225316],[-95.24323101561077,38.95615571342745],[-95.24323262921878,38.95615571394272],[-95.24323262751331,38.956161351075934],[-95.24327430568188,38.95616135881278],[-95.24327428382328,38.95623377637318],[-95.24327566312843,38.95623377672423],[-95.24327566299714,38.956235200659506]]]},"properties":{"SDE.FloorAll.FLOORLOCATION":"1"}},{"type":"Feature","geometry":{"type":"Polygon","coordinates":[[[-95.24328061578966,38.95623520216181],[-95.24361088010338,38.9562352613405],[-95.24361088083276,38.956234532265455],[-95.24361668082635,38.95623453406759],[-95.24361668141172,38.95623401587615],[-95.24361879018892,38.95623401644208],[-95.24361880791791,38.9561723513276],[-95.24361880834772,38.95616946921488],[-95.24361666840164,38.95616946880913],[-95.2436166722199,38.95615717616761],[-95.24362758895515,38.956157177947574],[-95.24362758796946,38.95616004472626],[-95.24364268762497,38.95616004771415],[-95.24364268861007,38.956157180935435],[-95.2436597539414,38.956157183788235],[-95.24365975352386,38.95615604012165],[-95.24366098046843,38.95615604045094],[-95.24366098694608,38.95613423722752],[-95.24365883543425,38.956134237448815],[-95.24365884850212,38.95608965137106],[-95.24361743700382,38.95608964380259],[-95.24361744713137,38.95605294789405],[-95.24361624325203,38.95605294811262],[-95.24361624357508,38.95605252544495],[-95.24361087411489,38.95605252396435],[-95.24361087444302,38.95605150919091],[-95.24327985495933,38.95605145006087],[-95.24327985466944,38.95605187182811],[-95.24327516502305,38.95605187117484],[-95.2432747448831,38.956051871098786],[-95.24327474478689,38.95605237668477],[-95.24327375560773,38.95605237659723],[-95.24327374513982,38.956089372610414],[-95.24323253911669,38.95608936438266],[-95.2432325266615,38.95613354312679],[-95.24323102040422,38.95613354246032],[-95.24323101330445,38.95615571337262],[-95.24323262691247,38.95615571388788],[-95.24323262517183,38.95616135192151],[-95.24327430337556,38.95616135875791],[-95.24327428267013,38.95623377634576],[-95.24327525682547,38.956233776977214],[-95.24327566082205,38.95623377666939],[-95.24327566087197,38.956234248913454],[-95.24328061597078,38.95623425047059],[-95.24328061578966,38.95623520216181]]]},"properties":{"SDE.FloorAll.FLOORLOCATION":"2"}},{"type":"Feature","geometry":{"type":"Polygon","coordinates":[[[-95.24328061578966,38.95623520216181],[-95.24328226633611,38.956235202653396],[-95.24328226736,38.956234229352816],[-95.24329172628093,38.95623423165009],[-95.2432917264455,38.95623520407773],[-95.24329415958026,38.95623520425055],[-95.24329416056887,38.95623423185036],[-95.24330429703406,38.95623423403414],[-95.24330429604561,38.95623520643434],[-95.24330673033352,38.95623520663438],[-95.24330673016875,38.95623423420672],[-95.24331637726752,38.956234235568814],[-95.24331637743244,38.95623520799647],[-95.24331770016192,38.95623520880435],[-95.24331769999698,38.95623423637668],[-95.24332226270116,38.95623423671343],[-95.24332226286616,38.956235209141084],[-95.24332358213606,38.956235209866634],[-95.24332358197111,38.956234237439006],[-95.24333382002084,38.95623423933184],[-95.24333381903277,38.95623521173202],[-95.24333625332073,38.956235211931435],[-95.24333625315555,38.95623423950381],[-95.24334651199749,38.95623424098863],[-95.24334651100963,38.95623521338884],[-95.24334894526243,38.95623521448835],[-95.24334894509707,38.95623424206073],[-95.24335815936998,38.95623424304195],[-95.24335815838225,38.956235215442206],[-95.24335948111172,38.9562352162496],[-95.24335948209938,38.95623424384934],[-95.24336413136173,38.956234244440026],[-95.2433641315273,38.95623521686762],[-95.24336544964406,38.95623521756529],[-95.24336544951359,38.95623424423726],[-95.24337603498422,38.95623424627554],[-95.2433760339968,38.95623521867578],[-95.24337846824959,38.956235219774676],[-95.24337846808385,38.95623424734702],[-95.24338884811428,38.956234249005796],[-95.24338884828015,38.95623522143342],[-95.24339128141489,38.956235221604224],[-95.24339128240216,38.95623424920405],[-95.24340036622606,38.95623425068533],[-95.24340036639211,38.95623522311298],[-95.2434016891216,38.95623522391985],[-95.24340168895553,38.95623425149223],[-95.24340633821782,38.95623425208118],[-95.24340633838396,38.956235224508845],[-95.2434076565359,38.95623522430557],[-95.2434076575229,38.956234251905386],[-95.24341809294071,38.95623425397714],[-95.2434180919538,38.9562352263774],[-95.24342052620659,38.956235227475396],[-95.24342052607535,38.95623425414736],[-95.24343078488224,38.95623425652515],[-95.24343078389555,38.95623522892535],[-95.24343321818347,38.95623522912271],[-95.24343321801696,38.95623425669506],[-95.24344165085469,38.956234258016615],[-95.24344164986816,38.95623523041688],[-95.24344297259765,38.95623523122326],[-95.24344297337348,38.95623426422542],[-95.24344762263584,38.9562342648127],[-95.24344762186003,38.95623523181059],[-95.24344894112998,38.95623523253472],[-95.24344894099836,38.95623425920667],[-95.24346029057142,38.95623426137936],[-95.24346029073833,38.956235233806964],[-95.24346272383795,38.956235234876694],[-95.2434627248242,38.956234262476485],[-95.24347286132455,38.95623426374514],[-95.2434728614916,38.956235236172795],[-95.24347529459125,38.95623523724224],[-95.24347529561243,38.95623426394164],[-95.2434838323059,38.956234265926796],[-95.24348383247312,38.95623523835446],[-95.24348515408455,38.95623523823259],[-95.24348515507049,38.9562342658324],[-95.24348980429774,38.95623426731837],[-95.24348980446503,38.95623523974602],[-95.2434911226169,38.95623523954182],[-95.24349112360274,38.95623426714163],[-95.24350236236592,38.95623426937941],[-95.2435023625334,38.95623524180701],[-95.24350479566814,38.95623524197546],[-95.24350479665384,38.95623426957527],[-95.24351493311909,38.95623427174064],[-95.24351493328668,38.95623524416828],[-95.24351736642143,38.956235244336426],[-95.24351736740697,38.95623427193622],[-95.24352607840504,38.95623427355619],[-95.24352607741966,38.9562352459564],[-95.24352740018428,38.9562352458615],[-95.24352740116962,38.956234273461256],[-95.24353204693735,38.95623427486334],[-95.24353204595202,38.95623524726352],[-95.24353336871663,38.956235247168564],[-95.24353336970188,38.95623427476831],[-95.24354442151069,38.9562342761622],[-95.2435444216436,38.95623524949024],[-95.24354685593153,38.95623524968521],[-95.24354685576346,38.95623427725755],[-95.24355699226382,38.95623427851891],[-95.24355699243203,38.95623525094651],[-95.24355942668483,38.956235252041616],[-95.24355942651655,38.956234279613994],[-95.24356759733838,38.956234281005756],[-95.24356759750675,38.95623525343338],[-95.24356892027134,38.956235253338],[-95.24356892010297,38.956234280910365],[-95.2435735659058,38.95623428141039],[-95.24357356603915,38.95623525473837],[-95.24357488880369,38.95623525464293],[-95.24357488863524,38.95623428221527],[-95.24358636865725,38.956234283872035],[-95.24358636767272,38.95623525627227],[-95.24358880192553,38.95623525736677],[-95.24358880175684,38.956234284939114],[-95.24359888398789,38.95623428670903],[-95.24359888415668,38.95623525913666],[-95.24360131729144,38.956235259303035],[-95.24360131827576,38.95623428690285],[-95.24360955835816,38.956234288135796],[-95.2436095585271,38.95623526056345],[-95.24361088010338,38.9562352613405],[-95.24361088083276,38.956234532265455],[-95.24361668082635,38.95623453406759],[-95.24361668141172,38.95623401587615],[-95.24361879018892,38.95623401644208],[-95.24361880791791,38.9561723513276],[-95.24365974854933,38.956172358515104],[-95.24365975352386,38.95615604012165],[-95.24366098046843,38.95615604045094],[-95.24366098097813,38.9561546066114],[-95.24365963511656,38.95615460705993],[-95.24365963791834,38.95614606980607],[-95.24366094334859,38.9561460701988],[-95.24366094405505,38.95614395053043],[-95.24365963862482,38.95614395013768],[-95.2436596406563,38.95613561023411],[-95.2436608941234,38.956135611193986],[-95.24366089458707,38.956134237735526],[-95.24365883543425,38.956134237448815],[-95.24365884850212,38.95608965137106],[-95.24361743700382,38.95608964380259],[-95.24361744713137,38.95605294789405],[-95.24361624325203,38.95605294811262],[-95.24361624357508,38.95605252544495],[-95.24361087411489,38.95605252396435],[-95.24361087444302,38.95605150919091],[-95.24327985495933,38.95605145006087],[-95.24327985466944,38.95605187182811],[-95.2432747448831,38.956051871098786],[-95.24327474478689,38.95605237668477],[-95.24327375560773,38.95605237659723],[-95.24327374513982,38.956089372610414],[-95.24323253911669,38.95608936438266],[-95.2432325266615,38.95613354312679],[-95.24323092343255,38.956133542858254],[-95.24323092285418,38.95613474147618],[-95.24323134760726,38.95613474166209],[-95.24323134490302,38.95614377819917],[-95.2432309501674,38.956143777825794],[-95.24323094922397,38.95614560729382],[-95.24323134514788,38.95614560679419],[-95.24323134202682,38.95615444685393],[-95.24323101421022,38.95615444717048],[-95.24323101330445,38.95615571337262],[-95.24323262691247,38.95615571388788],[-95.24323262517183,38.95616135192151],[-95.24327430337556,38.95616135875791],[-95.24327428267013,38.95623377634576],[-95.24327566082205,38.95623377666939],[-95.24327566087197,38.956234248913454],[-95.24328061597078,38.95623425047059],[-95.24328061578966,38.95623520216181]]]},"properties":{"SDE.FloorAll.FLOORLOCATION":"3"}},{"type":"Feature","geometry":{"type":"Polygon","coordinates":[[[-95.24328115385666,38.956234901328244],[-95.24328280324997,38.95623490179246],[-95.24328280301529,38.956233931165606],[-95.2432922469801,38.956233932206],[-95.24329224602657,38.95623490370582],[-95.243294676855,38.95623490382383],[-95.24329467662017,38.95623393319696],[-95.24330479694089,38.95623393499688],[-95.24330479602271,38.9562349055963],[-95.24330722681597,38.95623490661443],[-95.24330722661605,38.95623393508722],[-95.24331685753529,38.956233936965795],[-95.24331685777044,38.95623490759264],[-95.24331817819356,38.956234908345664],[-95.24331817795839,38.956233937718814],[-95.2433227337435,38.95623393789106],[-95.2433227339436,38.956234909418264],[-95.24332404978915,38.956234909161196],[-95.24332405070707,38.956233938561745],[-95.24333427145919,38.95623394004327],[-95.2433342716946,38.956234910670084],[-95.24333670133467,38.95623491166024],[-95.24333670109927,38.95623394103339],[-95.24334694264358,38.95623394210689],[-95.24334694284403,38.95623491363411],[-95.24334937251925,38.95623491372356],[-95.24334937228366,38.956233943096734],[-95.24335857037694,38.95623394459448],[-95.24335857061266,38.95623491522135],[-95.24335989103578,38.956234915973894],[-95.24335989083515,38.95623394444664],[-95.24336453314332,38.956233945773185],[-95.24336453337914,38.95623491640002],[-95.24336584918957,38.95623491704279],[-95.24336585014201,38.95623394554302],[-95.24337641712677,38.95623394804296],[-95.24337641736274,38.956234918669814],[-95.24337884703795,38.956234918758625],[-95.24337884680195,38.95623394813178],[-95.24338920949958,38.95623395027962],[-95.24338920973572,38.95623492090647],[-95.24339163941094,38.956234920995044],[-95.24339164032799,38.956233950395614],[-95.24340070912547,38.956233952420845],[-95.24340070936178,38.956234923047695],[-95.24340202982,38.95623492289937],[-95.24340202958369,38.95623395227253],[-95.24340667189186,38.956233953597334],[-95.24340667097509,38.95623492419678],[-95.24340798797381,38.95623492396615],[-95.24340798889055,38.95623395336672],[-95.24341840701072,38.95623395502719],[-95.24341840605899,38.95623492652703],[-95.2434208357342,38.95623492661496],[-95.24342083665078,38.95623395601553],[-95.24343107819512,38.95623395708166],[-95.24343107724356,38.956234928581466],[-95.24343350691878,38.95623492866916],[-95.24343350783519,38.95623395806974],[-95.24344192568168,38.95623395903479],[-95.24344192588345,38.956234930562076],[-95.24344324634166,38.956234930413245],[-95.2434432458941,38.956233965188765],[-95.24344788823734,38.95623396561155],[-95.24344788864985,38.95623493173646],[-95.24344920449542,38.956234931477894],[-95.24344920541166,38.95623396087851],[-95.2434605353807,38.95623396258506],[-95.24346053558271,38.95623493411231],[-95.24346296525793,38.95623493419936],[-95.24346296502077,38.95623396357255],[-95.24347308534156,38.956233965357725],[-95.24347308557886,38.95623493598457],[-95.24347551525408,38.956234936071375],[-95.24347551501675,38.95623396544453],[-95.24348403902532,38.95623396712813],[-95.24348403810961,38.95623493772757],[-95.24348535853271,38.9562349384787],[-95.24348535948353,38.95623396697888],[-95.24349000179171,38.95623396830033],[-95.24349000087602,38.95623493889977],[-95.24349131783967,38.95623493956859],[-95.24349131763724,38.95623396804136],[-95.24350253910276,38.95623396986785],[-95.2435025381522,38.95623494136768],[-95.24350496898056,38.95623494148128],[-95.24350496874284,38.95623397085444],[-95.24351508906364,38.95623397263595],[-95.24351508930148,38.95623494326279],[-95.2435175189416,38.95623494424911],[-95.24351751873881,38.956233972721904],[-95.24352621586368,38.956233974913246],[-95.24352621494856,38.956234945512655],[-95.24352753540678,38.956234945362944],[-95.2435275363219,38.9562339747635],[-95.2435321740174,38.9562339759736],[-95.24353217425545,38.95623494660047],[-95.2435334947137,38.956234946450664],[-95.24353349447563,38.956233975823814],[-95.24354453010483,38.956233977734236],[-95.24354452918993,38.95623494833367],[-95.24354695883004,38.95623494931935],[-95.24354695978,38.956233977819544],[-95.2435570801008,38.956233979597435],[-95.24355707915092,38.956234951097244],[-95.24355950882615,38.9562349511823],[-95.24355950974088,38.95623398058285],[-95.24356766787777,38.95623398167306],[-95.24356766692804,38.95623495317289],[-95.24356898738627,38.95623495302262],[-95.24356898830086,38.9562339824232],[-95.24357362603143,38.956233982731305],[-95.24357362623499,38.95623495425855],[-95.24357494669323,38.95623495410823],[-95.24357494645454,38.95623398348142],[-95.24358640683748,38.95623398557248],[-95.24358640707632,38.95623495619933],[-95.24358883675154,38.95623495628374],[-95.24358883651267,38.95623398565688],[-95.2435989025992,38.95623398704298],[-95.24359890164995,38.95623495854279],[-95.24360133247832,38.95623495865437],[-95.24360133223932,38.95623398802751],[-95.24360955963674,38.95623398895895],[-95.24360955868764,38.95623496045877],[-95.24361087914588,38.956234960308024],[-95.24361087980503,38.95623423303375],[-95.24361667057318,38.95623423461656],[-95.24361666993516,38.95623371819849],[-95.24361877528794,38.9562337177818],[-95.24361879369717,38.95617215362091],[-95.24365966856253,38.95617216014613],[-95.24365967248374,38.95615586876443],[-95.24366089712196,38.95615586903892],[-95.24366089752637,38.95615443790054],[-95.24365955397111,38.95615443840388],[-95.24365955621113,38.95614591555629],[-95.24366086048822,38.956145915921624],[-95.24366086108932,38.95614379895442],[-95.24365955793036,38.95614379951688],[-95.24365955943513,38.95613547311922],[-95.24366081178425,38.956135473151306],[-95.24366081214252,38.956134102394],[-95.24365875644924,38.95613410218954],[-95.24365876897946,38.95608958909836],[-95.2436174255885,38.956089581346596],[-95.24361743591972,38.956053294599826],[-95.24361743566989,38.956052945819145],[-95.24361623297882,38.95605294516469],[-95.24361623326675,38.95605252339745],[-95.24361087303197,38.95605252213616],[-95.24361087328982,38.9560515091635],[-95.24328039398104,38.95605145025983],[-95.24328039372628,38.95605187112671],[-95.2432752931653,38.95605187061673],[-95.24327529313929,38.956052374401885],[-95.24327430511327,38.95605237434179],[-95.24327429469213,38.956089309973905],[-95.2432331567412,38.95608930246369],[-95.2432331436362,38.956133409094186],[-95.24323154386678,38.95613340890796],[-95.24323154339378,38.956134604824705],[-95.24323196699372,38.95613460498315],[-95.24323196485136,38.95614362711397],[-95.2432315701158,38.956143626740605],[-95.24323156927768,38.9561454535074],[-95.24323196404842,38.95614545298041],[-95.24323196148931,38.95615427863387],[-95.2432316336727,38.95615427895041],[-95.24323163399035,38.95615554337917],[-95.24323324413884,38.956155543812216],[-95.24323324278457,38.95616117194149],[-95.24327485288086,38.956161178960784],[-95.24327483101031,38.95623347846019],[-95.24327620800909,38.95623347875642],[-95.2432762080941,38.95623395010004],[-95.24328115396754,38.956233951437895],[-95.24328115385666,38.956234901328244]]]},"properties":{"SDE.FloorAll.FLOORLOCATION":"4"}},{"type":"Feature","geometry":{"type":"Polygon","coordinates":[[[-95.24328061578966,38.95623520216181],[-95.24328226633611,38.956235202653396],[-95.24328226736,38.956234229352816],[-95.24329172628093,38.95623423165009],[-95.2432917264455,38.95623520407773],[-95.24329415958026,38.95623520425055],[-95.24329416056887,38.95623423185036],[-95.24330429703406,38.95623423403414],[-95.24330429604561,38.95623520643434],[-95.24330673033352,38.95623520663438],[-95.24330673016875,38.95623423420672],[-95.24331637726752,38.956234235568814],[-95.24331637743244,38.95623520799647],[-95.24331770016192,38.95623520880435],[-95.24331769999698,38.95623423637668],[-95.24332226270116,38.95623423671343],[-95.24332226286616,38.956235209141084],[-95.24332358213606,38.956235209866634],[-95.24332358197111,38.956234237439006],[-95.24333382002084,38.95623423933184],[-95.24333381903277,38.95623521173202],[-95.24333625332073,38.956235211931435],[-95.24333625315555,38.95623423950381],[-95.24334651199749,38.95623424098863],[-95.24334651100963,38.95623521338884],[-95.24334894526243,38.95623521448835],[-95.24334894509707,38.95623424206073],[-95.24335815936998,38.95623424304195],[-95.24335815838225,38.956235215442206],[-95.24335948111172,38.9562352162496],[-95.24335948209938,38.95623424384934],[-95.24336413136173,38.956234244440026],[-95.2433641315273,38.95623521686762],[-95.24336544964406,38.95623521756529],[-95.24336544951359,38.95623424423726],[-95.24337603498422,38.95623424627554],[-95.2433760339968,38.95623521867578],[-95.24337846824959,38.956235219774676],[-95.24337846808385,38.95623424734702],[-95.24338884811428,38.956234249005796],[-95.24338884828015,38.95623522143342],[-95.24339128141489,38.956235221604224],[-95.24339128240216,38.95623424920405],[-95.24340036622606,38.95623425068533],[-95.24340036639211,38.95623522311298],[-95.2434016891216,38.95623522391985],[-95.24340168895553,38.95623425149223],[-95.24340633821782,38.95623425208118],[-95.24340633838396,38.956235224508845],[-95.2434076565359,38.95623522430557],[-95.2434076575229,38.956234251905386],[-95.24341809294071,38.95623425397714],[-95.2434180919538,38.9562352263774],[-95.24342052620659,38.956235227475396],[-95.24342052607535,38.95623425414736],[-95.24343078488224,38.95623425652515],[-95.24343078389555,38.95623522892535],[-95.24343321818347,38.95623522912271],[-95.24343321801696,38.95623425669506],[-95.24344165085469,38.956234258016615],[-95.24344164986816,38.95623523041688],[-95.24344297259765,38.95623523122326],[-95.24344297337348,38.95623426422542],[-95.24344762263584,38.9562342648127],[-95.24344762186003,38.95623523181059],[-95.24344894112998,38.95623523253472],[-95.24344894099836,38.95623425920667],[-95.24346029057142,38.95623426137936],[-95.24346029073833,38.956235233806964],[-95.24346272383795,38.956235234876694],[-95.2434627248242,38.956234262476485],[-95.24347286132455,38.95623426374514],[-95.2434728614916,38.956235236172795],[-95.24347529459125,38.95623523724224],[-95.24347529561243,38.95623426394164],[-95.2434838323059,38.956234265926796],[-95.24348383247312,38.95623523835446],[-95.24348515408455,38.95623523823259],[-95.24348515507049,38.9562342658324],[-95.24348980429774,38.95623426731837],[-95.24348980446503,38.95623523974602],[-95.2434911226169,38.95623523954182],[-95.24349112360274,38.95623426714163],[-95.24350236236592,38.95623426937941],[-95.2435023625334,38.95623524180701],[-95.24350479566814,38.95623524197546],[-95.24350479665384,38.95623426957527],[-95.24351493311909,38.95623427174064],[-95.24351493328668,38.95623524416828],[-95.24351736642143,38.956235244336426],[-95.24351736740697,38.95623427193622],[-95.24352607840504,38.95623427355619],[-95.24352607741966,38.9562352459564],[-95.24352740018428,38.9562352458615],[-95.24352740116962,38.956234273461256],[-95.24353204693735,38.95623427486334],[-95.24353204595202,38.95623524726352],[-95.24353336871663,38.956235247168564],[-95.24353336970188,38.95623427476831],[-95.24354442151069,38.9562342761622],[-95.2435444216436,38.95623524949024],[-95.24354685593153,38.95623524968521],[-95.24354685576346,38.95623427725755],[-95.24355699226382,38.95623427851891],[-95.24355699243203,38.95623525094651],[-95.24355942668483,38.956235252041616],[-95.24355942651655,38.956234279613994],[-95.24356759733838,38.956234281005756],[-95.24356759750675,38.95623525343338],[-95.24356892027134,38.956235253338],[-95.24356892010297,38.956234280910365],[-95.2435735659058,38.95623428141039],[-95.24357356603915,38.95623525473837],[-95.24357488880369,38.95623525464293],[-95.24357488863524,38.95623428221527],[-95.24358636865725,38.956234283872035],[-95.24358636767272,38.95623525627227],[-95.24358880192553,38.95623525736677],[-95.24358880175684,38.956234284939114],[-95.24359888398789,38.95623428670903],[-95.24359888415668,38.95623525913666],[-95.24360131729144,38.956235259303035],[-95.24360131827576,38.95623428690285],[-95.24360955835816,38.956234288135796],[-95.2436095585271,38.95623526056345],[-95.24361088010338,38.9562352613405],[-95.24361088083276,38.956234532265455],[-95.24361668082635,38.95623453406759],[-95.24361668141172,38.95623401587615],[-95.24361879018892,38.95623401644208],[-95.24361880791791,38.9561723513276],[-95.24365974854933,38.956172358515104],[-95.24365975352386,38.95615604012165],[-95.24366098046843,38.95615604045094],[-95.24366098097813,38.9561546066114],[-95.24365963511656,38.95615460705993],[-95.24365963791834,38.95614606980607],[-95.24366094334859,38.9561460701988],[-95.24366094405505,38.95614395053043],[-95.24365963862482,38.95614395013768],[-95.2436596406563,38.95613561023411],[-95.2436608941234,38.956135611193986],[-95.24366089458707,38.956134237735526],[-95.24365883543425,38.956134237448815],[-95.24365884850212,38.95608965137106],[-95.24361743700382,38.95608964380259],[-95.24361744713137,38.95605294789405],[-95.24361624325203,38.95605294811262],[-95.24361624357508,38.95605252544495],[-95.24361087411489,38.95605252396435],[-95.24361087444302,38.95605150919091],[-95.24327985495933,38.95605145006087],[-95.24327985466944,38.95605187182811],[-95.2432747448831,38.956051871098786],[-95.24327474478689,38.95605237668477],[-95.24327375560773,38.95605237659723],[-95.24327374513982,38.956089372610414],[-95.24323253911669,38.95608936438266],[-95.2432325266615,38.95613354312679],[-95.24323092343255,38.956133542858254],[-95.24323092285418,38.95613474147618],[-95.24323134760726,38.95613474166209],[-95.24323134490302,38.95614377819917],[-95.2432309501674,38.956143777825794],[-95.24323094922397,38.95614560729382],[-95.24323134514788,38.95614560679419],[-95.24323134202682,38.95615444685393],[-95.24323101421022,38.95615444717048],[-95.24323101330445,38.95615571337262],[-95.24323262691247,38.95615571388788],[-95.24323262517183,38.95616135192151],[-95.24327430337556,38.95616135875791],[-95.24327428267013,38.95623377634576],[-95.24327566082205,38.95623377666939],[-95.24327566087197,38.956234248913454],[-95.24328061597078,38.95623425047059],[-95.24328061578966,38.95623520216181]]]},"properties":{"SDE.FloorAll.FLOORLOCATION":"5"}},{"type":"Feature","geometry":{"type":"Polygon","coordinates":[[[-95.24327412381554,38.95623412044227],[-95.24361960210011,38.956234181742886],[-95.2436196195194,38.95617211016788],[-95.24366020350469,38.956172116987425],[-95.24366020750486,38.95615558678252],[-95.24366163877137,38.95615558656188],[-95.24366163969906,38.95615434919969],[-95.24366020843256,38.95615434942036],[-95.24366021047413,38.95614538767061],[-95.24366143745362,38.95614538709956],[-95.24366143776832,38.95614330707581],[-95.24366021197713,38.95614330677391],[-95.24366021367729,38.956134679371175],[-95.2436614267483,38.956134680271894],[-95.24366142704952,38.95613342937642],[-95.24366021397853,38.95613342847568],[-95.24366022716137,38.956089727405335],[-95.2436188629782,38.95608972006098],[-95.24361887423305,38.95605184086861],[-95.24327339687456,38.956051778665405],[-95.24327338594097,38.9560892009478],[-95.24323319331417,38.9560891933836],[-95.24323317922699,38.9561335027668],[-95.24323139365659,38.95613350176767],[-95.24323139305345,38.95613446426358],[-95.24323317977704,38.95613446529012],[-95.24323317669032,38.95614312690776],[-95.24323139111968,38.95614312590863],[-95.24323139047063,38.95614524377623],[-95.24323317607642,38.95614524387497],[-95.24323317298611,38.95615429031633],[-95.24323138738005,38.95615429021759],[-95.24323138733415,38.9561554455893],[-95.24323317294022,38.956155445688054],[-95.24323317082116,38.956161418969046],[-95.24327414492326,38.956161426187364],[-95.24327412381554,38.95623412044227]]]},"properties":{"SDE.FloorAll.FLOORLOCATION":"6"}},{"type":"Feature","geometry":{"type":"Polygon","coordinates":[[[-95.24326943335508,38.95623778055296],[-95.24361960012793,38.95623784338007],[-95.24361961873554,38.95617577093214],[-95.24366020156972,38.956175777724276],[-95.24366022716137,38.956089727405335],[-95.24361886294308,38.95608972096137],[-95.24361887423305,38.95605184086861],[-95.24326870838138,38.956051778039274],[-95.24326869744526,38.956089200321664],[-95.2432285036653,38.95608919272843],[-95.24322848151654,38.95616507910552],[-95.24326945446761,38.95616508629811],[-95.24326943335508,38.95623778055296]]]},"properties":{"SDE.FloorAll.FLOORLOCATION":"ROOF"}}]}
