{"type":"FeatureCollection","features":[{"type":"Feature","geometry":{"type":"Polygon","coordinates":[[[-95.24960346392207,38.95797611894681],[-95.24966008348422,38.95787608145581],[-95.24966490818488,38.95787774600887],[-95.24966301299536,38.95788109506561],[-95.24967132182628,38.95788396158634],[-95.2496781922223,38.95787182374141],[-95.24968676984496,38.95787478315454],[-95.24968902073691,38.95787080627033],[-95.24969551742171,38.957873048513925],[-95.24974123815004,38.95779226487564],[-95.24973474143617,38.957790023535],[-95.24973699228768,38.95778604755021],[-95.24972841467374,38.95778308814073],[-95.24973528508517,38.9577709493919],[-95.24972697511174,38.957768082848396],[-95.24972507996318,38.95777143100574],[-95.24972025526834,38.957769766455186],[-95.24972759916987,38.957756790885725],[-95.24971768214382,38.95775336891847],[-95.24971389181133,38.95776006613332],[-95.24967395942951,38.957746288171606],[-95.24965654575912,38.95775155011475],[-95.24965225723732,38.95774289936834],[-95.24965116400354,38.9577432294194],[-95.24963889351625,38.95771847730676],[-95.24963998674971,38.95771814725581],[-95.24963559229872,38.957709282208064],[-95.24952974839651,38.95767277450772],[-95.24952880508278,38.95767444282804],[-95.24947492839092,38.95765585311561],[-95.24947587167061,38.957654185696164],[-95.24946595467105,38.95765076370738],[-95.24946797135631,38.95764719943951],[-95.24945832199595,38.95764387031675],[-95.24945630905022,38.957647427463364],[-95.24942401013718,38.95763628363388],[-95.24942602311927,38.95763272558742],[-95.24941637376286,38.95762939646117],[-95.24941335315339,38.957634733053006],[-95.249369125839,38.95761947331829],[-95.24937214645111,38.957614136727635],[-95.24936249709978,38.95761080759685],[-95.2493604841502,38.95761436474182],[-95.24932818411418,38.95760322085823],[-95.2493301982533,38.95759966284083],[-95.24932054890593,38.95759633370661],[-95.2493185310615,38.95759989794452],[-95.24930862543403,38.95759648071781],[-95.2493076809979,38.95759814810856],[-95.2492538044223,38.957579558293304],[-95.2492547538576,38.957577881108115],[-95.24914891650019,38.957541363292265],[-95.24913770019367,38.9575447534488],[-95.2491381229066,38.95754560702448],[-95.24910642109828,38.957555187419985],[-95.24910599838567,38.95755433384419],[-95.24909478095691,38.957557723068845],[-95.24908804169874,38.95754412771179],[-95.2490480970159,38.95753034563182],[-95.24905188739909,38.95752364843864],[-95.2490419704384,38.95752022641354],[-95.24903462643562,38.95753320193982],[-95.24902980177328,38.957531537360516],[-95.2490316969834,38.957528188313994],[-95.24902338706704,38.95752532171997],[-95.24901651771044,38.95753746045427],[-95.24900794015679,38.95753450099144],[-95.24900568927222,38.95753847696215],[-95.24899330759973,38.95753420427657],[-95.24894758503054,38.95761498759437],[-95.24895996790269,38.95761925941179],[-95.24895771697771,38.957623236281954],[-95.24896629454004,38.95762619574845],[-95.24895942404565,38.95763833355148],[-95.24896773278448,38.95764120102307],[-95.24896962800051,38.957637851977644],[-95.2489744537868,38.95763951748723],[-95.24891783347907,38.95773955374507],[-95.24893942944198,38.957747005591955],[-95.24893835027007,38.957748130850504],[-95.24894397844278,38.95775142318493],[-95.24894510091706,38.95775025299135],[-95.24899197957471,38.95778656892986],[-95.24901091343858,38.95777166940555],[-95.24951039596931,38.957944007664906],[-95.24950903314954,38.95796496936722],[-95.24957498552665,38.957967583813875],[-95.24957463302448,38.957969019214],[-95.24958154034336,38.95797005274894],[-95.24958187921115,38.9579686710988],[-95.24960346392207,38.95797611894681]]]},"properties":{"SDE.FloorAll.FLOORLOCATION":"-1"}},{"type":"Feature","geometry":{"type":"Polygon","coordinates":[[[-95.24936617866653,38.958184933701354],[-95.24937117307168,38.958186657266936],[-95.24936951466111,38.958189586558376],[-95.24937809230937,38.95819254599432],[-95.24938269701221,38.958184410828416],[-95.24938912997747,38.95818662994764],[-95.24939339501357,38.95817909595133],[-95.24938642561615,38.95817669107127],[-95.24941557970935,38.958125181953946],[-95.24942254794944,38.95812758680494],[-95.24942681186022,38.958120051879625],[-95.24941984358566,38.95811764792926],[-95.24942429214795,38.958109787536245],[-95.24942109277356,38.95810868334015],[-95.24947578660067,38.95801204743223],[-95.24947952243822,38.95801333648702],[-95.24948405892633,38.958005322265954],[-95.24948029114975,38.95800402344128],[-95.24948046835621,38.958003711315165],[-95.24949441816185,38.95799901250276],[-95.24949644396433,38.958001027933264],[-95.24949819839055,38.95800019896923],[-95.24951894496682,38.95802681222352],[-95.24951722328537,38.95802763024879],[-95.24951828385124,38.95802900003503],[-95.24951677992716,38.95802970967162],[-95.2495185987837,38.95803205995423],[-95.24952010620244,38.95803134949933],[-95.24952237890842,38.958034287332026],[-95.24952400396,38.95803352018672],[-95.24952617236747,38.95803632036144],[-95.24952454728074,38.95803708840716],[-95.24953243180282,38.95804727002697],[-95.24953895199964,38.95804419200576],[-95.24953106747701,38.95803401038638],[-95.2495291814038,38.958034900214955],[-95.24952701299627,38.95803210004029],[-95.24952889910448,38.95803120931136],[-95.24952707905939,38.95802885990194],[-95.24952819199693,38.95802829059354],[-95.24953737550375,38.958022828926346],[-95.24954606041496,38.95801692104049],[-95.24954719585082,38.95801607018225],[-95.24954977342743,38.95801793648046],[-95.24955495498308,38.958013574902076],[-95.24955234372142,38.9580116843731],[-95.24955327832448,38.958010833256814],[-95.24956646776019,38.957995982125894],[-95.24956712367909,38.957995055004375],[-95.2495703362433,38.95799632443351],[-95.24957377592169,38.95799101580315],[-95.24957050538512,38.957989723369494],[-95.24957112796913,38.95798876301306],[-95.24957856389474,38.957971673741575],[-95.24957888323317,38.95797058632872],[-95.24958247174582,38.95797112296767],[-95.24958285725033,38.95796955136424],[-95.24960425060843,38.95797275080547],[-95.24960386737582,38.957974323364105],[-95.24962286343192,38.957977164024115],[-95.2496242970003,38.957971321143546],[-95.24961579565962,38.95797004972701],[-95.24961964849314,38.957964416541635],[-95.24962325241842,38.957958683724335],[-95.24962660257742,38.95795285746849],[-95.2496296963484,38.957946945822925],[-95.24963252887338,38.957940954981034],[-95.24964413684116,38.95794013714962],[-95.24964345204702,38.95793421247613],[-95.24962896090678,38.95793523318373],[-95.24963112919302,38.9579277729098],[-95.24963465049457,38.95790995451076],[-95.24963558174207,38.95790073544241],[-95.24965602060782,38.95789455842119],[-95.2496530409796,38.95788854867031],[-95.24966009487608,38.957876085330916],[-95.24966491957674,38.95787774988399],[-95.24966302442226,38.95788109804029],[-95.2496713343714,38.95788396548879],[-95.24967820364922,38.95787182671613],[-95.24968678127186,38.95787478612927],[-95.24969033484993,38.95786850777609],[-95.24968175722795,38.95786554836317],[-95.24972487253021,38.957789369469836],[-95.24973345014482,38.95779232887957],[-95.24973700371457,38.95778605052494],[-95.24972842610065,38.95778309111546],[-95.24973529647701,38.95777095326701],[-95.24972698653862,38.95776808582312],[-95.24972509135505,38.95777143488089],[-95.24972026669523,38.95776976942993],[-95.24972784732425,38.957756375900104],[-95.24968282061606,38.95766554495174],[-95.24966727366291,38.957660180674914],[-95.24966940557378,38.95765641365783],[-95.24967369379517,38.95765789335116],[-95.24967736633884,38.9576514051314],[-95.24956157174806,38.95761145305824],[-95.24955790038405,38.95761794040132],[-95.24956218860079,38.957619420098794],[-95.24956005668528,38.95762318711395],[-95.24954450971578,38.95761782372103],[-95.24945832203097,38.95764386941634],[-95.2494561901093,38.957647636429535],[-95.2494240255916,38.95763653904713],[-95.24942615751472,38.95763277203451],[-95.24941650819332,38.95762944200787],[-95.24941438252634,38.9576331965516],[-95.24936988754006,38.95761784485072],[-95.24937201320893,38.95761409030783],[-95.24936236273945,38.957610760249345],[-95.24936023822335,38.95761451481944],[-95.24932807373582,38.95760341741034],[-95.2493301982533,38.95759966284083],[-95.2492968387538,38.95753236913286],[-95.24928129301244,38.95752700483158],[-95.24928342493989,38.95752323782154],[-95.24928771314511,38.957524717529154],[-95.24929138568226,38.957518230221936],[-95.2491755915627,38.957478276862595],[-95.24917191898193,38.957484765066575],[-95.24917620833568,38.95748624480568],[-95.24917407640369,38.95749001181376],[-95.24915852952779,38.95748464746866],[-95.2490421958124,38.95751980367899],[-95.24903461507888,38.95753319716426],[-95.24902979041656,38.95753153258491],[-95.24903168559162,38.957528184438814],[-95.2490233757103,38.95752531694445],[-95.2490165063537,38.95753745567868],[-95.24900792880004,38.95753449621583],[-95.24900437517812,38.95754077454833],[-95.2490129527324,38.9575437340114],[-95.24896983565966,38.95761991261422],[-95.24896125925116,38.95761695317539],[-95.24895770562095,38.95762323150635],[-95.2489662831833,38.957626190972874],[-95.24895941265385,38.95763832967628],[-95.24896772142775,38.95764119624749],[-95.24896961660872,38.95763784810242],[-95.24897444127687,38.95763951268428],[-95.24896729431005,38.95765214050281],[-95.2489597536996,38.95765441922683],[-95.2489676049421,38.95767025708783],[-95.24895949681293,38.95767700413815],[-95.24894499341427,38.95769103365102],[-95.24893938763992,38.95769730835114],[-95.2489305982742,38.95768825428008],[-95.24892452665702,38.957691847596664],[-95.24893156702431,38.95769910007677],[-95.2489278004968,38.95770476863349],[-95.2489242840978,38.95771053505],[-95.24892102275552,38.957716391332156],[-95.24891802017504,38.957722331259276],[-95.24891527890792,38.9577283485835],[-95.24890835060489,38.957724296307674],[-95.24890378255961,38.95772905723786],[-95.24891926203658,38.95773811143454],[-95.24892047471579,38.957736847851635],[-95.2489379122425,38.95774704799961],[-95.24893669729207,38.957748310627544],[-95.24893965642792,38.95775004089609],[-95.24893887562023,38.95775085510156],[-95.2489328266793,38.95775855133279],[-95.24892758119078,38.95776669020329],[-95.24892708841435,38.95776772573448],[-95.24892371198302,38.95776672276634],[-95.24892100123783,38.95777228209133],[-95.24892428863095,38.957773259515044],[-95.248923928963,38.95777428558736],[-95.24892093005984,38.95778297794297],[-95.24891888060199,38.957791891095866],[-95.24891874410388,38.95779189867185],[-95.24891856691183,38.95779301108528],[-95.24891501975533,38.957792776415836],[-95.24891437697532,38.957798703841846],[-95.24891788038063,38.957798935670716],[-95.24891783834511,38.95780016394419],[-95.24891910114287,38.95781813459274],[-95.2489193117163,38.957819159775795],[-95.24891586169225,38.957819691649895],[-95.24891733592425,38.9578255278148],[-95.24892155235268,38.95782487804041],[-95.24892190137591,38.957826260689885],[-95.24892535038724,38.95782572518667],[-95.24892500108352,38.95782434974035],[-95.24892711113262,38.95782402219292],[-95.248926717014,38.95782246363577],[-95.24896588580131,38.957816533776366],[-95.24896628288977,38.95781810502091],[-95.24896944258069,38.95781761852764],[-95.2489695544435,38.95781791768483],[-95.24897407142923,38.95782816994844],[-95.24897370515399,38.95782826850361],[-95.24897323410117,38.95782910177477],[-95.24897060196142,38.957828193071954],[-95.24896596371494,38.95783638870974],[-95.2489696676298,38.957837667110546],[-95.24891506132617,38.957934145354294],[-95.24891189383685,38.95793305271502],[-95.24890747256168,38.95794086326849],[-95.24890050435751,38.95793845838652],[-95.24889623928341,38.957945992364834],[-95.24890320864142,38.957948397274414],[-95.24887406910264,38.95799988048065],[-95.24886710089379,38.95799747559669],[-95.2488628369307,38.958005010501516],[-95.24886926871015,38.95800722962225],[-95.24886464906999,38.958015391451326],[-95.24887322667603,38.95801835092465],[-95.24887488510313,38.95801542164024],[-95.24887987951942,38.95801714432664],[-95.24888495607148,38.95801560021867],[-95.24888550762198,38.9580146264643],[-95.24888443412208,38.95801246238583],[-95.24888213454165,38.95801166881774],[-95.24888687315783,38.95800329712196],[-95.24888834696901,38.958003806136304],[-95.2488915356217,38.9580028426829],[-95.2489102990409,38.958009317086635],[-95.2489119072833,38.95800987164795],[-95.24891314125331,38.95801236127097],[-95.24891630305035,38.95801345197261],[-95.24891156447198,38.958021822769204],[-95.24890757805856,38.95802044754129],[-95.24890480635584,38.958021285704554],[-95.2489042548055,38.958022259459],[-95.24890621027433,38.95802622979076],[-95.24891673211596,38.958029859941405],[-95.24891554715661,38.95803195330898],[-95.24891018718598,38.95803010298886],[-95.24890544857077,38.958038474685594],[-95.24899886148367,38.95807070549165],[-95.24900288866834,38.9580635894411],[-95.24900583975453,38.958064607548884],[-95.24900489156511,38.95806628205818],[-95.2490064998095,38.95806683661819],[-95.24900484135159,38.95806976680478],[-95.24901985191357,38.958074945407475],[-95.24902151033594,38.958072016120994],[-95.2490231185806,38.95807257068077],[-95.24902444362678,38.958070229194114],[-95.24903374763744,38.95806795985986],[-95.24904190860349,38.95805353922592],[-95.24904586196398,38.95805490375135],[-95.24904895367432,38.958053969536444],[-95.24904907265221,38.958053759670264],[-95.24905101573353,38.95805443032103],[-95.24905137144388,38.958053802495904],[-95.24906209258465,38.95805750224983],[-95.24906173687438,38.958058130074974],[-95.24906334511903,38.95805868463418],[-95.24906370082928,38.95805805680901],[-95.24907442197136,38.958061756561825],[-95.24907406629622,38.95806238348662],[-95.24907601053118,38.95806305416435],[-95.24907589155336,38.95806326403055],[-95.24907708922973,38.95806567798889],[-95.2490810414734,38.95806704158542],[-95.2490793494991,38.95807003226118],[-95.2490799017871,38.95807126382078],[-95.24908071728402,38.95807154542563],[-95.2490774015622,38.95807740492803],[-95.24907658491207,38.95807712329576],[-95.24907504717675,38.95807763385505],[-95.24907287684391,38.958081467542435],[-95.24907709091684,38.95808817440516],[-95.24907566059571,38.95809069994818],[-95.24907726884125,38.958091254507195],[-95.24907561038565,38.95809418469485],[-95.24909062095803,38.958099363288355],[-95.2490922794131,38.95809643310045],[-95.24909388762383,38.958096988559625],[-95.24909531679123,38.958094462989045],[-95.24910450504257,38.958092380159826],[-95.24911266966686,38.95807795420065],[-95.24911665605248,38.95807933032185],[-95.2491197489162,38.95807839613243],[-95.24911986674067,38.95807818623879],[-95.24912177680088,38.95807884529025],[-95.24912213251073,38.958078217464845],[-95.2491328536589,38.958081917212226],[-95.24913249794916,38.95808254503764],[-95.24913410619489,38.95808309959582],[-95.24913446190466,38.95808247177045],[-95.24914518305414,38.958086171516676],[-95.24914482853274,38.95808679846909],[-95.24914673855832,38.95808745842049],[-95.24914661961574,38.95808766738637],[-95.24914781614177,38.958090081316634],[-95.24915180371696,38.95809145656363],[-95.24914541534156,38.9581027433437],[-95.24914380709527,38.9581021887856],[-95.24914238656254,38.958104700142066],[-95.24914399480892,38.95810525470015],[-95.24914363909915,38.95810588252557],[-95.24914785202701,38.958112589358336],[-95.24914642286113,38.9581151149296],[-95.24914803110771,38.95811566948763],[-95.24914637265454,38.9581185996763],[-95.24916138320222,38.95812377916098],[-95.24916304165491,38.95812084897213],[-95.24916464990183,38.9581214035299],[-95.24916607906714,38.958118877958434],[-95.24917526728457,38.958116796024086],[-95.24917743764796,38.95811296143441],[-95.24917688535794,38.95811172987525],[-95.24917606870697,38.958111448243734],[-95.24917938557539,38.958105588765896],[-95.24918020110815,38.95810586946967],[-95.24918173880828,38.95810535980935],[-95.24918343189725,38.95810237005992],[-95.24918738756958,38.95810373463527],[-95.2491904792802,38.95810280041657],[-95.24919057476997,38.95810263054811],[-95.24919251900715,38.958103301223886],[-95.2491928735633,38.958102673370924],[-95.24920359590713,38.95810637223874],[-95.24920324019787,38.95810700006434],[-95.24920484844472,38.958107554621584],[-95.24920520415397,38.95810692679597],[-95.24921592531085,38.95811062653567],[-95.24921556960169,38.9581112543613],[-95.24921751383935,38.95811192503663],[-95.24921741719645,38.958112094877755],[-95.2492186137253,38.95811450880728],[-95.24922256824578,38.9581158733541],[-95.24921440367454,38.95813029842062],[-95.24921861877688,38.95813700890711],[-95.24921719087133,38.95813953180537],[-95.24921879908405,38.95814008726282],[-95.24921714066826,38.9581430165521],[-95.24923215122631,38.95814819602764],[-95.24923380967665,38.958145265837736],[-95.24923541788958,38.958145821294984],[-95.2492363660746,38.95814414678384],[-95.24923931258975,38.958145163875805],[-95.24923528545925,38.95815227903414],[-95.2493287328486,38.95818452119968],[-95.24933347023524,38.95817615035877],[-95.24932810678311,38.958174299975916],[-95.24932929173256,38.95817220660408],[-95.24933984891149,38.95817584926948],[-95.2493449243117,38.95817430511408],[-95.24934547589216,38.95817333045714],[-95.24934440237581,38.958171166382975],[-95.24934310848684,38.95817072022259],[-95.24934787680337,38.95816229604142],[-95.24934834488444,38.95816245855178],[-95.24935153357305,38.95816149418537],[-95.24937190532606,38.95816852306948],[-95.24937313931511,38.958171012687615],[-95.24937360858448,38.9581711743248],[-95.24936884027038,38.95817959850699],[-95.24936754641614,38.95817915144651],[-95.24936477471265,38.95817998962074],[-95.24936422316745,38.95818096337737],[-95.24936617866653,38.958184933701354]]]},"properties":{"SDE.FloorAll.FLOORLOCATION":"1"}},{"type":"Feature","geometry":{"type":"Polygon","coordinates":[[[-95.24932589985416,38.957793461197745],[-95.24936573760012,38.95781592844751],[-95.24938609621645,38.957779957780595],[-95.24938974890769,38.9577812178294],[-95.24939017780319,38.95778045925947],[-95.24939617218104,38.95778252828467],[-95.2493972553575,38.9577834948599],[-95.24939946089177,38.957781988964584],[-95.24939984232459,38.957781293255614],[-95.24941110183492,38.957745649261334],[-95.24942910664316,38.957713836875136],[-95.24945529231815,38.95768334328847],[-95.24945568517678,38.95768265055404],[-95.24945813316916,38.957678325069715],[-95.24929215798483,38.95762105847654],[-95.24928928963008,38.95762301638052],[-95.24929485591878,38.95762798801401],[-95.24928360664225,38.95766363494476],[-95.2492654881596,38.95769557889539],[-95.24923941605506,38.957725939951914],[-95.2492390243473,38.95772663271299],[-95.24923908179952,38.95772892318725],[-95.2492407357385,38.95772889663692],[-95.24924672214031,38.95773096277715],[-95.24924629324356,38.95773172134656],[-95.24924994477662,38.957732981372445],[-95.24922958610459,38.957768952015634],[-95.24927823744463,38.95777695375166],[-95.24932589985416,38.957793461197745]]]},"properties":{"SDE.FloorAll.FLOORLOCATION":"1.5"}},{"type":"Feature","geometry":{"type":"MultiPolygon","coordinates":[[[[-95.24943184040005,38.95798783712317],[-95.24943075268585,38.95798746164423],[-95.24943215950465,38.957984976094664],[-95.24942663773132,38.95798307149162],[-95.24942018247643,38.957994476561986],[-95.24942099570244,38.95799475720936],[-95.24937620916691,38.958073886615814],[-95.24938070246148,38.9580754360727],[-95.24937368442662,38.9580878362603],[-95.24936919343781,38.95808628685787],[-95.2493623526771,38.95809837311804],[-95.24935942436815,38.958097362769664],[-95.24935944981934,38.95809659012255],[-95.24935944179252,38.95809581758247],[-95.24935939916953,38.95809504422162],[-95.24935932299854,38.958094272768584],[-95.24935921320933,38.9580935050241],[-95.24935906983706,38.95809274008784],[-95.24935889399987,38.95809197888752],[-95.24935868328622,38.958091224069605],[-95.24935844007256,38.95809047388803],[-95.24935816425383,38.95808973104394],[-95.2493578569482,38.95808899646514],[-95.24935751700238,38.95808827012424],[-95.2493571443464,38.95808755382206],[-95.24935674243979,38.958086847640615],[-95.24935630894119,38.958086152425636],[-95.24935584493363,38.95808547000524],[-95.24935535160543,38.95808479950643],[-95.24935482885147,38.95808414363034],[-95.24935427793,38.958083499703136],[-95.24935369863087,38.958082873127225],[-95.24935309221233,38.95808226122877],[-95.24935245968749,38.95808166763668],[-95.2493518023146,38.958081089677165],[-95.24935111883542,38.958080530024034],[-95.24935041159137,38.95807998783161],[-95.24934968163049,38.958079465828405],[-95.24934892895281,38.95807896401444],[-95.2493481535934,38.95807848148934],[-95.24934735890675,38.95807802103637],[-95.24934654377466,38.95807758172771],[-95.24934571046849,38.958077164518535],[-95.24934485895325,38.958076770309226],[-95.24934399041717,38.958076398226716],[-95.24934310709652,38.9580760501265],[-95.2493422078732,38.95807572508091],[-95.24928920107517,38.9580574362069],[-95.2492882756759,38.95805713126801],[-95.24928733772846,38.95805685216697],[-95.24928638723276,38.9580565989037],[-95.2492854276485,38.95805637156035],[-95.24928445663417,38.95805617098255],[-95.24928347890774,38.9580559945786],[-95.2492824931758,38.958055845922665],[-95.24928150174483,38.95805572506953],[-95.2492805047199,38.958055629317926],[-95.24927950545546,38.95805556145114],[-95.24927850279843,38.95805552144188],[-95.24927749912517,38.95805550754399],[-95.24927649548383,38.95805552248605],[-95.24927549316774,38.95805556269386],[-95.24927449322502,38.95805563089589],[-95.24927349687898,38.95805572531879],[-95.24927250521263,38.95805584779069],[-95.24927151944937,38.958055996538114],[-95.2492705407423,38.95805617158848],[-95.2492695713629,38.958056373896895],[-95.24926861026299,38.95805660073473],[-95.2492676607971,38.95805685488538],[-95.24926672307035,38.95805713364755],[-95.24926579816588,38.95805743884945],[-95.24926488730696,38.958057768717644],[-95.24926399171686,38.95805812147866],[-95.2492631124787,38.95805849896073],[-95.24926224962756,38.958058900263396],[-95.24926140662306,38.95805932546872],[-95.24926058241704,38.95805977184821],[-95.24925977805762,38.958060242130394],[-95.24925899487326,38.95806073184067],[-95.24925823506514,38.958061243734896],[-95.24925749758526,38.95806177508462],[-95.24925678470503,38.95806232684484],[-95.24925609534115,38.95806289718746],[-95.24925543291839,38.95806348709498],[-95.24925479761184,38.958064092065435],[-95.24925418812818,38.95806471567298],[-95.2492536079971,38.958065356198965],[-95.2492512230067,38.95806453267406],[-95.24927182834027,38.958028128080365],[-95.24927335477186,38.95802046332744],[-95.24927045970112,38.958020111659394],[-95.24927082707006,38.958018264752994],[-95.2492604024954,38.95801699905285],[-95.24926379209957,38.95799998683837],[-95.24926383405422,38.957999798576495],[-95.24926388401124,38.95799961230691],[-95.24926394204068,38.95799942622883],[-95.2492640080374,38.957999243043496],[-95.24926408318969,38.95799906187777],[-95.24926416519108,38.95799888267701],[-95.24926425634807,38.957998705495896],[-95.2492643543542,38.957998530279745],[-95.24926446029255,38.957998358856685],[-95.24926457419824,38.95799819032627],[-95.24926469491795,38.95799802466121],[-95.24926482356999,38.95799786278925],[-95.24926495903613,38.957997703782624],[-95.24926510124627,38.95799754944212],[-95.24926525142367,38.95799739799429],[-95.24926540719193,38.95799725118524],[-95.24926556851597,38.957997109915354],[-95.24926573777222,38.957996972438536],[-95.2492659126894,38.9579968377997],[-95.2492660919391,38.95799671047346],[-95.24926627800286,38.95799658601255],[-95.24926646958733,38.95799646799117],[-95.24926666676262,38.95799635460857],[-95.24926686715226,38.9579962476108],[-95.24926707432095,38.957996144378754],[-95.24926728470399,38.957996047531545],[-95.24926749945453,38.95799595709651],[-95.24926771745439,38.95799587214592],[-95.24926793978679,38.95799579450794],[-95.24926816543865,38.957995720553576],[-95.24926839426976,38.957995653884446],[-95.24926862519703,38.95799559267239],[-95.24926885930364,38.95799553874557],[-95.24926909543629,38.95799549207662],[-95.24926933370013,38.95799544996434],[-95.24926957395499,38.95799541601033],[-95.24926981518789,38.95799538658562],[-95.24927005844685,38.95799536441883],[-95.2492703014255,38.95799534945514],[-95.2492853504465,38.95799408247443],[-95.24928546567915,38.957994917939985],[-95.2493621110615,38.957988460314816],[-95.2494102118371,38.95798486819115],[-95.24940950545376,38.957983443720394],[-95.249411691966,38.95798278272239],[-95.24940703741122,38.95797339419243],[-95.2494048508642,38.957974056090755],[-95.24939164935239,38.9579474244401],[-95.24937936957315,38.95795138690417],[-95.24932816689963,38.95795570120726],[-95.24932836866876,38.957957101090045],[-95.249264098909,38.957962740185124],[-95.24915897732902,38.957926470989605],[-95.24912104939156,38.95788556936356],[-95.24912250583779,38.957884745051295],[-95.24909211377833,38.95785227562564],[-95.24908760391884,38.95784252191358],[-95.24905352388099,38.95785282182664],[-95.24905267730028,38.95785111464744],[-95.24904065269217,38.957854748775496],[-95.24904149811944,38.95785645592747],[-95.24903965272286,38.957857012358815],[-95.24906089884682,38.957879711817064],[-95.24906863414918,38.957887200674975],[-95.24911419382971,38.957935878910845],[-95.24911512291617,38.957935347601946],[-95.24912405381353,38.95794488897323],[-95.24912420263078,38.957945039403675],[-95.24912434547167,38.957945195099676],[-95.24912448128828,38.95794535333266],[-95.24912461004546,38.95794551500307],[-95.24912473174335,38.95794568011091],[-95.24912484515848,38.95794585042961],[-95.24912495161935,38.95794602148451],[-95.24912504990269,38.957946195049054],[-95.24912514112668,38.957946372051055],[-95.2491252230199,38.95794655153531],[-95.24912529792381,38.95794673265619],[-95.24912536465015,38.95794691628673],[-95.24912542319899,38.95794710242697],[-95.24912547371044,38.95794728747525],[-95.24912551600931,38.9579474759336],[-95.24912554904753,38.95794766507345],[-95.24912557397826,38.95794785492216],[-95.24912559083661,38.957948044579375],[-95.24912559958747,38.957948234945434],[-95.24912559911272,38.95794842509259],[-95.24912559053047,38.9579486159487],[-95.2491255727577,38.95794880568548],[-95.24912554803063,38.95794899615852],[-95.24912551411299,38.95794918551224],[-95.24912547107489,38.9579493719459],[-95.24912541992926,38.95794955908849],[-95.24912536196959,38.95794974336568],[-95.24912529481938,38.9579499265236],[-95.24912521959669,38.95795010949001],[-95.24912513528858,38.95795028863595],[-95.2491250442014,38.95795046401617],[-95.24912494507686,38.95795063830447],[-95.24912483910316,38.95795081062781],[-95.24912472519725,38.95795097915805],[-95.24912460332405,38.95795114479562],[-95.24912447351858,38.95795130664007],[-95.24912433812234,38.95795146384572],[-95.24912419472372,38.9579516190591],[-95.2491240446162,38.957951768705925],[-95.2491102151521,38.957965178865685],[-95.24910187870411,38.95795993782276],[-95.24910037686334,38.95796139461891],[-95.24909809534849,38.95795995891037],[-95.24909183855173,38.95796602621098],[-95.2490822831832,38.95798291015764],[-95.24908238452164,38.9579829459073],[-95.2490713357054,38.958002464749136],[-95.24906885042884,38.95800160819937],[-95.24906906493841,38.95800084184028],[-95.24906924495701,38.958000071959205],[-95.24906939055474,38.95799929675536],[-95.24906950288477,38.95799851625604],[-95.24906957943044,38.957997735808924],[-95.24906962148516,38.957996951839846],[-95.24906962890871,38.95799616795029],[-95.24906960166611,38.95799538504067],[-95.24906953860409,38.95799460308369],[-95.24906944195904,38.957993823934814],[-95.24906931064777,38.9579930457659],[-95.24906914449512,38.9579922730789],[-95.24906894468931,38.9579915050008],[-95.24906871000711,38.95799074330501],[-95.24906844163664,38.95798998711848],[-95.24906814059104,38.95798924007022],[-95.24906780690533,38.95798850125976],[-95.24906743939127,38.95798777156016],[-95.24906704032026,38.957987051926544],[-95.24906660962208,38.9579863441597],[-95.2490661472968,38.9579856482596],[-95.24906565442765,38.957984966054404],[-95.24906513216766,38.95798429757151],[-95.24906457939882,38.957983641883075],[-95.24906399944044,38.95798300267285],[-95.24906338995112,38.95798238078646],[-95.24906275449565,38.95798177360482],[-95.24906209178059,38.957981184702106],[-95.24906140292411,38.957980615006136],[-95.24906068907944,38.95798006454425],[-95.24905995146983,38.95797953154297],[-95.24905919107334,38.95797902053167],[-95.24905840795994,38.957978529709536],[-95.24905760433103,38.957978061832556],[-95.24905678032665,38.95797761329903],[-95.2490559357367,38.957977189511396],[-95.24905507412579,38.95797678785055],[-95.24905419427064,38.95797641008988],[-95.24905329844269,38.95797605718455],[-95.24905238783013,38.9579757282615],[-95.24899938006386,38.957957438327135],[-95.2489984671772,38.95795713818889],[-95.24899754293045,38.95795686301538],[-95.2489966062055,38.9579566118789],[-95.24899565930875,38.95795638483413],[-95.24899470213502,38.95795618458228],[-95.24899373817905,38.95795601030495],[-95.24899276628756,38.957955861974945],[-95.248991788767,38.957955739646835],[-95.2489908056524,38.95795564242029],[-95.24898982029819,38.957955573078614],[-95.24898883165638,38.95795552889318],[-95.24898784084503,38.95795551079181],[-95.24898685132382,38.95795551885655],[-95.24898586186949,38.95795555486085],[-95.24898487489348,38.95795561615824],[-95.24898389144388,38.957955705477296],[-95.24898291166095,38.95795581921639],[-95.24898193774591,38.95795596013143],[-95.24898097092198,38.95795612644905],[-95.24898001234244,38.957956318196516],[-95.24897906200732,38.95795653537394],[-95.24897812218788,38.95795677893634],[-95.24897719295427,38.95795704708301],[-95.24897627664794,38.95795733896823],[-95.2489753731988,38.95795765639283],[-95.24897448386514,38.957957996682914],[-95.24897361091838,38.957958360793704],[-95.2489727532053,38.95795874869774],[-95.2489719142556,38.95795915867639],[-95.24897109291605,38.95795959070224],[-95.248970291458,38.957960045730495],[-95.24896951002167,38.957960520159475],[-95.24896875084339,38.95796101584474],[-95.24896801283995,38.95796153095814],[-95.24896729831788,38.95796206555436],[-95.24896411143226,38.957960967049054],[-95.24897095221272,38.9579488817126],[-95.24896639638514,38.95794730822509],[-95.2489734144775,38.95793490806198],[-95.24897797033948,38.957936480648826],[-95.24902275719863,38.9578573522956],[-95.2490238437204,38.95785772865147],[-95.24902525796067,38.95785523066552],[-95.24903030028503,38.95784632092921],[-95.2490306590227,38.95784644569882],[-95.24902895841846,38.95784945058862],[-95.24903192749204,38.957848553118495],[-95.24903302076537,38.957848222172856],[-95.24903555931786,38.95785334458401],[-95.24903938339817,38.95785218802018],[-95.24904001804519,38.95785346839784],[-95.24905204265306,38.95784983426983],[-95.24905140800585,38.957848553892234],[-95.24906671466798,38.9578439287807],[-95.24904665510394,38.95780346549313],[-95.24907032210717,38.957761649622064],[-95.24907121431468,38.95776120575858],[-95.24907618843476,38.957752416968894],[-95.24906493087589,38.95774853235402],[-95.24906457513218,38.9577491610796],[-95.24904902936076,38.957743796747295],[-95.24899604202001,38.95783741509813],[-95.24899601479224,38.95783746221702],[-95.24897460438441,38.95783007606746],[-95.24891535979961,38.95793475084967],[-95.24891219238029,38.95793365640963],[-95.2489075343372,38.95794188582211],[-95.2489011025625,38.95793966670351],[-95.24889778567878,38.95794552617345],[-95.24890421857211,38.95794774622004],[-95.24887413087768,38.95800090303432],[-95.24886769909864,38.957998683913836],[-95.24886438220943,38.9580045433828],[-95.24887081510703,38.95800676343121],[-95.24886619543206,38.95801492616075],[-95.24887262840076,38.958017144408274],[-95.24887405009449,38.958014633082485],[-95.24891750416128,38.958029626818174],[-95.24891560896737,38.95803297496227],[-95.24891078427378,38.95803131037806],[-95.24890699384994,38.95803800756633],[-95.24899879855352,38.95806968291068],[-95.24900294835103,38.95806235257414],[-95.24900697121565,38.95806374037944],[-95.24900566476373,38.958066048961754],[-95.24900780832078,38.95806678835679],[-95.249006387784,38.958069299711596],[-95.24901925248214,38.95807373886452],[-95.24902067413676,38.958071228437355],[-95.24902281884732,38.958071967859496],[-95.24902412533383,38.95806965837655],[-95.24907774027953,38.95808815736777],[-95.24907643382946,38.958090465950875],[-95.24907857731789,38.95809120714543],[-95.24907715681812,38.95809371760067],[-95.24909002152522,38.958098156745734],[-95.24909144317776,38.958095646317695],[-95.24909358788985,38.95809638573854],[-95.24909489063454,38.958094083375926],[-95.24914849876811,38.95811258036942],[-95.24914719602481,38.95811488273264],[-95.24914933958485,38.958115622125085],[-95.24914791908706,38.958118132581184],[-95.24916078492119,38.95812257264616],[-95.24916220548862,38.95812006038912],[-95.24916435016715,38.958120800709004],[-95.24916565165168,38.9581185010194],[-95.24921926555322,38.958136999017334],[-95.24921796403505,38.958139299607964],[-95.24922010759654,38.95814003899909],[-95.24921868703073,38.95814255125687],[-95.24923155290878,38.95814699041356],[-95.24923297347424,38.95814447815563],[-95.24923511818923,38.958145217573836],[-95.2492364196719,38.958142917883485],[-95.24924043908607,38.9581443055986],[-95.24923629542482,38.95815162707644],[-95.24932813341096,38.95818331465832],[-95.24933192376761,38.95817661835676],[-95.249327096783,38.95817495283475],[-95.24932899199634,38.9581716037836],[-95.24937248158498,38.95818660900146],[-95.24937106105868,38.95818912036069],[-95.24937749402403,38.95819133948058],[-95.24938209876187,38.958183203414286],[-95.24938853169198,38.95818542343395],[-95.2493918485463,38.958179563950125],[-95.24938541561656,38.95817734393063],[-95.24941551670304,38.958124161173984],[-95.24942194969891,38.958126379391025],[-95.24942526535939,38.958120520779225],[-95.24941883362227,38.95811829988855],[-95.24942351895018,38.95811002063544],[-95.24942031954075,38.958108917339736],[-95.24947953500312,38.95800429299432],[-95.24943184040005,38.95798783712317]]],[[[-95.24945812795697,38.95799687727583],[-95.24950946885025,38.957906164871986],[-95.2494939218574,38.95790080057206],[-95.24948266421687,38.957896916898136],[-95.24947987927148,38.95790296023516],[-95.24945620907364,38.957944774306455],[-95.24940438358537,38.95796043651064],[-95.24941644436785,38.95798476280176],[-95.24942603832876,38.95798186405039],[-95.24943372071378,38.957984514753804],[-95.24943184040005,38.95798783712317],[-95.24945812795697,38.95799687727583]]]]},"properties":{"SDE.FloorAll.FLOORLOCATION":"2"}},{"type":"Feature","geometry":{"type":"MultiPolygon","coordinates":[[[[-95.24937248277321,38.95818660812845],[-95.24937106109373,38.95818911946027],[-95.24937749402403,38.95819133948058],[-95.2494138892983,38.958127035325646],[-95.2493762290305,38.95811404115882],[-95.24936376522018,38.958109740431816],[-95.24935719901953,38.95810747489137],[-95.2493673244433,38.95808958516178],[-95.24935042091305,38.95808375246884],[-95.24935873665403,38.958069060612324],[-95.24928171016771,38.95807555065226],[-95.24925356265639,38.95806583908102],[-95.24925346230874,38.95806601514284],[-95.24923416352983,38.95805935596065],[-95.2492347373754,38.95805834307978],[-95.24908834044615,38.95800783124817],[-95.24908776775209,38.958008844155714],[-95.24906846781617,38.95800218581891],[-95.24906904166362,38.95800117293886],[-95.24904104684802,38.95799151360355],[-95.24899562677331,38.95794298555092],[-95.24899446059227,38.95794308405279],[-95.24898579397319,38.95795839661459],[-95.24896887111163,38.95795255799847],[-95.24895896000481,38.957970069759895],[-95.24895271500317,38.95796791545784],[-95.2489402512444,38.95796361468526],[-95.24890259115064,38.95795062036454],[-95.24886619550216,38.958014924359965],[-95.24887262840076,38.958017144408274],[-95.24887405009449,38.958014633082485],[-95.24891750534951,38.95802962594517],[-95.24891561012056,38.95803297498964],[-95.24891078542696,38.95803131040541],[-95.24890699503817,38.95803800669334],[-95.24899879970674,38.95806968293804],[-95.24900294705766,38.95806235614833],[-95.24899692415293,38.95806027831534],[-95.24900888784349,38.95803914095739],[-95.24902215348796,38.95804371759709],[-95.24902120645235,38.958045392133876],[-95.24902335112712,38.9580461324564],[-95.24902275868396,38.958047178240385],[-95.24902919159041,38.958049398280004],[-95.24902978406858,38.95804835159562],[-95.24903192874349,38.95804909191797],[-95.24903236508936,38.95804832000765],[-95.24903287577885,38.95804741738113],[-95.24905485571183,38.9580550008806],[-95.24905628320076,38.95805474275252],[-95.24907022079634,38.95805955252463],[-95.24907093801811,38.95806055007414],[-95.2490929179592,38.95806813356637],[-95.2490919697718,38.95806980807641],[-95.24909305748541,38.95807018355854],[-95.2490941144831,38.95807054749722],[-95.24909352078241,38.958071595955346],[-95.24909995491659,38.958073814217606],[-95.24910054739391,38.95807276753283],[-95.24910269207031,38.95807350785394],[-95.24910363910432,38.958071833316474],[-95.24912561905249,38.95807941680253],[-95.24912704654164,38.95807915867359],[-95.24914098414688,38.95808396843717],[-95.24914170136985,38.958084965986245],[-95.24916368132614,38.95809254946512],[-95.24916273314008,38.958094223975664],[-95.24916487785286,38.958094963395155],[-95.24916428537631,38.95809601008023],[-95.24917071832672,38.9580982292116],[-95.24917131076812,38.9580971834269],[-95.24917345432785,38.95809792281889],[-95.24917440247867,38.958096249208644],[-95.24919638244204,38.95810383268128],[-95.24919780993142,38.958103574551465],[-95.24921174758128,38.95810838340612],[-95.24921246477048,38.95810938185516],[-95.249234444742,38.95811696532057],[-95.24923349659228,38.9581186389313],[-95.2492356412715,38.95811937924992],[-95.24923504879578,38.95812042593534],[-95.24924148175066,38.95812264506278],[-95.24924207419122,38.9581215992777],[-95.24924421890566,38.95812233869578],[-95.24924516593697,38.958120664157164],[-95.24925829127446,38.95812519868778],[-95.24924633127871,38.958146331651406],[-95.24924044027429,38.95814430472553],[-95.24923629542482,38.95815162707644],[-95.24932813459918,38.958183313785284],[-95.24933192495587,38.95817661748368],[-95.24932709681805,38.95817495193439],[-95.24932899318456,38.958171602910554],[-95.24937248277321,38.95818660812845]]],[[[-95.24921345305495,38.95776886035798],[-95.24929506943681,38.957797020507925],[-95.24937668588369,38.95782518060042],[-95.2494585836741,38.95768048157327],[-95.24929534999602,38.95762416051763],[-95.24921345305495,38.95776886035798]]]]},"properties":{"SDE.FloorAll.FLOORLOCATION":"2.5"}},{"type":"Feature","geometry":{"type":"Polygon","coordinates":[[[-95.24929567884662,38.95812090814112],[-95.2492796620626,38.95814920693429],[-95.24934762142107,38.95817265496952],[-95.24937808320495,38.958118835502056],[-95.24938978732526,38.95812287397327],[-95.24939668341482,38.958110670963684],[-95.24892928593141,38.957949403546586],[-95.2489223806915,38.95796160270811],[-95.24893408475981,38.95796564122536],[-95.24890362266889,38.958019461477306],[-95.2489715817779,38.95804290973318],[-95.24898759869616,38.95801461008192],[-95.24929567884662,38.95812090814112]]]},"properties":{"SDE.FloorAll.FLOORLOCATION":"3"}},{"type":"Feature","geometry":{"type":"MultiPolygon","coordinates":[[[[-95.24937437170702,38.95820059398686],[-95.24937366029057,38.958201849639146],[-95.24938021283721,38.958204110348376],[-95.24938166055607,38.95820155277045],[-95.24938455602847,38.95819643671415],[-95.24938494399751,38.95819575107372],[-95.2493914953907,38.95819801175493],[-95.2493948742155,38.95819204289048],[-95.24938832163448,38.95818978308246],[-95.249403636825,38.958162723938656],[-95.24941898052474,38.9581356140995],[-95.24942553191347,38.95813787477887],[-95.2494289107325,38.958131905913376],[-95.249422358191,38.95812964520685],[-95.24942274615931,38.95812895956628],[-95.24942564162576,38.95812384350891],[-95.24942708934138,38.95812128593043],[-95.24942383073554,38.9581201614036],[-95.24948014207612,38.958020668230496],[-95.24948336084168,38.95802177829236],[-95.2494873607123,38.95801471024441],[-95.24948521715177,38.95801397085818],[-95.2494913676765,38.958012413448635],[-95.24949732073037,38.95801044309941],[-95.2495030046365,38.95800809235686],[-95.24952576576072,38.95803748501176],[-95.24952346695919,38.95803856962754],[-95.24952593757199,38.95804176089293],[-95.24952695939747,38.95804127864441],[-95.24952819470394,38.95804287427709],[-95.2495294717151,38.958042271009376],[-95.24953276882442,38.958046529104024],[-95.2495314918133,38.95804713237178],[-95.24953441858261,38.95805091124181],[-95.24953569555876,38.95805030887441],[-95.2495363121291,38.95805110486256],[-95.24955422953646,38.95804188769382],[-95.249570947298,38.958031552484044],[-95.2495710491013,38.958031487307125],[-95.24958664312389,38.95801998178397],[-95.24960089508646,38.958007458483344],[-95.24961369392221,38.95799401300464],[-95.2496249433111,38.957979747605464],[-95.24963455706671,38.95796477109253],[-95.2496424626313,38.957949198003085],[-95.24964860002729,38.95793314587629],[-95.24965292178739,38.95791673705432],[-95.24965539651913,38.95790009606287],[-95.24965548916276,38.95789902039568],[-95.24965556662471,38.95789809757653],[-95.2496603238776,38.95789666031672],[-95.24966997570299,38.95787960738121],[-95.24967489035085,38.95788130380789],[-95.24967295933648,38.95788471329826],[-95.24967102944005,38.957888123716316],[-95.2496794931456,38.957891044378776],[-95.24968142307672,38.95788763306016],[-95.24968335297265,38.957884222641916],[-95.2496864900665,38.957878680623566],[-95.24969522598832,38.95788169516089],[-95.24969884527528,38.95787530030562],[-95.24969010935408,38.957872285768595],[-95.24971206668694,38.95783349158234],[-95.24974077924188,38.95778275958768],[-95.24974270913205,38.95777934916839],[-95.249744639022,38.95777593874913],[-95.24973617648077,38.957773018118715],[-95.24973424540222,38.95777642941092],[-95.24972933187833,38.95777473391449],[-95.24973705262747,38.95776109136494],[-95.24969119104969,38.95766857785706],[-95.24967536730159,38.95766311869555],[-95.24967741861353,38.95765949486362],[-95.24968178773135,38.95766100170989],[-95.24968564751055,38.95765418087322],[-95.24968127839308,38.957652674027116],[-95.24967691158217,38.95765116723552],[-95.24962667728329,38.95763383468589],[-95.24958252963111,38.95761860305882],[-95.2495764452453,38.95761650396996],[-95.24957207616752,38.95761499621933],[-95.24956770820809,38.957613489396266],[-95.24956396868875,38.95762009678814],[-95.24956833664845,38.95762160361129],[-95.24956616506307,38.95762544088225],[-95.24955033109563,38.95761997785589],[-95.24946254789029,38.95764650661333],[-95.24946049656764,38.957650130441465],[-95.24942759968717,38.957638780466716],[-95.24942964989295,38.9576351557114],[-95.24941982172649,38.95763176466515],[-95.24941777040216,38.957635388492484],[-95.24937272528713,38.957619847101974],[-95.24937477549518,38.95761622234764],[-95.24936494733399,38.957612831296686],[-95.24936289712554,38.95761645605084],[-95.24932999915825,38.95760510512063],[-95.2493320504862,38.95760148129477],[-95.24929807348995,38.95753294096337],[-95.24928223956395,38.95752747790036],[-95.24928441112671,38.95752364153505],[-95.24928877907458,38.9575251483688],[-95.24929251864965,38.957518540085395],[-95.24928815070218,38.95751703325184],[-95.24928378275484,38.95751552641806],[-95.24927769842175,38.957513426413065],[-95.24923354980187,38.95749819372533],[-95.24918440796809,38.957481238374946],[-95.24918331683845,38.95748086191116],[-95.2491789488956,38.95747935507349],[-95.2491745798348,38.957477847307885],[-95.2491708402508,38.95748445558748],[-95.24917520934699,38.95748596245284],[-95.24917303774443,38.95748979971648],[-95.24915721407635,38.95748434048422],[-95.24903872541628,38.957520147618254],[-95.2490310045587,38.95753379012158],[-95.24902609106857,38.95753209459535],[-95.24902802098639,38.9575286841879],[-95.24901955735112,38.95752576347782],[-95.24901762743298,38.957529173885106],[-95.24901569751465,38.957532584292395],[-95.24901256034853,38.95753812719318],[-95.24900382449827,38.95753511260436],[-95.24900020516587,38.957541507438066],[-95.2490089410518,38.95754452112675],[-95.24896502685301,38.95762211105883],[-95.2489562909944,38.95761909646647],[-95.24895267165338,38.95762549129867],[-95.24896140751264,38.95762850589124],[-95.24895827037302,38.95763404789013],[-95.248956340449,38.957637458296425],[-95.24895441052483,38.957640868702626],[-95.24896287305296,38.95764378848969],[-95.24896480413005,38.957640378110696],[-95.2489697176263,38.957642073639505],[-95.24896199674208,38.95765571613811],[-95.2489638375062,38.95765943050343],[-95.24894957655569,38.957671946304046],[-95.24893676636528,38.95768538513347],[-95.24892550556265,38.95769964479025],[-95.24891587921795,38.957714615541384],[-95.24890795978635,38.95773018555214],[-95.24890180965978,38.95774623463777],[-95.2488974739675,38.95776264130285],[-95.24889498644706,38.957779280176545],[-95.24889436469124,38.95779602550485],[-95.24889561598434,38.957812749486656],[-95.2488987279709,38.95782932475605],[-95.24889922401512,38.957831289480474],[-95.24890039219534,38.957831109916754],[-95.24890068127809,38.957832253220694],[-95.24890623079824,38.95783139805571],[-95.24890594286855,38.95783025477915],[-95.248912194911,38.95782929191387],[-95.24891248399396,38.95783043521779],[-95.24891482619034,38.95783007442617],[-95.24891505725415,38.95783098834347],[-95.24891974280013,38.957830266787425],[-95.24891922265313,38.95782820956624],[-95.24891485064425,38.95782888268572],[-95.24891410532123,38.95782576028111],[-95.24891278263884,38.95781748358992],[-95.24891238794231,38.957809148708385],[-95.24891292685061,38.95780081885567],[-95.24891439229741,38.957792556949805],[-95.2489167509316,38.95778447845745],[-95.24891677487503,38.957784426754536],[-95.24892005490209,38.95777648908607],[-95.24892421035577,38.957768805606385],[-95.24892920670341,38.95776143317441],[-95.24893500591777,38.95775442946737],[-95.24894156672218,38.957747846678025],[-95.2489488363433,38.95774173582514],[-95.24895676106472,38.957736142497794],[-95.24896527920303,38.95773110939224],[-95.24897432690851,38.95772667554861],[-95.24898383592902,38.957722874495055],[-95.24899373242177,38.957719735121074],[-95.24899459391771,38.95772147419761],[-95.24898576144265,38.95772432248748],[-95.24898484146951,38.95772461969306],[-95.24897547687901,38.95772841696377],[-95.24896657052952,38.9577328370382],[-95.2489581929795,38.95773784644286],[-95.24895040577233,38.95774340608287],[-95.24894875716788,38.957744808024934],[-95.24894326933313,38.957749475935856],[-95.24894104127168,38.957751738317135],[-95.24893683751831,38.95775600681112],[-95.24893615277324,38.95775684402405],[-95.24893115834853,38.957762951182076],[-95.24892627659479,38.957770256037634],[-95.24892222909628,38.95777786457353],[-95.24891904577287,38.95778571982138],[-95.24891831729532,38.957788273731374],[-95.24891675203676,38.9577937620022],[-95.24891578330981,38.95779946359789],[-95.24891536414482,38.95780192931719],[-95.24891489370606,38.95781016075855],[-95.24891534320894,38.957818392398366],[-95.24891671045908,38.957826562],[-95.24891674004365,38.957826691577175],[-95.2489509605063,38.95782141395775],[-95.24893948816683,38.9578137354849],[-95.24893957736187,38.95781360872605],[-95.2489396738649,38.95781344248673],[-95.24893975100879,38.95781326947951],[-95.24893980868848,38.957813092405566],[-95.24893984690392,38.95781291126485],[-95.24893986324368,38.95781272870387],[-95.24893986109709,38.95781254660554],[-95.24893983703974,38.95781236398724],[-95.24893979323781,38.9578121845054],[-95.2489397296913,38.95781200816],[-95.24893964633007,38.957811836751745],[-95.24893954539051,38.95781167213622],[-95.24893942453114,38.957811515159115],[-95.24893928832978,38.95781136683022],[-95.2489392370348,38.95781132055191],[-95.24894894455525,38.95780247915337],[-95.24895718921131,38.95780322722606],[-95.24894770812739,38.95778234799349],[-95.2489478962139,38.95778226053129],[-95.24894808622462,38.95778215328782],[-95.24894826400569,38.95778203403824],[-95.24894842725078,38.957781902727845],[-95.24894857588978,38.9577817611574],[-95.2489487076162,38.95778160927219],[-95.248948822325,38.95778144977339],[-95.24894891767481,38.95778128350672],[-95.24894899481865,38.95778111049948],[-95.24894905249826,38.95778093342553],[-95.2489490907137,38.95778075228479],[-95.24894910820657,38.95778056975117],[-95.24894910494183,38.95778038672508],[-95.24894908084943,38.95778020500718],[-95.2489490370475,38.957780025525366],[-95.248948973501,38.95777984917995],[-95.24894895218924,38.95777980361302],[-95.24897290818745,38.95777318024271],[-95.24897483721318,38.95777447871527],[-95.24897990008726,38.95775122106603],[-95.24898012646473,38.957751217425],[-95.24898035916898,38.957751199514526],[-95.24898059019755,38.95775116534219],[-95.24898081605595,38.95775111572641],[-95.24898103443766,38.95775105061238],[-95.2489812453077,38.95775097090054],[-95.24898144747777,38.95775087746387],[-95.24898163748833,38.95775077022033],[-95.24898181526929,38.957750650970695],[-95.24898197851424,38.95775051966023],[-95.24898212599986,38.957750378062386],[-95.24898225884435,38.95775022710489],[-95.24898237239985,38.95775006757872],[-95.24898246893775,38.95774990043896],[-95.24898254608146,38.95774972743171],[-95.248982603761,38.9577495503577],[-95.24898264194125,38.957749370117405],[-95.2489826478189,38.95774930807231],[-95.24901020329234,38.95775296295308],[-95.24901150049912,38.95775557754335],[-95.24901017817537,38.95775512079092],[-95.24901014627129,38.95775511012046],[-95.24900415234744,38.95775700377194],[-95.24899839216505,38.9577592977055],[-95.2489929102816,38.957761974052794],[-95.24898774898307,38.957765013990105],[-95.24898294496488,38.95776839405512],[-95.24897853736903,38.95777208723864],[-95.24897455957138,38.95777606639464],[-95.2489710404403,38.957780301566494],[-95.24896800664287,38.95778476004156],[-95.24896548257485,38.95778940815227],[-95.2489634869361,38.95779421029326],[-95.2489620361902,38.957799129003796],[-95.24896113865826,38.95780412843232],[-95.24896080276639,38.957809170026096],[-95.248961031175,38.95781421509558],[-95.24896182189634,38.95781922574209],[-95.24896316836508,38.95782416305726],[-95.24896506160437,38.95782899077905],[-95.2489674857881,38.957833670680444],[-95.2489687908073,38.957835787980365],[-95.24896664613952,38.957835047656786],[-95.248962646227,38.95784211568692],[-95.2489658603635,38.95784322565376],[-95.24890951988426,38.957942770172096],[-95.24890629319908,38.95794165630115],[-95.24890194997151,38.95794932991761],[-95.24890156822079,38.95795000398817],[-95.24889501686624,38.95794774327921],[-95.2488916391992,38.95795371125616],[-95.24889819055416,38.95795597196537],[-95.24888286895833,38.957983043511554],[-95.24886754738586,38.958010114155314],[-95.2488609948736,38.95800785341712],[-95.24885761716574,38.95801382229346],[-95.24886416967846,38.958016083031914],[-95.24886378911522,38.958016756229306],[-95.24886088001603,38.95802189538188],[-95.24885896251992,38.95802528264981],[-95.24886551276235,38.958027542433044],[-95.24886670016967,38.95802544551907],[-95.24890988366904,38.958040332801566],[-95.24890750626962,38.958044533778796],[-95.24890367591645,38.95804321182104],[-95.24890053875393,38.958048753818176],[-95.24890589991396,38.95805060326569],[-95.24891291827457,38.958053024657964],[-95.24894736878608,38.95806491181866],[-95.24898233529773,38.95807697613598],[-95.24898883771007,38.958079219456366],[-95.24899404396632,38.95808101565702],[-95.2489971799347,38.958075474530425],[-95.24899336781915,38.95807415841579],[-95.24899491967271,38.95807141675962],[-95.2492444088149,38.95815749908161],[-95.2492444771663,38.958157522332606],[-95.24924338637581,38.95815945030965],[-95.24923953549775,38.95815812156783],[-95.24923639954469,38.95816366270093],[-95.24924164337872,38.958165472398775],[-95.24924787701465,38.95816762281008],[-95.2492831124212,38.95817977993119],[-95.24931848335443,38.958191984416494],[-95.2493245814454,38.95819408834908],[-95.24932993804978,38.958195936767204],[-95.24933307518518,38.95819039475854],[-95.2493292482057,38.95818907469778],[-95.24933116795506,38.95818568837721],[-95.24937437170702,38.95820059398686]]],[[[-95.24890084366177,38.95773392441552],[-95.24890371023143,38.95773560111881],[-95.24890693086742,38.95773224386935],[-95.24890406429779,38.957730567166095],[-95.24890084366177,38.95773392441552]]],[[[-95.24898355994979,38.95775137729742],[-95.2489833272456,38.95775139520796],[-95.24898309737016,38.95775142940761],[-95.2489828715118,38.95775147902347],[-95.2489826519769,38.95775154411012],[-95.24898244110686,38.95775162382196],[-95.24898224008994,38.95775171728597],[-95.24898205007938,38.95775182452953],[-95.24898187229842,38.95775194377918],[-95.24898170905347,38.95775207508962],[-95.24898156041465,38.9577522166601],[-95.24898142872333,38.957752367644964],[-95.24898131401463,38.95775252714379],[-95.2489812174768,38.957752694283535],[-95.24898114033302,38.957752867290786],[-95.24898108265347,38.9577530443648],[-95.2489810456264,38.95775322463248],[-95.24898102813366,38.95775340716609],[-95.24898103139842,38.957753590192226],[-95.24898105430267,38.95775377278311],[-95.24898109810468,38.9577539522649],[-95.24898116165127,38.95775412861033],[-95.24898124504753,38.957754299118136],[-95.24898134710526,38.95775446466135],[-95.24898146681141,38.95775462161108],[-95.248981604166,38.957754769967266],[-95.24898175689768,38.957754908774874],[-95.24898192507654,38.957755036233074],[-95.24898210639611,38.95775515228712],[-95.2489822997734,38.95775525510884],[-95.24898250405512,38.95775534467099],[-95.2489827181582,38.95775541914531],[-95.24898293974117,38.95775547937748],[-95.24898316653274,38.95775552441242],[-95.24898339737959,38.957755554222764],[-95.24898363116367,38.95775556788076],[-95.24898386557852,38.95775556533164],[-95.24898409947097,38.957755546548114],[-95.24898432934638,38.95775551234843],[-95.2489845552048,38.95775546273262],[-95.24898477355147,38.957755398519005],[-95.2489849855747,38.95775531883447],[-95.2489851865916,38.957755225370455],[-95.24898537660216,38.957755118126904],[-95.24898555438313,38.95775499887725],[-95.2489857176281,38.95775486756678],[-95.24898586626693,38.95775472599629],[-95.2489859979582,38.95775457501144],[-95.24898611270197,38.95775441461227],[-95.24898620805158,38.95775424834552],[-95.2489862851953,38.95775407533823],[-95.24898634287482,38.95775389826425],[-95.2489863810901,38.957753717123566],[-95.24898639858289,38.95775353458994],[-95.24898639531806,38.95775335156381],[-95.24898637122557,38.957753169845965],[-95.24898632742357,38.95775299036411],[-95.24898626387699,38.957752814018704],[-95.24898618166895,38.957752642637914],[-95.24898607957614,38.957752477995065],[-95.24898595987,38.95775232104533],[-95.24898582251542,38.957752172689126],[-95.24898566978369,38.957752033881526],[-95.24898550160485,38.95775190642337],[-95.24898532028526,38.957751790369336],[-95.24898512690804,38.95775168754756],[-95.24898492147312,38.957751597958115],[-95.2489847085583,38.95775152261078],[-95.24898448697529,38.95775146237858],[-95.24898426018379,38.95775141734362],[-95.2489840281487,38.95775138840631],[-95.24898379436465,38.957751374748355],[-95.24898355994979,38.95775137729742]]],[[[-95.2488910358305,38.95776909722404],[-95.24889438374686,38.957770091405536],[-95.24889629426937,38.95776617134772],[-95.24889294754138,38.95776517629325],[-95.2488910358305,38.95776909722404]]],[[[-95.24895200314964,38.95778039060301],[-95.24895177044533,38.95778040851347],[-95.24895153941661,38.95778044268571],[-95.24895131471132,38.957780492328816],[-95.2489510951763,38.95778055741546],[-95.24895088430614,38.957780637127264],[-95.24895068328914,38.95778073059118],[-95.24895049212522,38.95778083780735],[-95.24895031549731,38.95778095708429],[-95.24895015109905,38.957781088367334],[-95.24895000361329,38.957781229965136],[-95.24894987192185,38.95778138094993],[-95.24894975721305,38.957781540448735],[-95.24894966067511,38.957781707588474],[-95.2489495835312,38.95778188059572],[-95.24894952585157,38.95778205766967],[-95.24894948882444,38.957782237937316],[-95.24894947133154,38.95778242047095],[-95.2489494745963,38.95778260349708],[-95.24894949750042,38.957782786088],[-95.24894954130237,38.95778296556981],[-95.2489496048489,38.957783141915236],[-95.24894968824513,38.957783312423054],[-95.24894979033786,38.95778347706591],[-95.24894991000896,38.95778363491607],[-95.24895004621034,38.95778378324496],[-95.24895020009522,38.95778392207996],[-95.24895036712087,38.95778404951083],[-95.24895054959372,38.95778416559225],[-95.24895074297102,38.95778426841408],[-95.24895094728782,38.95778435707586],[-95.24895116135589,38.957784432450616],[-95.24895138178574,38.957784492655485],[-95.24895160973055,38.95778453771788],[-95.24895184057752,38.95778456752829],[-95.24895207436167,38.95778458118631],[-95.24895230877664,38.957784578637295],[-95.24895254151599,38.957784559826464],[-95.24895277254474,38.95778452565418],[-95.24895299724997,38.957784476011085],[-95.24895321678505,38.95778441092447],[-95.24895342762018,38.957784332113064],[-95.2489536286372,38.95778423864906],[-95.24895381980113,38.95778413143295],[-95.24895399642898,38.957784012156004],[-95.24895416082728,38.95778388087295],[-95.248954308313,38.95778373927516],[-95.24895444003945,38.95778358738993],[-95.24895455474827,38.95778342789112],[-95.24895465125122,38.95778326165181],[-95.24895472839505,38.95778308864455],[-95.24895478607468,38.957782911570604],[-95.24895482313688,38.95778273040251],[-95.24895484062975,38.957782547868895],[-95.248954837365,38.95778236484275],[-95.24895481442576,38.957782183152254],[-95.24895477062383,38.95778200367043],[-95.24895470707729,38.95778182732503],[-95.24895462371609,38.95778165591679],[-95.24895452162333,38.95778149127395],[-95.24895440191716,38.95778133432418],[-95.24895426571582,38.9577811859953],[-95.24895411183093,38.957781047160324],[-95.24895394480531,38.95778091972948],[-95.24895376233246,38.95778080364799],[-95.24895356895517,38.95778070082625],[-95.24895336467341,38.95778061126406],[-95.24895315060532,38.95778053588929],[-95.24895293017552,38.957780475684416],[-95.24895270223072,38.957780430622044],[-95.24895247134874,38.95778040171202],[-95.2489522375646,38.95778038805396],[-95.24895200314964,38.95778039060301]]],[[[-95.24888953629912,38.9578020185403],[-95.2488931053317,38.957802254630785],[-95.24889355889927,38.95779807469668],[-95.24888998986688,38.95779783860619],[-95.24888953629912,38.9578020185403]]],[[[-95.24894380124783,38.957810602424566],[-95.24894356735516,38.957810621208026],[-95.24894333747956,38.95781065540763],[-95.24894311162097,38.95781070502333],[-95.24894289323905,38.95781077013735],[-95.24894268125064,38.95781084892137],[-95.24894248019845,38.95781094328571],[-95.24894229022271,38.957811049628766],[-95.24894211244155,38.957811168878386],[-95.2489419491964,38.95781130018876],[-95.24894180055736,38.957811441759205],[-95.24894166883081,38.95781159364435],[-95.24894155412194,38.95781175314314],[-95.24894145877214,38.95781191940983],[-95.24894138162826,38.95781209241709],[-95.24894132394853,38.957812269491036],[-95.24894128573307,38.95781245063172],[-95.24894126824022,38.957812633165325],[-95.24894127150489,38.95781281619147],[-95.24894129559728,38.95781299790934],[-95.24894133939927,38.9578131773912],[-95.24894140294577,38.9578133537366],[-95.24894148515376,38.957813525117466],[-95.24894158724652,38.957813689760314],[-95.24894170695272,38.957813846710124],[-95.24894184430734,38.957813995066374],[-95.24894199703905,38.957814133874024],[-95.24894216521797,38.957814261332246],[-95.24894234653763,38.957814377386335],[-95.24894253991503,38.95781448020817],[-95.24894274535008,38.95781456979772],[-95.24894295826503,38.95781464514513],[-95.24894317984815,38.95781470537742],[-95.24894340663982,38.95781475041242],[-95.24894363867514,38.95781477934981],[-95.2489438724594,38.957814793007884],[-95.24894410572125,38.95781479043153],[-95.24894433957891,38.95781477254843],[-95.24894456945451,38.95781473834884],[-95.24894479531314,38.95781468873307],[-95.24894501484829,38.95781462364651],[-95.24894522571854,38.95781454393471],[-95.24894542673565,38.957814450470764],[-95.24894561674644,38.957814343227284],[-95.24894579452761,38.95781422397768],[-95.24894595777276,38.95781409266728],[-95.24894610641184,38.957813951096846],[-95.24894623810329,38.95781380011202],[-95.24894635281215,38.957813640613246],[-95.24894644819705,38.95781347344619],[-95.24894652649411,38.95781330046632],[-95.2489465830206,38.95781312336496],[-95.24894662120097,38.95781294312463],[-95.24894663869387,38.95781276059104],[-95.24894663542915,38.9578125775649],[-95.24894661137178,38.95781239494667],[-95.24894656872301,38.95781221549222],[-95.24894650402331,38.957812039119375],[-95.24894642178019,38.95781186863892],[-95.24894631968745,38.95781170399606],[-95.24894620001633,38.95781154614593],[-95.24894606266167,38.95781139778968],[-95.24894590992997,38.95781125898204],[-95.24894574175104,38.95781113152377],[-95.24894556039632,38.9578110163701],[-95.24894536705402,38.95781091264791],[-95.24894516273713,38.95781082398611],[-95.24894494866899,38.95781074861131],[-95.24894472708583,38.95781068837908],[-95.24894450029419,38.95781064334403],[-95.24894426829391,38.95781061350625],[-95.2489440356629,38.957810599875536],[-95.24894380124783,38.957810602424566]]],[[[-95.24889378495273,38.957829039842316],[-95.24889482521016,38.95783315518533],[-95.24889833908162,38.9578326140121],[-95.24889729882396,38.9578284986691],[-95.24889378495273,38.957829039842316]]],[[[-95.24962391201281,38.95798409227939],[-95.24962743053148,38.95798461824433],[-95.24962844038524,38.95798049836789],[-95.24962492302002,38.957979972430316],[-95.24962391201281,38.95798409227939]]],[[[-95.24959752736943,38.958012697624746],[-95.24960072288222,38.95801396033993],[-95.24960314936175,38.958010217434705],[-95.24959995384906,38.95800895471954],[-95.24959752736943,38.958012697624746]]],[[[-95.24956792976592,38.958035089407005],[-95.24957055560009,38.958036991096],[-95.24957420850242,38.95803391535128],[-95.2495715826682,38.958032013662354],[-95.24956792976592,38.958035089407005]]],[[[-95.24953565388942,38.958052506874395],[-95.24953750800299,38.958054900350604],[-95.24954210564165,38.95805273021813],[-95.249540251528,38.95805033674194],[-95.24953565388942,38.958052506874395]]]]},"properties":{"SDE.FloorAll.FLOORLOCATION":"ROOF"}}]}
