{"type":"FeatureCollection","features":[{"type":"Feature","geometry":{"type":"Polygon","coordinates":[[[-95.25510333687201,38.95546139283321],[-95.25510729257726,38.955461388250384],[-95.25514949079724,38.955461334647396],[-95.25515344650255,38.955461330062974],[-95.25515312970379,38.955307912732046],[-95.25522753076272,38.95530476424673],[-95.25524293210437,38.955164719171215],[-95.2554389846725,38.95516411697956],[-95.25543905627309,38.955198449871226],[-95.2555597878274,38.95519829768057],[-95.25555940951574,38.95501570361424],[-95.25425179180765,38.9550173462411],[-95.25425180299356,38.95502320896538],[-95.25426666656908,38.95502319056529],[-95.25430194540776,38.95530849995663],[-95.25468154967226,38.95532787113244],[-95.2551030245375,38.95531003309805],[-95.25510333687201,38.95546139283321]]]},"properties":{"SDE.FloorAll.FLOORLOCATION":"-1"}},{"type":"Feature","geometry":{"type":"Polygon","coordinates":[[[-95.2543314098368,38.95533184006292],[-95.2543350077399,38.955331835144314],[-95.25433500565491,38.95533046253151],[-95.25433703833156,38.95533046019978],[-95.25433702359359,38.95532299501631],[-95.25445201397537,38.9553228513087],[-95.25445202876043,38.955330315591766],[-95.25445406259024,38.9553303132853],[-95.25445406467759,38.95533168589812],[-95.2544576625457,38.95533168187608],[-95.25445763561173,38.95531840891994],[-95.25445905655086,38.95531846600022],[-95.25468093505073,38.95532978790089],[-95.25468093864835,38.955329843861946],[-95.25468153521864,38.955329818334],[-95.2546820455099,38.955329844836484],[-95.25468204966963,38.955329797170116],[-95.25522592202324,38.955306779148344],[-95.2552301825764,38.955303382364285],[-95.25523171560032,38.955289436177885],[-95.25523171300588,38.95528819513205],[-95.25526151644648,38.955288158079796],[-95.25526151011022,38.95528534881694],[-95.255259752167,38.95528535045895],[-95.25525974915999,38.95528376333362],[-95.25525018825829,38.95528377581719],[-95.25525003082683,38.95520757456505],[-95.25525959168323,38.95520756298191],[-95.25525958871114,38.95520597495619],[-95.25526134665238,38.955205973314115],[-95.25526134031611,38.95520316405128],[-95.25523825941922,38.955203192622996],[-95.2552385166586,38.955200848322505],[-95.25524143614284,38.955201044510034],[-95.25525533528206,38.95507465615522],[-95.25525241580304,38.95507445996803],[-95.25525261365979,38.955072664007936],[-95.2552505682709,38.95507266695581],[-95.25525056363642,38.955070378640215],[-95.25523454346805,38.955070398624805],[-95.25523444312235,38.95502197622626],[-95.25527648292264,38.95502192333899],[-95.25527647053356,38.95501605968711],[-95.25510304092602,38.955016277946584],[-95.25510300538386,38.95501645013997],[-95.25510285879304,38.95501645027432],[-95.25510285992901,38.955017193810484],[-95.25443473633973,38.95501803229535],[-95.25443473521078,38.9550172887592],[-95.25443458861996,38.95501728889272],[-95.25443455144499,38.95501711677992],[-95.25428629306431,38.955017302636946],[-95.25428640450804,38.95507160309455],[-95.2542746470774,38.95507161755223],[-95.25427465098183,38.95507389413542],[-95.25427337782475,38.95507389552726],[-95.25427357104674,38.955075458318674],[-95.25427065386222,38.95507567852631],[-95.2542992795163,38.9553071832216],[-95.25430219671027,38.95530696301324],[-95.25430234577593,38.95530817688657],[-95.25430389398115,38.95530825590829],[-95.25430370258252,38.95531053868099],[-95.2543300577856,38.9553118837945],[-95.25433136903628,38.95531188240286],[-95.2543314098368,38.95533184006292]]]},"properties":{"SDE.FloorAll.FLOORLOCATION":"1"}},{"type":"Feature","geometry":{"type":"Polygon","coordinates":[[[-95.25499892852392,38.955277403746116],[-95.25499893253547,38.95527911346176],[-95.25500122837622,38.955279111040454],[-95.25504835769893,38.95527711583027],[-95.25504834332055,38.95527047167154],[-95.25515074968435,38.95527034296723],[-95.25515156157073,38.95526295954016],[-95.255170253911,38.95526415549239],[-95.25517508764706,38.95522153572212],[-95.25517587969279,38.95522158871973],[-95.25517602474625,38.955221598462344],[-95.25518994696927,38.955095005180226],[-95.25518980600553,38.95509494957211],[-95.25518982575296,38.95509476799247],[-95.25518924208066,38.95509472894027],[-95.25519098519933,38.9550788798382],[-95.25519748904227,38.95501973422012],[-95.25519748153339,38.9550163310232],[-95.25510285879304,38.95501645027432],[-95.25510285992901,38.955017193810484],[-95.25499421741021,38.95501732982783],[-95.25499434825282,38.95508074480291],[-95.25499852324663,38.955080740008746],[-95.25499892852392,38.955277403746116]]]},"properties":{"SDE.FloorAll.FLOORLOCATION":"2"}}]}
