{"type":"FeatureCollection","features":[{"type":"Feature","geometry":{"type":"Polygon","coordinates":[[[-95.24912964631275,38.953787525361875],[-95.24915243381881,38.953964760249974],[-95.24921739880311,38.95395967041997],[-95.24921277713872,38.953923700114714],[-95.24941932073285,38.953907525269074],[-95.249401167041,38.953766260131616],[-95.24912964631275,38.953787525361875]]]},"properties":{"SDE.FloorAll.FLOORLOCATION":"-1"}},{"type":"Feature","geometry":{"type":"Polygon","coordinates":[[[-95.2504355307027,38.953979259502034],[-95.2504924846163,38.95384454957341],[-95.25015670770095,38.953757958719905],[-95.25018742785286,38.95368529789162],[-95.2502071149447,38.95369037278804],[-95.25020788400977,38.953688553430915],[-95.2501982141813,38.953686060207886],[-95.25021266088552,38.95365189044282],[-95.25022233070976,38.95365438366468],[-95.25022310096223,38.95365256343435],[-95.25020341387977,38.95364748854063],[-95.25021484356105,38.953620438091974],[-95.25032753705757,38.95362085148811],[-95.25039354073161,38.953621093857215],[-95.25039365140529,38.953621008161925],[-95.25039372845674,38.953608137794845],[-95.25039366298368,38.953607625247585],[-95.2504620220181,38.95360226825208],[-95.25046206762535,38.953594716168446],[-95.25048887011597,38.953592615681146],[-95.25048869454044,38.95359125427276],[-95.25060163056945,38.953582404058444],[-95.25060217411483,38.953582406133535],[-95.25060212057971,38.95359129003912],[-95.25070878056681,38.953582931659554],[-95.25073573536314,38.95339138376627],[-95.25027925997513,38.95335222746669],[-95.25013574172152,38.953432844733896],[-95.25013558945264,38.953458150222176],[-95.25009098162953,38.95345798620432],[-95.24999938685717,38.95350943654084],[-95.24999931383607,38.953521430113206],[-95.24994323603993,38.953521224690284],[-95.24994346298391,38.95348352912844],[-95.2499415588481,38.95348352181373],[-95.24994153364256,38.953487640715274],[-95.24928398045851,38.953485222989116],[-95.24928396724255,38.95348728287636],[-95.24924506838629,38.95348713952702],[-95.24924508041524,38.9534850805128],[-95.24921775649221,38.95348497926488],[-95.24921764581731,38.953485064959025],[-95.24921685087283,38.95361668445871],[-95.24921696065613,38.95361676997619],[-95.24965773025342,38.95361839132971],[-95.24965776849477,38.953619306980315],[-95.24966328174494,38.95366220990941],[-95.24964279924006,38.95366381485619],[-95.24964300744573,38.953665434790686],[-95.2496529939933,38.953664652411014],[-95.24965767103328,38.953701043979095],[-95.24964768448062,38.953701826359186],[-95.2496478936995,38.95370344992261],[-95.24966840165477,38.9537018437759],[-95.24966843910003,38.953702334930625],[-95.24967390382997,38.95374485368693],[-95.24913028883176,38.95378741623782],[-95.24914848992586,38.95392905115589],[-95.24998613816672,38.953863419955745],[-95.2504355307027,38.953979259502034]]]},"properties":{"SDE.FloorAll.FLOORLOCATION":"1"}},{"type":"Feature","geometry":{"type":"Polygon","coordinates":[[[-95.25048157770986,38.95399151139166],[-95.25048429923727,38.95398507449754],[-95.25047703709649,38.95398320256443],[-95.25047725571483,38.95398268593985],[-95.25049283502993,38.95398666481122],[-95.25049335873506,38.95398542633094],[-95.25047886681938,38.953980405296186],[-95.2505282522546,38.95386359623491],[-95.25054375488322,38.95386634130713],[-95.25054424794483,38.953865059742384],[-95.25052868148089,38.953861047836774],[-95.25052891411377,38.95386049729793],[-95.25053617739648,38.95386236925514],[-95.25053889887893,38.953855933260094],[-95.25038474072515,38.953816195898725],[-95.25039245779958,38.95379794526462],[-95.25038974376025,38.95379724643607],[-95.25039038696323,38.95379572510196],[-95.25038983046487,38.95379558122644],[-95.25038971600026,38.95379585338535],[-95.25016536755147,38.95373802354048],[-95.25016548316998,38.95373775140909],[-95.25016528291542,38.953737677265124],[-95.25019043162597,38.95367819268068],[-95.25021446406043,38.953621351945436],[-95.25021446966596,38.95362043643387],[-95.25021643960409,38.953620443502224],[-95.25021665887438,38.953620444196645],[-95.25023062527686,38.953619122599],[-95.25023063002236,38.95361843687937],[-95.25025018969927,38.95361850875131],[-95.25025018495397,38.953619194470875],[-95.2502692976834,38.953620638218126],[-95.25026951695371,38.953620638912454],[-95.25028864534436,38.953619336094484],[-95.25028864897119,38.953618649447165],[-95.25030820864822,38.953618721309255],[-95.2503082050216,38.95361940795659],[-95.25032731663417,38.95362085076655],[-95.25032732863167,38.95361879175228],[-95.2503662287507,38.95361893386556],[-95.25036622397151,38.95361962048554],[-95.25039354073161,38.953621093857215],[-95.25039365140529,38.953621008161925],[-95.25039197083531,38.95360813215992],[-95.25039192292611,38.953607761521496],[-95.25039109399113,38.95360782657752],[-95.25039107168121,38.953562824286905],[-95.25039107151676,38.95356270982745],[-95.25039927665624,38.9535627403983],[-95.25039928601718,38.95356122385889],[-95.25039160824423,38.95356119588163],[-95.25039202947907,38.95349117168851],[-95.25028941896902,38.95349079471338],[-95.2502894308112,38.953488917742774],[-95.2500188928539,38.95348792464375],[-95.25001888084748,38.953489983658],[-95.24997998080003,38.953489841428166],[-95.24997999399578,38.95348778154087],[-95.24996086563503,38.95348908430793],[-95.24996086085187,38.95348977092793],[-95.24994130121081,38.95348969900724],[-95.24994130599414,38.95348901238725],[-95.24992219327197,38.95348756948632],[-95.24992197400208,38.953487568791346],[-95.24990284564034,38.95348887154884],[-95.24990284200975,38.95348955819618],[-95.24986394199783,38.95348941502702],[-95.24986395516191,38.95348735604012],[-95.24984482683415,38.953488657887675],[-95.24984482204985,38.95348934450762],[-95.24982526240906,38.9534892725674],[-95.24982526719351,38.9534885859474],[-95.24980615447382,38.95348714302736],[-95.24980593520394,38.95348714233216],[-95.24978680684015,38.953488445070505],[-95.24978680320847,38.95348913171782],[-95.24974790319703,38.95348898850979],[-95.24974791521134,38.953486929495554],[-95.24972878799966,38.95348823225168],[-95.24972878324931,38.95348891797125],[-95.24970922360873,38.95348884601145],[-95.2497092283593,38.953488160291855],[-95.24969011567713,38.95348671645232],[-95.24968989640725,38.95348671575685],[-95.24967076804138,38.9534880184761],[-95.24967076440855,38.9534887051234],[-95.24963186439761,38.95348856187646],[-95.2496318764153,38.95348650286218],[-95.24961274804846,38.95348780557185],[-95.24961274445012,38.95348849131879],[-95.24959318477471,38.95348842023978],[-95.24959318956147,38.95348773361981],[-95.24957407684673,38.953486290661516],[-95.24957385757686,38.95348628996589],[-95.249554729244,38.95348759176557],[-95.24955472561005,38.95348827841289],[-95.24951582559957,38.95348813512697],[-95.24951583762065,38.95348607611274],[-95.24949670925179,38.953487378803274],[-95.24949670561729,38.953488065450586],[-95.24947714597715,38.95348799345162],[-95.24947715076503,38.953487306831654],[-95.24945803805278,38.95348586385425],[-95.2494578187829,38.95348586315835],[-95.24943869044803,38.95348716493891],[-95.24943868565984,38.9534878515589],[-95.24939978680297,38.953487708261434],[-95.24939979882741,38.95348564924721],[-95.24938067045653,38.95348695191857],[-95.24938066682087,38.95348763856592],[-95.24936110718099,38.95348756654736],[-95.24936111081684,38.95348687990006],[-95.24934199926021,38.95348543693089],[-95.24934177999036,38.953485436234764],[-95.24932265161843,38.95348673889655],[-95.24932264686414,38.95348742461615],[-95.24928374797267,38.95348728218014],[-95.24928376003554,38.95348522226558],[-95.24926463166264,38.95348652491779],[-95.24926462802588,38.953487211565125],[-95.24924506838629,38.95348713952702],[-95.24924507202323,38.9534864528797],[-95.24921775645718,38.95348498016527],[-95.24921764581731,38.953485064959025],[-95.24921932613543,38.95349794187861],[-95.24922020552131,38.953497944718634],[-95.24922011325494,38.95351321739552],[-95.24921747628498,38.95351320800241],[-95.24921914342092,38.953528143908734],[-95.24922002280714,38.953528146748766],[-95.24921983916602,38.9535585208908],[-95.24921720219439,38.95355851149768],[-95.24921887048444,38.95357344743137],[-95.24921974987126,38.95357345027138],[-95.24921956626491,38.95360382351295],[-95.24921868687771,38.95360382067292],[-95.24921685087283,38.95361668445871],[-95.2492169606211,38.953616770876586],[-95.2492442942103,38.95361549798443],[-95.24924429781224,38.95361481223753],[-95.24926385748716,38.953614884275794],[-95.24926385388541,38.95361557002269],[-95.24928296547564,38.953617013004695],[-95.24928297750353,38.953614953990545],[-95.24932187758334,38.95361509735458],[-95.24932187279396,38.95361578397448],[-95.24934098438544,38.95361722694696],[-95.24934120480881,38.95361722767044],[-95.24936033321572,38.95361592500557],[-95.24936033685155,38.95361523835826],[-95.24937989652672,38.95361531037694],[-95.24937989289106,38.95361599702425],[-95.24939900448379,38.953617439987134],[-95.24939901650825,38.953615380972984],[-95.24943791658858,38.95361552429805],[-95.24943791180031,38.95361621091798],[-95.24945702339426,38.95361765387133],[-95.24945724381763,38.953617654594574],[-95.24947637222252,38.953616351910604],[-95.24947637585724,38.95361566526327],[-95.24949593553264,38.9536157372624],[-95.2494959318981,38.95361642390968],[-95.2495150434933,38.95361786685347],[-95.24951505551441,38.953615807839284],[-95.24955395559519,38.95361595112545],[-95.24955395084308,38.95361663684501],[-95.24957306240448,38.95361808067965],[-95.24957328282787,38.95361808140262],[-95.24959241123072,38.953616778699505],[-95.24959241486432,38.953616092052194],[-95.24961197453995,38.95361616403171],[-95.24961197090656,38.953616850679026],[-95.24963108250422,38.953618293603725],[-95.24963109452196,38.953616234589525],[-95.24965065419768,38.95361630656253],[-95.24965064218051,38.953618365576716],[-95.24965785489682,38.953618391582864],[-95.24965776849477,38.953619306980315],[-95.2496738956589,38.95374479671593],[-95.2491298407848,38.95378742182907],[-95.24912964515957,38.95378752533451],[-95.24913215155674,38.95380702423143],[-95.24913303955039,38.95380695427699],[-95.24913471233347,38.953819965301406],[-95.24913382318654,38.953820035228475],[-95.2491354515586,38.95383270453594],[-95.24913634070568,38.95383263460889],[-95.2491380123369,38.95384564560586],[-95.24913712318967,38.95384571553293],[-95.24913875156288,38.953858384840345],[-95.24913964067524,38.95385831581365],[-95.24914296292303,38.95388416607587],[-95.24914207377533,38.953884236003],[-95.24914370215033,38.953896905310344],[-95.24914459011003,38.95389683625622],[-95.24914626289741,38.953909847280364],[-95.24914537378442,38.9539099163071],[-95.2491478801552,38.9539294161039],[-95.24914810602348,38.95392948454875],[-95.24940082257726,38.953909684642184],[-95.2494007570761,38.95390917299476],[-95.24948824452515,38.953902317421374],[-95.24948819309402,38.95390191876098],[-95.2495757731269,38.95389505630616],[-95.24957582452349,38.953895455866906],[-95.24998627344532,38.953863295190516],[-95.25027792167951,38.95393847315025],[-95.2502777156771,38.95393896213572],[-95.25048157770986,38.95399151139166]]]},"properties":{"SDE.FloorAll.FLOORLOCATION":"2"}},{"type":"Feature","geometry":{"type":"Polygon","coordinates":[[[-95.25049001113919,38.95399365623487],[-95.25049296526453,38.95398666970216],[-95.25050126961214,38.95398880968094],[-95.25050179331718,38.95398757120064],[-95.25047381219157,38.95397795215348],[-95.25046384547785,38.953975345568566],[-95.2504639954604,38.953974902117935],[-95.25051236153143,38.95386059141646],[-95.25052233165516,38.95386319897968],[-95.25055215877585,38.953868443989336],[-95.25055268251414,38.953867204608386],[-95.2505410562358,38.95386420809738],[-95.25054128883365,38.9538636584589],[-95.25054460965893,38.95386451406706],[-95.25054733117572,38.95385807717142],[-95.25038482756054,38.953816188945844],[-95.25039254348185,38.95379793828442],[-95.25039087391663,38.95379750845858],[-95.25038315799495,38.95381575911991],[-95.25015700053909,38.95375746278197],[-95.25019051846124,38.953678185727995],[-95.25021454974255,38.95362134496534],[-95.25021455534802,38.95362042945379],[-95.25021674452141,38.95362043811698],[-95.250230712077,38.95361911654665],[-95.25023071570439,38.953618429899294],[-95.25025027538133,38.95361850177118],[-95.25025027178914,38.9536191875181],[-95.25026938336546,38.953620631238],[-95.25026960263574,38.95362063193233],[-95.25028873102639,38.95361932911437],[-95.2502887358064,38.95361864249436],[-95.25032763473712,38.953618785493674],[-95.25032762273968,38.95362084450796],[-95.25034675112931,38.95361954168041],[-95.25034675472055,38.95361885593349],[-95.25036631439772,38.95361892778577],[-95.25036631080668,38.953619613532695],[-95.2503936275668,38.95362108690434],[-95.25039373708734,38.95362100118173],[-95.25039205651738,38.953608125179734],[-95.25039117716511,38.953608121448156],[-95.25039126917868,38.95359284877046],[-95.25039390726982,38.95359285906466],[-95.25039223873111,38.953577923147904],[-95.25039135937922,38.9535779194164],[-95.25039154248213,38.953547546172906],[-95.25039417945352,38.95354755553934],[-95.25039251091583,38.95353261962258],[-95.25039163152945,38.953532616791435],[-95.25039181466717,38.953502242647424],[-95.25039269401807,38.95350224637895],[-95.25039452980612,38.9534893825744],[-95.25039442005662,38.953489296157656],[-95.25036708657191,38.953490568420506],[-95.25036708294586,38.95349125506784],[-95.25034752330399,38.95349118321569],[-95.25034752808337,38.95349049659567],[-95.2503284153525,38.95348905376173],[-95.2503284033551,38.95349111277602],[-95.25028950445952,38.95349097067738],[-95.25028950808634,38.95349028402999],[-95.25027039650989,38.95348884121385],[-95.25027017608683,38.953488840492184],[-95.25025104776617,38.9534901424067],[-95.25025104413896,38.95349082905403],[-95.25023148449736,38.95349075718225],[-95.25023148808971,38.95349007143534],[-95.25021237654947,38.9534886277092],[-95.25021236451366,38.953490687623884],[-95.25017346565359,38.95349054458588],[-95.25017346928152,38.95348985793856],[-95.25015435770753,38.95348841510327],[-95.2501541372845,38.95348841438136],[-95.25013500892678,38.95348971717716],[-95.25013500533349,38.953490402924096],[-95.2501154456921,38.95349033103277],[-95.25011544928559,38.95348964528585],[-95.25009633774783,38.95348820154059],[-95.25009632570863,38.95349026145526],[-95.25005742569591,38.953490118351],[-95.2500574304781,38.953489431731015],[-95.25003831890659,38.95348798887663],[-95.25003809848356,38.95348798815448],[-95.25001897012382,38.95348929093111],[-95.25001896649437,38.95348997757847],[-95.24999940685322,38.95348990566757],[-95.24999941048287,38.95348921902025],[-95.24998029891256,38.95348777615626],[-95.24998028690501,38.95348983517051],[-95.24994138689274,38.95348969202735],[-95.24994139167612,38.953489005407405],[-95.24992228010706,38.95348756253382],[-95.24992205968408,38.9534875618115],[-95.24990293132225,38.95348886456899],[-95.24990292769168,38.95348955121635],[-95.24988336805079,38.95348947928586],[-95.24988337168153,38.95348879263856],[-95.24986426011372,38.95348734975542],[-95.2498642481028,38.95348940876965],[-95.24982534809101,38.95348926558759],[-95.24982535284046,38.95348857986802],[-95.24980624130892,38.95348713607495],[-95.24980602088593,38.953487135352404],[-95.24978689252208,38.953488438090744],[-95.2497868888904,38.95348912473805],[-95.24976732924972,38.953489052788065],[-95.2497673328816,38.953488366140725],[-95.24974822131627,38.95348692323849],[-95.24974820930197,38.95348898225273],[-95.24970930929065,38.95348883903176],[-95.24970931404125,38.95348815331214],[-95.24969020247714,38.95348671040036],[-95.2496899820892,38.95348670877717],[-95.24967085372333,38.95348801149642],[-95.2496708500905,38.95348869814375],[-95.24965129045007,38.953488626174156],[-95.24965129408308,38.9534879395268],[-95.24963218252023,38.953486496605485],[-95.24963217050254,38.953488555619714],[-95.24959327045671,38.95348841326018],[-95.2495932752434,38.953487726640184],[-95.2495741636818,38.95348628370929],[-95.24957394325881,38.95348628298631],[-95.24955481492596,38.95348758478599],[-95.24955481129201,38.953488271433294],[-95.24953525165182,38.953488199444116],[-95.24953525528596,38.95348751279679],[-95.24951614372559,38.953486069856346],[-95.24951613166948,38.95348812977095],[-95.24947723165916,38.953487986472055],[-95.24947723644698,38.953487299852135],[-95.24945812488785,38.9534858569021],[-95.24945790446488,38.95348585617888],[-95.249438776095,38.95348715885984],[-95.24943877249497,38.95348784460675],[-95.24941921285496,38.95348777259798],[-95.2494192164552,38.95348708685107],[-95.24940010493239,38.95348564299111],[-95.24940009287286,38.95348770290568],[-95.249361192863,38.95348755956791],[-95.24936119765195,38.95348687294798],[-95.2493420860953,38.95348542997883],[-95.24934186567233,38.95348542925536],[-95.24932273730046,38.953486731917145],[-95.24932273369929,38.95348741766412],[-95.24930317402448,38.95348734653615],[-95.24930317766086,38.95348665988886],[-95.24928406610552,38.95348521691015],[-95.24928405407765,38.95348727592433],[-95.24924515406826,38.95348713254763],[-95.24924515885834,38.95348644592771],[-95.24921784213916,38.95348497318593],[-95.24921773149929,38.95348505797969],[-95.24921941181742,38.95349793489929],[-95.24922029116827,38.953497938639686],[-95.24922010756235,38.95352831188144],[-95.24921922817616,38.953528309041396],[-95.2492173801435,38.95354323184153],[-95.24922001826768,38.953543241262004],[-95.24921983466155,38.95357361450362],[-95.24921895527478,38.9535736116636],[-95.24921710724088,38.95358853446367],[-95.24921974417859,38.95358854475722],[-95.24921965194704,38.95360381653361],[-95.2492187725599,38.9536038136936],[-95.2492169377081,38.95361667750676],[-95.24921704630324,38.953616763897244],[-95.24924437989243,38.95361549100506],[-95.24924438349437,38.95361480525815],[-95.24928328360907,38.95361494773471],[-95.24928327039302,38.953617007621936],[-95.24930239880086,38.95361570496662],[-95.24930240359045,38.95361501834668],[-95.24932196326547,38.95361509037516],[-95.24932195847614,38.95361577699507],[-95.24934107122073,38.95361721999488],[-95.24934129049102,38.953617220691],[-95.24936041889785,38.953615918026095],[-95.24936042249865,38.9536152322792],[-95.24939932261381,38.95361537471686],[-95.24939930943617,38.953617433703656],[-95.24941843780695,38.95361613192965],[-95.24941844259541,38.95361544530968],[-95.24943800227068,38.95361551731857],[-95.24943799748247,38.9536162039385],[-95.24945711022954,38.953617646919184],[-95.24945732949982,38.953617647615076],[-95.24947645790463,38.953616344931085],[-95.24947646153936,38.95361565828375],[-95.24951536161997,38.95361580158287],[-95.24951534959881,38.95361786059705],[-95.24953447681446,38.95361655877652],[-95.24953448160178,38.95361587215655],[-95.2495540412773,38.953615944145845],[-95.24955403652525,38.953616629865444],[-95.24957314923978,38.95361807372739],[-95.24957336851004,38.953618074423055],[-95.24959249691284,38.953616771719915],[-95.24959250054643,38.953616085072575],[-95.24963140062746,38.95361622833279],[-95.24963139584113,38.953616914952754],[-95.24965050859234,38.95361835790157],[-95.24965072786259,38.95361835859704],[-95.24965794169701,38.953618385530945],[-95.24965793611936,38.9536193001421],[-95.24965785417692,38.95361930000066],[-95.24967398134116,38.95374478973624],[-95.24912992643213,38.9537874157502],[-95.24912973199511,38.9537875183826],[-95.24913223723915,38.95380701725217],[-95.24913312635088,38.953806948225505],[-95.24913479801594,38.95381995832212],[-95.24913644744078,38.95383279846068],[-95.24913559879356,38.953832865743806],[-95.24913722716622,38.95384553505123],[-95.24913807577855,38.953845468668526],[-95.24914139799014,38.95387131983123],[-95.2491405493775,38.95387138621399],[-95.24914217659882,38.95388405549396],[-95.24914302636472,38.95388398913855],[-95.24914634857991,38.95390984030106],[-95.24914549881372,38.953909906656506],[-95.24914798722175,38.95392942315032],[-95.24914819170608,38.95392947756949],[-95.24940090825974,38.953909677662686],[-95.24940084275859,38.9539091660153],[-95.24948833020761,38.95390231044184],[-95.24948827992966,38.953901911808806],[-95.24957585877436,38.95389505022695],[-95.24957591020593,38.95389544888731],[-95.24998635912767,38.95386328821064],[-95.25027800851514,38.95393846619749],[-95.2502778013595,38.95393895515561],[-95.25049001113919,38.95399365623487]]]},"properties":{"SDE.FloorAll.FLOORLOCATION":"3"}},{"type":"Feature","geometry":{"type":"Polygon","coordinates":[[[-95.25049827320406,38.95399581503802],[-95.25050099473012,38.95398937814351],[-95.25050953052366,38.95399096845595],[-95.25051006338363,38.95398973199513],[-95.25048214829748,38.95398013614557],[-95.25047205672902,38.953977534711484],[-95.25052058930255,38.95386274129409],[-95.25053059255265,38.9538653577532],[-95.25056044912849,38.95387064671798],[-95.25056100201542,38.953869340436434],[-95.25054933230246,38.95386633298274],[-95.25054948575143,38.953865800393004],[-95.25055287171038,38.95386667286633],[-95.25055559322651,38.95386023597052],[-95.2503011583783,38.95379465073416],[-95.25031105565007,38.95377124002896],[-95.25030865588761,38.953770621651294],[-95.25030700214276,38.953774532498365],[-95.25016536755147,38.95373802354048],[-95.25016548201685,38.953737751381745],[-95.25016528291542,38.953737677265124],[-95.25019043162597,38.95367819268068],[-95.25021446406043,38.953621351945436],[-95.25021446966596,38.95362043643387],[-95.25021643845096,38.95362044347487],[-95.25021665887438,38.953620444196645],[-95.25023062527686,38.953619122599],[-95.25023063002236,38.95361843687937],[-95.25025018969927,38.95361850875131],[-95.25025018495397,38.953619194470875],[-95.25026929653029,38.95362063819078],[-95.25026951695371,38.953620638912454],[-95.25028864534436,38.953619336094484],[-95.25028864897119,38.953618649447165],[-95.25030820864822,38.953618721309255],[-95.2503082050216,38.95361940795659],[-95.25032731663417,38.95362085076655],[-95.25032732863167,38.95361879175228],[-95.2503662287507,38.95361893386556],[-95.25036622397151,38.95361962048554],[-95.25039354073161,38.953621093857215],[-95.25039365140529,38.953621008161925],[-95.25039362738065,38.95362082464352],[-95.25039197087033,38.95360813125949],[-95.25039109148308,38.95360812842835],[-95.2503912745862,38.95357775518495],[-95.25039215281996,38.953577757988725],[-95.25039400175869,38.95356283519732],[-95.25039136363361,38.95356282580354],[-95.25039154677152,38.9535324516596],[-95.25039242612279,38.95353245539114],[-95.2503942739422,38.95351753167192],[-95.25039163697194,38.953517522305454],[-95.25039172898528,38.95350224962764],[-95.25039260721809,38.95350225243143],[-95.25039444297113,38.95348938952727],[-95.25039433437473,38.95348930313786],[-95.25036700089002,38.9534905754007],[-95.25036699726398,38.95349126204805],[-95.25032809725016,38.95349111903462],[-95.25032810924758,38.9534890600203],[-95.25030898089287,38.95349036284478],[-95.25030897730127,38.953491048591715],[-95.25028941762453,38.95349097763017],[-95.25028942125135,38.953490290982785],[-95.25027030967483,38.95348884816659],[-95.25027009043997,38.953488846571865],[-95.25025096208428,38.9534901493868],[-95.25025095730396,38.95349083600679],[-95.25021205844375,38.95349069298176],[-95.25021207044458,38.95348863396745],[-95.2501929420878,38.95348993677283],[-95.25019293846006,38.95349062342016],[-95.25017337881856,38.953490551538586],[-95.2501733824465,38.95348986489123],[-95.25015427087249,38.95348842205595],[-95.25015405160259,38.953488421361385],[-95.2501349232799,38.95348972325678],[-95.25013491849846,38.95349040987676],[-95.2500960196387,38.95349026681281],[-95.25009603164293,38.95348820779855],[-95.25007690328414,38.953489510584724],[-95.25007689965527,38.953490197232085],[-95.25005734001401,38.95349012533096],[-95.25005734364308,38.953489438683626],[-95.25003823207153,38.95348799582921],[-95.25003801280164,38.95348799513442],[-95.2500188844419,38.953489297911034],[-95.25001887969437,38.953489983630654],[-95.24997998080003,38.953489841428166],[-95.24997999284268,38.95348778151353],[-95.24996086448188,38.95348908428056],[-95.24996086085187,38.95348977092793],[-95.24994130121081,38.95348969900724],[-95.24994130484103,38.95348901235991],[-95.24992219327197,38.95348756948632],[-95.24992197400208,38.953487568791346],[-95.24990284564034,38.95348887154884],[-95.24990284089166,38.953489557268405],[-95.24986394199783,38.95348941502702],[-95.2498639540088,38.95348735601278],[-95.24984482568098,38.95348865786031],[-95.24984482204985,38.95348934450762],[-95.24982526240906,38.9534892725674],[-95.24982526604039,38.953488585920034],[-95.24980615447382,38.95348714302736],[-95.24980593520394,38.95348714233216],[-95.24978680684015,38.953488445070505],[-95.24978680205534,38.95348913169047],[-95.24974790319703,38.95348898850979],[-95.24974791521134,38.953486929495554],[-95.24972878688158,38.95348823132396],[-95.24972878324931,38.95348891797125],[-95.24970922360873,38.95348884601145],[-95.24970922720613,38.95348816026448],[-95.24969011567713,38.95348671645232],[-95.24968989640725,38.95348671575685],[-95.24967076804138,38.9534880184761],[-95.24967076325542,38.95348870509606],[-95.24963186439761,38.95348856187646],[-95.2496318764153,38.95348650286218],[-95.24961274804846,38.95348780557185],[-95.24961274445012,38.95348849131879],[-95.24959318480975,38.95348841933937],[-95.2495931884083,38.953487733592446],[-95.24957407684673,38.953486290661516],[-95.24957385761189,38.95348628906547],[-95.249554729244,38.95348759176557],[-95.24955472445693,38.95348827838552],[-95.24951582559957,38.95348813512697],[-95.24951583762065,38.95348607611274],[-95.24949670925179,38.953487378803274],[-95.24949670561729,38.953488065450586],[-95.24947714597715,38.95348799345162],[-95.24947714961186,38.95348730680429],[-95.24945803805278,38.95348586385425],[-95.2494578187829,38.95348586315835],[-95.24943869044803,38.95348716493891],[-95.24943868565984,38.9534878515589],[-95.24939978680297,38.953487708261434],[-95.24939979882741,38.95348564924721],[-95.24938067045653,38.95348695191857],[-95.24938066682087,38.95348763856592],[-95.24936110718099,38.95348756654736],[-95.24936111081684,38.95348687990006],[-95.24934199926021,38.95348543693089],[-95.24934177999036,38.953485436234764],[-95.24932265161843,38.95348673889655],[-95.24932264686414,38.95348742461615],[-95.24928374797267,38.95348728218014],[-95.24928376003554,38.95348522226558],[-95.24926463166264,38.95348652491779],[-95.24926462802588,38.953487211565125],[-95.24924506838629,38.95348713952702],[-95.24924507202323,38.9534864528797],[-95.24921775530402,38.95348498013791],[-95.24921764581731,38.953485064959025],[-95.24921932613543,38.95349794187861],[-95.24922020436814,38.95349794469127],[-95.24922011325494,38.95351321739552],[-95.24921747513187,38.95351320797505],[-95.24921914342092,38.953528143908734],[-95.24922002280714,38.953528146748766],[-95.24921983916602,38.9535585208908],[-95.24921720222942,38.9535585105973],[-95.24921887051948,38.95357344653093],[-95.24921974871809,38.95357345024403],[-95.24921956626491,38.95360382351295],[-95.24921868687771,38.95360382067292],[-95.24921685087283,38.95361668445871],[-95.2492169606211,38.953616770876586],[-95.24924429305719,38.95361549795706],[-95.24924429781224,38.95361481223753],[-95.2492638575222,38.95361488337535],[-95.24926385273228,38.95361556999531],[-95.24928296432253,38.953617012977354],[-95.24928297750353,38.953614953990545],[-95.24932187643017,38.95361509732719],[-95.24932187279396,38.95361578397448],[-95.24934098438544,38.95361722694696],[-95.2493412036557,38.953617227643086],[-95.2493603320626,38.95361592497819],[-95.24936033685155,38.95361523835826],[-95.24937989652672,38.95361531037694],[-95.24937989173795,38.953615996996895],[-95.24939900448379,38.953617439987134],[-95.24939901650825,38.953615380972984],[-95.24943791543541,38.953615524270695],[-95.24943791183534,38.9536162100176],[-95.24945702339426,38.95361765387133],[-95.24945724266452,38.953617654567225],[-95.24947637106933,38.953616351883255],[-95.24947637585724,38.95361566526327],[-95.24949593553264,38.9536157372624],[-95.24949593074498,38.953616423882345],[-95.2495150434933,38.95361786685347],[-95.24951505551441,38.953615807839284],[-95.24955395444202,38.95361595109811],[-95.24955395084308,38.95361663684501],[-95.24957306243952,38.95361807977924],[-95.24957328282787,38.95361808140262],[-95.24959241007755,38.95361677867217],[-95.24959241486432,38.953616092052194],[-95.24961197453995,38.95361616403171],[-95.24961196975343,38.953616850651684],[-95.24963108250422,38.953618293603725],[-95.24963109452196,38.953616234589525],[-95.24965065419768,38.95361630656253],[-95.24965064218051,38.953618365576716],[-95.24965785489682,38.953618391582864],[-95.24965776849477,38.953619306980315],[-95.2496738956589,38.95374479671593],[-95.24912983963168,38.953787421801714],[-95.24912964515957,38.95378752533451],[-95.24913215155674,38.95380702423143],[-95.24913303955039,38.95380695427699],[-95.24913471118036,38.953819965274036],[-95.24913382318654,38.953820035228475],[-95.2491354515586,38.95383270453594],[-95.24913633955256,38.95383263458154],[-95.2491380123369,38.95384564560586],[-95.24913712318967,38.95384571553293],[-95.24913875156288,38.953858384840345],[-95.24913963955716,38.9538583148859],[-95.24914296176992,38.953884166048546],[-95.24914207377533,38.953884236003],[-95.2491437009972,38.95389690528297],[-95.24914459011003,38.95389683625622],[-95.24914626177934,38.95390984635259],[-95.24914537378442,38.9539099163071],[-95.24914787900208,38.95392941607653],[-95.24914810487037,38.95392948452142],[-95.24940082257726,38.953909684642184],[-95.24940075595796,38.95390917206701],[-95.24948824452515,38.953902317421374],[-95.24948819309402,38.95390191876098],[-95.2495757731269,38.95389505630616],[-95.24957582452349,38.953895455866906],[-95.24998627229215,38.953863295163174],[-95.25027792167951,38.95393847315025],[-95.2502777156771,38.95393896213572],[-95.25049827320406,38.95399581503802]]]},"properties":{"SDE.FloorAll.FLOORLOCATION":"4"}},{"type":"Feature","geometry":{"type":"MultiPolygon","coordinates":[[[[-95.25055761798961,38.95386393755218],[-95.25043089586524,38.953831273012014],[-95.2501971562383,38.95377102242592],[-95.25001724912988,38.95372464736579],[-95.25001801070061,38.95372195274259],[-95.25015296930867,38.953756740817596],[-95.25016154515524,38.95372252824345],[-95.25016159928248,38.953722531329696],[-95.25016172630237,38.95372252983623],[-95.2501618536375,38.953722520239225],[-95.25016197901664,38.953722501583606],[-95.2501621024047,38.95372247476968],[-95.25016222153057,38.95372243884243],[-95.25016233747725,38.953722395630024],[-95.25016244678534,38.95372234505029],[-95.25016255064297,38.95372228623032],[-95.25016264782701,38.95372222094343],[-95.25016273714924,38.953722150062795],[-95.25016281749163,38.95372207266057],[-95.25016288997222,38.9537219896645],[-95.2501629522147,38.953721902820725],[-95.25016300421915,38.953721812129224],[-95.25016304598545,38.953721717590035],[-95.25016307744359,38.95372162100384],[-95.25016309859363,38.953721522370735],[-95.25016310824729,38.95372142256375],[-95.25016310633463,38.953721323383625],[-95.25016309289057,38.95372122393005],[-95.25016306899833,38.953721126031084],[-95.25016303465777,38.95372102968675],[-95.25016298979891,38.95372093669783],[-95.25016293445678,38.95372084616398],[-95.25016286852627,38.953720760786304],[-95.2501627943487,38.95372067971915],[-95.25016271073589,38.953720603835606],[-95.25016261880594,38.953720534063315],[-95.25016251967698,38.953720471330115],[-95.25016241453716,38.95372041476291],[-95.25016230216325,38.95372036613515],[-95.2501621860147,38.95372032552887],[-95.2501621026416,38.95372030282324],[-95.25016399766277,38.953717310641515],[-95.25016405902402,38.953717305788295],[-95.25016418440316,38.953717287132676],[-95.25016430663811,38.95371726029142],[-95.25016442691708,38.95371722439152],[-95.25016454171063,38.95371718115173],[-95.25016465220685,38.953717129698994],[-95.25016475487631,38.95371707175204],[-95.2501648520603,38.95371700646516],[-95.2501649414176,38.95371693468413],[-95.25016502172492,38.9537168581823],[-95.25016509420553,38.95371677518621],[-95.250165156448,38.953716688342446],[-95.25016520960554,38.95371659767828],[-95.25016525137187,38.95371650313909],[-95.25016528283,38.95371640655289],[-95.25016530282686,38.953716307892456],[-95.25016531248058,38.953716208085446],[-95.25016531060288,38.95371610800497],[-95.25016529827698,38.95371600947907],[-95.25016527441976,38.953715910679705],[-95.25016524004417,38.95371581523582],[-95.25016519406721,38.95371572131915],[-95.25016513869006,38.9537156316857],[-95.25016509585447,38.95371557569496],[-95.2501816156256,38.95368947330039],[-95.25021045227774,38.95362125769661],[-95.25021057055244,38.953620976616],[-95.25021064080495,38.95362080254334],[-95.25019954939789,38.95362076208317],[-95.25015247991418,38.95362058927366],[-95.25015247933989,38.953620752381745],[-95.25015247912421,38.95362081726485],[-95.25015158474604,38.953620814076324],[-95.25014907126219,38.95362080492967],[-95.2501470955584,38.95362079772344],[-95.25014357923192,38.95362078461795],[-95.25014006290543,38.95362077151238],[-95.25013654657899,38.953620758406714],[-95.25013303025248,38.95362074530088],[-95.25012951392605,38.95362073219502],[-95.25012599759955,38.95362071908902],[-95.2501224812731,38.95362070598294],[-95.25011896494661,38.953620692876704],[-95.25011544862019,38.953620679770374],[-95.25011193229369,38.953620666663966],[-95.25010841596725,38.9536206535574],[-95.25010489964077,38.95362064045081],[-95.25010138331434,38.95362062734405],[-95.25009786698784,38.95362061423719],[-95.25009435066141,38.95362060113026],[-95.25009083429991,38.953620588923556],[-95.2500873179735,38.95362057581639],[-95.25008380164701,38.953620562709105],[-95.25008028532058,38.95362054960175],[-95.2500767689941,38.95362053649424],[-95.25007325266769,38.95362052338661],[-95.2500697363412,38.953620510278924],[-95.25006622001477,38.953620497171116],[-95.25006270368833,38.95362048406318],[-95.2500591873619,38.95362047095516],[-95.25005567103548,38.95362045784702],[-95.25005215470902,38.953620444738824],[-95.25004863838261,38.95362043163046],[-95.25004512205612,38.953620418521986],[-95.25004160572973,38.95362040541345],[-95.25003808940326,38.95362039230477],[-95.25003457307686,38.95362037919602],[-95.25003105675039,38.95362036608713],[-95.25002754038898,38.95362035387855],[-95.2500240240625,38.953620340769454],[-95.25002050773611,38.95362032766024],[-95.25001699140965,38.95362031455095],[-95.25001347504822,38.95362030234191],[-95.25000995868675,38.953620290132804],[-95.25000644236033,38.953620277023155],[-95.25000292603391,38.95362026391344],[-95.2499994097075,38.95362025080359],[-95.24999589334602,38.95362023859407],[-95.24999237701962,38.953620225484],[-95.24998886065816,38.95362021327423],[-95.24998534433176,38.953620200163954],[-95.2499818279703,38.953620187953995],[-95.2499783116439,38.95362017484348],[-95.24997479528244,38.95362016263333],[-95.24997127895605,38.95362014952264],[-95.24996776259458,38.95362013731222],[-95.2499642462682,38.953620124201365],[-95.24996072990675,38.953620111990716],[-95.24995721358036,38.95362009887962],[-95.24995369721897,38.95362008666876],[-95.24995018089253,38.95362007355747],[-95.24994666453112,38.95362006134637],[-95.2499431482047,38.95362004823489],[-95.24993963187832,38.953620035123194],[-95.24993611555189,38.95362002201146],[-95.2499325991905,38.95362000979995],[-95.24992908286407,38.953619996688026],[-95.24992556650268,38.95361998447633],[-95.24992205017625,38.953619971364155],[-95.24991935320436,38.95361996146506],[-95.24991873809442,38.95361995949167],[-95.24991583687793,38.95361994835266],[-95.24991232055157,38.95361993524018],[-95.24990880422517,38.9536199221276],[-95.24990528789881,38.953619909014904],[-95.2499017715724,38.953619895902115],[-95.24989825524604,38.953619882789205],[-95.24989473895465,38.95361986877582],[-95.24989122262829,38.953619855662666],[-95.2498877063019,38.953619842549465],[-95.24988418997553,38.95361982943611],[-95.24988067249602,38.95361981629535],[-95.24987715616962,38.95361980318179],[-95.2498736398783,38.953619789167746],[-95.2498701235519,38.95361977605396],[-95.24986660722554,38.953619762940136],[-95.24986309089921,38.95361974982614],[-95.24985957457281,38.953619736712106],[-95.2498560582815,38.9536197226975],[-95.2498525419551,38.95361970958322],[-95.24984902562878,38.953619696468806],[-95.24984550930238,38.95361968335432],[-95.24984199297604,38.953619670239696],[-95.24983847668469,38.95361965622457],[-95.24983496035834,38.953619643109775],[-95.24983144403195,38.95361962999482],[-95.24982792770562,38.95361961687977],[-95.24982441137925,38.95361960376465],[-95.2498208950529,38.95361959064939],[-95.24981737872653,38.95361957753406],[-95.24981386236517,38.95361956531897],[-95.24981034600378,38.953619553103806],[-95.24980682967744,38.953619539988104],[-95.24980331335105,38.953619526872345],[-95.24979979691965,38.95361951645761],[-95.24979628059327,38.95361950334162],[-95.24979276426697,38.95361949022552],[-95.24978924794058,38.95361947710933],[-95.24978573161427,38.953619463993036],[-95.24978221528791,38.95361945087657],[-95.24977870011472,38.95361943778739],[-95.24977518375337,38.953619425571155],[-95.24977166739195,38.953619413354815],[-95.24976815106567,38.95361940023796],[-95.24976463470426,38.953619388021416],[-95.24976111837795,38.95361937490433],[-95.24975760201656,38.953619362687554],[-95.24975408569026,38.95361934957027],[-95.24975056932887,38.953619337353324],[-95.24974705300258,38.95361932423579],[-95.24974353664118,38.95361931201862],[-95.24974002031489,38.95361929890091],[-95.2497365039535,38.95361928668349],[-95.24973298762721,38.953619273565565],[-95.24972947126582,38.95361926134795],[-95.24972595493952,38.95361924822982],[-95.2497224385782,38.95361923601197],[-95.24971892225183,38.95361922289365],[-95.24971540589053,38.95361921067556],[-95.24971188956418,38.95361919755704],[-95.24970837320286,38.95361918533873],[-95.24970485687652,38.953619172219994],[-95.2497015216971,38.953619160694615],[-95.24972940556917,38.95362916695642],[-95.24973291495859,38.95363042630409],[-95.24973642431307,38.953631686552114],[-95.24973993247957,38.95363294767297],[-95.24974344186936,38.953634207020364],[-95.24974695010614,38.9536354663403],[-95.24975045946121,38.95363672658782],[-95.24975396881634,38.95363798683528],[-95.24975747820662,38.953639246182206],[-95.24976098644392,38.953640505501696],[-95.24976449579941,38.95364176574885],[-95.24976800519015,38.95364302509547],[-95.2497715145459,38.953644285342406],[-95.2497750215605,38.95364554643489],[-95.24977853091652,38.95364680668161],[-95.24978203911954,38.953648066900854],[-95.2497855484758,38.953649327147325],[-95.24978905783216,38.95365058739372],[-95.24979256607058,38.95365184671225],[-95.24979607542727,38.95365310695839],[-95.24979958363092,38.95365436717714],[-95.24980309298779,38.95365562742312],[-95.2498066023448,38.95365688766893],[-95.24981011170192,38.95365814791469],[-95.24981361994111,38.95365940723258],[-95.24981712929853,38.9536606674781],[-95.24982063753797,38.95366192679579],[-95.24982414689559,38.9536631870411],[-95.24982765506522,38.95366444815938],[-95.24983116442309,38.95366570840449],[-95.24983467266301,38.95366696772176],[-95.24983818202115,38.9536682279666],[-95.24984169137944,38.953669488211425],[-95.24984519961974,38.95367074752835],[-95.24984870897826,38.95367200777296],[-95.24985221718377,38.953673267990055],[-95.24985572654252,38.953674528234416],[-95.24985923474829,38.95367578845133],[-95.2498627441073,38.953677048695475],[-95.2498662534665,38.95367830893951],[-95.24986976282574,38.95367956918347],[-95.24987327106705,38.95368082849953],[-95.24987678042655,38.95368208874328],[-95.24988028863307,38.95368334895952],[-95.24988379799287,38.953684609203066],[-95.24988730735276,38.95368586944643],[-95.24989081559468,38.953687128761985],[-95.24989432495482,38.95368838900522],[-95.24989783319698,38.953689648320555],[-95.24990134255738,38.95369090856355],[-95.24990485076476,38.95369216877903],[-95.24990836012543,38.95369342902182],[-95.2499118694862,38.95369468926447],[-95.24991537884709,38.95369594950706],[-95.24991827353797,38.953696988788906],[-95.24991888709002,38.953697208821744],[-95.24992157915048,38.953698175705256],[-95.24992508739362,38.95369943501976],[-95.24992859675498,38.953700695261894],[-95.24993210496334,38.953701955476625],[-95.24993561432498,38.95370321571853],[-95.24993912368673,38.9537044759604],[-95.2499426319305,38.95370573527437],[-95.24994614129247,38.95370699551599],[-95.24994964953649,38.95370825482979],[-95.24995315889872,38.95370951507116],[-95.24995666714298,38.95371077438476],[-95.24996017650551,38.95371203462594],[-95.24996368475004,38.95371329393928],[-95.24996719411277,38.95371455418029],[-95.24997070235756,38.953715813493396],[-95.24997421172051,38.95371707373419],[-95.24997771993051,38.95371833394749],[-95.24997815248163,38.95371848930467],[-95.2499774183736,38.95371973631051],[-95.24997446448863,38.95371867579918],[-95.2499680000876,38.95371635501956],[-95.24996153911145,38.95371403522201],[-95.24995507701756,38.95371171449633],[-95.249948613771,38.95370939374297],[-95.24994215052479,38.953707072989246],[-95.24993568955034,38.953704753190245],[-95.24992922630497,38.95370243243578],[-95.2499227630601,38.953700111680995],[-95.24991826451695,38.9536984963243],[-95.2499163020869,38.953697791880906],[-95.24990983884284,38.953695471125364],[-95.24990337559922,38.9536931503695],[-95.24989691462724,38.95369083056836],[-95.2498904513845,38.953688509811755],[-95.24988398814217,38.953686189054764],[-95.24987752490026,38.95368386829746],[-95.24987106392997,38.95368154849483],[-95.24986460068892,38.9536792277368],[-95.2498581374483,38.95367690697835],[-95.24985167647927,38.95367458717469],[-95.2498452132395,38.953672266415545],[-95.24983875000007,38.95366994565606],[-95.2498322890324,38.9536676258513],[-95.24982582579385,38.953665305091064],[-95.24981936255575,38.9536629843305],[-95.24981290158934,38.95366066452467],[-95.24980643835205,38.95365834376339],[-95.24979997511522,38.95365602300173],[-95.24979351415004,38.95365370319479],[-95.24978705091408,38.953651382432405],[-95.24978058767853,38.95364906166967],[-95.2497741244434,38.953646740906564],[-95.2497676634799,38.953644421098204],[-95.24976120024564,38.95364210033436],[-95.2497547370118,38.953639779570175],[-95.24974827604957,38.95363745976077],[-95.24974181281658,38.95363513899588],[-95.24973534958394,38.9536328182306],[-95.24972888862305,38.95363049842006],[-95.24972242539128,38.95362817765408],[-95.24971596215998,38.953625856887726],[-95.24970950120037,38.953623537076105],[-95.24970303796985,38.95362121630905],[-95.24967357604784,38.9536232012567],[-95.2496732252784,38.95362046943349],[-95.24967301445362,38.9536188278075],[-95.24967297405894,38.95361882775052],[-95.24966243315203,38.95361878858213],[-95.24966237200098,38.9536187880327],[-95.24966241349885,38.95361893771928],[-95.24966248186017,38.953619168252146],[-95.24967058747842,38.953682241712634],[-95.24967863099444,38.95374483514814],[-95.2496891026429,38.9537440147054],[-95.24991809888199,38.953726071682304],[-95.24998127604206,38.95372112197203],[-95.2499834652868,38.953723709947035],[-95.2499825958503,38.953723777644434],[-95.24991808149346,38.95372883262317],[-95.24982032064685,38.95373649294484],[-95.2498032626872,38.95373782947866],[-95.24978769123649,38.95373904986608],[-95.24937815756573,38.95377113781174],[-95.2493957126239,38.953907734824924],[-95.24953045051409,38.95389717775227],[-95.24977526998298,38.95387799538387],[-95.24991725050553,38.95386687066471],[-95.24997699979856,38.953862188418434],[-95.24998695394228,38.9538614088457],[-95.25050250222016,38.953994301235674],[-95.25055761798961,38.95386393755218]]],[[[-95.25055005118851,38.95359117546127],[-95.2505513999457,38.953591069559295],[-95.25055360077026,38.95359089734622],[-95.2507020951121,38.953579261051836],[-95.25070408987297,38.95357910467764],[-95.25070943051759,38.95358331387053],[-95.25073637954667,38.95339176584041],[-95.25027990988647,38.953352610580474],[-95.25003845694441,38.95348823818516],[-95.2500385854182,38.95348837731744],[-95.25004824464888,38.95348841266275],[-95.25029022731151,38.95348930072825],[-95.25029216838274,38.95348930801202],[-95.25029423294401,38.953489315520834],[-95.25030126558394,38.95348934172253],[-95.25030829822389,38.953489367923765],[-95.25031533086381,38.9534893941246],[-95.25032236353879,38.95348941942461],[-95.25032939617876,38.953489445624655],[-95.25033642885374,38.9534894709238],[-95.25034346149369,38.95348949712294],[-95.25035049416869,38.95348952242127],[-95.2503575268086,38.95348954861953],[-95.2503645594836,38.953489573916976],[-95.25037159212359,38.95348960011439],[-95.25037862479859,38.953489625410995],[-95.25038565743858,38.95348965160758],[-95.25039269011361,38.95348967690333],[-95.25039480660078,38.953489684740624],[-95.25039480294265,38.95349034254803],[-95.25039476939382,38.953495833816646],[-95.25039473584495,38.953501325085256],[-95.2503947022961,38.95350681635382],[-95.25039466874725,38.95351230762245],[-95.2503946351984,38.953517798891035],[-95.25039460280266,38.953523290186986],[-95.25039456925381,38.95352878145556],[-95.25039453685805,38.953534272751504],[-95.25039450330915,38.95353976402011],[-95.25039447091338,38.953545255316016],[-95.2503944373645,38.95355074658461],[-95.25039440496873,38.95355623788054],[-95.25039437237616,38.953561585877026],[-95.25039436301512,38.95356310241642],[-95.2503999266052,38.95356312261103],[-95.25039993117927,38.953562381912704],[-95.25039993593113,38.95356160697203],[-95.25039929084029,38.953561604290144],[-95.25039932343248,38.95355625629366],[-95.25040635492599,38.95355628246163],[-95.25041338757262,38.953556308656495],[-95.2504204214074,38.95355633397792],[-95.25042745290092,38.95355636014465],[-95.25043448558259,38.95355638543783],[-95.2504415182292,38.95355641163105],[-95.25044855091087,38.95355643692344],[-95.2504485844556,38.95355094565483],[-95.25044861684718,38.95354545435889],[-95.25044865039183,38.95353996309027],[-95.25044868393651,38.95353447182167],[-95.25044871636307,38.953528979625275],[-95.2504487498727,38.95352348925711],[-95.25045578255111,38.95352351454904],[-95.25045581609523,38.95351802328041],[-95.25045584848618,38.95351253198447],[-95.25045588199531,38.95350704161622],[-95.25045591442131,38.953501549419876],[-95.25045594793038,38.953496059051616],[-95.25045598035635,38.95349056685529],[-95.2504560138654,38.953485076487034],[-95.25044898007273,38.9534850502674],[-95.25044194855126,38.953485025002394],[-95.25043491472357,38.95348499968229],[-95.25042788323712,38.95348497351605],[-95.25042084940944,38.9534849481951],[-95.25041381792303,38.953484922027975],[-95.25040678528349,38.95348489583314],[-95.25039975260893,38.95348487053825],[-95.25039271996943,38.9534848443425],[-95.25039275355343,38.95347935217351],[-95.25038571972631,38.953479326850406],[-95.25037868708735,38.953479300653825],[-95.25037165441336,38.953479275357225],[-95.2503646217744,38.95347924915981],[-95.25035758910043,38.953479223862374],[-95.25035055646148,38.9534791976641],[-95.25034352378752,38.9534791723658],[-95.25033649114859,38.953479146166636],[-95.25032945847464,38.95347912086751],[-95.25032242583575,38.95347909466749],[-95.25032245942522,38.95347360249851],[-95.25031542675184,38.95347357719849],[-95.25030839296033,38.95347355097032],[-95.2503013614751,38.953473524796436],[-95.2502943276486,38.95347349946778],[-95.25029429524508,38.95347899076371],[-95.25029426168841,38.95348448203228],[-95.2502914031433,38.95348447191459],[-95.25029143670014,38.95347898064601],[-95.25029145156824,38.95347649181552],[-95.25029148201301,38.95347140692552],[-95.2502914945127,38.95346921634427],[-95.25029484548942,38.95346950400234],[-95.25029784217777,38.953469760727],[-95.25039194237351,38.95347783329728],[-95.25039504144598,38.953478098756165],[-95.2504008346348,38.95347859573671],[-95.25045992611574,38.95348366422284],[-95.25046293314844,38.953483922089774],[-95.25046225513309,38.95348874198272],[-95.25045520126582,38.95353887385671],[-95.2504546207336,38.95354299761224],[-95.25045192450645,38.953562166708714],[-95.25045199261122,38.95356216652142],[-95.2504522397342,38.9535605609921],[-95.25047158659115,38.953568507188514],[-95.25047280104175,38.953569005527854],[-95.25047279980545,38.95356915600308],[-95.25047279838608,38.95356940020138],[-95.25047153722763,38.953569954286145],[-95.2503957600529,38.95360326618986],[-95.25055005118851,38.95359117546127]]],[[[-95.2500380459198,38.95356113573268],[-95.24999916647816,38.95361315239388],[-95.25003343773719,38.953613278551984],[-95.25003773190492,38.95361329388853],[-95.25004202722572,38.95361330925225],[-95.25007629848487,38.95361343539769],[-95.25007383926994,38.953610073177366],[-95.25008137170974,38.95360796272654],[-95.25008155575355,38.95358237500722],[-95.25007607918613,38.953578486100284],[-95.2500802510147,38.95357850123722],[-95.25008033170856,38.95356503434442],[-95.2500804348607,38.95354796398573],[-95.250063942608,38.95354790355754],[-95.25006383945188,38.95356497391624],[-95.25005568969755,38.9535649437341],[-95.25005565389866,38.953576959818456],[-95.25006357515909,38.95357698908708],[-95.25006356604177,38.95357843984298],[-95.25006221535695,38.95358230380159],[-95.25006214491758,38.953594082943354],[-95.2500380459198,38.95356113573268]]],[[[-95.249810213287,38.95361314494937],[-95.24984472345422,38.95361327142314],[-95.24984422044001,38.95361258357245],[-95.24983463679244,38.95359948043828],[-95.24983476623348,38.953581468921904],[-95.24982929086791,38.953577579130354],[-95.24983346269637,38.95357759427612],[-95.2498335434022,38.953564128283894],[-95.24983364664895,38.95354705702502],[-95.24981715439662,38.953546996561776],[-95.24981712115036,38.95355250856662],[-95.24980605088035,38.95354655563252],[-95.24979311722255,38.95355337211286],[-95.24980596804699,38.95356028383088],[-95.24976708847014,38.95361229951387],[-95.24980135972835,38.95361242574062],[-95.24980108720678,38.9536131114169],[-95.249810213287,38.95361314494937]]],[[[-95.24997447254627,38.9535781128332],[-95.24997312070346,38.953581976763424],[-95.24997296663685,38.95360756429333],[-95.24998260559893,38.95361034609669],[-95.24999227702382,38.95360763570304],[-95.24999246109988,38.953582047983865],[-95.24998698572551,38.95357815819972],[-95.24999115636592,38.95357817421287],[-95.24999123707676,38.95356470732015],[-95.2499913402504,38.95354763696155],[-95.24997484803289,38.953547575620306],[-95.24997474597333,38.95356464690665],[-95.24996659621908,38.95356461671822],[-95.24996656040504,38.95357663280258],[-95.2499744805123,38.953576662049926],[-95.24997447254627,38.9535781128332]]],[[[-95.24990414592,38.953577854200475],[-95.24990279403832,38.9535817190303],[-95.24990263994624,38.95360730656013],[-95.24991227894056,38.9536100874689],[-95.24991880785142,38.95360825783864],[-95.24992172515134,38.95360744023209],[-95.24992195036813,38.95360737708116],[-95.24992213446964,38.95358178936209],[-95.24992188177586,38.95358160943174],[-95.24991898177178,38.953579549837094],[-95.24991665906418,38.95357790047502],[-95.24991899136468,38.95357790893397],[-95.24992082973952,38.95357791559031],[-95.24992091046374,38.95356444869762],[-95.24992101365439,38.95354737833907],[-95.24991917528034,38.95354737168273],[-95.24990452140196,38.95354731788823],[-95.24990441936045,38.95356438827412],[-95.24989626960631,38.95356435808078],[-95.24989623378026,38.95357637416513],[-95.24990415388746,38.95357640341722],[-95.24990414592,38.953577854200475]]],[[[-95.25015408494306,38.953561588998824],[-95.25012430977654,38.95356148029474],[-95.2501243067953,38.95356197229286],[-95.25012410959593,38.95359463341437],[-95.2501241067281,38.95359503349023],[-95.25015388306193,38.95359514222165],[-95.25015648655918,38.95359515170075],[-95.25015668843913,38.95356159847787],[-95.25015408494306,38.953561588998824]]],[[[-95.24934181238825,38.95355857683324],[-95.24935474724366,38.95355176043061],[-95.24934189531173,38.95354484863522],[-95.24932896042134,38.95355166593684],[-95.24934181238825,38.95355857683324]]],[[[-95.24957389021482,38.95355943056431],[-95.249586825048,38.95355261413572],[-95.24957397309325,38.95354570236606],[-95.24956103826011,38.9535525187932],[-95.24957389021482,38.95355943056431]]],[[[-95.25005098070852,38.953554319252355],[-95.25003812870808,38.95354740753416],[-95.25002519503747,38.95355422494078],[-95.2500380459198,38.95356113573268],[-95.25005098070852,38.953554319252355]]],[[[-95.25027012376314,38.95356198807047],[-95.25028305852966,38.95355517156424],[-95.2502702065064,38.953548259871745],[-95.25025727289302,38.95355507640389],[-95.25027012376314,38.95356198807047]]],[[[-95.25040281554072,38.95347938893014],[-95.25039978666905,38.95347912874123],[-95.25039978496925,38.95347938014269],[-95.25040281554072,38.95347938893014]]],[[[-95.25045574726711,38.953529317600164],[-95.25045579170786,38.95352900592908],[-95.250455749007,38.95352900581764],[-95.25045574726711,38.953529317600164]]]]},"properties":{"SDE.FloorAll.FLOORLOCATION":"ROOF"}}]}
