{"type":"FeatureCollection","features":[{"type":"Feature","geometry":{"type":"Polygon","coordinates":[[[-95.25080026794595,38.96157917354181],[-95.25086283760852,38.961579366491435],[-95.2508629771813,38.96155168059119],[-95.25091631448728,38.961551844777254],[-95.25091815378397,38.96118804709039],[-95.25090195141709,38.961187996400255],[-95.25090264053719,38.96105162959004],[-95.25091884752092,38.96105167948907],[-95.25092067776993,38.96068879631545],[-95.25086616846964,38.960688628661465],[-95.2508662858526,38.96066551955061],[-95.25086745849765,38.96066552302054],[-95.2508674806844,38.96066094622898],[-95.25080491295282,38.960660754209584],[-95.25080488964382,38.96066533007333],[-95.25080664862897,38.96066533482895],[-95.2508065311915,38.96068844484017],[-95.2507870429807,38.960688384716434],[-95.25078541696598,38.96100985428618],[-95.25069398295001,38.9610095725931],[-95.25069391300116,38.961023300184046],[-95.25066343459396,38.961023206561286],[-95.25066326276679,38.961057298502496],[-95.25069374118863,38.96105739212526],[-95.25069286865238,38.96122968189689],[-95.25078430410632,38.961229963618194],[-95.25078267806668,38.96155143317326],[-95.25080040869646,38.96155148766892],[-95.25080026794595,38.96157917354181]]]},"properties":{"SDE.FloorAll.FLOORLOCATION":"-1"}},{"type":"Feature","geometry":{"type":"Polygon","coordinates":[[[-95.25080198514263,38.96157393218174],[-95.25080022732314,38.96157392655301],[-95.2508002025076,38.961578956597684],[-95.25086273177081,38.96157914949074],[-95.25086275773515,38.9615741194734],[-95.25086163127548,38.961574115296365],[-95.25086174530215,38.961551478349065],[-95.25091617562266,38.96155164591931],[-95.25091801427256,38.9611880726219],[-95.25090073385392,38.9611880198039],[-95.25090088387005,38.96115852178889],[-95.25089967427759,38.96115851834478],[-95.2508997643058,38.96114068255011],[-95.25090097389796,38.96114068599423],[-95.25090099429724,38.96113657058729],[-95.25089958966493,38.96113656612382],[-95.25089975653931,38.96110351858652],[-95.25090116117097,38.96110352305004],[-95.25090118432398,38.961099069749295],[-95.25089997473253,38.96109906630513],[-95.2509000647606,38.961081230510366],[-95.25090244585053,38.961081237396755],[-95.2509025946774,38.96105174025455],[-95.25091862946874,38.96105188430449],[-95.25092053659154,38.960689131828495],[-95.2508662616104,38.960688964322706],[-95.25086637843296,38.9606658696182],[-95.25086735027293,38.96066587193199],[-95.25086737347277,38.96066129876939],[-95.2508048438681,38.96066110585147],[-95.25080482062918,38.96066567991445],[-95.25080657846107,38.96066568464273],[-95.25080646158393,38.96068878024759],[-95.25078698494055,38.960688719496915],[-95.25078535971112,38.961009990815974],[-95.25069398227437,38.961009708661955],[-95.25069286980566,38.961229681924245],[-95.25078424756168,38.961229963178745],[-95.25078262230733,38.96155123448309],[-95.25080209922338,38.96155129433411],[-95.25080198514263,38.96157393218174]]]},"properties":{"SDE.FloorAll.FLOORLOCATION":"1"}},{"type":"Feature","geometry":{"type":"Polygon","coordinates":[[[-95.2508020290016,38.96157393232043],[-95.25080022732314,38.96157392655301],[-95.2508002025076,38.961578956597684],[-95.25086273177081,38.96157914949074],[-95.25086275773515,38.9615741194734],[-95.25086163127548,38.961574115296365],[-95.25086174530215,38.961551478349065],[-95.25091617562266,38.96155164591931],[-95.25091799101311,38.96119255836408],[-95.25091810413726,38.96119255834249],[-95.25091811736338,38.9611898144286],[-95.25091800539248,38.961189814477564],[-95.25091800706535,38.96118944501535],[-95.25090178621102,38.96118939478813],[-95.25090192758334,38.96116130608274],[-95.25086227687429,38.961161183401686],[-95.25086269249175,38.961078828579076],[-95.25090245743189,38.96107895126572],[-95.2509026008871,38.961050601254485],[-95.25091870858567,38.96105065150319],[-95.25092053659154,38.960689131828495],[-95.2508660619584,38.96068896319395],[-95.25086617878102,38.96066586848941],[-95.25086735027293,38.96066587193199],[-95.25086737347277,38.96066129876939],[-95.2508048438681,38.96066110585147],[-95.25080482062918,38.96066567991445],[-95.25080657846107,38.96066568464273],[-95.25080646158393,38.96068878024759],[-95.25078698494055,38.960688719496915],[-95.25078515625178,38.9610502391695],[-95.25082088729653,38.96105035005385],[-95.25082074384358,38.96107869916461],[-95.25084153869649,38.96107876322342],[-95.25084112211127,38.96116111261629],[-95.25083983748708,38.961161109194975],[-95.2508398140751,38.96116568775975],[-95.25084116562321,38.96116569186659],[-95.25084104742851,38.961189207409454],[-95.2507844544693,38.96118903268084],[-95.25078262230733,38.96155123448309],[-95.25080214308238,38.96155129447274],[-95.2508020290016,38.96157393232043]]]},"properties":{"SDE.FloorAll.FLOORLOCATION":"2"}},{"type":"Feature","geometry":{"type":"Polygon","coordinates":[[[-95.25080148424148,38.9615739302189],[-95.25080022732314,38.96157392655301],[-95.2508002025076,38.961578956597684],[-95.25086273177081,38.96157914949074],[-95.25086275773515,38.9615741194734],[-95.25086163127548,38.961574115296365],[-95.25086174530215,38.961551478349065],[-95.25091617562266,38.96155164591931],[-95.25091799101311,38.96119255836408],[-95.25091810413726,38.96119255834249],[-95.25091811736338,38.9611898144286],[-95.25091800539248,38.961189814477564],[-95.25091800706048,38.96118950449602],[-95.25090189817703,38.961189454219856],[-95.25090204176055,38.961161249309],[-95.25086216019027,38.96116112656172],[-95.25086257590797,38.96107882851861],[-95.25090245743189,38.96107895126572],[-95.2509026008871,38.961050601254485],[-95.25091870858567,38.96105065150319],[-95.25092053659154,38.960689131828495],[-95.2508660619584,38.96068896319395],[-95.25086617878102,38.96066586848941],[-95.25086735027293,38.96066587193199],[-95.25086737347277,38.96066129876939],[-95.2508048438681,38.96066110585147],[-95.25080482062918,38.96066567991445],[-95.25080657846107,38.96066568464273],[-95.25080646158393,38.96068878024759],[-95.25078698494055,38.960688719496915],[-95.25078515625178,38.9610502391695],[-95.25082088729653,38.96105035005385],[-95.25082074384358,38.96107869916461],[-95.25084153869649,38.96107876322342],[-95.25084112291924,38.96116106216689],[-95.2508399514192,38.96116105872405],[-95.25083992821735,38.961165631886445],[-95.25084116667638,38.96116563511444],[-95.25084104742359,38.96118926689013],[-95.25078445442928,38.961189093061876],[-95.25078262230733,38.96155123448309],[-95.25080159832241,38.96155129237126],[-95.25080148424148,38.9615739302189]]]},"properties":{"SDE.FloorAll.FLOORLOCATION":"3"}},{"type":"Feature","geometry":{"type":"Polygon","coordinates":[[[-95.2507848264175,38.96157890926225],[-95.2508002025076,38.961578956597684],[-95.25086273292406,38.961579149518094],[-95.25086287294972,38.96155148165303],[-95.25091617677592,38.96155164594665],[-95.25091624541402,38.96153803999141],[-95.25092327441686,38.96153806154402],[-95.25092482677455,38.96123108283984],[-95.25093009908922,38.961231098792545],[-95.25093120999725,38.96101135441943],[-95.25092593769904,38.96101133846677],[-95.25092749167875,38.960703901966134],[-95.25092046279386,38.960703879513396],[-95.25092053777978,38.96068913095547],[-95.25086723456889,38.96068896756427],[-95.25086737347277,38.96066129876939],[-95.25080484502138,38.96066110587882],[-95.25078993078009,38.960661060477534],[-95.25078979072764,38.96068872834459],[-95.25078698609376,38.960688719524256],[-95.25078691206812,38.96070335365005],[-95.2507798831483,38.96070333208915],[-95.25077833194908,38.961009968381944],[-95.25069398342767,38.961009708689296],[-95.25069391655889,38.96102297132153],[-95.2506622851762,38.961022872890936],[-95.25066195850826,38.96108735584819],[-95.2506935899548,38.961087453378504],[-95.25069286980566,38.961229681924245],[-95.25077721974274,38.96122994164504],[-95.25077566410984,38.96153749256215],[-95.25078269311258,38.961537514123286],[-95.25078262349565,38.96155123361006],[-95.25078496650868,38.961551240496895],[-95.2507848264175,38.96157890926225]]]},"properties":{"SDE.FloorAll.FLOORLOCATION":"ROOF"}}]}
