{"type":"FeatureCollection","features":[{"type":"Feature","geometry":{"type":"Polygon","coordinates":[[[-95.24589158924326,38.95566074113378],[-95.2459264606643,38.955660746653386],[-95.24592646248185,38.95565708591641],[-95.24599210322175,38.95565709591672],[-95.24599210491033,38.955649202118096],[-95.2460340090079,38.95564920882957],[-95.2460340176673,38.95561900624787],[-95.24599328510087,38.955619000327026],[-95.2459932914915,38.955592115103975],[-95.2460067716298,38.955592118070584],[-95.24600677072307,38.95559394843913],[-95.24601321822001,38.95559394928089],[-95.2460132462655,38.9554841220373],[-95.24599331977895,38.95548411915666],[-95.24599332214854,38.955475882006944],[-95.2458936886094,38.95547586662469],[-95.24589368832844,38.95547815483102],[-95.24588899875518,38.95547815338302],[-95.2458889979119,38.95548501800196],[-95.24586555451553,38.9554850144703],[-95.24586553700986,38.95555365593835],[-95.24589161667218,38.95555365990749],[-95.24589158924326,38.95566074113378]]]},"properties":{"SDE.FloorAll.FLOORLOCATION":"-1"}},{"type":"Feature","geometry":{"type":"Polygon","coordinates":[[[-95.24568923284151,38.95570985359068],[-95.2458682612406,38.9557098814985],[-95.24586826825988,38.95568262588554],[-95.24586475249369,38.95568262528324],[-95.24586475649535,38.9556647783986],[-95.24586373157352,38.95566477748395],[-95.24586373273081,38.955660659809595],[-95.24586827460597,38.95566066045349],[-95.24586827696996,38.95565073530706],[-95.24588732510375,38.955650738972814],[-95.24588732200425,38.95566092004993],[-95.24591604022471,38.95566092540631],[-95.24591603888348,38.955663981432],[-95.24597200951047,38.955663990650415],[-95.24597202227277,38.95561573120079],[-95.24598813869623,38.955615733704775],[-95.24598814468804,38.95559309504923],[-95.24600807117015,38.955593098831145],[-95.24600809947015,38.95548510198347],[-95.24598817298332,38.955485099102006],[-95.24598817451496,38.955477090843765],[-95.24588736946326,38.9554770746654],[-95.24588736792022,38.955485082923595],[-95.24586275182459,38.95548507947267],[-95.24586274943982,38.95549331662237],[-95.24586157792868,38.95549331583041],[-95.24586157536555,38.95550475683457],[-95.24586421276017,38.95550475730009],[-95.24586420304227,38.95554250942944],[-95.24586156564625,38.955542508963944],[-95.24586156192998,38.95555394994065],[-95.2458627346304,38.95555394985958],[-95.24586273172096,38.95556264481963],[-95.24584558923607,38.955562641356],[-95.24584558762149,38.955568133389356],[-95.24586126544646,38.95556813540599],[-95.24586125555476,38.955607461972996],[-95.24585187750912,38.95560746000202],[-95.24585187861965,38.95560660206115],[-95.24584499138051,38.955606600678024],[-95.24584499113314,38.95560820665696],[-95.24576528516168,38.95560813281642],[-95.24576528523538,38.95560653133942],[-95.24575839914944,38.955606529978525],[-95.24575839809874,38.95560744559926],[-95.24574755647406,38.95560744399972],[-95.24574756092315,38.9555866834609],[-95.24574052824708,38.955586682221444],[-95.24574052801587,38.95558816923902],[-95.24571254040856,38.95558816497273],[-95.24571254064037,38.95558667795513],[-95.2457055079643,38.95558667671363],[-95.2457055022094,38.955607440826576],[-95.24569671165007,38.95560743928092],[-95.24569671623998,38.955588334297474],[-95.2456896835638,38.955588333054955],[-95.2456896819557,38.955593706126876],[-95.24559561853684,38.95559369123716],[-95.24559561074723,38.95562472567575],[-95.24558240645437,38.95562472290615],[-95.24558227669274,38.95562281012518],[-95.24558206250462,38.955620901647094],[-95.24558176263156,38.95561900014566],[-95.2455813793097,38.95561710747647],[-95.2455809135519,38.95561522726845],[-95.24558036305186,38.955613359466824],[-95.2455797310936,38.955611508655736],[-95.24557901648893,38.95560967570821],[-95.24557822143883,38.95560786338017],[-95.24557734702638,38.95560607349987],[-95.24557639314635,38.95560430876839],[-95.24557536091667,38.95560257011356],[-95.24557425365663,38.955600861219146],[-95.24557307021304,38.955599182057774],[-95.24557181386993,38.95559753721354],[-95.24557048462731,38.95559592668644],[-95.2455690846863,38.95559435323248],[-95.24556761628295,38.955592818707245],[-95.24556608053544,38.95559132403844],[-95.24556447960967,38.9555898728825],[-95.24556281465885,38.955588465266764],[-95.24556108907232,38.95558710307429],[-95.24555930389793,38.95558578903356],[-95.24555746025385,38.95558452407239],[-95.24555556271753,38.95558330920071],[-95.24555361352513,38.955582146274224],[-95.24555161257145,38.95558103799397],[-95.245549563351,38.955579983541774],[-95.24554746925315,38.955578984800674],[-95.24554533251397,38.95557804362617],[-95.2455431542516,38.955577160946085],[-95.24554093904365,38.95557633777038],[-95.24553868919632,38.95557557415385],[-95.24553640575753,38.95557487282502],[-95.24553409222194,38.95557423296578],[-95.24553175313194,38.95557365648643],[-95.24552938848748,38.955573143387014],[-95.24552700286625,38.95557269467742],[-95.24552459972764,38.95557231043989],[-95.24552218018974,38.95557199160225],[-95.24551974767695,38.95557173914709],[-95.24551730571892,38.95557155135567],[-95.24551485770495,38.95557143011111],[-95.24551240478819,38.95557137544078],[-95.24550995161638,38.95557138655383],[-95.2455074993076,38.955571464378046],[-95.24550505247448,38.95557160902304],[-95.24550261349347,38.95557181874281],[-95.24550018578908,38.95557209451997],[-95.2454977716675,38.9555724364093],[-95.24549537350528,38.9555728426648],[-95.24549299476192,38.955573313368625],[-95.2454906388969,38.95557384860301],[-95.24548830825154,38.95557444752234],[-95.24548600520245,38.955575108380636],[-95.24548373320906,38.95557583126006],[-95.24548149461279,38.95557661531507],[-95.24547929179009,38.95557745879963],[-95.24547712816538,38.955578362696336],[-95.2454750050322,38.95557932343101],[-95.24547292700322,38.95558034111328],[-95.24547089411345,38.95558141484269],[-95.24546891108082,38.95558254202771],[-95.24546697790538,38.955583722668315],[-95.24546509926986,38.955584955073306],[-95.24546327639771,38.955586237469326],[-95.24546151166537,38.95558756811032],[-95.24545980626107,38.955588946123385],[-95.24545816374959,38.95559036888948],[-95.2454565853192,38.955591835535635],[-95.24545507219318,38.955593344288424],[-95.2454536267832,38.95559489250148],[-95.2454522514657,38.955596478428895],[-95.24545094742898,38.95559810119757],[-95.2454497159314,38.955599758133765],[-95.24544855819637,38.95560144746411],[-95.24544747660036,38.955603167442575],[-95.24544647240184,38.955604915395405],[-95.24544554567102,38.95560668952183],[-95.24544469766623,38.95560848714807],[-95.24544393076401,38.95561030652811],[-95.24544324499948,38.955612146761624],[-95.24544264054808,38.95561400334655],[-95.24544211975126,38.955615875437346],[-95.24544168156106,38.95561776030549],[-95.24544132720088,38.95561965617745],[-95.24544105792913,38.95562156037964],[-95.24544087269796,38.95562347018331],[-95.24544077154242,38.95562538468812],[-95.24544075690916,38.95562730034739],[-95.24544221699409,38.955627300789665],[-95.24544221332607,38.9556371393889],[-95.2454414734816,38.95563713893486],[-95.24544147289619,38.95563839793396],[-95.24542007820892,38.95563839432072],[-95.2454200785284,38.95563530582613],[-95.24541436398822,38.9556353043408],[-95.24541436435939,38.95563473207098],[-95.24541304621872,38.955634732297035],[-95.2454130308066,38.95569104685237],[-95.24568923793908,38.95569109108531],[-95.24568923284151,38.95570985359068]]]},"properties":{"SDE.FloorAll.FLOORLOCATION":"1"}},{"type":"Feature","geometry":{"type":"Polygon","coordinates":[[[-95.24568893881745,38.95571008272709],[-95.24587001825041,38.95571011159153],[-95.2458700327782,38.9556824262721],[-95.24586826797614,38.95568242580662],[-95.24586827431887,38.95565889043872],[-95.2458873201836,38.955658893149305],[-95.24588731966288,38.95566092089558],[-95.24592292516282,38.95566092673047],[-95.24592294446569,38.95558862362562],[-95.24588733781393,38.95558861866373],[-95.24588733358978,38.955607952566034],[-95.24586828773873,38.95560794985546],[-95.24586828707969,38.95560746317774],[-95.24585187747405,38.95560746090242],[-95.24585187725596,38.95560660743612],[-95.24575839791684,38.95560659123259],[-95.24575839809874,38.95560744559926],[-95.24574755532092,38.95560744397232],[-95.24570550119653,38.95560743719765],[-95.24569671060213,38.955607436552356],[-95.24569671347926,38.955593707342],[-95.2456896807674,38.95559370699986],[-95.24559561738366,38.95559369120975],[-95.24559560959405,38.95562472564834],[-95.24558241679779,38.9556247240531],[-95.24558228504559,38.9556228031138],[-95.24558206771373,38.95562088644999],[-95.24558176585015,38.955618976790234],[-95.24558137816128,38.95561707770872],[-95.24558090695342,38.955615189260165],[-95.24558035208632,38.95561331504621],[-95.24557971348976,38.955611456867636],[-95.24557899224678,38.95560961655257],[-95.24557819052336,38.95560779775745],[-95.24557730824927,38.955606002282984],[-95.24557634538948,38.95560423102962],[-95.24557530529825,38.95560248678069],[-95.24557418787025,38.95560077223735],[-95.24557299418854,38.95559908922781],[-95.24557172648923,38.95559743960764],[-95.24557038700853,38.95559582523245],[-95.24556897567616,38.95559424790293],[-95.24556749469335,38.95559271037513],[-95.24556594633123,38.95559121360423],[-95.24556433279086,38.95558976034614],[-95.24556265519037,38.9555883515287],[-95.24556091576586,38.955586989007415],[-95.24555911678867,38.95558567373755],[-95.24555726042463,38.95558440937541],[-95.24555534898019,38.95558319597579],[-95.2455533847265,38.95558203449392],[-95.24555136871155,38.9555809276583],[-95.24554930554793,38.955579875578564],[-95.24554719743668,38.95557888101061],[-95.2455450455661,38.955577943081536],[-95.24554285325524,38.955577065475055],[-95.24554062284564,38.955576247345526],[-95.24553835776159,38.9555754896756],[-95.24553606135734,38.955574795248566],[-95.24553373370308,38.955574162263694],[-95.24553138045934,38.95557359355915],[-95.24552900277926,38.955573089162264],[-95.24552660412239,38.95557264915524],[-95.24552418672477,38.9555722753937],[-95.24552175523424,38.95557196708678],[-95.24551931080383,38.9555717242619],[-95.24551685682295,38.95557154880207],[-95.24551439678613,38.95557143988901],[-95.24551193415287,38.955571397605006],[-95.24550947007629,38.95557142197733],[-95.24550700913396,38.95557151401608],[-95.24550455370239,38.95557167197518],[-95.24550210720595,38.95557189683725],[-95.2454996707978,38.95557218862971],[-95.24549725031393,38.95557254568872],[-95.24549484690749,38.95557296804164],[-95.24549246288476,38.95557345574334],[-95.24549010289357,38.955574008003],[-95.2454877681221,38.95557462394756],[-95.24548546321807,38.95557530278629],[-95.24548318936975,38.95557604364618],[-95.24548095007167,38.95557684570905],[-95.24547874763022,38.95557770902962],[-95.24547658561009,38.95557863098895],[-95.24547446519952,38.95557961071408],[-95.24547238989314,38.95558064738675],[-95.24547036203235,38.955581740161406],[-95.2454683839936,38.955582887292],[-95.24546645811833,38.955584087933026],[-95.24546458681809,38.955585339438024],[-95.24546277243435,38.955586640961414],[-95.24546101730851,38.955587991657666],[-95.24545932388722,38.95558938797992],[-95.24545769328857,38.955590830855996],[-95.24545612799437,38.95559231583875],[-95.2454546291577,38.95559384295556],[-95.24545320030828,38.955595410487824],[-95.24545184043328,38.95559701480663],[-95.24545055414534,38.95559865602148],[-95.24544934158486,38.95560033053089],[-95.24544820397517,38.95560203656146],[-95.24544714365767,38.95560377326753],[-95.24544616077273,38.955605537047575],[-95.24544525766176,38.95560732705603],[-95.24544443443004,38.95560914059167],[-95.24544369233602,38.955610974980736],[-95.24544303144984,38.95561282842238],[-95.24544245530117,38.95561469919819],[-95.2454419617241,38.95561658365162],[-95.24544155190685,38.955618480909735],[-95.24544122829607,38.95562038742578],[-95.2454409886206,38.955622302244585],[-95.24544083529202,38.95562422271968],[-95.2454407661443,38.95562614519479],[-95.24544078348386,38.955628069724675],[-95.24544088748613,38.95562999180739],[-95.24544107591491,38.95563190958729],[-95.24544134999356,38.955633821291066],[-95.2454417086392,38.95563572509053],[-95.24544215199205,38.95563761738405],[-95.24544267896925,38.95563949634346],[-95.24544328964092,38.955641360168045],[-95.2454439829591,38.95564320612912],[-95.2454447589941,38.955645032426006],[-95.24544561439167,38.955646836275264],[-95.2454465503751,38.955648615903534],[-95.2454475647083,38.95565036945519],[-95.24544865753155,38.955652093328716],[-95.2454498253855,38.95565378744186],[-95.2454510684104,38.95565544819317],[-95.245452384335,38.95565707462727],[-95.24545377207636,38.9556586649161],[-95.24545522946856,38.95566021540334],[-95.2454567553583,38.95566172606146],[-95.24545834754467,38.95566319413457],[-95.24546000490949,38.95566461869486],[-95.24546172298048,38.95566599603112],[-95.24546350287577,38.95566732707125],[-95.24546534008786,38.95566860900439],[-95.24546723353384,38.95566984000233],[-95.24546918097758,38.95567101820958],[-95.24547118011269,38.955672143571284],[-95.24547322754988,38.95567321420452],[-95.245475321053,38.95567422825364],[-95.24547745835078,38.95567518476354],[-95.245479637172,38.95567608277891],[-95.24548185528047,38.95567692044424],[-95.24548410918169,38.95567769857774],[-95.24548639552134,38.95567841439604],[-95.24548871314624,38.955679067871706],[-95.2454910586672,38.9556796571218],[-95.2454934285544,38.955680183864885],[-95.24549582064186,38.95568064444465],[-95.24549823140005,38.9556810405796],[-95.24550065855755,38.95568137131462],[-95.24550309984322,38.95568163569452],[-95.24550555064441,38.95568183360967],[-95.24550800865471,38.95568196500533],[-95.24551047044973,38.955682028898835],[-95.24551046242469,38.95568987658568],[-95.2455180814448,38.95568987825044],[-95.24553566370206,38.95568988229609],[-95.2455356628491,38.955691296299634],[-95.24568833906055,38.95569132117366],[-95.2456883353019,38.955706879852016],[-95.24568894012154,38.95570687980046],[-95.24568893881745,38.95571008272709]]]},"properties":{"SDE.FloorAll.FLOORLOCATION":"2"}},{"type":"Feature","geometry":{"type":"MultiPolygon","coordinates":[[[[-95.24568893881745,38.95571008272709],[-95.24583682966302,38.95571010637676],[-95.24583682934883,38.95570987745788],[-95.24584745283055,38.95570987927418],[-95.24586298409471,38.955709881413235],[-95.24586298325579,38.95571011030472],[-95.24587002289816,38.9557101108007],[-95.2458700288226,38.95569520646486],[-95.24587003281329,38.95568242537172],[-95.24586855885424,38.955682425506446],[-95.24586855964625,38.955676362076325],[-95.2458685620304,38.95566812492676],[-95.24586856441451,38.9556598877772],[-95.24586856439758,38.9556590883893],[-95.24588731938442,38.95565909140007],[-95.24588731966288,38.95566092089558],[-95.24590395089893,38.95566092302287],[-95.2459205751809,38.95566092588383],[-95.24592058072376,38.95566398297424],[-95.24592438967338,38.95566398332934],[-95.24593512395721,38.955663985066074],[-95.2459374693617,38.95566398490249],[-95.24593981357793,38.95566398561181],[-95.24596819710136,38.955663990214745],[-95.24597200720412,38.955663990595646],[-95.24597201938818,38.955616545840584],[-95.24598432686474,38.95561654799159],[-95.24598813696495,38.955616548371985],[-95.24598814234662,38.95559309589487],[-95.24600807117015,38.955593098831145],[-95.24600807329156,38.95558303128561],[-95.24600807646041,38.955572048119286],[-95.24600807844098,38.955561065826004],[-95.24600808157476,38.955550083560084],[-95.24600808359041,38.95553910036634],[-95.24600808672417,38.95552811810041],[-95.246008089893,38.955517134934006],[-95.24600809302675,38.955506152668086],[-95.24600809619561,38.95549516950169],[-95.24600809831695,38.95548510195608],[-95.24598817067698,38.95548509904721],[-95.24598817220867,38.95547709078897],[-95.2459843632691,38.95547709043598],[-95.24593986112252,38.95547708327379],[-95.24593751691255,38.95547708256443],[-95.24593517270252,38.955477081855044],[-95.24589117606143,38.95547707586718],[-95.2458873671219,38.955477075511],[-95.24588736442564,38.9554850837418],[-95.24586392337068,38.95548507936426],[-95.24586392098604,38.955493316513916],[-95.24586069837778,38.95549331656652],[-95.24586069522113,38.9555042988325],[-95.24586069227206,38.95551711239475],[-95.24586068935808,38.95552992505666],[-95.24586068525588,38.955542738591504],[-95.24586068241348,38.95555394977633],[-95.24586390614256,38.95555395065152],[-95.24586390295408,38.955562415792265],[-95.24586097352658,38.955562415599545],[-95.24584778654281,38.95556241327099],[-95.24583372004237,38.95556241077642],[-95.24581965469513,38.95556240830763],[-95.24580558819467,38.95556240580968],[-95.24579152284744,38.955562403337396],[-95.24577899376258,38.95556240130873],[-95.24576646583095,38.955562399306054],[-95.24575239933054,38.955562396801646],[-95.24573833398333,38.95556239432296],[-95.24572426748287,38.955562391815135],[-95.24571020213564,38.955562389333025],[-95.24569701511676,38.95556238788776],[-95.2456893960753,38.95556238713512],[-95.24567826015559,38.95556238484621],[-95.24566419480834,38.95556238235848],[-95.24565012946105,38.955562379869114],[-95.2456360629256,38.95556237825099],[-95.24562199757833,38.9555623757582],[-95.24560793107796,38.95556237323626],[-95.24559386573067,38.955562370740026],[-95.24557979919521,38.95556236911508],[-95.24556573384793,38.95556236661543],[-95.24555489223017,38.955562364997846],[-95.2455299852652,38.955562360875334],[-95.24551591988288,38.95556235927006],[-95.24550185338246,38.95556235673526],[-95.24547372149975,38.955562352588366],[-95.24545965611743,38.95556235097624],[-95.24544558961702,38.95556234843466],[-95.24543152423472,38.9555623468191],[-95.24542038827985,38.95556234540586],[-95.24541276927351,38.955562343734655],[-95.24541657770654,38.95556531904196],[-95.24541657671934,38.955571268012704],[-95.24541305980546,38.95557126736931],[-95.2454130578212,38.95557733077208],[-95.24541305538402,38.95558556792169],[-95.24541305294687,38.9555938050713],[-95.24541305050964,38.95560204222091],[-95.2454130492607,38.95561027849752],[-95.24541304633709,38.955618498512266],[-95.24541304484853,38.95562626704678],[-95.24541304210558,38.95563510440575],[-95.24541303966843,38.95564334155529],[-95.2454130372312,38.955651578704874],[-95.24541303598227,38.955659814981445],[-95.2454130335451,38.955668052130996],[-95.24541303110793,38.95567628928055],[-95.24541303027681,38.95568235271066],[-95.24541273824556,38.955682352982315],[-95.24541273562863,38.95569127596069],[-95.24542035464889,38.95569127763191],[-95.24551808055638,38.95569129315447],[-95.2455180808881,38.955689862916415],[-95.2455356632155,38.95568986516122],[-95.2455356628491,38.955691296299634],[-95.24568894391514,38.95569132022176],[-95.24568894269804,38.95569709795344],[-95.24568893881745,38.95571008272709]]],[[[-95.24586256519555,38.955711597310405],[-95.24586254449544,38.95579122194328],[-95.24586606026705,38.95579122254562],[-95.24586608096318,38.955711597912774],[-95.24586256519555,38.955711597310405]]]]},"properties":{"SDE.FloorAll.FLOORLOCATION":"ROOF"}}]}
