{"type":"FeatureCollection","features":[{"type":"Feature","geometry":{"type":"Polygon","coordinates":[[[-95.25096611053736,38.957499716228824],[-95.25111765915034,38.957551741117136],[-95.2512014743662,38.95740289931914],[-95.25115886819005,38.95738827261284],[-95.25113021990254,38.957378438773006],[-95.25107491790641,38.957359453724024],[-95.2510626879368,38.95735525515373],[-95.25104992601058,38.95735087453971],[-95.25096611053736,38.957499716228824]]]},"properties":{"SDE.FloorAll.FLOORLOCATION":"-1"}},{"type":"Feature","geometry":{"type":"Polygon","coordinates":[[[-95.25115803953832,38.95783611188477],[-95.25116926181369,38.95781618330855],[-95.25115623327513,38.95781171077136],[-95.25118639363873,38.95775815228235],[-95.25119676246663,38.95776171190617],[-95.251285369967,38.95760435894628],[-95.25114711501045,38.957556897824496],[-95.25116722220612,38.9575211930764],[-95.25115844810556,38.95751818044884],[-95.25115891553087,38.957517350688335],[-95.25114748285665,38.957513426076694],[-95.25114701543123,38.95751425583712],[-95.25114010250893,38.95751188304271],[-95.25116330698911,38.95747067675311],[-95.25116436971943,38.95747104171004],[-95.25117687771994,38.95744882927197],[-95.2511758149899,38.95744846431517],[-95.25118130895945,38.95743870723424],[-95.25118237280753,38.95743907311874],[-95.25119488079673,38.957416860678684],[-95.25119381691388,38.95741649569471],[-95.25120147324797,38.95740289839139],[-95.25118272903174,38.957396463567115],[-95.25118319645597,38.957395633806485],[-95.25115474867314,38.957385867812135],[-95.25115428124862,38.9573866975726],[-95.25113992350552,38.957381769041746],[-95.25114039096516,38.95738093838093],[-95.2511119431942,38.95737117237609],[-95.25111147573428,38.95737200303679],[-95.25109725127498,38.95736712001797],[-95.25109771873505,38.95736628935732],[-95.25106926982264,38.95735652331462],[-95.25106880236233,38.95735735397518],[-95.25105045681545,38.95735105655482],[-95.25103642988562,38.957375967281976],[-95.2510284531343,38.95737322859506],[-95.25102892056019,38.957372398835055],[-95.25098026609479,38.95735569553449],[-95.25097979863342,38.95735652619465],[-95.25096384625827,38.957351049740176],[-95.25096431368479,38.95735021998043],[-95.2509156592499,38.95733351665268],[-95.25091519930241,38.95733433216997],[-95.25090136976934,38.957329593674146],[-95.25089470283271,38.95734143359857],[-95.25089310699498,38.95734088656867],[-95.25087931316648,38.95736538193326],[-95.25088090900462,38.957365928963405],[-95.25087342747024,38.957379214963005],[-95.25085963362744,38.95740371032522],[-95.25085215208506,38.95741699632343],[-95.25085055628097,38.95741644839256],[-95.25083676238793,38.95744094465234],[-95.2508383582275,38.95744149168303],[-95.25083403225814,38.95744917298548],[-95.25080478717645,38.95743913295344],[-95.2508029075448,38.957443597210855],[-95.25078100351577,38.95748249378887],[-95.25076132871307,38.95747573942652],[-95.25071539569159,38.95748969801656],[-95.25073401866096,38.95752705555883],[-95.25075831232162,38.95753539565187],[-95.2507086157859,38.95755049697484],[-95.25067305748864,38.95747916273546],[-95.25061757201216,38.95749602382695],[-95.2506358093403,38.9575326116081],[-95.25057961959293,38.95753742824032],[-95.25055394190456,38.95748591547477],[-95.25044459446525,38.95751914429755],[-95.2504812682671,38.957592715768556],[-95.25049101114406,38.957589754673315],[-95.25051978318928,38.95764747456504],[-95.25065897077923,38.957695256860376],[-95.25067334877643,38.95766972364233],[-95.25115803953832,38.95783611188477]]]},"properties":{"SDE.FloorAll.FLOORLOCATION":"1"}},{"type":"Feature","geometry":{"type":"Polygon","coordinates":[[[-95.25074144961653,38.95829853476601],[-95.25077324603423,38.958242069966296],[-95.25090086662964,38.95828588084668],[-95.25098783992465,38.958131434543574],[-95.2509237107967,38.9581094193179],[-95.25093773791174,38.958084508605864],[-95.25091986107441,38.95804864590159],[-95.2509063541162,38.95804400878556],[-95.25091745993463,38.95802428745565],[-95.25099509482878,38.95805093886449],[-95.2510120454966,38.95802083881594],[-95.25101098160562,38.958020473830274],[-95.25102220395163,38.95800054526857],[-95.25102326784236,38.95800091025416],[-95.25102654118122,38.95799509745999],[-95.25102441455309,38.95799436751629],[-95.25103516830816,38.9579752686859],[-95.25103729605401,38.95797599955713],[-95.25105412897238,38.95794610669663],[-95.2510530651173,38.95794574081094],[-95.25106428743966,38.95792581224512],[-95.25106535129447,38.957926178130656],[-95.25106815716228,38.95792119599579],[-95.25106602941777,38.95792046512515],[-95.25107725173244,38.95790053655797],[-95.25107937951148,38.95790126652804],[-95.25109621239427,38.95787137366121],[-95.25109514850509,38.95787100867633],[-95.25110637080365,38.957851080106295],[-95.25110743469259,38.95785144509106],[-95.25112415095676,38.95782176034223],[-95.250932765569,38.95775606025779],[-95.25097286395477,38.95768485175242],[-95.25119676127845,38.9577617127792],[-95.251285369967,38.95760435894628],[-95.25118433696836,38.957569676446816],[-95.25118480442876,38.95756884578584],[-95.25115210219019,38.95755761988197],[-95.25115163476451,38.95755844964243],[-95.25111999526722,38.9575475886865],[-95.25112151532778,38.95754489041021],[-95.25112311117189,38.957545437437],[-95.25112872171562,38.9575354731368],[-95.25112712702489,38.957534926137434],[-95.25113016602663,38.9575295286569],[-95.25113176071721,38.957530075656194],[-95.25113737241169,38.95752011138291],[-95.25113577656803,38.95751956435635],[-95.25114606391368,38.95750129620307],[-95.25114765856875,38.95750184410258],[-95.25116016658004,38.95747963166638],[-95.2511585719253,38.95747908376704],[-95.25116330583593,38.957470676725784],[-95.25116436971943,38.95747104171004],[-95.25117687768494,38.95744883017238],[-95.25117581383674,38.95744846428784],[-95.2511813077712,38.95743870810733],[-95.25118237165431,38.957439073091415],[-95.25119487964356,38.95741686065134],[-95.25119381576071,38.95741649566738],[-95.25120147324797,38.95740289839139],[-95.25118272899672,38.957396464467486],[-95.25118319645597,38.957395633806485],[-95.25115474751995,38.95738586778482],[-95.25115427757893,38.95738670289295],[-95.25113992347049,38.957381769942124],[-95.25114039093015,38.9573809392813],[-95.25111194200602,38.95737117324911],[-95.25111147454608,38.95737200390981],[-95.25109725008679,38.95736712089105],[-95.25109771754687,38.95736629023039],[-95.25106926978764,38.957356524215015],[-95.25106880232731,38.957357354875576],[-95.25105019141301,38.95735096554726],[-95.25104598206656,38.95735843873552],[-95.25104518474103,38.95735816478506],[-95.25103957419964,38.95736812908137],[-95.25104037152526,38.957368403031836],[-95.25103616332993,38.957375876247056],[-95.25102845309928,38.957373229495445],[-95.25102892056019,38.957372398835055],[-95.25098026605977,38.95735569643487],[-95.25097979744521,38.9573565270677],[-95.25096384507007,38.95735105061322],[-95.25096431368479,38.95735021998043],[-95.25091565806171,38.95733351752575],[-95.25091519063474,38.95733434728526],[-95.25090136484141,38.95732960166835],[-95.25089470164451,38.957341434471644],[-95.25089310699498,38.95734088656867],[-95.25087931316648,38.95736538193326],[-95.25088090781644,38.95736592983644],[-95.25087342631707,38.95737921493568],[-95.25087183163183,38.95737866793282],[-95.25085803778856,38.95740316329482],[-95.25085963243923,38.957403711198275],[-95.25085215093188,38.95741699629608],[-95.25085055624594,38.957416449292936],[-95.25083676238793,38.95744094465234],[-95.25083835703924,38.957441492556086],[-95.25083403225814,38.95744917298548],[-95.25080531794636,38.95743931587003],[-95.25077387166644,38.9574951572171],[-95.25078764391371,38.95749988535698],[-95.25079886473297,38.9575037364882],[-95.25080896810134,38.95750720513857],[-95.25077857443796,38.95756117797348],[-95.25075940304899,38.95759522316367],[-95.25075168719304,38.95760892357075],[-95.2508234691398,38.957633565382686],[-95.25081435089633,38.95764975777252],[-95.25079784033494,38.95764408961895],[-95.25079503561221,38.95764907177471],[-95.2508099241571,38.9576541832648],[-95.2507817486142,38.957704217172456],[-95.2506710998447,38.957666233044876],[-95.25037370716895,38.95819433963441],[-95.2503800881695,38.95819653042886],[-95.25039049237152,38.95817805512252],[-95.25045430249064,38.95819996034083],[-95.25045547171497,38.958197884609866],[-95.25048099576608,38.95820664686718],[-95.2504798265423,38.95820872259833],[-95.25048620754748,38.95821091338696],[-95.25048737680613,38.9582088367553],[-95.25051290086509,38.958217599005565],[-95.25051173164212,38.958219674737094],[-95.25051811264923,38.958221865523925],[-95.25051928187212,38.95821978979238],[-95.25054480593903,38.958228552035564],[-95.25054363671677,38.95823062776743],[-95.25055001772591,38.958232818552496],[-95.25055118694799,38.95823074282059],[-95.2505767110228,38.95823950505679],[-95.2505755418013,38.95824158078898],[-95.25058192281239,38.958243771572306],[-95.2505830920688,38.958241694939666],[-95.25060861615148,38.95825045716889],[-95.25059704273946,38.9582710091274],[-95.25060342378895,38.95827319900916],[-95.25061382794381,38.95825472368291],[-95.25074144961653,38.95829853476601]]]},"properties":{"SDE.FloorAll.FLOORLOCATION":"2"}},{"type":"Feature","geometry":{"type":"Polygon","coordinates":[[[-95.25073506859553,38.95829634399151],[-95.25072466446618,38.95831481932853],[-95.2507310454885,38.958317010103634],[-95.25077324603423,38.958242069966296],[-95.25090086662964,38.95828588084668],[-95.25115605594677,38.95783271320449],[-95.25110907096226,38.95781658397294],[-95.251149170358,38.957745375434335],[-95.25119676127845,38.9577617127792],[-95.25128536993198,38.95760435984667],[-95.25094186007723,38.95748643669174],[-95.25095845976486,38.95745695918762],[-95.25091698353307,38.95744272057393],[-95.25090050039144,38.95747199085062],[-95.25083509613961,38.95744953797276],[-95.25080531794636,38.95743931587003],[-95.25077387166644,38.9574951572171],[-95.25080896810134,38.95750720513857],[-95.25075168719304,38.95760892357075],[-95.25082186990646,38.957633016469],[-95.25081275166272,38.9576492088587],[-95.25079784033494,38.95764408961895],[-95.25079503561221,38.95764907177471],[-95.25080994578771,38.95765419098744],[-95.25078177024479,38.95770422489515],[-95.2506710998447,38.957666233044876],[-95.25054204365033,38.957895411993704],[-95.25070130308006,38.95795008420816],[-95.25067242807849,38.95800135871517],[-95.25069135356168,38.958007854694316],[-95.25068094942833,38.95802633092825],[-95.2506652144905,38.958020928986194],[-95.25066468371661,38.958020746068975],[-95.25060124728682,38.9579989696879],[-95.25060071536008,38.95799878674296],[-95.25059846684941,38.95799801514854],[-95.25050276557285,38.95796516180633],[-95.25037370716895,38.95819433963441],[-95.25056886009062,38.9582613339986],[-95.2505986385959,38.95827155616133],[-95.25060342378895,38.95827319900916],[-95.25061382794381,38.95825472368291],[-95.25067270718183,38.95827493651317],[-95.2506623030393,38.958293411844636],[-95.250667765989,38.95829528705468],[-95.25067817013036,38.95827681172275],[-95.25073506859553,38.95829634399151]]]},"properties":{"SDE.FloorAll.FLOORLOCATION":"3"}},{"type":"Feature","geometry":{"type":"Polygon","coordinates":[[[-95.25072536624883,38.958313573353564],[-95.25072466446618,38.95831481932853],[-95.25073104552351,38.95831700920324],[-95.25077324603423,38.958242069966296],[-95.25083710074445,38.95826399044655],[-95.25109229039126,38.957810822943834],[-95.25093278723467,38.95775606708006],[-95.25096376855781,38.9577010510035],[-95.25079784033494,38.95764408961895],[-95.25079503561221,38.95764907177471],[-95.2508099241571,38.9576541832648],[-95.2507817486142,38.957704217172456],[-95.25067110099789,38.95766623307221],[-95.25054204368534,38.957895411093325],[-95.25070161293392,38.95795018978884],[-95.25066233498343,38.958019939655216],[-95.25050276560788,38.95796516090593],[-95.25037370716895,38.95819433963441],[-95.25060346935688,38.9582732145093],[-95.25060416998804,38.958271968507724],[-95.2506620867191,38.95829185120189],[-95.2506613861238,38.9582930963034],[-95.25066776714223,38.95829528708203],[-95.25066846777247,38.95829404108007],[-95.25072536624883,38.958313573353564]]]},"properties":{"SDE.FloorAll.FLOORLOCATION":"4"}},{"type":"Feature","geometry":{"type":"Polygon","coordinates":[[[-95.25072536740207,38.958313573380906],[-95.25072466561936,38.958314819355856],[-95.2507310466767,38.9583170092306],[-95.25089938193933,38.95801808107428],[-95.25096323648637,38.95804000148551],[-95.25109229154445,38.957810822971176],[-95.2509327667572,38.957756059384764],[-95.25096374808037,38.95770104330819],[-95.25079784148812,38.957644089646294],[-95.25079503676545,38.95764907180206],[-95.25080992531026,38.95765418329213],[-95.25078174976738,38.95770421719978],[-95.250766861214,38.957699105706105],[-95.25046946911527,38.95822721253978],[-95.25066723636625,38.958295104164776],[-95.25066793696149,38.958293859063225],[-95.25072536740207,38.958313573380906]]]},"properties":{"SDE.FloorAll.FLOORLOCATION":"5"}},{"type":"Feature","geometry":{"type":"Polygon","coordinates":[[[-95.2507658576792,38.95770371780927],[-95.25083578193713,38.957727721655566],[-95.250861040462,38.9577363928215],[-95.25093042712783,38.95776021262989],[-95.25096374577399,38.95770104325353],[-95.25079917643646,38.95764454847997],[-95.2507658576792,38.95770371780927]]]},"properties":{"SDE.FloorAll.FLOORLOCATION":"6"}},{"type":"Feature","geometry":{"type":"MultiPolygon","coordinates":[[[[-95.25051116237005,38.95824276592927],[-95.25060338873668,38.95827442654685],[-95.25060617376282,38.95827538209582],[-95.25073052634836,38.95831807115224],[-95.25077261029864,38.958243339136956],[-95.25083642059505,38.95826524414489],[-95.2509002320842,38.95828714914499],[-95.25115553800478,38.95783377338199],[-95.25110768048792,38.957817344985514],[-95.25114765965608,38.95774634898959],[-95.25112532616224,38.95773868270556],[-95.25108534701101,38.957809677793485],[-95.25093220202152,38.95775710583467],[-95.25096446914192,38.95769980590006],[-95.2509728855854,38.95768485947509],[-95.2508222708242,38.95763315485027],[-95.25082186987144,38.957633017369425],[-95.25081345224903,38.95764796375617],[-95.25079856370522,38.95764285226655],[-95.2507984359954,38.957643079050676],[-95.25076629305174,38.957700151172844],[-95.25070882326145,38.95768042241146],[-95.25067058186166,38.957667294120604],[-95.25054152569867,38.957896472168464],[-95.25057976719845,38.957909600501594],[-95.25060529116088,38.95791836273176],[-95.25063719611406,38.957929315736635],[-95.25063724056363,38.957929330309],[-95.2505979625262,38.9579990810541],[-95.25054048799711,38.95797935029961],[-95.25050224643184,38.95796622285399],[-95.25037318917757,38.958195400708775],[-95.25043695485725,38.95821729136408],[-95.25046885995427,38.95822824351462],[-95.25046890436896,38.95822825898744],[-95.25047524096088,38.95823043430379],[-95.25050687951146,38.95824129540764],[-95.25051116237005,38.95824276592927]]],[[[-95.25119156161819,38.95757195839535],[-95.25112053259635,38.95754748426663],[-95.25120196835594,38.95740287047545],[-95.25120178042488,38.95740280563799],[-95.25105068655564,38.95735093673154],[-95.25103663907855,38.95737584156427],[-95.25090185998394,38.95732957285326],[-95.25089666858545,38.9573387909539],[-95.25083452740154,38.957449144170674],[-95.25088926784443,38.957467966416054],[-95.25090419194994,38.95744150614344],[-95.2509561566322,38.95745937303411],[-95.25094123477876,38.957485835168825],[-95.25096916944723,38.95749543944615],[-95.2509691511688,38.957495464247025],[-95.25080581308968,38.957439287055394],[-95.2507743668102,38.95749512840263],[-95.25080946324513,38.95750717632396],[-95.25075218230258,38.957608895656755],[-95.25082236501613,38.95763298855471],[-95.25097338188364,38.957684830687086],[-95.2509747191403,38.95768528957339],[-95.25110295394968,38.957729311284],[-95.25119156161819,38.95757195839535]]],[[[-95.25119725642388,38.95776168396292],[-95.25128588985595,38.95760428745745],[-95.2512857577307,38.957604241967616],[-95.25119170485975,38.95757195548274],[-95.25110295394968,38.957729311284],[-95.25119725642388,38.95776168396292]]],[[[-95.2508881172048,38.95733180377879],[-95.25088763205571,38.9573318427442],[-95.25088715260013,38.95733191338747],[-95.25088668341576,38.957332016718325],[-95.25088622684402,38.95733215189108],[-95.25088578756773,38.95733231721437],[-95.25088536789325,38.957332512742795],[-95.25088497257342,38.95733273498421],[-95.2508846027615,38.95733298396595],[-95.25088426202204,38.95733325706885],[-95.25088395391974,38.95733355167373],[-95.25088367964281,38.95733386690757],[-95.25088344048449,38.95733419919612],[-95.25088323997447,38.957334546820675],[-95.2508830794059,38.95733490620697],[-95.25088296000212,38.957335275581464],[-95.25088288190321,38.95733565134276],[-95.25088284517913,38.957336031689955],[-95.25088285231145,38.957336412175735],[-95.25088290106375,38.95733679094473],[-95.2508829915411,38.95733716529571],[-95.2508831238487,38.95733753252744],[-95.25088329700823,38.9573378881107],[-95.2508835099017,38.95733823111766],[-95.2508837591745,38.9573385587652],[-95.2508840437785,38.95733886832475],[-95.25088436270063,38.95733915616734],[-95.25088471248124,38.95733942221104],[-95.25088508976593,38.95733966367257],[-95.25088549350644,38.957339877823415],[-95.25088591912504,38.9573400636539],[-95.25088636435041,38.95734022020877],[-95.2508868246398,38.957340345578],[-95.25088729768684,38.957340439706876],[-95.25088777894878,38.95734050068517],[-95.25088826611916,38.95734052845833],[-95.25088875339713,38.9573405237899],[-95.2508892396644,38.957340485752205],[-95.25088971915508,38.95734041420856],[-95.25089018833945,38.95734031087766],[-95.25089064491128,38.957340175704914],[-95.2508910841876,38.957340010381586],[-95.25089150267392,38.95733981572618],[-95.25089189918197,38.9573395926117],[-95.25089226899391,38.957339343629954],[-95.25089260854514,38.957339071400106],[-95.25089291783564,38.957338775922125],[-95.25089319211254,38.957338460688256],[-95.2508934301176,38.957338128372356],[-95.25089363059261,38.95733778164818],[-95.25089379119613,38.95733742136151],[-95.25089391175307,38.957337052014296],[-95.25089398985192,38.95733667625301],[-95.25089402654092,38.95733629680625],[-95.25089401944356,38.95733591542002],[-95.25089397069121,38.95733553665102],[-95.25089387906057,38.95733516227277],[-95.25089374671795,38.957334795941435],[-95.25089357359334,38.95733443945775],[-95.25089336185307,38.95733409647814],[-95.25089311258024,38.957333768830665],[-95.25089282678802,38.95733346014419],[-95.25089250905408,38.95733317142854],[-95.25089215927346,38.95733290538487],[-95.2508917808006,38.95733266479637],[-95.25089137824831,38.9573324497725],[-95.25089095262973,38.957332263942085],[-95.25089050740434,38.957332107387224],[-95.25089004711505,38.95733198201801],[-95.25088957403304,38.95733188878959],[-95.25088909165304,38.9573318268835],[-95.25088860563582,38.95733179913771],[-95.2508881172048,38.95733180377879]]]]},"properties":{"SDE.FloorAll.FLOORLOCATION":"ROOF"}}]}
