{"type":"FeatureCollection","features":[{"type":"Feature","geometry":{"type":"Polygon","coordinates":[[[-95.24233333760768,38.9560142890269],[-95.2424801494271,38.95601489059332],[-95.24248148715459,38.955815832337436],[-95.24235488319661,38.95581531306047],[-95.2423546984868,38.95584276905737],[-95.24228789855177,38.95584249511155],[-95.24228783410733,38.95585210516611],[-95.242287279864,38.95593447405639],[-95.24224508307508,38.955934301318614],[-95.24224473177894,38.95598646860669],[-95.24229856260739,38.95598668915008],[-95.24229846653678,38.95600110379526],[-95.24233342514475,38.95600124674777],[-95.24233333760768,38.9560142890269]]]},"properties":{"SDE.FloorAll.FLOORLOCATION":"-1"}},{"type":"Feature","geometry":{"type":"Polygon","coordinates":[[[-95.2423350964063,38.95601429571175],[-95.2423755355977,38.95601446175999],[-95.24238344779735,38.956014494034896],[-95.24238347459726,38.9560103751633],[-95.24237820054316,38.95601035426532],[-95.24237827835805,38.9559986852252],[-95.24237212495841,38.95599865963426],[-95.24237220763129,38.955986303974655],[-95.24239447768805,38.95598662457015],[-95.24239446029934,38.95598914128385],[-95.24241643809177,38.9559892314195],[-95.24241645632972,38.955986485814314],[-95.24244048603471,38.95598658419318],[-95.24244054013073,38.9559784519054],[-95.24244675004249,38.95597013527658],[-95.24244686061652,38.95595366167309],[-95.24244076370029,38.95594529477],[-95.24244115006007,38.955887846226574],[-95.24244735881067,38.95587952957025],[-95.24244747053756,38.95586305599401],[-95.24244137186074,38.95585479359119],[-95.24244142657166,38.955846556775654],[-95.24241739806746,38.95584645842444],[-95.24241741630537,38.955843712819295],[-95.24239543855822,38.95584362268378],[-95.24239542031944,38.95584636828898],[-95.24236758229993,38.95584625412237],[-95.24236670292031,38.955846250330005],[-95.2423667211602,38.95584350472482],[-95.24234020104053,38.95584339666297],[-95.24234018279961,38.95584614226816],[-95.24231761878701,38.955846049889686],[-95.24231763821709,38.955843303411555],[-95.24229111809763,38.95584319533853],[-95.2422910998548,38.95584594094365],[-95.24228348082401,38.95584590932653],[-95.24228342494148,38.95585414611453],[-95.2422377117996,38.95585395912982],[-95.24223683130302,38.95598483421926],[-95.24228195941672,38.95598501900321],[-95.24228195255513,38.95598593448678],[-95.24233528598153,38.95598615309578],[-95.2423350964063,38.95601429571175]]]},"properties":{"SDE.FloorAll.FLOORLOCATION":"1"}},{"type":"Feature","geometry":{"type":"Polygon","coordinates":[[[-95.24239914438228,38.9559898466001],[-95.2424211221749,38.95598993673485],[-95.2424211404127,38.955987191129715],[-95.24244517011796,38.95598728950754],[-95.24244611064563,38.955847262089996],[-95.24242208214119,38.9558471637398],[-95.24242210037892,38.9558444181346],[-95.24240012263154,38.95584432800002],[-95.24240010439294,38.95584707360519],[-95.24234413408546,38.955846843675836],[-95.24234415347938,38.955844098098076],[-95.24232305395863,38.955844011714056],[-95.24232303571705,38.9558467573192],[-95.24228757863158,38.95584661241874],[-95.2422875227495,38.955854849206816],[-95.24224239587203,38.95585466445239],[-95.24224181364956,38.955941151286254],[-95.24228694170026,38.95594133696867],[-95.24228663663675,38.9559866398076],[-95.24239916262096,38.95598710099499],[-95.24239914438228,38.9559898466001]]]},"properties":{"SDE.FloorAll.FLOORLOCATION":"2"}},{"type":"Feature","geometry":{"type":"Polygon","coordinates":[[[-95.24233755626392,38.955987191234016],[-95.24238649274928,38.95598739175676],[-95.24238660333737,38.95597091815333],[-95.24241825211637,38.9559710472467],[-95.24241826750098,38.955968759397024],[-95.24242530031434,38.9559687878771],[-95.24242537326492,38.95595780545649],[-95.24241834045266,38.95595777697642],[-95.24241851661321,38.95593169334579],[-95.24244137261539,38.95593178724125],[-95.2424415900977,38.9558995257807],[-95.24241873295286,38.9558994318578],[-95.24241890911314,38.95587334822704],[-95.24242594188186,38.955873377607475],[-95.24242601483225,38.95586239518676],[-95.24241898206462,38.95586236580634],[-95.24241899744918,38.95586007795669],[-95.24238383350685,38.95585993374939],[-95.24238392385274,38.95584643461498],[-95.24238393923844,38.95584414676532],[-95.24234525890367,38.9558439883051],[-95.24234515316337,38.955859775289156],[-95.2423061785521,38.955859615224156],[-95.24230590543085,38.95590034239151],[-95.24228509900843,38.955900257564934],[-95.24228490088609,38.95592977254716],[-95.2423057061289,38.9559298582467],[-95.24230565711012,38.95593717955114],[-95.24229833118476,38.95593714949941],[-95.24229829836904,38.95594195496312],[-95.24230562429489,38.95594198501488],[-95.24230543871523,38.95596966990286],[-95.24230543300715,38.9559705854138],[-95.24233766689856,38.955970716730235],[-95.24233755626392,38.955987191234016]]]},"properties":{"SDE.FloorAll.FLOORLOCATION":"3"}},{"type":"Feature","geometry":{"type":"Polygon","coordinates":[[[-95.2423300418003,38.95601498118578],[-95.24244418007079,38.956015448232215],[-95.24244419830772,38.95601270262707],[-95.24246778716004,38.95601279952709],[-95.24246777960255,38.95601405836157],[-95.24247920821112,38.95601410486852],[-95.24247926777376,38.95600518143353],[-95.24247765672145,38.95600517465989],[-95.24247779423435,38.9559846966442],[-95.24247940528626,38.95598470341784],[-95.24247946596687,38.95597578091067],[-95.24247785372688,38.95597577500994],[-95.24247807307927,38.955943169325536],[-95.24247968528333,38.95594317612661],[-95.24250649740272,38.955943285693046],[-95.24250654555087,38.95593619327995],[-95.24250655811501,38.955934362285404],[-95.2425068051779,38.955897525097896],[-95.2425068177069,38.955895695003704],[-95.2425068658901,38.95588860169022],[-95.24248005263836,38.95588849209648],[-95.2424784404355,38.95588848529543],[-95.24247865971708,38.955855881411544],[-95.24248027191915,38.955855888212604],[-95.24248033148153,38.95584696477753],[-95.2424787204328,38.95584695800386],[-95.24247885794509,38.955826479987884],[-95.24248046899338,38.955826486761495],[-95.24248052970889,38.9558175633538],[-95.24246910113209,38.95581751684695],[-95.24246909245667,38.955818774753666],[-95.24244550366907,38.95581867785386],[-95.24244552190589,38.95581593224868],[-95.2423695299748,38.95581562087379],[-95.2423695155552,38.95581779519182],[-95.24235310497055,38.95581772751095],[-95.24235308958387,38.95582001536063],[-95.24235300505586,38.95583271434388],[-95.24235294147051,38.95584209550702],[-95.2422759674301,38.955841779638035],[-95.24227593765362,38.95584624090533],[-95.24223285000605,38.95584606409572],[-95.24223271327317,38.95586631321991],[-95.24210377685158,38.95586578505533],[-95.2421032629025,38.95594220500637],[-95.24223219942832,38.95594273407194],[-95.24223483648794,38.955942743623886],[-95.24223454674646,38.9559857595134],[-95.24227499864128,38.95598592499803],[-95.24227498325203,38.95598821284766],[-95.24229945151252,38.95598831267464],[-95.24229939574795,38.95599666482242],[-95.24229755035677,38.955996658781054],[-95.24229750866712,38.955996662295625],[-95.24229746777928,38.95599667484148],[-95.24229743017537,38.95599669197161],[-95.24229740169133,38.955996712022355],[-95.2422973788327,38.95599673581179],[-95.2422973604813,38.955996762412084],[-95.2422973490138,38.955996790077364],[-95.24229734313651,38.95599682238177],[-95.242297344389,38.955996849448375],[-95.24229735245508,38.95599687938073],[-95.24229736754558,38.95599690677646],[-95.24229738731904,38.95599693248112],[-95.24229741299882,38.95599695472139],[-95.24229745594097,38.955996978273454],[-95.24229749441098,38.9559969981142],[-95.2422970488666,38.95599699833159],[-95.24229703062397,38.95599974393678],[-95.24230816611457,38.955999788896094],[-95.24230808339539,38.95601214545605],[-95.24231130668865,38.9560121581351],[-95.24231452994685,38.95601217171445],[-95.2423177532401,38.956012184393295],[-95.24232097649823,38.95601219797242],[-95.24233006122995,38.95601223470768],[-95.2423300418003,38.95601498118578]]]},"properties":{"SDE.FloorAll.FLOORLOCATION":"ROOF"}}]}
