{"type":"FeatureCollection","features":[{"type":"Feature","geometry":{"type":"MultiPolygon","coordinates":[[[[-95.24098198085662,38.964907481501534],[-95.24106433323817,38.96490801968776],[-95.24106558738197,38.96479087471952],[-95.24107411377321,38.96479093068597],[-95.24107453087309,38.964752034647866],[-95.24107787310962,38.964752056490276],[-95.24107791211958,38.964748395733835],[-95.24107456988325,38.96474837389143],[-95.24107492729665,38.96471496941059],[-95.24107827068465,38.96471499128046],[-95.24107830969457,38.96471133052399],[-95.24107496630674,38.964711308654145],[-95.24107499613211,38.96470856332561],[-95.24103894821596,38.96470832838865],[-95.24103896889282,38.9647064975877],[-95.24103427867898,38.96470646710347],[-95.24103425919043,38.96470829703151],[-95.24098455725866,38.96470797332692],[-95.24098457678366,38.9647061424985],[-95.24097988772316,38.96470611203953],[-95.24097897140793,38.96479168245532],[-95.24088094085242,38.96479104242291],[-95.24088045798942,38.964836114808236],[-95.24088043742238,38.96483806096889],[-95.24090285677131,38.964838206893795],[-95.24090268001451,38.96485468072017],[-95.2408802606955,38.96485453389481],[-95.24087975729971,38.964901551540144],[-95.2409820373534,38.964902219681015],[-95.24098198085662,38.964907481501534]]],[[[-95.24082711356085,38.96486368295623],[-95.24084074104525,38.96486377199893],[-95.24084082426039,38.96485599278607],[-95.24083569549693,38.96485595906867],[-95.24083591125667,38.964835825386494],[-95.24084104271196,38.96483584925445],[-95.24084152498568,38.96479055605407],[-95.24083405223546,38.964790508018424],[-95.24083397419022,38.9647978295311],[-95.2408278194344,38.964797789424516],[-95.24082773822659,38.96480533977358],[-95.24079667363408,38.96480513682211],[-95.24079609414255,38.96485924711603],[-95.24082715775448,38.96485956449963],[-95.24082711356085,38.96486368295623]]]]},"properties":{"SDE.FloorAll.FLOORLOCATION":"-1"}},{"type":"Feature","geometry":{"type":"Polygon","coordinates":[[[-95.24098022420515,38.964907354989286],[-95.24112206878596,38.96490828124836],[-95.24112624590998,38.96451818096382],[-95.24098440211179,38.96451725470986],[-95.24098146610584,38.96479135518672],[-95.24083376015817,38.96479039021757],[-95.24083360403247,38.96480503414333],[-95.24079667783568,38.96480479265338],[-95.24079609417771,38.96485924621567],[-95.24083302040299,38.9648594877058],[-95.24083257448795,38.96490112909857],[-95.24098028070212,38.964902093168824],[-95.24098022420515,38.964907354989286]]]},"properties":{"SDE.FloorAll.FLOORLOCATION":"1"}},{"type":"Feature","geometry":{"type":"Polygon","coordinates":[[[-95.24098022417,38.96490735588972],[-95.24112206878596,38.96490828124836],[-95.24112665866531,38.964479513733586],[-95.24112431471919,38.964479498520696],[-95.24112439474172,38.96447194814379],[-95.24112732610686,38.96447196741926],[-95.24112738876495,38.96446613346628],[-95.24112768966634,38.96443799080529],[-95.24112153494167,38.964437950714284],[-95.24112256308287,38.96434197018466],[-95.24112257740036,38.964340597956834],[-95.24112291636384,38.96430896665072],[-95.24112310431677,38.964291406211345],[-95.24115387556975,38.96429160660773],[-95.24143258130923,38.964293424747105],[-95.24143873602144,38.964293464821594],[-95.2414387759807,38.96428969053335],[-95.24143917124245,38.96425273882492],[-95.24143960244959,38.964212470555815],[-95.24143987854603,38.96418661642222],[-95.24142947967245,38.96418609145702],[-95.24118227553932,38.964184936272886],[-95.24118262055501,38.96415267605453],[-95.24105630904816,38.964151851750046],[-95.2410559639749,38.964184111968066],[-95.24098240534285,38.96418363158607],[-95.24098120961168,38.96429528497447],[-95.2409861917596,38.96429531790151],[-95.24098430983429,38.96447103399523],[-95.24098724004608,38.964471053246804],[-95.24098716000894,38.96447860362365],[-95.24098481490955,38.96447858838053],[-95.24098146610584,38.96479135518672],[-95.24083376012301,38.96479039111797],[-95.24083360287919,38.964805034115884],[-95.24079667668234,38.96480479262592],[-95.24079609298924,38.9648592470886],[-95.24083302040299,38.9648594877058],[-95.24083257448795,38.96490112909857],[-95.24098027954876,38.964902093141404],[-95.24098022417,38.96490735588972]]]},"properties":{"SDE.FloorAll.FLOORLOCATION":"2"}},{"type":"Feature","geometry":{"type":"Polygon","coordinates":[[[-95.24098022417,38.96490735588972],[-95.24112206878596,38.96490828124836],[-95.2411281263305,38.96434246484107],[-95.24114922638273,38.96434260276472],[-95.24115262266257,38.9643372473695],[-95.24116470635927,38.96432796924509],[-95.24116593445706,38.964327026941575],[-95.24118138952856,38.964315160494884],[-95.24118823469128,38.96431265392069],[-95.24118841138016,38.96429618009312],[-95.24143810240417,38.96429780898178],[-95.24143816503646,38.96429197502858],[-95.2414405101297,38.96429199026253],[-95.24144053480933,38.96428970173373],[-95.24146427308949,38.9642898564006],[-95.24146509834216,38.96421263729583],[-95.24143901615058,38.96421246742262],[-95.24143916393791,38.96419862539177],[-95.24144150902806,38.96419864062567],[-95.24144156953852,38.96419292017654],[-95.24143922560182,38.964192904970005],[-95.24143928823393,38.96418707101673],[-95.24143181442894,38.96418702209173],[-95.24143183390701,38.96418519216354],[-95.24142450783017,38.964185144048834],[-95.2414233462497,38.9641860681104],[-95.24118284557915,38.964184498320634],[-95.24118319059453,38.96415223810228],[-95.24114909156081,38.96415200269682],[-95.24114976969909,38.96408861571971],[-95.2410905482371,38.96408822958143],[-95.24109021961107,38.9641188860068],[-95.24106500648747,38.964118721405384],[-95.24106474422129,38.964143212314255],[-95.24108467976053,38.96414334237074],[-95.24108459195999,38.96415159461864],[-95.24105574923394,38.96415140674268],[-95.2410556065386,38.96416464327157],[-95.24105675830609,38.96416465084874],[-95.24105654506943,38.96418457370387],[-95.24099778631772,38.96418419041833],[-95.2409978058422,38.96418235958985],[-95.24099047857757,38.96418231232062],[-95.24099045908801,38.96418414224875],[-95.24098298643695,38.96418409332226],[-95.24098292990564,38.96418935604346],[-95.24098058481583,38.964189340800274],[-95.24097936736572,38.96419551047117],[-95.24098171245569,38.96419552571439],[-95.24098077145479,38.9642833846627],[-95.24097842636189,38.96428336941944],[-95.2409783555099,38.96429000436846],[-95.24098070060299,38.964290019611695],[-95.2409806395697,38.964295722925726],[-95.24098562056439,38.964295755825354],[-95.2409838778494,38.96445856155149],[-95.24098318194918,38.96445855670945],[-95.2409815535102,38.964458546802256],[-95.24098148265833,38.96446518175112],[-95.24098380699776,38.9644651965004],[-95.24098373975578,38.96447147284685],[-95.24098723547407,38.96447149564042],[-95.2409871599738,38.96447860452405],[-95.2409848148744,38.964478589280894],[-95.24098146610584,38.96479135518672],[-95.24083376012301,38.96479039111797],[-95.24083360287919,38.964805034115884],[-95.2407966766472,38.964804793526355],[-95.24079609298924,38.9648592470886],[-95.24083302036784,38.96485948860622],[-95.24083257448795,38.96490112909857],[-95.24098027954876,38.964902093141404],[-95.24098022417,38.96490735588972]]]},"properties":{"SDE.FloorAll.FLOORLOCATION":"3"}},{"type":"Feature","geometry":{"type":"Polygon","coordinates":[[[-95.24098022417,38.96490735588972],[-95.24112206875081,38.96490828214874],[-95.24112415992047,38.96471300270782],[-95.24114320928105,38.96471312698701],[-95.24115067088992,38.96470739787409],[-95.24115069031826,38.96470551026617],[-95.24114944505355,38.96470550226814],[-95.24114945319829,38.964704702172526],[-95.24114820796879,38.96470469327406],[-95.24114822027822,38.964703549910155],[-95.24114331194839,38.96470351784577],[-95.24114351531057,38.964684527526714],[-95.2411484236391,38.96468455959104],[-95.24114843598369,38.964683415326675],[-95.24114968124802,38.964683423324736],[-95.24114969054604,38.96468262325655],[-95.24115093581032,38.96468263125458],[-95.24115095639199,38.96468074367411],[-95.24114361797787,38.96467491838545],[-95.24112456866274,38.96467479320588],[-95.24112665863015,38.96447951463395],[-95.24112431468404,38.964479499421095],[-95.24112440504382,38.96447103364365],[-95.24112616384184,38.96447104574918],[-95.24112697213698,38.9643955421716],[-95.24114012290039,38.964395627950005],[-95.24114026773515,38.96438212921554],[-95.24112711697427,38.96438204343712],[-95.2411275452342,38.96434200310564],[-95.24115372899863,38.96434217456319],[-95.24115421811982,38.96434179867292],[-95.24115813217183,38.96433879337891],[-95.24115689942955,38.96433781415619],[-95.24118197476628,38.96431856213049],[-95.24118320750853,38.9643195413529],[-95.24118761183215,38.96431616019488],[-95.24118783024872,38.964295719258416],[-95.24143004860767,38.96429729925061],[-95.24143752127102,38.96429734814828],[-95.24143758393852,38.96429151329471],[-95.24143992903181,38.96429152852866],[-95.24143998032741,38.96428672440796],[-95.24143763526948,38.96428670827358],[-95.24143858284076,38.96419816365789],[-95.2414409279309,38.96419817889181],[-95.24144097922637,38.96419337477104],[-95.24143863413637,38.96419335953709],[-95.24143869680368,38.964187524683446],[-95.24143122415194,38.96418747578585],[-95.24143124363007,38.964185645857654],[-95.24142508892719,38.96418560578277],[-95.2414250694489,38.964187435710954],[-95.24118168838392,38.964185014228455],[-95.24118203343501,38.96415275310967],[-95.2410564120588,38.96415193350898],[-95.24105606695038,38.96418419462733],[-95.2409982718733,38.96418381714757],[-95.24099829139772,38.96418198631907],[-95.24099000049402,38.96418193234349],[-95.24098998096932,38.964183763171974],[-95.24098250831828,38.96418371424546],[-95.24098245182209,38.964188976066296],[-95.2409801067323,38.964188960823044],[-95.2409800375591,38.964195434492424],[-95.24098238264905,38.96419544973566],[-95.2409814399705,38.96428346996361],[-95.24097909487762,38.96428345472037],[-95.24097902573932,38.964289927489325],[-95.24098137083242,38.96428994273256],[-95.24098131430091,38.96429520545375],[-95.24098629648398,38.964295237480435],[-95.24098454636678,38.964458646852385],[-95.24098222202758,38.96445863210317],[-95.24098215288939,38.96446510487203],[-95.24098447719365,38.96446512052164],[-95.2409844145238,38.964470954474486],[-95.24098724086774,38.96447097305717],[-95.2409871599738,38.96447860452405],[-95.2409848148744,38.964478589280894],[-95.24098146610584,38.96479135518672],[-95.24083376012301,38.96479039111797],[-95.24083360287919,38.964805034115884],[-95.2407966766472,38.964804793526355],[-95.24079609414255,38.96485924711603],[-95.24083302036784,38.96485948860622],[-95.2408325744528,38.96490112999895],[-95.24098028066697,38.96490209406921],[-95.24098022417,38.96490735588972]]]},"properties":{"SDE.FloorAll.FLOORLOCATION":"4"}},{"type":"Feature","geometry":{"type":"MultiPolygon","coordinates":[[[[-95.24098549155202,38.96447012663907],[-95.24105581212687,38.964470585845014],[-95.24112616387697,38.9644710448488],[-95.2411275452342,38.96434200310564],[-95.24115372788049,38.964342173635366],[-95.24118761067886,38.96431616016746],[-95.24118783028386,38.96429571835802],[-95.24143752130617,38.96429734724793],[-95.24143869680368,38.964187524683446],[-95.2411799201131,38.96418583643425],[-95.24117996227828,38.96418194684118],[-95.24118109697947,38.96418200718339],[-95.24118139160292,38.96415449793522],[-95.24105878118846,38.96415369860403],[-95.24105848655245,38.96418120695153],[-95.24105716837103,38.96418114494621],[-95.24105712619917,38.96418503453924],[-95.24098356753096,38.964184555058395],[-95.24098239132651,38.96429437761827],[-95.24098737347443,38.96429441054532],[-95.24098549155202,38.96447012663907]]],[[[-95.24098022417,38.96490735588972],[-95.24112206878596,38.96490828124836],[-95.24112415876718,38.96471300268038],[-95.24114320812775,38.964713126959566],[-95.24115066973658,38.96470739784664],[-95.2411509552738,38.96468074274625],[-95.24114361801301,38.964674917485056],[-95.24112456866274,38.96467479320588],[-95.24112501340053,38.96463326624313],[-95.24108046682976,38.96463297601492],[-95.2410806578629,38.9646151299602],[-95.24105426626147,38.96461495714844],[-95.24102790579944,38.964614785071554],[-95.24102771475297,38.96463263112618],[-95.24098316818302,38.964632340860625],[-95.24098146610584,38.96479135518672],[-95.24083376012301,38.96479039111797],[-95.24083345630322,38.96480503333182],[-95.2407966766472,38.964804793526355],[-95.24079609298924,38.9648592470886],[-95.24083302040299,38.9648594877058],[-95.24083257333466,38.96490112907113],[-95.24098027954876,38.964902093141404],[-95.24098022417,38.96490735588972]]]]},"properties":{"SDE.FloorAll.FLOORLOCATION":"5"}},{"type":"Feature","geometry":{"type":"MultiPolygon","coordinates":[[[[-95.2409850685396,38.96447354033499],[-95.24100873299857,38.96447369513961],[-95.24112273562416,38.96447443931432],[-95.24112276845915,38.964471350689955],[-95.2411242341769,38.964471359427336],[-95.24112498394555,38.96440134743484],[-95.24114080986288,38.96440145089893],[-95.24114095153661,38.964388181000864],[-95.24112512562223,38.964388077536746],[-95.24112560404284,38.96434341059888],[-95.24115072375876,38.964343574765316],[-95.2411816017505,38.9643198672444],[-95.24118163946994,38.96431632812285],[-95.24118375891145,38.96431470136536],[-95.24118390444069,38.964301184622926],[-95.24118180171651,38.96430117064409],[-95.24118183618528,38.964297951380736],[-95.24143586424562,38.964299608658756],[-95.2414370387424,38.9641899005262],[-95.24117687021285,38.96418820349196],[-95.24117691237821,38.96418431389891],[-95.24105455700251,38.96418351522502],[-95.24105451181866,38.964187748113844],[-95.24098197917058,38.96418727411847],[-95.24098081010611,38.96429641101461],[-95.24098579225416,38.9642964439417],[-95.24098391750545,38.964471473471306],[-95.24098509003746,38.96447148154304],[-95.2409850685396,38.96447354033499]]],[[[-95.24097800130498,38.96490766889802],[-95.24112057876734,38.9649085990783],[-95.2411235068779,38.96463507160582],[-95.2410730998688,38.964634742878445],[-95.24107308592153,38.96463601688132],[-95.24106619948995,38.96463597199566],[-95.24106618160377,38.96463767218513],[-95.24103312167817,38.96463745606715],[-95.24103315351316,38.964634481874796],[-95.24100701346642,38.96463431143275],[-95.24098122311838,38.96463414299689],[-95.24097953539231,38.964791784194766],[-95.24083214101348,38.96479082213077],[-95.24083198276499,38.96480557956065],[-95.24079723661394,38.96480535299432],[-95.24079665396076,38.96485969212467],[-95.24083138481231,38.96485969031608],[-95.24083093990063,38.96490121727688],[-95.2409780598454,38.964902177313306],[-95.24097800130498,38.96490766889802]]]]},"properties":{"SDE.FloorAll.FLOORLOCATION":"6"}},{"type":"Feature","geometry":{"type":"Polygon","coordinates":[[[-95.24111284043535,38.964912781409275],[-95.24111543138058,38.96491279799262],[-95.24111588746653,38.964870241198334],[-95.24112304051181,38.964870287917726],[-95.24112516246988,38.964672149616064],[-95.2411180082913,38.96467210286934],[-95.24111846437414,38.96462954607418],[-95.2411158734393,38.96462952949095],[-95.24111582926265,38.964633647947664],[-95.24107516621083,38.96463338252371],[-95.24107521756667,38.96462857750289],[-95.24105509837405,38.964628446683264],[-95.24105675011316,38.964474236501815],[-95.24112712954629,38.96447469616363],[-95.24112716037344,38.964471836403106],[-95.24112904197885,38.96429611940667],[-95.24143851895694,38.96429813882698],[-95.24143970166128,38.964187628797994],[-95.24118209749761,38.96418594862079],[-95.24118211804965,38.964184032200315],[-95.24117768523227,38.96418400333888],[-95.24117770569211,38.964182030138915],[-95.24106172544373,38.96418127319996],[-95.2410617049807,38.964183246399905],[-95.2410572721634,38.96418321753391],[-95.24105725160804,38.96418513395437],[-95.24098369182161,38.964184653545814],[-95.24098250959294,38.964295162697255],[-95.24098250126198,38.9642958492339],[-95.24098748340995,38.964295882160926],[-95.24098747003023,38.96429711201726],[-95.24097692058771,38.9642970430549],[-95.24097689822416,38.96429906487596],[-95.24098650709236,38.96429912768068],[-95.24098644610795,38.96430477061365],[-95.24098738898927,38.96430477682611],[-95.24098560978364,38.964470912618374],[-95.24098508605634,38.964471938370366],[-95.24098506653147,38.96447376919883],[-95.2410566912594,38.96447423600274],[-95.24105504067349,38.96462844621162],[-95.24103418867314,38.96462830966863],[-95.2410341373145,38.96463311468945],[-95.2409934742633,38.96463284923684],[-95.24099351844711,38.964628730780134],[-95.24099092751233,38.964628714194085],[-95.24099047254117,38.964671270115794],[-95.24098331836281,38.96467122336082],[-95.240982027078,38.96479180022187],[-95.24088355679442,38.96479115784004],[-95.24088349689768,38.96479674312025],[-95.24083426119361,38.96479642143404],[-95.24083416385051,38.964805479151785],[-95.24079723765348,38.964805237662006],[-95.24079665396076,38.96485969212467],[-95.24083358137473,38.96485993274171],[-95.24083321657531,38.96489396700592],[-95.24082794123296,38.96489393250416],[-95.2408279200183,38.964895954352485],[-95.24088242998093,38.96489631051348],[-95.24088237008402,38.9649018957937],[-95.24099058566841,38.96490260151782],[-95.24099052712894,38.96490809310256],[-95.24111288260465,38.964908891816485],[-95.24111284043535,38.964912781409275]]]},"properties":{"SDE.FloorAll.FLOORLOCATION":"7"}},{"type":"Feature","geometry":{"type":"Polygon","coordinates":[[[-95.24098327323493,38.96486012304049],[-95.24101199389338,38.96486031072689],[-95.24101375273621,38.964860321933756],[-95.24101422219871,38.964816507343805],[-95.24098315644748,38.96481630441484],[-95.2409829468682,38.96483586686554],[-95.24098353317237,38.964835870001025],[-95.24098327323493,38.96486012304049]]]},"properties":{"SDE.FloorAll.FLOORLOCATION":"8"}},{"type":"Feature","geometry":{"type":"Polygon","coordinates":[[[-95.24082885166854,38.964904439041426],[-95.24082660465697,38.96490442432695],[-95.24082655369077,38.96490913022229],[-95.24100520915908,38.964910296260825],[-95.24100522071289,38.9649092610261],[-95.24110484063507,38.9649099108264],[-95.241104850228,38.964909044074446],[-95.24113163088703,38.96490921891882],[-95.24113161337348,38.96491082088337],[-95.24113747502203,38.964910858506094],[-95.24113747936914,38.964910480995506],[-95.24113788059074,38.96487290758149],[-95.24113792993482,38.964868331424604],[-95.24113956481366,38.96471561327975],[-95.24114595155353,38.964715654383255],[-95.24115303393451,38.964708166065],[-95.24115324491812,38.96468835941583],[-95.24115325373063,38.964687542212815],[-95.2411463335871,38.96467996227376],[-95.24113994688562,38.96467992026994],[-95.24114007239548,38.96466815864125],[-95.24114012173933,38.964663582484306],[-95.24114052411142,38.96462600909696],[-95.24113466363978,38.964625971501825],[-95.24113464616156,38.96462757256606],[-95.24112730501092,38.964627524976194],[-95.24112771011339,38.964589645236465],[-95.24112956474434,38.96458965691833],[-95.24112958404802,38.96458786123253],[-95.24112772941717,38.96458784955071],[-95.24112850411285,38.96451557246773],[-95.24113035758856,38.96451558412216],[-95.2411303768922,38.96451378843632],[-95.2411285234166,38.96451377678198],[-95.24112885201245,38.96448303203692],[-95.24113541875244,38.964483074720384],[-95.24113539991237,38.96448482896079],[-95.24114142767202,38.96448486873382],[-95.24114191693174,38.96443918456925],[-95.24113925446383,38.964439167185674],[-95.24113946618203,38.96441937136821],[-95.24113968855356,38.964398652046675],[-95.24114462342332,38.9643986838419],[-95.24114477961119,38.96438409579429],[-95.24113984477754,38.96438406309867],[-95.24114006599555,38.96436334374963],[-95.2411402777133,38.96434354793202],[-95.24114983580719,38.964343610416286],[-95.2411898663653,38.964312876591585],[-95.24118995132488,38.96430493339722],[-95.24127420495026,38.96430548333993],[-95.24127422721283,38.96430340473936],[-95.24130009939576,38.96430357325743],[-95.2413104941915,38.96430364121485],[-95.2413705986744,38.96430403382428],[-95.24139646973961,38.96430420139302],[-95.24139644859878,38.96430628092147],[-95.24145284502566,38.96430664926017],[-95.24145289483155,38.96430194243651],[-95.24145064783905,38.964301927734134],[-95.24145082277343,38.964285526865275],[-95.24145307091877,38.96428554159509],[-95.24145401102929,38.96419763126586],[-95.24145176404004,38.964197616563474],[-95.2414519389739,38.964181215694445],[-95.24145418711592,38.96418123042423],[-95.24145423688654,38.964176524500935],[-95.24139784056345,38.964176156162864],[-95.24139781826938,38.96417823566389],[-95.24137194728536,38.964178067195036],[-95.24130747586587,38.964177646393416],[-95.24130144697904,38.964177606601595],[-95.24127557599553,38.96417743811123],[-95.241275598258,38.96417535951066],[-95.24120309791361,38.96417488642182],[-95.2412031339669,38.96417144909926],[-95.24119710623395,38.96417140932938],[-95.2411970873955,38.964173163569846],[-95.24117453898174,38.96417301732976],[-95.24108294095177,38.96417241963969],[-95.24107691321878,38.9641723798636],[-95.24105436484066,38.964172232699795],[-95.24105438368264,38.96417047845934],[-95.24104835594986,38.96417043868175],[-95.24104827411503,38.964173836162445],[-95.24097244501098,38.96417338106012],[-95.24097239405502,38.964178086955805],[-95.24097464219682,38.964178101694905],[-95.24097444172602,38.9641967802598],[-95.24097392370379,38.96424512055966],[-95.24097354952994,38.96428013603749],[-95.24097335173452,38.96429856863098],[-95.24097110474224,38.9642985539193],[-95.24097105378611,38.964303259814926],[-95.24097559163175,38.96430328938064],[-95.2409751686095,38.96434280892916],[-95.24097783107372,38.96434282631657],[-95.24097846926523,38.964343333571385],[-95.24097825984859,38.964362951001576],[-95.24097803135375,38.96436294916981],[-95.2409777382234,38.96439029983844],[-95.24097744505774,38.964417651407445],[-95.24097767355268,38.96441765323929],[-95.24097746417073,38.964437269768986],[-95.24097681443081,38.9644377680086],[-95.24097415196294,38.96443775062119],[-95.24097365975837,38.96448377357886],[-95.24098033036623,38.96448381694008],[-95.24098034921013,38.96448206269971],[-95.240986568594,38.964482102534156],[-95.2409862406306,38.96451271121006],[-95.24098438600173,38.96451269952591],[-95.24098436669432,38.96451449521169],[-95.24098622132327,38.96451450689582],[-95.24098544763542,38.96458678400528],[-95.24098359300459,38.96458677232109],[-95.2409835737323,38.96458856710652],[-95.24098542832805,38.96458857969101],[-95.24098502126654,38.964626596371936],[-95.2409777470783,38.964626548563416],[-95.2409777645601,38.96462494749928],[-95.24097190297047,38.96462490896809],[-95.24097150050872,38.964662482354846],[-95.24097145115404,38.96466705851177],[-95.24097026289152,38.9647780172278],[-95.24088123422489,38.964777436371484],[-95.24082796843138,38.96477708908433],[-95.24082791417788,38.96478211573824],[-95.24083016233887,38.96478213048015],[-95.24083002238196,38.96479511833563],[-95.24079200092487,38.96479487060952],[-95.24079194995646,38.96479957650488],[-95.24079419811798,38.96479959124747],[-95.24079413987972,38.96480507472861],[-95.24079330777994,38.9648050693483],[-95.24079277025507,38.964855325192225],[-95.24079360134274,38.96485532694354],[-95.24079354184565,38.96486081309844],[-95.24079129483552,38.964860798383256],[-95.24079124383185,38.96486550517899],[-95.24082926648025,38.96486575293278],[-95.24082909647204,38.964881669060524],[-95.24082904550606,38.96488637495585],[-95.24082885166854,38.964904439041426]]]},"properties":{"SDE.FloorAll.FLOORLOCATION":"ROOF"}}]}
