{"type":"FeatureCollection","features":[{"type":"Feature","geometry":{"type":"Polygon","coordinates":[[[-95.25927245768077,38.95489654123893],[-95.25929318176185,38.95490290710189],[-95.25931515025562,38.95490965565638],[-95.25933587549754,38.95491602153896],[-95.25934406977751,38.954918538589325],[-95.25936479387148,38.95492490443949],[-95.25938197403455,38.954930181651704],[-95.25939626158666,38.95490182357017],[-95.2594005530669,38.954893306625614],[-95.2594074729145,38.95487957425372],[-95.25943537271965,38.954888143767754],[-95.25943847635955,38.954881982476415],[-95.25944341176938,38.95487218839894],[-95.25945004914,38.95485901351265],[-95.25945605225697,38.954860857819575],[-95.25945755403939,38.95485787692778],[-95.25945746507064,38.95485784959056],[-95.25948294391893,38.95480728045661],[-95.25933521329901,38.95476190142022],[-95.259414399637,38.95460473548864],[-95.25938762340989,38.95459657194042],[-95.25930646631986,38.95475764943623],[-95.25916348975507,38.954713827214896],[-95.25915179810367,38.95473703216571],[-95.25909262477289,38.954718855233644],[-95.25909270108555,38.95471870292876],[-95.25908751921807,38.95471711143391],[-95.25903702116814,38.95481733574832],[-95.25910925134853,38.95483952269673],[-95.25910984154977,38.954838351542286],[-95.2591310644698,38.954844978866326],[-95.25914088071596,38.954847993898376],[-95.25914824344281,38.95485025608588],[-95.259147700728,38.9548513337348],[-95.25915081347543,38.95485229051814],[-95.25914780988482,38.95485825229376],[-95.25927245768077,38.95489654123893]]]},"properties":{"SDE.FloorAll.FLOORLOCATION":"-1"}},{"type":"Feature","geometry":{"type":"Polygon","coordinates":[[[-95.2592120100388,38.95498067162116],[-95.25921340428346,38.954977904483435],[-95.25921325940347,38.95497786050356],[-95.25925667478964,38.95489169357815],[-95.25938197284644,38.95493018252482],[-95.25940747176135,38.95487957422645],[-95.25943537153162,38.954888144640876],[-95.25945010287997,38.95485890753753],[-95.25945601587502,38.954860724479985],[-95.25946213170674,38.95484858718884],[-95.25946230119756,38.954846180426244],[-95.25948200678069,38.95480706994989],[-95.25944662905874,38.95479620311157],[-95.25944672287633,38.95479601607255],[-95.25944675712192,38.95479602589424],[-95.25945214526016,38.95478533138244],[-95.25945986919311,38.95477000122204],[-95.25946498474977,38.95475984730837],[-95.25946521930817,38.954759304909715],[-95.2595005970146,38.9547701717424],[-95.25950302410955,38.95476535440198],[-95.25943332151805,38.954743943917684],[-95.25943261312659,38.95474378748355],[-95.25940361552985,38.95473489551581],[-95.25940364928324,38.95473482872202],[-95.25940145015988,38.954734153093604],[-95.2594018053044,38.95473344772061],[-95.25935713154091,38.954719725039396],[-95.25936614217078,38.95470184149659],[-95.25936713109776,38.95470214515316],[-95.25940392512442,38.954629118291415],[-95.25940072110868,38.95462813412312],[-95.25939620653885,38.95462674677106],[-95.25939616653098,38.95462682603411],[-95.25939287012248,38.954625813546144],[-95.25939291013034,38.95462573428309],[-95.25937889184272,38.95462142852769],[-95.25937885183481,38.954621507790705],[-95.25937555546176,38.95462049440187],[-95.2593755954347,38.95462041603923],[-95.25935107772835,38.954612884454576],[-95.25935103772044,38.95461296371762],[-95.25934774131325,38.95461195122836],[-95.2593477813212,38.954611871965334],[-95.25933808373507,38.95460889310032],[-95.25932088541236,38.95460361004294],[-95.2593174761008,38.95460256243994],[-95.25931712095608,38.95460326781262],[-95.25931527998237,38.95460270248675],[-95.25926983033999,38.95469290838444],[-95.25923359499774,38.95468177697435],[-95.2592305963721,38.9546814789805],[-95.25918710320039,38.95466811939533],[-95.2591846598044,38.95467296968949],[-95.25917693582247,38.95468829983165],[-95.25917462880214,38.954692877575546],[-95.25916690481584,38.95470820771703],[-95.25916344485991,38.95471507434618],[-95.25916352823914,38.954715156526014],[-95.25915237800862,38.954737287402246],[-95.25913827305139,38.95473295433486],[-95.25914170180769,38.95472614825197],[-95.25913733889534,38.954724808634936],[-95.25913344373717,38.95473254006166],[-95.25909853949763,38.95472181768907],[-95.25909900474639,38.95472089231803],[-95.25908070115855,38.95471526947089],[-95.25907676105956,38.95472308815318],[-95.25908550847757,38.95472577601309],[-95.25903900685411,38.95481806852213],[-95.2590973088096,38.954835977945045],[-95.25909739515068,38.95483580514914],[-95.25912330450008,38.95484376351903],[-95.25912019335682,38.9548499390447],[-95.2591467323432,38.95485809073605],[-95.25914728879027,38.954856986375084],[-95.25916364992716,38.95486201264446],[-95.25916309348041,38.95486311700551],[-95.25917614684623,38.954867126003975],[-95.25913280632722,38.95495314596958],[-95.25913266144731,38.95495310198956],[-95.25913126723486,38.954955868225966],[-95.25913315836169,38.95495645006096],[-95.25913312579604,38.954956515981536],[-95.25913281694555,38.95495712872109],[-95.25913819385694,38.95495878070005],[-95.25916332535608,38.954966499871844],[-95.25916819127522,38.95496799467279],[-95.25916827247997,38.95496783527371],[-95.25917184150336,38.9549689317174],[-95.2591717740308,38.95496906440448],[-95.25919580820933,38.954976447608146],[-95.25919587571678,38.95497631402068],[-95.25919944474103,38.9549774104635],[-95.25919937723361,38.95497754405098],[-95.25920758067124,38.95498006312985],[-95.25920790950788,38.95497941120881],[-95.2592120100388,38.95498067162116]]]},"properties":{"SDE.FloorAll.FLOORLOCATION":"1"}},{"type":"Feature","geometry":{"type":"Polygon","coordinates":[[[-95.25912330446516,38.95484376441942],[-95.25912019335682,38.9548499390447],[-95.25925619151332,38.954891714597906],[-95.25928176426603,38.95484096027025],[-95.25943537153162,38.954888144640876],[-95.25945010287997,38.95485890753753],[-95.25945601587502,38.954860724479985],[-95.25950428375587,38.95476492725675],[-95.25918686929609,38.95466742443092],[-95.25915176435002,38.95473709895938],[-95.25908070115855,38.95471526947089],[-95.25907676102464,38.95472308905359],[-95.25908550847757,38.95472577601309],[-95.25903900681918,38.954818069422515],[-95.2590973088096,38.954835977945045],[-95.25909739515068,38.95483580514914],[-95.25912330446516,38.95484376441942]]]},"properties":{"SDE.FloorAll.FLOORLOCATION":"2"}},{"type":"Feature","geometry":{"type":"Polygon","coordinates":[[[-95.25913196671742,38.95495500426789],[-95.2591356749236,38.954956142755584],[-95.25920874873235,38.95497857488675],[-95.25925330059933,38.95489009705833],[-95.25925364853097,38.95488990521186],[-95.25925527792937,38.95488666958969],[-95.25925833141395,38.954887606944695],[-95.25925678825168,38.954890672472025],[-95.25925717379424,38.9548907906338],[-95.25938243169762,38.954929243483136],[-95.25940790199351,38.9548786588412],[-95.2594358236734,38.95488722977341],[-95.25945048831746,38.95485810554848],[-95.25945637744529,38.954859912914515],[-95.25945800686857,38.95485667638909],[-95.25950466045224,38.95476402322289],[-95.25950073437151,38.954762818313846],[-95.25935851317176,38.95471915838617],[-95.25940388007942,38.954629059548445],[-95.2593990814117,38.95462758707469],[-95.25939895138364,38.95462754705097],[-95.25931968199748,38.954603212094725],[-95.25927467769198,38.954692589483585],[-95.2592736602808,38.95469310977105],[-95.2591872801388,38.95466659240173],[-95.25915220458101,38.95473625320548],[-95.25908414758574,38.954715359959145],[-95.2590810941109,38.95471442259955],[-95.25902766468157,38.9548205319849],[-95.25903071816028,38.95482146934591],[-95.25917664875358,38.954866267288395],[-95.25913196671742,38.95495500426789]]]},"properties":{"SDE.FloorAll.FLOORLOCATION":"ROOF"}}]}
