{"type":"FeatureCollection","features":[{"type":"Feature","geometry":{"type":"Polygon","coordinates":[[[-95.24319037678424,38.95788956182072],[-95.24321513335931,38.95788956645538],[-95.24321513323193,38.95788877066917],[-95.24322387099261,38.957888772042054],[-95.24322387112008,38.95788956782831],[-95.24322823998291,38.957889568964696],[-95.24322823989043,38.95788877227809],[-95.24323988984183,38.95788877439818],[-95.2432398899344,38.95788957108478],[-95.24324425767915,38.95788957129274],[-95.24324425870462,38.95788877553395],[-95.24325299531205,38.95788877687728],[-95.24325299543986,38.95788957266346],[-95.24327775201495,38.95788957728475],[-95.2432777529038,38.95788582549922],[-95.24327862207049,38.95788582543634],[-95.24327862187421,38.95788355163676],[-95.24327775386071,38.95788355172708],[-95.24327775459659,38.95787968548212],[-95.24327251291203,38.957877410528546],[-95.24327251586243,38.9578655856034],[-95.24327775946,38.95786331301259],[-95.24327776019585,38.95785944676763],[-95.24327863397507,38.95785944681443],[-95.24327863493198,38.95785717304228],[-95.24327776115278,38.95785717299547],[-95.2432777669449,38.9578386754555],[-95.24327645568229,38.95783867582176],[-95.24327645839219,38.95782957980528],[-95.24327776965458,38.957829579438986],[-95.24327778018069,38.957792818652756],[-95.24327647010728,38.957792818146046],[-95.24327647281716,38.95778372212952],[-95.24327778289042,38.95778372263622],[-95.24327778963467,38.95776132370845],[-95.24325856777722,38.95776132000323],[-95.2432585710108,38.95775040532361],[-95.24320964084933,38.95775039640838],[-95.24320963757313,38.95776131198838],[-95.24319041571566,38.95776130827188],[-95.24319041332821,38.957765927002015],[-95.24317678383755,38.95776592467286],[-95.24317678256253,38.9577672890998],[-95.24316505990946,38.957767287046735],[-95.24316506118477,38.957765922619814],[-95.24315604642611,38.95776592096449],[-95.24315604648724,38.957765238737295],[-95.24315371719295,38.95776523832814],[-95.2431537171318,38.957765920555325],[-95.24313959130978,38.95776591813639],[-95.24313959118723,38.957767282590765],[-95.24312677547299,38.95776727977813],[-95.24312677674904,38.95776591535124],[-95.2431225533021,38.957765914964774],[-95.24312255336353,38.957765232737586],[-95.24312022291608,38.957765232300325],[-95.2431202228546,38.95776591452749],[-95.24311163170563,38.9577659130276],[-95.24311163042935,38.957767277454494],[-95.24310012709448,38.95776727520241],[-95.2431001272178,38.95776591074803],[-95.24308614683915,38.95776590817599],[-95.24308614276852,38.957779211087214],[-95.24308643480846,38.95777921082144],[-95.2430864347466,38.95777989304862],[-95.2430878902632,38.957779893410894],[-95.24308788892941,38.957786260546136],[-95.24308643222437,38.95778626105685],[-95.24308643200996,38.95778682882461],[-95.24308614112317,38.95778682911776],[-95.24308614016009,38.95778910288994],[-95.24308643101175,38.95778910349717],[-95.24308643079728,38.9577896712649],[-95.24308788746724,38.95778967165461],[-95.24308788417227,38.95780058723457],[-95.24308642865529,38.95780058687229],[-95.24308642840569,38.95780115554045],[-95.24308613640082,38.95780115490585],[-95.24308613655577,38.95780342960581],[-95.2430864274426,38.957803429312634],[-95.24308642719308,38.95780399798077],[-95.2430878838633,38.95780399837047],[-95.24308788137631,38.95781036547829],[-95.24308642470598,38.95781036508859],[-95.24308642464412,38.957811047315765],[-95.2430861337573,38.95781104760896],[-95.24308613034174,38.957824215351685],[-95.24316957258361,38.957824387021354],[-95.24316957131589,38.95782844431391],[-95.24317131887356,38.95782844440913],[-95.24317131658691,38.957837085316505],[-95.24316956902905,38.95783708522127],[-95.24316955983673,38.95786732927005],[-95.24317130736026,38.957867330265714],[-95.24317130392043,38.957875971145654],[-95.24316955751476,38.957875971077826],[-95.24316955506322,38.957880916951744],[-95.24319038022178,38.95788092094081],[-95.24319037678424,38.95788956182072]]]},"properties":{"SDE.FloorAll.FLOORLOCATION":"1"}},{"type":"Feature","geometry":{"type":"Polygon","coordinates":[[[-95.2431870935279,38.9578909067923],[-95.24322379094242,38.95789091325583],[-95.24324301398828,38.95789091699429],[-95.24327971140279,38.95789092344008],[-95.24327971164253,38.95788819453144],[-95.24330767129504,38.957888199599715],[-95.24330767615157,38.957871827130255],[-95.24330768104318,38.957855453760345],[-95.24327972140361,38.95785544869209],[-95.24327974925869,38.957759940955086],[-95.24326052736647,38.95775993815058],[-95.24326053069498,38.95774834034339],[-95.24323344487561,38.957748335310875],[-95.24320635905626,38.957748330272025],[-95.24320635456567,38.957759928051786],[-95.24318713270857,38.95775992433474],[-95.24318713277395,38.957761224806475],[-95.2430826423608,38.95776120606025],[-95.24308262296954,38.95782597946912],[-95.24316482589934,38.95782599369989],[-95.24316481001432,38.957882540792575],[-95.24318709649312,38.95788254438022],[-95.2431870935279,38.9578909067923]]]},"properties":{"SDE.FloorAll.FLOORLOCATION":"ROOF"}}]}
