{"type":"FeatureCollection","features":[{"type":"Feature","geometry":{"type":"MultiPolygon","coordinates":[[[[-102.57892249081594,38.25321948918804],[-102.57890858110194,38.253220044277704],[-102.57891280474499,38.25328585495721],[-102.58295705667582,38.253124391204146],[-102.5836647116909,38.25309612388773],[-102.58366048367964,38.25303031338469],[-102.5836291869887,38.25303156362527],[-102.5836091041204,38.25271896283636],[-102.58364040067465,38.25271771260133],[-102.58363828669047,38.252684807350946],[-102.58425030883551,38.252660356561655],[-102.58425242310102,38.252693261800644],[-102.58431501616339,38.2526907609714],[-102.58431290186911,38.25265785573355],[-102.58492492355215,38.25263340134902],[-102.58492703812772,38.2526663065755],[-102.58498963114285,38.25266380537853],[-102.58494381503596,38.25195085705356],[-102.58488122264416,38.2519533582253],[-102.58488404202501,38.25199723185783],[-102.58427202578042,38.252021686022495],[-102.58426920677464,38.251977812374804],[-102.5842066143356,38.25198031317884],[-102.58420943330302,38.252024186828095],[-102.58359741659642,38.252048637397536],[-102.58359459800407,38.25200476373312],[-102.58353200551775,38.25200726416949],[-102.58353482407175,38.252051137835444],[-102.58294888714019,38.25207454310368],[-102.58294606894526,38.25203066942322],[-102.58283131596714,38.252035252882436],[-102.58283272502901,38.25205718972411],[-102.5822467878177,38.25208059141001],[-102.58224537893537,38.252058654561104],[-102.58218278521373,38.25206115430764],[-102.58218419407687,38.252083091157346],[-102.58157217617219,38.25210753093354],[-102.58157076749657,38.25208559407627],[-102.58150817486856,38.25208809340957],[-102.58150958352499,38.2521100302676],[-102.58089756515857,38.252134466448574],[-102.58089720400798,38.25211248776929],[-102.58083356401437,38.25211502854856],[-102.5808349724641,38.252136965414934],[-102.58022295363598,38.25216139800072],[-102.58022154537379,38.25213946112674],[-102.58015895265136,38.25214195972465],[-102.58016036089435,38.2521638965994],[-102.57954834160464,38.25218832558993],[-102.57954693354915,38.252166388707614],[-102.57948434077952,38.252168886937824],[-102.5794857488158,38.25219082382092],[-102.57889980941162,38.25221420842974],[-102.57889840155487,38.25219227153943],[-102.57883928611852,38.2521946306461],[-102.57878364805731,38.252196850954014],[-102.57878646370136,38.25224072473753],[-102.57820052251782,38.25226410582406],[-102.57819770723286,38.25222023202604],[-102.5781351143688,38.25222272952086],[-102.57813792961542,38.25226660332045],[-102.57752590875374,38.25229102153279],[-102.57752309388219,38.252247147718066],[-102.57746050097096,38.25224964484521],[-102.57746331580415,38.25229351866147],[-102.57685129448113,38.2523179332786],[-102.57684848002302,38.25227405944721],[-102.57678265934025,38.25122651518587],[-102.58699765986262,38.250818591341904],[-102.58741614951467,38.25079028524505],[-102.58767193278887,38.250765867788175],[-102.58808689864203,38.250714608361875],[-102.5883398977019,38.25067617797612],[-102.58874931696583,38.250602214824],[-102.58899830025088,38.25054995970364],[-102.58940017782588,38.250453652309155],[-102.58964393063488,38.25038782674689],[-102.59003630722819,38.25026964595032],[-102.59027364211109,38.25019057172409],[-102.59065460747712,38.250051091974434],[-102.59088436737566,38.249959153709966],[-102.59125206392413,38.24979905562273],[-102.59147313022271,38.24969470137059],[-102.5918257663138,38.24951476487769],[-102.59203706089508,38.24939850242068],[-102.59237291877577,38.24919960554579],[-102.59257341201135,38.249072002075756],[-102.59289085414592,38.248855112557976],[-102.59307957037204,38.24871679084527],[-102.59337705085474,38.248482965676374],[-102.59355307030869,38.24833459857696],[-102.59382913908158,38.24808497841465],[-102.59399160360634,38.24792728863784],[-102.5942449173465,38.24766308924578],[-102.5943930359204,38.247496846423104],[-102.59462235888866,38.247219354121036],[-102.59475540949957,38.24704536841359],[-102.59495962585326,38.24675593596992],[-102.5950769609674,38.246575054237816],[-102.59525507537337,38.24627509272167],[-102.59535612409645,38.24608819662969],[-102.59550727032746,38.245779166943144],[-102.59559153913413,38.24558716661481],[-102.5957149809095,38.24527057494404],[-102.59578206036537,38.24507440688525],[-102.59574846286127,38.24506726174188],[-102.59584465034494,38.24474108430793],[-102.59587719646386,38.24475179547165],[-102.5959267606962,38.24455241447135],[-102.59589239449319,38.244548175605196],[-102.59595619103649,38.24422642720326],[-102.59599076562569,38.244229819780195],[-102.5960085387402,38.244117163483075],[-102.5963227773468,38.244104574368315],[-102.59632063279776,38.24407128164697],[-102.59633454173495,38.244070724403265],[-102.59632518022627,38.243925393180156],[-102.59633213411034,38.243925114581096],[-102.59631906344958,38.24372220054872],[-102.59631210958524,38.24372247914696],[-102.59630274822581,38.24357714882838],[-102.59628883938448,38.243577706068194],[-102.59628671984309,38.243544801090415],[-102.59617893520554,38.24354911928565],[-102.59617752215411,38.24352718173285],[-102.59616013753924,38.24352787820627],[-102.59613271233177,38.24310209896544],[-102.59615009684327,38.24310140249622],[-102.59614373840117,38.2430026866621],[-102.59612635391366,38.243003383130336],[-102.59609880122265,38.242575618420965],[-102.5961161856063,38.24257492195695],[-102.59610982725796,38.24247620612788],[-102.59609244289828,38.24247690259095],[-102.59606501849795,38.24205112339331],[-102.59608240275426,38.24205042693443],[-102.59608098976216,38.24202848938487],[-102.59618877211066,38.24202417128246],[-102.59618665266149,38.24199126630962],[-102.59620056119462,38.241990709082295],[-102.59619120028918,38.241845378788],[-102.59619815397129,38.24184510019715],[-102.59618508407185,38.24164218620555],[-102.59617813040948,38.241642464795625],[-102.5961687695374,38.24149713360659],[-102.59615486110012,38.24149769083002],[-102.59615274168218,38.24146478585889],[-102.5958384896877,38.24147698676208],[-102.59580662963974,38.241367345284154],[-102.59577270978724,38.24137347546857],[-102.59566792653146,38.24105849136884],[-102.59570121476078,38.241050511350245],[-102.59562629218685,38.24085611737257],[-102.59559296729184,38.24086402397912],[-102.59545801489449,38.240553287904895],[-102.59549020390914,38.24054276877596],[-102.59539827208415,38.240352970549964],[-102.59523480267441,38.24004787197083],[-102.59512630907216,38.23986359311663],[-102.59493625572168,38.23956823044094],[-102.59481172850668,38.23939036968295],[-102.59459601797765,38.239106182091994],[-102.59445606547753,38.23893560516553],[-102.59421574781078,38.2386639763731],[-102.59406105155124,38.23850151450237],[-102.59379729862847,38.23824376830789],[-102.59362861178305,38.238090211957726],[-102.59334270767495,38.23784760452121],[-102.59316085266535,38.23770370169299],[-102.59285419196623,38.237477413489856],[-102.59266005452595,38.237343866355324],[-102.5923341295739,38.237134999086805],[-102.59212865606167,38.23701245778575],[-102.59178505550973,38.236822029932796],[-102.59156924703393,38.236711090106326],[-102.59120964392568,38.236540029295654],[-102.59098455064404,38.2364412323184],[-102.59061069750959,38.236290370113316],[-102.59037741600442,38.23620419779028],[-102.58999113346148,38.236074270152926],[-102.5897508008104,38.23600114135279],[-102.58935397020915,38.235892780826426],[-102.58910775600697,38.23583305180375],[-102.58870231139898,38.23574678693709],[-102.58845141525249,38.23570074782796],[-102.58803932931096,38.23563699742948],[-102.58778497292052,38.23560487347253],[-102.5873682537059,38.23556394944921],[-102.58711167716312,38.23554589662617],[-102.58669235398798,38.23552799733645],[-102.5864348056355,38.23552410458319],[-102.58601492121132,38.235529316957034],[-102.57038416972134,38.23615314005146],[-102.57037960371916,38.236081844970705],[-102.57034831422258,38.23608309158902],[-102.57034761176632,38.2360721231149],[-102.57010772448574,38.2360816802829],[-102.57010737327604,38.236076196045076],[-102.56986748709026,38.23608575266569],[-102.56986783828157,38.23609123690424],[-102.56962795087259,38.236100793069774],[-102.56962856542538,38.236110390488506],[-102.56959727590318,38.23611163690219],[-102.56960271905493,38.23619664261289],[-102.56959576581933,38.23619691959287],[-102.56960788124972,38.23638612585553],[-102.56961483450368,38.2363858488748],[-102.56962027775481,38.236470855487504],[-102.56965156743398,38.23646960906751],[-102.56965218199308,38.2364792064866],[-102.56968694830665,38.23647782156531],[-102.5698781738021,38.23946399574259],[-102.57391297157527,38.23930319702046],[-102.57390980791774,38.23925383896388],[-102.57388625632483,38.23888639476163],[-102.58612262204578,38.23839786767967],[-102.58677855486152,38.23840477798348],[-102.58747911092766,38.23847376082639],[-102.58739403460388,38.23883508451869],[-102.58736091354933,38.238830219800874],[-102.58735265094498,38.23888148600797],[-102.58763263744076,38.23892479973533],[-102.58794519331327,38.23899130178762],[-102.58806741240522,38.239019125693964],[-102.58837113305337,38.23910395313962],[-102.58872670403466,38.239223552282056],[-102.5890708330142,38.23936242097166],[-102.58940184252064,38.23951988322202],[-102.58971951974355,38.239695988256585],[-102.59001812537464,38.2398874337883],[-102.59030039725755,38.24009573122493],[-102.59056355997474,38.24031905075095],[-102.5908063312365,38.240556303745784],[-102.59102659949248,38.24080517384487],[-102.59122607476027,38.241067925184915],[-102.59140100170485,38.241339801549465],[-102.59155145650193,38.24162063944697],[-102.59167670583588,38.24190907028991],[-102.59177654814576,38.242205022846676],[-102.59184927575129,38.24250306000694],[-102.59188659195196,38.242729085683585],[-102.59189575303537,38.24280572499144],[-102.59191534724572,38.243110210113485],[-102.59191560473192,38.243236499303],[-102.59190796251545,38.24341503098883],[-102.59187343753628,38.24372006778159],[-102.59186502337216,38.24376755141755],[-102.59181252728227,38.24401974773808],[-102.5917646047467,38.24419423094684],[-102.59174957177336,38.24424220857767],[-102.5917249429689,38.244316697121235],[-102.59161130510927,38.24460810489138],[-102.5915567778138,38.24472684739571],[-102.59147216706405,38.244892550786574],[-102.59130901730894,38.24516743433533],[-102.59112022399742,38.24543505486395],[-102.59090913332224,38.245690470029174],[-102.590675962848,38.24593365025124],[-102.59042184852682,38.24616340987218],[-102.59014676663959,38.24637957652368],[-102.5898558379504,38.246578262523165],[-102.58967690527442,38.2466876271919],[-102.58954669841941,38.24676133375386],[-102.58922211663504,38.2469269520892],[-102.58885212073427,38.24708586333903],[-102.58853463204012,38.24720217035723],[-102.58817186573592,38.24731146787331],[-102.58789573599431,38.2473787422912],[-102.58791348153825,38.24742717005968],[-102.58794693778508,38.247419593398924],[-102.58807722741182,38.24777239372581],[-102.5873868549545,38.24789721432655],[-102.58673698326388,38.247956150299856],[-102.57725467000616,38.2483348390148],[-102.57723109820773,38.24796739505673],[-102.57724848408758,38.24796670144882],[-102.57724531774083,38.24791734342749],[-102.57045783558075,38.24818792822021],[-102.57043697238122,38.24818875931559],[-102.57062720663028,38.25115848413425],[-102.57062826060178,38.25117493687576],[-102.57059348715104,38.25117632208482],[-102.5705941019633,38.251185919517525],[-102.57056280585226,38.25118716619684],[-102.57056825136016,38.25127217293124],[-102.5705612966604,38.25127244997029],[-102.57057341720684,38.25146165650885],[-102.57058037192499,38.251461379469106],[-102.57058581741705,38.25154638530602],[-102.57061711368513,38.251545138620415],[-102.57061772850373,38.25155473605348],[-102.57085766769553,38.25154517780023],[-102.57085801903891,38.25155066204698],[-102.57109795704399,38.25154110333711],[-102.57109760568224,38.25153561909112],[-102.57133754474556,38.25152605983525],[-102.57133684198543,38.25151509134475],[-102.57136813822666,38.251513844454465],[-102.57136357025989,38.25144254926777],[-102.5767812218013,38.25122657162604],[-102.57684373854724,38.25227424858027],[-102.57684374327955,38.252274322351106],[-102.5767858870646,38.252276556206596],[-102.57683162192957,38.25298950781362],[-102.57689421551133,38.252987011029035],[-102.57689210462786,38.25295410565343],[-102.57750413138947,38.25292969081678],[-102.57750624255424,38.25296259618105],[-102.57756883608882,38.25296009902877],[-102.57756672489526,38.25292719366565],[-102.57817875119552,38.252902775233714],[-102.57818086267038,38.25293568058549],[-102.57824345615775,38.25293318306548],[-102.57824134465413,38.25290027771489],[-102.57882729104446,38.252876896418144],[-102.5788294028174,38.25290980175786],[-102.57890242849932,38.25290688756882],[-102.57892249081594,38.25321948918804]]],[[[-102.57774147747989,38.23416081285014],[-102.57762675287759,38.23416539109771],[-102.57765103402886,38.23454393227434],[-102.57898428138895,38.23449072003731],[-102.57893149105232,38.23366795730795],[-102.57759825901059,38.2337211689261],[-102.57762253155015,38.23409958053765],[-102.57773725604703,38.234095002294325],[-102.57774147747989,38.23416081285014]]]]},"properties":{"SDE.FloorAll.FLOORLOCATION":"-1"}},{"type":"Feature","geometry":{"type":"MultiPolygon","coordinates":[[[[-95.24535106505905,38.963414120834514],[-95.24542726418075,38.963414122257994],[-95.24542727230299,38.96314024088595],[-95.24542492780378,38.96314024106661],[-95.2454249359852,38.962873911059106],[-95.24542376316334,38.96287391113572],[-95.24542376394943,38.962835357622126],[-95.24542377061297,38.96265368600765],[-95.24542377143419,38.962615131592955],[-95.24542025482553,38.96261147108788],[-95.24535812342381,38.96261146948519],[-95.2453581236535,38.962613299879976],[-95.24535811560173,38.96287574021246],[-95.24535811508807,38.96287871514618],[-95.24531063790627,38.96287871378122],[-95.24531063000332,38.96314390015007],[-95.24535107390037,38.96314390115237],[-95.24535106505905,38.963414120834514]]],[[[-95.24741524278029,38.96344674635216],[-95.24741568193083,38.96344708932897],[-95.24751298275565,38.9634470892203],[-95.24751342206605,38.9634467463683],[-95.24751342226001,38.963445259351694],[-95.2475153269444,38.963445259503104],[-95.24751576628984,38.96344491575068],[-95.2475157667572,38.963412654611254],[-95.24751532648813,38.96341231070712],[-95.2475134217695,38.963412311456096],[-95.2475134215191,38.96341048016098],[-95.2474901231159,38.96341048046191],[-95.24749012316994,38.96315696406931],[-95.24749481216945,38.96315696362442],[-95.24749481289193,38.96286477838049],[-95.24750213954124,38.962864778363645],[-95.24750213904117,38.96278698460743],[-95.24749012342501,38.96278698506916],[-95.24749012396592,38.96261126242113],[-95.24751298232108,38.9626112615941],[-95.24751342277959,38.96261091876943],[-95.24751342297353,38.962609431752746],[-95.24751532763544,38.96260943190415],[-95.24751576697565,38.96260908815172],[-95.24751576744302,38.96257682701002],[-95.24751532717913,38.96257648310579],[-95.24751342248308,38.96257648385478],[-95.2475134227121,38.96257499593765],[-95.24751298241318,38.96257465293387],[-95.24741568394235,38.96257465306989],[-95.24741524463694,38.962574995921564],[-95.24741524440586,38.962576483838674],[-95.24741333974482,38.96257648368563],[-95.24741290043933,38.962576826537244],[-95.24741289989,38.962609088579356],[-95.24741333903536,38.96260943155619],[-95.24741524485054,38.96260943173662],[-95.24741524465452,38.962610918753334],[-95.24741568379987,38.962611261730125],[-95.24748777951932,38.96261126174311],[-95.2474877789726,38.962786984391165],[-95.24745759276604,38.962786985200324],[-95.24745759310728,38.96283125878982],[-95.24744293866236,38.962831258790054],[-95.24744293926541,38.9628333181036],[-95.24740161593894,38.96283331767805],[-95.24740161652933,38.96287782108657],[-95.24740015052826,38.96287782053201],[-95.24740015062183,38.96314392164815],[-95.24740161547514,38.963143922175306],[-95.24740161538871,38.96319116979676],[-95.24740395985452,38.963191170476534],[-95.2474039606014,38.96318842446157],[-95.24744293851641,38.96318842417998],[-95.24744293796616,38.963190483466086],[-95.24744997258696,38.96319048372927],[-95.24744997210811,38.96318934006336],[-95.24748777834984,38.96318933989121],[-95.24748777860772,38.96341048068429],[-95.2474156820733,38.96341048067132],[-95.24741524276266,38.96341082352295],[-95.24741524256663,38.96341231053956],[-95.24741333784806,38.963412311286895],[-95.24741289853738,38.963412654138544],[-95.24741289798803,38.96344491617837],[-95.24741333829186,38.9634452591825],[-95.2474152429763,38.96344525933554],[-95.24741524278029,38.96344674635216]]]]},"properties":{"SDE.FloorAll.FLOORLOCATION":"1"}},{"type":"Feature","geometry":{"type":"MultiPolygon","coordinates":[[[[-95.24740908954145,38.962609173865204],[-95.24735531121054,38.96287372527242],[-95.2473558818789,38.96240636619374],[-95.24719822780264,38.96240636537131],[-95.24719793343739,38.96269912317212],[-95.24729142275086,38.9626991229087],[-95.24729142139722,38.96287461663669],[-95.24735531109218,38.96287461748242],[-95.24735531128812,38.96287393075356],[-95.24740908954145,38.962609173865204]]],[[[-95.24749070924665,38.96318934007026],[-95.24749070944097,38.963156849110995],[-95.24749539840538,38.96315684956644],[-95.24749539784722,38.96286374864758],[-95.24749539871549,38.962861918280126],[-95.2474789861675,38.96286191890884],[-95.24747898665176,38.96283125834348],[-95.24740190970441,38.96283125814266],[-95.24740190859029,38.9628778208099],[-95.24740015052826,38.96287782053201],[-95.24740015062183,38.96314392164815],[-95.24740190869048,38.96314392192602],[-95.24740190832166,38.96318933915279],[-95.24749070924665,38.96318934007026]]],[[[-95.24535811583144,38.962877570607255],[-95.24542728009808,38.962877800559355],[-95.24542727932226,38.96287391085102],[-95.24542610765371,38.962873910955075],[-95.2454261085032,38.962831238841794],[-95.24542112634632,38.962831238546904],[-95.24542112821224,38.96279096912513],[-95.24542728203345,38.962790969315975],[-95.24542728209808,38.9627868507162],[-95.24542112827719,38.96278685052541],[-95.24542112898986,38.96274658107607],[-95.24542728396051,38.962746581294326],[-95.24542728402508,38.96274246269458],[-95.2454211290548,38.96274246247634],[-95.24542113095583,38.96270219215389],[-95.24542728476929,38.96270219234469],[-95.24542728483394,38.96269807374492],[-95.24542113102082,38.962698073554144],[-95.24542113173344,38.96265780410451],[-95.24542728669635,38.96265780432268],[-95.24542728823545,38.96261147144636],[-95.24535724497277,38.962611469344445],[-95.24535724342134,38.96265368452147],[-95.24535108845879,38.96265368429952],[-95.24535108838975,38.96265780289929],[-95.24535724335267,38.9626578031212],[-95.24535724145035,38.962698072543404],[-95.2453510876372,38.96269807234889],[-95.24535108756818,38.96270219094863],[-95.24535724138164,38.962702191143194],[-95.24535724059754,38.96274246149306],[-95.24535108562726,38.962742461271105],[-95.24535108555823,38.962746579870846],[-95.24535724056392,38.96274657919238],[-95.24535723862655,38.96278684951471],[-95.24535108480566,38.96278684932018],[-95.24535108473664,38.96279096791989],[-95.24535723855783,38.96279096811446],[-95.24535723780882,38.96283123756362],[-95.24535108283081,38.96283123734167],[-95.24535108276179,38.96283535594137],[-95.2453572377401,38.96283535616334],[-95.24535723622375,38.962877570439076],[-95.24535811583144,38.962877570607255]]],[[[-95.24535721996189,38.96340817116186],[-95.24535809842284,38.963408171302596],[-95.245427264049,38.96340817236337],[-95.24542726497918,38.963363898776045],[-95.24542111110813,38.9633638985852],[-95.24542111182075,38.963323629137854],[-95.24542726568836,38.96332362932866],[-95.24542726690622,38.96331951075655],[-95.24542111188576,38.96331951053831],[-95.24542111263348,38.96327924019041],[-95.2454272676505,38.96327924040867],[-95.24542726771509,38.96327512180906],[-95.2454211126634,38.96327512249125],[-95.24542111456442,38.963234852170594],[-95.24542726842427,38.96323485236144],[-95.24542726848885,38.963230733761854],[-95.24542111462937,38.963230733571024],[-95.24542111534205,38.963190464123215],[-95.2454272703513,38.963190464341444],[-95.24542727041587,38.963186345741896],[-95.2454260975889,38.9631863458185],[-95.2454260995621,38.96314779143296],[-95.24542727120007,38.96314779222929],[-95.245427272157,38.963145960961505],[-95.24542727192551,38.963144130566796],[-95.24535810655766,38.96314412950599],[-95.2453572281,38.96314412936526],[-95.24535722654858,38.96318634454034],[-95.24535107153967,38.963186344318395],[-95.2453510714706,38.963190462917964],[-95.24535722647988,38.96319046313994],[-95.24535722457755,38.963230732560326],[-95.24535107071807,38.963230732365794],[-95.24535107064905,38.96323485096537],[-95.24535722450887,38.9632348511599],[-95.2453572237598,38.96327512060757],[-95.2453510687432,38.9632751203856],[-95.24535106867411,38.963279238985166],[-95.24535722369113,38.96327923920713],[-95.24535722175371,38.963319509527594],[-95.24535106788649,38.96331950933307],[-95.24535106781742,38.9633236279326],[-95.24535722168503,38.96332362812715],[-95.24535722093597,38.963363897574496],[-95.24535106591162,38.963363897352565],[-95.24535106584254,38.96336801595208],[-95.24535722086729,38.963368016174016],[-95.2453572200449,38.96340656968589],[-95.24535721996189,38.96340817116186]]],[[[-95.2473553094693,38.96340659076265],[-95.24735531067009,38.963147811231494],[-95.24735443105911,38.96314781107851],[-95.24729230030421,38.96314781143967],[-95.24729229890787,38.96340659007045],[-95.2473544298551,38.96340659060967],[-95.2473553094693,38.96340659076265]]],[[[-95.24749070924665,38.96318934007026],[-95.24741143320097,38.963410709657815],[-95.24741143300487,38.96341219667445],[-95.24740952832133,38.96341219652135],[-95.2473553094693,38.96340659076265],[-95.24740908785733,38.9634125393456],[-95.24740908845958,38.96344480141275],[-95.24740952761007,38.96344514438957],[-95.2474114322945,38.96344514454268],[-95.24741143209842,38.9634466315593],[-95.24741187240227,38.963446974563475],[-95.24751298259584,38.96344697476092],[-95.24751342190625,38.96344663190895],[-95.24751342210018,38.96344514489232],[-95.24751532681965,38.963445144143336],[-95.24751576613005,38.96344480129132],[-95.24751576659739,38.963412540151886],[-95.24751532632831,38.9634121962477],[-95.24751342164477,38.96341219609629],[-95.2475134218387,38.96341070907971],[-95.2475129815346,38.9634103660759],[-95.24741187254666,38.96341036590584],[-95.24749070924665,38.96318934007026]]],[[[-95.24740952984007,38.96260951686939],[-95.24741143450194,38.96260951702251],[-95.24741143430583,38.96261100403923],[-95.24741187456942,38.96261134794384],[-95.24751298241466,38.962611348113946],[-95.24751342175495,38.9626110043615],[-95.24751342194888,38.962609517344774],[-95.24751532776408,38.96260951752357],[-95.24751576710429,38.96260917377111],[-95.24751576641837,38.96257691260204],[-95.2475153272727,38.962576569625654],[-95.24751342261172,38.96257656947422],[-95.24751342284073,38.96257508155711],[-95.24751298254182,38.96257473855327],[-95.24741187359565,38.96257473835583],[-95.24741143425513,38.96257508210783],[-95.24741143405903,38.96257656912457],[-95.24740952939798,38.96257656897147],[-95.24740909005746,38.96257691272351],[-95.24740908954145,38.962609173865204],[-95.24740952984007,38.96260951686939]]]]},"properties":{"SDE.FloorAll.FLOORLOCATION":"2"}},{"type":"Feature","geometry":{"type":"MultiPolygon","coordinates":[[[[-95.24717477766644,38.9635410134311],[-95.24719031072112,38.963541013591595],[-95.24719031179538,38.96331197897997],[-95.24721961857797,38.96331197898677],[-95.24721961805788,38.963368036976455],[-95.24729054171898,38.963368037206806],[-95.24729054195092,38.96340659071867],[-95.24728526653702,38.96340659075286],[-95.24728526566767,38.96341414119564],[-95.24729230031073,38.963414141468405],[-95.24729229943229,38.963410251760244],[-95.2473544315711,38.96341025142651],[-95.24735443129967,38.963414141107265],[-95.24736146478942,38.96341414134847],[-95.2473614644974,38.96340659087826],[-95.24735618908355,38.963406590915696],[-95.24735618954388,38.96338731372325],[-95.24735618996914,38.96336803743117],[-95.24736146538011,38.96336803739379],[-95.24736146533203,38.963363918794236],[-95.24735618992135,38.96336391883164],[-95.24735618956689,38.9633236484839],[-95.24736146497455,38.96332364844651],[-95.24736146489138,38.96331953074736],[-95.24735618951911,38.96331952988435],[-95.24735619028284,38.96327926046424],[-95.24736146568719,38.963279260426845],[-95.2473614656391,38.96327514182729],[-95.24735619023507,38.963275141864685],[-95.24735618984552,38.96323487241701],[-95.24736146524657,38.963234872379644],[-95.24736146519848,38.963230753780074],[-95.24735618979774,38.96323075381744],[-95.24735619059655,38.96319048349664],[-95.24736146484102,38.96319048343186],[-95.24736146591117,38.963186365760045],[-95.24735619051376,38.963186365797426],[-95.24735618982076,38.963167088577315],[-95.24735619028108,38.963147811384474],[-95.24736146567567,38.96314781134705],[-95.2473614659467,38.963143921666216],[-95.24740015062183,38.96314392164815],[-95.24740015035289,38.963147811329016],[-95.24740718496945,38.96314781159478],[-95.24740718467257,38.963140261124444],[-95.24740190927858,38.96314026116388],[-95.24740190898595,38.96310170765117],[-95.24740718437704,38.963101707611706],[-95.2474071843263,38.9630975890121],[-95.24740249536579,38.963097588553076],[-95.24740249610316,38.963057319132176],[-95.24744997344004,38.96305731874052],[-95.2474499733868,38.96305320014087],[-95.24744528439416,38.963053200583985],[-95.24744528395388,38.963012931135566],[-95.24744997294384,38.963012930692464],[-95.24744997289059,38.96300881209282],[-95.2474452839009,38.963008812535904],[-95.2474452834957,38.962968542186964],[-95.24744997360091,38.96296854267163],[-95.24744997354766,38.96296442407197],[-95.24740190987906,38.96296442406172],[-95.24740190949856,38.96292415371262],[-95.24740718487641,38.96292415367312],[-95.24740718482566,38.962920035073445],[-95.2474019094481,38.962920035112944],[-95.24740191030878,38.96288148162688],[-95.24740718453015,38.96288148156001],[-95.24740718538652,38.96287393111689],[-95.24740015195052,38.962873930878466],[-95.24740015136229,38.962877591640655],[-95.24736146683293,38.96287759165871],[-95.2473614662698,38.962873930869144],[-95.24735531128812,38.96287393075356],[-95.24735531171359,38.962854654460685],[-95.24735531217415,38.96283537726735],[-95.24736146599922,38.962835377355546],[-95.24736146595119,38.962831258755855],[-95.24735531212644,38.962831258667634],[-95.24735531229062,38.96279103429285],[-95.24736146671191,38.96279098933407],[-95.2473614666638,38.96278687073434],[-95.24735531168967,38.962786870618736],[-95.24735531248898,38.962746600296384],[-95.24736146630632,38.96274660038456],[-95.24736146625827,38.96274248178484],[-95.24735531240623,38.96274248259704],[-95.2473553120522,38.96270221224719],[-95.247361467019,38.96270221236277],[-95.24736146697091,38.96269809376298],[-95.24735531200449,38.96269809364741],[-95.24735531276873,38.96265782422517],[-95.24736146657838,38.96265782431339],[-95.2473614665303,38.96265370571362],[-95.24735531272104,38.9626537056254],[-95.24735531202833,38.96263442840436],[-95.24735531245382,38.96261515211108],[-95.24736146744804,38.96261515132627],[-95.24736146715604,38.962607600855584],[-95.24735443371142,38.96260760151477],[-95.24735443343997,38.962611491195815],[-95.24729230319146,38.962611490656556],[-95.24729230231308,38.96260760094816],[-95.24728526890352,38.962607600702775],[-95.24728526918744,38.96261515117348],[-95.24729054450718,38.9626151520397],[-95.24729054473909,38.96265370555402],[-95.24721962179454,38.96265370532367],[-95.24721962130954,38.962709762416075],[-95.2471903147766,38.96270976240928],[-95.24719031556953,38.96240773845112],[-95.24717478388203,38.962407739218385],[-95.24717478019762,38.96297437632463],[-95.24717477766644,38.9635410134311]]],[[[-95.24741143474975,38.96261134831779],[-95.24751342338766,38.962611347767],[-95.24751342310215,38.962609517372144],[-95.24751576758376,38.96260951714929],[-95.24751576709217,38.9625765692513],[-95.24751342261172,38.96257656947422],[-95.24751342347948,38.96257473910673],[-95.24741143492948,38.96257473875711],[-95.24741143521229,38.96257656915196],[-95.24740909073178,38.962576569372764],[-95.2474090909352,38.96259304377193],[-95.24740909117364,38.96260951727071],[-95.24741143565527,38.9626095170499],[-95.24741143474975,38.96261134831779]]],[[[-95.24741832217516,38.96283125932567],[-95.24741832174146,38.962848076174836],[-95.24741832130776,38.96286489302397],[-95.24745348967178,38.96286489333322],[-95.24745349055749,38.96283125873448],[-95.24741832217516,38.96283125932567]]],[[[-95.24741832110308,38.96315684937653],[-95.2474183206343,38.96317366712562],[-95.24741832135389,38.963190484001686],[-95.24745348987986,38.9631904843109],[-95.24745348961233,38.96315684968574],[-95.24741832110308,38.96315684937653]]],[[[-95.24741143373066,38.96344697496475],[-95.24751342238564,38.96344697528702],[-95.24751342210018,38.96344514489232],[-95.24751576660947,38.963445144669386],[-95.2475157672712,38.96341219680117],[-95.24751342276296,38.96341219702409],[-95.24751342247751,38.963410366629375],[-95.24741143387529,38.96341036630713],[-95.24741143300487,38.96341219667445],[-95.24740908849664,38.96341219689525],[-95.24740908873513,38.963428670392915],[-95.24740908893847,38.96344514479086],[-95.24741143344778,38.96344514457005],[-95.24741143373066,38.96344697496475]]],[[[-95.24552221532316,38.96354099661247],[-95.24553774837781,38.96354099699428],[-95.24553776521788,38.96297435901497],[-95.2455377808693,38.96240772188145],[-95.24552224806362,38.96240772149964],[-95.24552224014477,38.96270974545779],[-95.24549293245852,38.96270974499468],[-95.24549293358012,38.96269807595169],[-95.24542201059113,38.962698074622175],[-95.24542201133838,38.96265780427215],[-95.24542728669635,38.96265780432268],[-95.24542728676094,38.962653685722934],[-95.24542201255655,38.96265368569976],[-95.24542201334359,38.96261513218547],[-95.24542728869838,38.96261513223601],[-95.24542728861293,38.96260758176533],[-95.24542025520338,38.96260758140685],[-95.24542025482553,38.96261147108788],[-95.24535812454198,38.96261147041297],[-95.24535812492327,38.96260758073193],[-95.24535109036047,38.96260758034188],[-95.24535109043784,38.96261513081259],[-95.24535636579262,38.96261513086635],[-95.24535636496978,38.96265368438066],[-95.2453510896121,38.9626536843269],[-95.24535108954302,38.96265780292667],[-95.24535636490099,38.96265780298047],[-95.24535636296314,38.96269807330308],[-95.24535108760212,38.962698073249264],[-95.24535108753308,38.96270219184904],[-95.24535636289437,38.962702191902835],[-95.24535636214486,38.962742461352335],[-95.24535108678056,38.9627424612985],[-95.2453510867115,38.96274657989824],[-95.2453563620761,38.96274657995206],[-95.24535636017326,38.96278684937394],[-95.24535108480566,38.96278684932018],[-95.24535108473664,38.96279096791989],[-95.24535636010455,38.96279096797372],[-95.24535635931994,38.96283123832329],[-95.24535108394898,38.962831238269466],[-95.24535108391504,38.96283535596878],[-95.24535635925118,38.96283535692297],[-95.24535635727507,38.96287391040916],[-95.2453126028682,38.96287390916456],[-95.2453125922305,38.96319046262756],[-95.24535634802162,38.96319046299919],[-95.2453563461188,38.963230732419596],[-95.24535107187134,38.96323073239319],[-95.24535107064905,38.96323485096537],[-95.24535634605009,38.963234851019195],[-95.24535634526542,38.96327512136721],[-95.24535106986139,38.963275121313394],[-95.24535106979233,38.96327923991299],[-95.2453563451967,38.96327923996677],[-95.24535634329384,38.96331950938688],[-95.24535106903977,38.96331950936046],[-95.24535106897075,38.96332362795998],[-95.24535634322508,38.96332362798641],[-95.24535634247556,38.963363897433766],[-95.24535106706489,38.96336389737995],[-95.24535106699581,38.96336801597946],[-95.24535634240684,38.9633680160333],[-95.24535634154887,38.96340657044551],[-95.24535106613502,38.96340657039175],[-95.24535106505905,38.963414120834514],[-95.24535809973719,38.96341412032422],[-95.24535809896517,38.96341023061606],[-95.24542023106885,38.96341023221874],[-95.24542023069102,38.963414121899504],[-95.24542726418075,38.963414122257994],[-95.24542726409533,38.9634065717878],[-95.24542198868147,38.963406571737245],[-95.24542199065691,38.963368017352366],[-95.24542726606788,38.96336801740296],[-95.24542726613247,38.96336389880343],[-95.24542199072181,38.96336389875284],[-95.24542199143399,38.963323629305485],[-95.24549291505049,38.96332363063502],[-95.24549291501879,38.96331196156525],[-95.2455222229547,38.96331196202829],[-95.24552221532316,38.96354099661247]]]]},"properties":{"SDE.FloorAll.FLOORLOCATION":"3"}},{"type":"Feature","geometry":{"type":"MultiPolygon","coordinates":[[[[-95.24735457758402,38.96314369325475],[-95.24740733152642,38.96314369287056],[-95.24740733096095,38.96314003208105],[-95.24740264196257,38.963140032522446],[-95.24740264170461,38.96310147810929],[-95.24740733066538,38.963101478568305],[-95.24740733061462,38.96309735996868],[-95.24740264161906,38.963097360410075],[-95.24740264123812,38.96305709006141],[-95.24745011853975,38.963057090570096],[-95.24745011848648,38.96305297197046],[-95.24744542952898,38.96305297151317],[-95.24744543024184,38.96301270209215],[-95.24745011923179,38.963012701649006],[-95.24745011917858,38.96300858304935],[-95.24744543018892,38.96300858349245],[-95.2474454297485,38.96296831404391],[-95.2474501187355,38.9629683136008],[-95.24745011868225,38.96296419500113],[-95.24740264140796,38.96296419539286],[-95.24740264218029,38.96292392507114],[-95.2474073311293,38.962923925530156],[-95.24740733107853,38.96291980693047],[-95.24740264212981,38.96291980647147],[-95.2474026418368,38.96288125295801],[-95.24740733078295,38.962881253417024],[-95.24740733140582,38.962877591754435],[-95.2474017628172,38.962877592043164],[-95.2473545788153,38.96287759216599],[-95.24735457758402,38.96314369325475]]],[[[-95.24741158113434,38.96261117605386],[-95.2474430866197,38.96261117683577],[-95.2475135685837,38.96261117637597],[-95.24751356945144,38.96260934600852],[-95.24751591393304,38.96260934578561],[-95.2475159136697,38.962592872286855],[-95.24751591344145,38.96257639788769],[-95.24751356896093,38.962576398110606],[-95.24751356867544,38.962574567715755],[-95.24741158127895,38.96257456739362],[-95.24741158156178,38.962576397788446],[-95.24740923708131,38.96257639800924],[-95.24740923636995,38.962609345879834],[-95.24741158085153,38.962609345659025],[-95.24741158113434,38.96261117605386]]],[[[-95.24744308610325,38.96283102977404],[-95.24744308555306,38.96283308906019],[-95.24740176334494,38.96283308956246],[-95.24740176325484,38.962860775194066],[-95.24744484354072,38.96286077496903],[-95.24744484421703,38.96283514865095],[-95.24745011958824,38.96283514860951],[-95.24745011953503,38.962831030009795],[-95.24744308610325,38.96283102977404]]],[[[-95.24744308421948,38.96319025532307],[-95.24745011884025,38.963190255586255],[-95.247450118787,38.96318613698669],[-95.24744484338962,38.963186137028096],[-95.24744484406591,38.96316051071078],[-95.24740733105502,38.96316051061969],[-95.24740176247916,38.96316051000801],[-95.24740176238906,38.96318819563885],[-95.24744308476967,38.96318819603696],[-95.24744308421948,38.96319025532307]]],[[[-95.24741157889748,38.963446774733946],[-95.24751356870551,38.963446775083455],[-95.24751356842006,38.96344494468876],[-95.24751591292932,38.96344494446587],[-95.24751591359099,38.963411996597614],[-95.24751356792949,38.96341199679315],[-95.24751356879732,38.96341016642582],[-95.24744308491863,38.96341016595783],[-95.24741157904207,38.96341016607631],[-95.24741157932495,38.96341199647101],[-95.24740923481674,38.96341199669182],[-95.24740923525863,38.963444944587444],[-95.24741157976794,38.96344494436664],[-95.24741157889748,38.963446774733946]]]]},"properties":{"SDE.FloorAll.FLOORLOCATION":"4"}},{"type":"Feature","geometry":{"type":"MultiPolygon","coordinates":[[[[-95.24736205069084,38.963190912804095],[-95.24737547007071,38.96319091233247],[-95.24737546946345,38.96319048333491],[-95.2474127204486,38.9631904835244],[-95.24744997258696,38.96319048372927],[-95.24744997253377,38.9631863651297],[-95.24744469713634,38.96318636517112],[-95.2474446966594,38.96316073882642],[-95.24740396069062,38.963160738830744],[-95.24740395997442,38.963143921954654],[-95.24740718408476,38.96314392188658],[-95.24740718351929,38.963140261097074],[-95.24740249455593,38.96314026063803],[-95.24740249541625,38.9631017071527],[-95.24740718441211,38.963101706711306],[-95.24740718436136,38.96309758811169],[-95.24740249536579,38.963097588553076],[-95.24740249494988,38.96305731910481],[-95.2474499722867,38.96305731871314],[-95.24744997223353,38.963053200113514],[-95.24744528324089,38.963053200556615],[-95.24744528283563,38.96301293020779],[-95.24744997294384,38.963012930692464],[-95.24744997289059,38.96300881209282],[-95.24744528393597,38.963008811635525],[-95.2474452834957,38.962968542186964],[-95.24744997248267,38.96296854174387],[-95.24744997239439,38.9629644240446],[-95.24740249515496,38.96296442353583],[-95.24740249473906,38.96292415408716],[-95.24740718487641,38.96292415367312],[-95.24740718482566,38.962920035073445],[-95.24740249584192,38.962920035514855],[-95.24740249558403,38.96288148110097],[-95.24740718453015,38.96288148156001],[-95.24740718396468,38.96287782077044],[-95.24740396101984,38.9628778208659],[-95.24740396033876,38.96286100308903],[-95.24744469728815,38.96286100311205],[-95.24744469796451,38.962835376794],[-95.24744997333573,38.96283537675254],[-95.24744997324743,38.96283125905325],[-95.24743729738559,38.962831258256166],[-95.24737547050249,38.9628312586589],[-95.24737547047135,38.96283122981893],[-95.24737547098626,38.96283077200882],[-95.24736205167481,38.96283077248048],[-95.2473620515269,38.962878021003604],[-95.24737547084732,38.96287802053194],[-95.24737547024007,38.96287759153442],[-95.24737904986478,38.962877591795916],[-95.247379049364,38.96314415072212],[-95.24737546972585,38.963144150460614],[-95.24737546969469,38.963144121620644],[-95.24737547017457,38.963143664710955],[-95.2473620508388,38.96314366428221],[-95.24736205069084,38.963190912804095]]],[[[-95.24744293907634,38.96261538025189],[-95.24744997363993,38.96261538051506],[-95.24744997259312,38.96261137634731],[-95.24751342226557,38.96261137657959],[-95.24751342198006,38.962609546184744],[-95.24751576646167,38.96260954596181],[-95.2475157671234,38.96257659809127],[-95.24751342264288,38.96257659831414],[-95.24751342239244,38.96257476701893],[-95.24741143496061,38.96257476759706],[-95.24741143524344,38.962576597991934],[-95.24740908960963,38.96257659818532],[-95.24740909005152,38.96260954608329],[-95.24741143453312,38.96260954586246],[-95.24741143481593,38.96261137625731],[-95.24743729788891,38.962611376477945],[-95.24744293918319,38.9626113761115],[-95.24744293907634,38.96261538025189]]],[[[-95.24741143257732,38.96344697493738],[-95.24751342238564,38.96344697528702],[-95.24751342210018,38.96344514489232],[-95.24751576660947,38.963445144669386],[-95.24751576611791,38.9634121967738],[-95.2475134216097,38.96341219699673],[-95.2475134213593,38.96341036570162],[-95.24741271983373,38.9634103661922],[-95.24741143272202,38.96341036627974],[-95.24741143300487,38.96341219667445],[-95.24740908849664,38.96341219689525],[-95.24740908778519,38.96344514476348],[-95.2474114322945,38.96344514454268],[-95.24741143257732,38.96344697493738]]]]},"properties":{"SDE.FloorAll.FLOORLOCATION":"5"}},{"type":"Feature","geometry":{"type":"Polygon","coordinates":[[[-95.2474114332517,38.96344663158666],[-95.2474118723672,38.96344697546385],[-95.24751298256076,38.96344697566135],[-95.24751342190625,38.96344663190895],[-95.24751342210018,38.96344514489232],[-95.2475153267846,38.96344514504372],[-95.24751576728332,38.96344480131868],[-95.24751576659739,38.963412540151886],[-95.24751532744652,38.963412197175494],[-95.24751342276296,38.96341219702409],[-95.2475134218387,38.96341070907971],[-95.24751298268792,38.9634103661033],[-95.24748572715625,38.96341036619777],[-95.2474857272419,38.96336803746454],[-95.24749100265285,38.96336803742122],[-95.24749100309589,38.96327376929745],[-95.24747634855923,38.963273769301914],[-95.24747634954058,38.96319048441893],[-95.247485727544,38.963190483529985],[-95.24748572708607,38.96305320081458],[-95.24747634913585,38.963053200803124],[-95.2474763499301,38.96274797392895],[-95.24749100320452,38.96274797389714],[-95.24749100364748,38.96265370576843],[-95.24748572828982,38.962653705811704],[-95.24748572841054,38.962611376175346],[-95.24751298359915,38.962611376981236],[-95.24751342293938,38.9626110332288],[-95.24751342313333,38.962609546212114],[-95.24751532779526,38.96260954636353],[-95.24751576713551,38.96260920261106],[-95.2475157676028,38.96257694146939],[-95.2475153284572,38.962576598492916],[-95.24751342264288,38.96257659831414],[-95.2475134228719,38.962575110397026],[-95.24751298372625,38.96257476742061],[-95.24741143496061,38.96257476759706],[-95.24741143524344,38.962576597991934],[-95.24740909076296,38.9625765982127],[-95.24740909005152,38.96260954608329],[-95.24732688459807,38.962609545747526],[-95.24732688258845,38.963412539937615],[-95.24740908897554,38.96341254027335],[-95.24740908845958,38.96344480141275],[-95.24740952876336,38.96344514441695],[-95.24741143344778,38.96344514457005],[-95.2474114332517,38.96344663158666]]]},"properties":{"SDE.FloorAll.FLOORLOCATION":"6"}},{"type":"Feature","geometry":{"type":"Polygon","coordinates":[[[-95.2474114332517,38.96344663158666],[-95.2474118723672,38.96344697546385],[-95.24751298256076,38.96344697566135],[-95.24751342190625,38.96344663190895],[-95.24751342210018,38.96344514489232],[-95.2475153267846,38.96344514504372],[-95.24751576728332,38.96344480131868],[-95.24751576659739,38.963412540151886],[-95.24751532744652,38.963412197175494],[-95.24751342276296,38.96341219702409],[-95.2475134218387,38.96341070907971],[-95.24751298268792,38.9634103661033],[-95.24748572715625,38.96341036619777],[-95.2474857272419,38.96336803746454],[-95.24749100265285,38.96336803742122],[-95.24749100309589,38.96327376929745],[-95.24747634855923,38.963273769301914],[-95.24747634954058,38.96319048441893],[-95.247485727544,38.963190483529985],[-95.24748572708607,38.96305320081458],[-95.24747634913585,38.963053200803124],[-95.2474763499301,38.96274797392895],[-95.24749100320452,38.96274797389714],[-95.24749100364748,38.96265370576843],[-95.24748572828982,38.962653705811704],[-95.24748572841054,38.962611376175346],[-95.24751298359915,38.962611376981236],[-95.24751342293938,38.9626110332288],[-95.24751342313333,38.962609546212114],[-95.24751532779526,38.96260954636353],[-95.24751576713551,38.96260920261106],[-95.2475157676028,38.96257694146939],[-95.2475153284572,38.962576598492916],[-95.24751342264288,38.96257659831414],[-95.2475134228719,38.962575110397026],[-95.24751298372625,38.96257476742061],[-95.24741143496061,38.96257476759706],[-95.24741143524344,38.962576597991934],[-95.24740909076296,38.9625765982127],[-95.24740909005152,38.96260954608329],[-95.24732688459807,38.962609545747526],[-95.24732688258845,38.963412539937615],[-95.24740908897554,38.96341254027335],[-95.24740908845958,38.96344480141275],[-95.24740952876336,38.96344514441695],[-95.24741143344778,38.96344514457005],[-95.2474114332517,38.96344663158666]]]},"properties":{"SDE.FloorAll.FLOORLOCATION":"7"}},{"type":"Feature","geometry":{"type":"Polygon","coordinates":[[[-95.2474114332517,38.96344663158666],[-95.2474118723672,38.96344697546385],[-95.24751298256076,38.96344697566135],[-95.24751342190625,38.96344663190895],[-95.24751342210018,38.96344514489232],[-95.2475153267846,38.96344514504372],[-95.24751576728332,38.96344480131868],[-95.24751576659739,38.963412540151886],[-95.24751532744652,38.963412197175494],[-95.24751342276296,38.96341219702409],[-95.2475134218387,38.96341070907971],[-95.24751298268792,38.9634103661033],[-95.24748572715625,38.96341036619777],[-95.2474857272419,38.96336803746454],[-95.24749100265285,38.96336803742122],[-95.24749100309589,38.96327376929745],[-95.24747627583191,38.96327376937794],[-95.24747627565999,38.96319048446756],[-95.24748580023616,38.963190484354314],[-95.24748580096643,38.96305320076593],[-95.24747634913585,38.963053200803124],[-95.24747634981145,38.96300881188199],[-95.2474762899459,38.96300880775725],[-95.24747755640333,38.96299700743966],[-95.24747922334171,38.96298058523332],[-95.2474818294599,38.96295252617311],[-95.24748318906967,38.96293605161006],[-95.24748519575436,38.96290906790141],[-95.24748627399266,38.96289261549831],[-95.2474879385003,38.96286294702863],[-95.24748870779803,38.96284648368689],[-95.247489757714,38.96281836875946],[-95.24749023569046,38.96280185704596],[-95.24749074165864,38.96277600119451],[-95.24749093648087,38.96275952782061],[-95.24749100156028,38.96274798647526],[-95.24749100364748,38.96265370576843],[-95.24748572828982,38.962653705811704],[-95.24748572841054,38.962611376175346],[-95.24751298359915,38.962611376981236],[-95.24751342293938,38.9626110332288],[-95.24751342313333,38.962609546212114],[-95.24751532779526,38.96260954636353],[-95.24751576713551,38.96260920261106],[-95.2475157676028,38.96257694146939],[-95.2475153284572,38.962576598492916],[-95.24751342264288,38.96257659831414],[-95.2475134228719,38.962575110397026],[-95.24751298372625,38.96257476742061],[-95.24741143496061,38.96257476759706],[-95.24741143524344,38.962576597991934],[-95.24740909076296,38.9625765982127],[-95.24740909005152,38.96260954608329],[-95.24732688459807,38.962609545747526],[-95.24732688258845,38.963412539937615],[-95.24740908897554,38.96341254027335],[-95.24740908845958,38.96344480141275],[-95.24740952876336,38.96344514441695],[-95.24741143344778,38.96344514457005],[-95.2474114332517,38.96344663158666]]]},"properties":{"SDE.FloorAll.FLOORLOCATION":"8"}},{"type":"Feature","geometry":{"type":"Polygon","coordinates":[[[-95.24728256830474,38.96354104264674],[-95.2472849116639,38.96354104240112],[-95.24728541149571,38.96354104255097],[-95.2472924461514,38.96354104282374],[-95.24735457721681,38.96354104336293],[-95.24736161071922,38.96354104360409],[-95.24740205487846,38.963541042990876],[-95.24740205519996,38.963410205855496],[-95.24741304469957,38.963410205374956],[-95.24741304477111,38.963440939853115],[-95.24741348503986,38.96344128375769],[-95.24741538975927,38.96344128301033],[-95.24741538952817,38.96344277092732],[-95.2474158286787,38.96344311390413],[-95.24751312949805,38.963443113795364],[-95.24751356880842,38.96344277094334],[-95.24751356900236,38.96344128392674],[-95.2475154737217,38.96344128317772],[-95.24751591303209,38.963440940325725],[-95.24751591353443,38.963408678285916],[-95.24751547323031,38.96340833528211],[-95.24751356854686,38.963408335130715],[-95.24751356874081,38.963406848114076],[-95.24751312959003,38.96340650513771],[-95.24748619610857,38.963406505667194],[-95.24748619641237,38.96336544586386],[-95.24749147182317,38.963365445820536],[-95.24749147178274,38.963272464634585],[-95.24747675720522,38.96327246501632],[-95.24747675793068,38.96321915306845],[-95.2474767580463,38.96319772013809],[-95.24748601596852,38.96319772000355],[-95.24748601584368,38.963196804355995],[-95.24748601591322,38.96319360140399],[-95.24748601701114,38.96318948283177],[-95.24748601740035,38.96318730908631],[-95.24748786668502,38.96318730882445],[-95.24748786640018,38.96318547842973],[-95.24748601711562,38.96318547869158],[-95.24748601695585,38.963185364232196],[-95.24748601640633,38.96318448912969],[-95.24749147189172,38.96318448885515],[-95.24749147215242,38.96305178167641],[-95.24748602013707,38.96305178203304],[-95.24748601963796,38.96304945325577],[-95.24748601954754,38.96304533555653],[-95.24748601949219,38.9630412169569],[-95.24748601943689,38.96303709835726],[-95.24748601938155,38.96303297975764],[-95.2474860193262,38.96302886115796],[-95.24748601927091,38.96302474255833],[-95.24748601921557,38.96302062395869],[-95.24748601916022,38.96301650535904],[-95.24748601910493,38.9630123867594],[-95.24748601881998,38.96300975607681],[-95.24748756219904,38.96300975576331],[-95.24748756191423,38.96300792536855],[-95.24748601853518,38.963007925682035],[-95.24748601828537,38.96300529409905],[-95.24748601823002,38.96300117549942],[-95.24748601817468,38.96299705689979],[-95.24748601811937,38.962992938300125],[-95.24748601806404,38.962988819700435],[-95.24748601797361,38.9629847020012],[-95.24748601791833,38.96298058340153],[-95.24748601786298,38.96297646480191],[-95.24748601780766,38.96297234620219],[-95.24748601775235,38.96296822760254],[-95.24748601833622,38.9629653671282],[-95.24748756283252,38.96296536774246],[-95.24748756254769,38.96296353734768],[-95.24748601920476,38.9629635367608],[-95.24748601879497,38.96295999043061],[-95.24748601873962,38.962955871830935],[-95.24748601868428,38.96295175323127],[-95.24748601862898,38.96294763463161],[-95.24748601853858,38.962943516932306],[-95.24748601848323,38.96293939833265],[-95.24748601842794,38.962935279732974],[-95.24748601837257,38.96293116113332],[-95.24748601831725,38.96292704253365],[-95.24748601826195,38.962922923933974],[-95.24748601781741,38.962920979079826],[-95.2474875623478,38.96292097879368],[-95.24748756206296,38.96291914839891],[-95.24748601753261,38.962919148685025],[-95.24748601705333,38.962918805306906],[-95.24748601699798,38.96291468670724],[-95.24748601694264,38.96291056810756],[-95.24748601685229,38.96290645040826],[-95.24748601679694,38.96290233180858],[-95.2474860167416,38.962898213208895],[-95.2474860166863,38.9628940946092],[-95.24748601663096,38.96288997600954],[-95.24748601657559,38.96288585740985],[-95.2474860158976,38.96288543021304],[-95.24748652683155,38.96287853535304],[-95.2474875622726,38.96287853559931],[-95.24748756198775,38.962876705204515],[-95.24748666273923,38.962876705487496],[-95.24748681566172,38.96287464621349],[-95.24748756253668,38.96287464591835],[-95.24748756225189,38.962872815523546],[-95.2474869516045,38.96287281544758],[-95.24748917651658,38.96284277726012],[-95.24749147234292,38.96274372314037],[-95.24749147175696,38.96265037063182],[-95.24748458494985,38.96265037027384],[-95.247484585325,38.96261117600542],[-95.24751312995235,38.96261117587727],[-95.24751356925749,38.962610833025266],[-95.24751356945144,38.96260934600852],[-95.24751547414844,38.96260934525957],[-95.24751591345365,38.96260900240749],[-95.24751591392086,38.96257674126578],[-95.2475154748103,38.96257639738897],[-95.24751356899601,38.96257639721018],[-95.24751356918995,38.96257491019348],[-95.24751313004431,38.962574567217025],[-95.24741583157365,38.96257456735315],[-95.2474153911149,38.962574910177466],[-95.2474153909189,38.962576397194205],[-95.2474134862228,38.962576397941525],[-95.2474130469173,38.96257674079316],[-95.24741304698883,38.96260747527351],[-95.24740205646071,38.96260747572668],[-95.24740205724002,38.962404336006784],[-95.24736159877352,38.96240433536368],[-95.24735456538419,38.96240433512254],[-95.24729243528267,38.962404335483704],[-95.2472854018934,38.962404335238375],[-95.2472599047998,38.962404335559434],[-95.24724994054621,38.962404335127054],[-95.24724349354634,38.962404335281796],[-95.24723352813949,38.9624043348206],[-95.24722385706316,38.96240433503753],[-95.2472238567767,38.962404905506276],[-95.24722327154046,38.96240490513086],[-95.24722327134326,38.96240559185975],[-95.24722327150258,38.96240570631911],[-95.24722297832537,38.962405705667514],[-95.24722297861584,38.96241393746486],[-95.24722230447617,38.9624139079421],[-95.24722139284007,38.96241381149775],[-95.2472204951916,38.96241365229967],[-95.24721961834511,38.96241343321336],[-95.24721877033852,38.96241315533086],[-95.24721795571476,38.96241282056244],[-95.2472171812883,38.96241243177366],[-95.24721645387349,38.96241199182984],[-95.24721577794331,38.96241150444216],[-95.24721515915881,38.96241097244862],[-95.24721460195777,38.962410400460804],[-95.24721411081306,38.9624097921897],[-95.24721369009221,38.962409154047606],[-95.2472133408433,38.96240848876317],[-95.24721306858731,38.96240780277589],[-95.24721287318386,38.96240709968738],[-95.24721275662391,38.96240638765598],[-95.24721272110882,38.96240566943766],[-95.24721272086227,38.96240490519284],[-95.24721213447279,38.962404904790006],[-95.24721213472422,38.96240433522168],[-95.24720217047064,38.962404334785184],[-95.24719513704629,38.96240433543475],[-95.2471951364475,38.96240799619712],[-95.24719837551677,38.962407996490725],[-95.24719837506618,38.96242973222825],[-95.24719515098849,38.96242973229051],[-95.2471951510269,38.962433850890356],[-95.24719837510479,38.96243385082808],[-95.2471983753694,38.96247412117888],[-95.24719515128963,38.96247412124115],[-95.24719515136309,38.96247823894057],[-95.24719837544299,38.96247823887829],[-95.24719837455433,38.96251850920156],[-95.24719515047256,38.96251850926382],[-95.24719515051096,38.96252262786366],[-95.2471983745929,38.96252262780138],[-95.24719837489253,38.962562897251466],[-95.24719515080876,38.96256289731377],[-95.24719515084718,38.96256701591355],[-95.24719837493112,38.96256701585128],[-95.24719837395948,38.96260556933836],[-95.24719515102706,38.96260556942803],[-95.24719515039318,38.96260923109071],[-95.24720218383791,38.96260923044115],[-95.24720218368168,38.96260831569392],[-95.2472522983766,38.96260831581819],[-95.24725229885063,38.96260373940829],[-95.24725376369275,38.962603739937315],[-95.24725376353088,38.9626044257658],[-95.24725376361269,38.96260694288947],[-95.24725376369454,38.9626094600132],[-95.24725376393678,38.96262433203585],[-95.24725229905923,38.96262433240721],[-95.24725229885229,38.96260945948417],[-95.24720218415655,38.9626094593599],[-95.24719515074682,38.962609459109075],[-95.24719515011296,38.96261312077174],[-95.2471980809859,38.96261312095819],[-95.24719808116735,38.96265167447251],[-95.24719515029282,38.962651674286064],[-95.24719515033125,38.962655792885826],[-95.24719808120594,38.96265579307228],[-95.24719808035213,38.962696062494544],[-95.24719514947579,38.96269606230808],[-95.24719514951418,38.962700180907845],[-95.24720218408615,38.96270018118608],[-95.2472021843629,38.962697091792904],[-95.24728541497703,38.96269709221869],[-95.2472854147039,38.962700181611865],[-95.24728658752285,38.96270018151638],[-95.24728658787274,38.96274045096589],[-95.24728541505314,38.962740451061336],[-95.24728541509681,38.962744569661105],[-95.24729244851993,38.96274456990643],[-95.24729244820107,38.96274434098771],[-95.24731179160013,38.96274434056897],[-95.24731179028576,38.962871671926536],[-95.247293198375,38.9628716712605],[-95.24729047756404,38.9628716715574],[-95.2472904777214,38.962872586304606],[-95.24729047776536,38.962876704904296],[-95.24728893092934,38.962876705133006],[-95.24728893120904,38.96287853552783],[-95.24729047804509,38.962878535299104],[-95.24729047772225,38.9629191480987],[-95.24728893088536,38.96291914832744],[-95.24728893116499,38.96292097872222],[-95.24729047800199,38.96292097849347],[-95.24729047808323,38.96296353704747],[-95.24728893128044,38.96296353637583],[-95.24728893156008,38.96296536677062],[-95.24729047836296,38.96296536744227],[-95.24729047732602,38.963007925068325],[-95.24728893048714,38.96300792529708],[-95.24728893076683,38.96300975569185],[-95.24729047760576,38.96300975546312],[-95.24729047772207,38.9630523131164],[-95.24728893088228,38.96305231334513],[-95.2472889311619,38.96305414373993],[-95.24729047800182,38.9630541435112],[-95.24729047692979,38.963096702037305],[-95.24728893012403,38.963096701365664],[-95.24728893040373,38.96309853176044],[-95.24729047720952,38.963098532432085],[-95.24729047688666,38.96313914523092],[-95.24728893004497,38.96313914545966],[-95.2472889303246,38.9631409758544],[-95.2472904771664,38.9631409756257],[-95.24729047605703,38.96314509419791],[-95.24729047621446,38.96314600894507],[-95.24729319703594,38.963146008648195],[-95.24731179363204,38.96314600942376],[-95.2473117888929,38.96327333979446],[-95.24729244653744,38.963273339340184],[-95.2472924461835,38.96327311132185],[-95.24728541270773,38.96327311107648],[-95.24728541275138,38.963277229676045],[-95.24728658557991,38.96327722958056],[-95.24728658477653,38.963317499000716],[-95.2472854131006,38.963317499123576],[-95.24728541314425,38.96332161772312],[-95.24729244662485,38.96332161796844],[-95.24729244630589,38.963321389049725],[-95.24731178870958,38.96332138860361],[-95.24731178927284,38.96340264306698],[-95.24728256790141,38.96340264240829],[-95.24728256830474,38.96354104264674]]]},"properties":{"SDE.FloorAll.FLOORLOCATION":"ROOF"}}]}
