{"type":"FeatureCollection","features":[{"type":"Feature","geometry":{"type":"Polygon","coordinates":[[[-95.25219834219305,38.95549240798099],[-95.25249658267957,38.95549359537111],[-95.25249658800712,38.95549274564304],[-95.25250495488443,38.95549277808992],[-95.25250499057667,38.95548728687626],[-95.25250512210732,38.95548728819074],[-95.25250551509217,38.95542711285878],[-95.2525056616488,38.955427113628105],[-95.25250570012894,38.95542116465865],[-95.25250555357226,38.95542116388934],[-95.25250594573892,38.95536121744859],[-95.25250609229545,38.95536121821791],[-95.25250614587159,38.955355266902494],[-95.252505984289,38.9553552666783],[-95.25250637638494,38.955295322038026],[-95.25250653793242,38.955295323162595],[-95.2525065764124,38.95528937419307],[-95.25250612171719,38.955289372430265],[-95.25250651272945,38.95522942596154],[-95.25250696857742,38.955229427751675],[-95.25250700705733,38.955223478782145],[-95.25250655236256,38.95522347701936],[-95.25250695646154,38.95516147156342],[-95.25269654941843,38.95516222597585],[-95.25269739805184,38.95503226614659],[-95.25269944993869,38.95503227421243],[-95.25269947335056,38.95502861309391],[-95.2526994856156,38.95502678299851],[-95.25273464923437,38.955026922277334],[-95.25273505904164,38.954964230226906],[-95.25273507687868,38.95496148461996],[-95.25269287942206,38.95496131745686],[-95.25269285407494,38.95496520653921],[-95.25251088062168,38.954964482166105],[-95.25251091352521,38.95495944870796],[-95.25249977819202,38.95495940472819],[-95.25249972515232,38.954967480241734],[-95.25249884690122,38.9549674774539],[-95.25249885241085,38.95496650426244],[-95.25242719120705,38.95496621917152],[-95.25242733698843,38.954943939859604],[-95.25232172978947,38.95494351895136],[-95.25226120170278,38.95508689588524],[-95.25209090044952,38.95531190764767],[-95.25209022846043,38.955414730414674],[-95.25209057699549,38.955414731465424],[-95.25209680191385,38.955414756434514],[-95.25209642510518,38.9554728737607],[-95.25220507374411,38.95547331376479],[-95.25219834219305,38.95549240798099]]]},"properties":{"SDE.FloorAll.FLOORLOCATION":"1"}},{"type":"Feature","geometry":{"type":"Polygon","coordinates":[[[-95.25213526900328,38.95539037436992],[-95.25213504633803,38.95539037179631],[-95.25213489770435,38.955413167443105],[-95.25209058808228,38.95541299146431],[-95.25209023951226,38.955412991313885],[-95.2520898144713,38.955478079367445],[-95.25220523072902,38.95547853917811],[-95.252244648962,38.95536674285211],[-95.25224780389631,38.955363138825476],[-95.25223460104385,38.955356093779415],[-95.25223555523345,38.95535500428274],[-95.25241205960398,38.95515343235828],[-95.25242538530698,38.955153485895735],[-95.25242537116543,38.95515560163483],[-95.25242679986036,38.95515560755412],[-95.25243666577032,38.95515564669177],[-95.25243638846418,38.95519799765342],[-95.2524357295204,38.955197994654974],[-95.25243482707485,38.95533606693729],[-95.25250581468235,38.955336349570615],[-95.25250723192619,38.95511940444437],[-95.25250504966,38.95511939508805],[-95.25250515680254,38.95510297912645],[-95.2525073391032,38.9551029875824],[-95.25250757202859,38.955092095500355],[-95.25250272163909,38.95509198596628],[-95.25250311655932,38.955031582668575],[-95.25250796706035,38.95503151105929],[-95.25250838059864,38.95496822338419],[-95.25251085600657,38.95496823337875],[-95.25251091233176,38.95495953880211],[-95.25249977818669,38.95495949394925],[-95.25249972511199,38.95496757036321],[-95.25249884574275,38.95496756664766],[-95.2524988523705,38.95496659438388],[-95.25242719001344,38.95496630926562],[-95.25242733582982,38.95494402905336],[-95.25242411373661,38.95494401668279],[-95.25242422963929,38.95494355890392],[-95.25249033830033,38.954786690335204],[-95.25247749627832,38.954783964420315],[-95.25240608455047,38.9547836798166],[-95.25239844986254,38.95478547977774],[-95.25239825666375,38.95478593662605],[-95.252395946268,38.95478592783579],[-95.2523295147284,38.95494328798194],[-95.2523293660192,38.954943639540005],[-95.25233836525943,38.95494408983396],[-95.25233830042846,38.954944243308084],[-95.252328705076,38.95496678894217],[-95.252346399326,38.95497183425909],[-95.25238010394165,38.95513971185617],[-95.25213526900328,38.95539037436992]]]},"properties":{"SDE.FloorAll.FLOORLOCATION":"2"}},{"type":"Feature","geometry":{"type":"Polygon","coordinates":[[[-95.25213668323492,38.9552759388973],[-95.25213666694104,38.95527609081801],[-95.2521356792285,38.95542723785304],[-95.25220670386257,38.9554275206436],[-95.25220673923128,38.95542744217414],[-95.25223001184757,38.95536143832458],[-95.25241206075712,38.95515343238564],[-95.25242538611019,38.95515349492701],[-95.25242537228357,38.95515560256253],[-95.25243600679197,38.95515564459369],[-95.25243598150065,38.95515953187518],[-95.252434828228,38.95533606696463],[-95.25250347082691,38.95533633999002],[-95.25250346895602,38.95533665537414],[-95.2525058139996,38.95533666408162],[-95.25250608401245,38.95529521237006],[-95.25250624555993,38.955295213494615],[-95.25250628244191,38.95528969166747],[-95.25250611970625,38.955289691415956],[-95.25250651465969,38.95522928721878],[-95.252506676242,38.95522928744295],[-95.25250671193399,38.955223796229184],[-95.25250655035168,38.95522379600502],[-95.25250694530438,38.95516339180751],[-95.25250710685155,38.95516339293211],[-95.25250714254345,38.95515790171832],[-95.25250698099629,38.955157900593726],[-95.25250737479507,38.955097496368595],[-95.25250753749523,38.955097497520484],[-95.25250757318707,38.95509200630665],[-95.25250272275723,38.955091986893976],[-95.25250311771245,38.95503158269591],[-95.25250796813815,38.9550316021085],[-95.25250800382992,38.9550261108946],[-95.25250784112987,38.95502610974273],[-95.2525082190169,38.95496822316002],[-95.2525108571597,38.954968233406056],[-95.2525109134849,38.95495953882942],[-95.2524997781517,38.95495949484964],[-95.25249973399568,38.954966272811],[-95.25249914773781,38.95496627063411],[-95.25249885348863,38.95496659531164],[-95.25242660836822,38.954966307197665],[-95.25242659404631,38.954968516659825],[-95.25240405287018,38.95496849887648],[-95.2524136553891,38.954944372659426],[-95.25241365218191,38.95494424731326],[-95.25241365813905,38.95494397528478],[-95.25233849097916,38.95494367644784],[-95.25233650680745,38.9549483103835],[-95.25227578537122,38.95509214867503],[-95.25221492174482,38.955172565325],[-95.25221498408351,38.95517259474036],[-95.25221494756367,38.955172643442204],[-95.25221488407183,38.95517261399951],[-95.25213668323492,38.9552759388973]]]},"properties":{"SDE.FloorAll.FLOORLOCATION":"3"}},{"type":"Feature","geometry":{"type":"Polygon","coordinates":[[[-95.2524346778307,38.95533601653688],[-95.25250566480818,38.955336315377394],[-95.2525059491662,38.955295147891334],[-95.25250611071368,38.9552951490159],[-95.25250614871207,38.95528965785681],[-95.25250605981373,38.95528965845385],[-95.25250643981109,38.955229253000994],[-95.25250656561049,38.95522925327846],[-95.2525066036088,38.955223762119374],[-95.25250651474549,38.95522376181597],[-95.25250687841202,38.955171140749556],[-95.2524955389014,38.95517109283291],[-95.25249553985884,38.9551708603398],[-95.2524931960089,38.955170850759],[-95.252492900786,38.95517108168612],[-95.25243940678118,38.95517085671919],[-95.25243940889195,38.95517062425342],[-95.25243706504202,38.955170614671495],[-95.25243706293122,38.95517084713727],[-95.25243581776316,38.95517084106122],[-95.2524346778307,38.95533601653688]]]},"properties":{"SDE.FloorAll.FLOORLOCATION":"4"}},{"type":"Feature","geometry":{"type":"MultiPolygon","coordinates":[[[[-95.25226122068204,38.95508682333588],[-95.25209090118656,38.955311858999046],[-95.2520898144713,38.955478079367445],[-95.25220549155398,38.95547853995224],[-95.25224493051225,38.95536668553782],[-95.2524262251383,38.955159525073924],[-95.25242626373361,38.955153513922475],[-95.25243576262397,38.95515355247358],[-95.2524357721424,38.95515217923363],[-95.25243621096557,38.95508503581904],[-95.25243679050126,38.95499615911412],[-95.25243679198029,38.954995972595725],[-95.25243680001967,38.9549947858741],[-95.25243682050947,38.95499170507438],[-95.25250000530129,38.95499195691748],[-95.25250015229719,38.954969437909284],[-95.25250016107941,38.954968083577555],[-95.252499867968,38.9549680820389],[-95.25249988503175,38.954965564423155],[-95.25242749332168,38.95496527644082],[-95.25242763409142,38.95494380901308],[-95.25242411773375,38.95494379507637],[-95.2524904267952,38.95478699704609],[-95.25248472815444,38.9547869746549],[-95.25248403689122,38.95478697179199],[-95.25244613489699,38.954786820712584],[-95.25244613013791,38.954787507332625],[-95.25240202864956,38.95478733188973],[-95.25240105004147,38.954787327624025],[-95.25239535140062,38.954787305228464],[-95.25232944619482,38.95494341793651],[-95.25232177414178,38.9549433875225],[-95.25226122068204,38.95508682333588]]],[[[-95.25243961521363,38.955203235431085],[-95.25243876677837,38.95533302944736],[-95.25243889603738,38.95533302980686],[-95.25249523421404,38.95533325367745],[-95.25249660521949,38.95533325912996],[-95.25249743508297,38.955206048485145],[-95.25249862369186,38.95520347121325],[-95.25249746586812,38.95520139619472],[-95.252498120472,38.95510120279757],[-95.25249930537936,38.95509913643201],[-95.25249814752227,38.95509706231387],[-95.25249880054572,38.95499696891431],[-95.25249998660446,38.95499490257605],[-95.25249881408836,38.95499489822222],[-95.25244097711214,38.954994667667656],[-95.25246942424707,38.955045615688746],[-95.25246928603971,38.955045667388255],[-95.25246914262472,38.95504573428511],[-95.25246900812,38.95504580950414],[-95.25246888133742,38.95504589391843],[-95.2524687657714,38.95504598670956],[-95.25246866030376,38.95504608694975],[-95.25246856612276,38.955046193765995],[-95.25246848438145,38.95504630718562],[-95.25246841630302,38.95504642543513],[-95.25246836076934,38.955046547586825],[-95.2524683200867,38.95504667369532],[-95.25246829320693,38.955046801032175],[-95.25246828009506,38.955046930497716],[-95.25246828197423,38.95504706031849],[-95.25246829887942,38.95504718959418],[-95.25246832853934,38.95504731736963],[-95.2524683733302,38.95504744189875],[-95.25246843209905,38.955047563154274],[-95.25246850372757,38.95504768020838],[-95.25246858940396,38.95504779218807],[-95.25246868573875,38.95504789721052],[-95.25246879385008,38.955047996203476],[-95.25246891268984,38.955048086438445],[-95.2524690410698,38.955048168788515],[-95.25246917787186,38.95504824232587],[-95.2524693310981,38.95504830904266],[-95.2524402958,38.95509890152327],[-95.2524685230929,38.955149508176774],[-95.25246846924446,38.95514949788844],[-95.25246830616095,38.95514947690048],[-95.25246814035117,38.95514946666261],[-95.25246797408641,38.95514946812987],[-95.2524678085548,38.955149480429185],[-95.25246764487454,38.955149504488325],[-95.25246748538696,38.95514953946145],[-95.25246733009197,38.955149585348686],[-95.25246718017777,38.955149641276826],[-95.25246703679761,38.95514970727333],[-95.25246690225772,38.95514978339275],[-95.25246677547494,38.95514986780703],[-95.25246665990869,38.95514996059814],[-95.25246655444096,38.95515006083833],[-95.2524664602598,38.95515016765457],[-95.25246637851838,38.9551502810742],[-95.25246631043984,38.95515039932371],[-95.25246625490608,38.9551505214754],[-95.25246621422339,38.955150647583906],[-95.25246618734356,38.955150774920746],[-95.25246617423167,38.95515090438628],[-95.25246617611083,38.95515103420708],[-95.25246619186287,38.955151163455426],[-95.25246622267595,38.955151291258225],[-95.25246626746694,38.95515141578734],[-95.25246632623586,38.955151537042845],[-95.25246639786445,38.95515165409694],[-95.25246648238786,38.955151766049326],[-95.25246657987593,38.95515187109907],[-95.25246668798742,38.95515197009206],[-95.25246680682734,38.95515206032702],[-95.25246693520748,38.955152142677086],[-95.25246707200974,38.95515221621445],[-95.25246721726913,38.95515228003876],[-95.25246736871419,38.955152333195],[-95.25246752515697,38.95515237655617],[-95.25246768666733,38.95515240832154],[-95.25246784975079,38.9551524293095],[-95.25246801556064,38.955152439547376],[-95.2524681818254,38.9551524380801],[-95.25246834735701,38.955152425780796],[-95.25246851103728,38.95515240172165],[-95.25246867052489,38.95515236674855],[-95.25246881327514,38.95515231695914],[-95.25243961521363,38.955203235431085]]]]},"properties":{"SDE.FloorAll.FLOORLOCATION":"ROOF"}}]}
