{"type":"FeatureCollection","features":[{"type":"Feature","geometry":{"type":"Polygon","coordinates":[[[-95.24647731792803,38.95582695766283],[-95.24669592538726,38.95582662648241],[-95.24669589225202,38.95581289822416],[-95.24676094636276,38.95581280012764],[-95.24676097269396,38.95582332526757],[-95.24677035024634,38.95582331093061],[-95.24677032391376,38.95581278579068],[-95.24683830879066,38.95581268334596],[-95.24683833513336,38.95582320848588],[-95.24684771268575,38.95582319414265],[-95.24684769610337,38.95581633001357],[-95.24692036977682,38.95581621989865],[-95.2469203655294,38.955814847230975],[-95.246922709926,38.955814843418516],[-95.24692270377246,38.95581209723758],[-95.24691697726543,38.95581210635718],[-95.24691696110341,38.95580543870547],[-95.24691331002478,38.9558054448355],[-95.2469131632077,38.95574668593736],[-95.24691668614157,38.95574668036941],[-95.24691667264675,38.95574118888057],[-95.24691314971314,38.95574119444847],[-95.24691292460447,38.95565060329889],[-95.2469164474985,38.955650598631316],[-95.24691643400372,38.95564510714245],[-95.24691291110994,38.95564511180998],[-95.24691284972447,38.9556203726068],[-95.24634728508059,38.955621227874786],[-95.24634727776116,38.95561848256679],[-95.24634317538431,38.955618488774874],[-95.24634318641824,38.955623064560974],[-95.24632208816438,38.95562309609246],[-95.2463221447258,38.95564620576981],[-95.24626796077594,38.95564628782158],[-95.24626110731423,38.955674898485505],[-95.24626946904515,38.95567488619824],[-95.24626971654067,38.95577510299314],[-95.2463048823297,38.95577504959971],[-95.24630494960148,38.95580250614388],[-95.24634363138676,38.95580244792525],[-95.24634365828744,38.955813430903056],[-95.2463553802352,38.955813412798854],[-95.24635535214442,38.95580243069398],[-95.24640868548836,38.95580235002628],[-95.24640870903387,38.95581173054455],[-95.24641925817141,38.955811715221586],[-95.24641925056821,38.95580874009439],[-95.24647727267457,38.95580865269074],[-95.24647731792803,38.95582695766283]]]},"properties":{"SDE.FloorAll.FLOORLOCATION":"-1"}},{"type":"Feature","geometry":{"type":"Polygon","coordinates":[[[-95.24647731796311,38.95582695676245],[-95.24669592538726,38.95582662648241],[-95.24669589109887,38.95581289819674],[-95.24676094636276,38.95581280012764],[-95.24676097272904,38.95582332436714],[-95.24677035024634,38.95582331093061],[-95.24677032391376,38.95581278579068],[-95.24683830882572,38.955812682445554],[-95.24683833516843,38.95582320758545],[-95.24684771272081,38.95582319324229],[-95.2468476949853,38.95581632908576],[-95.24692211396555,38.95581621625365],[-95.24692210468265,38.95581209833284],[-95.24705339839655,38.95581189935646],[-95.24705344010117,38.95582837294988],[-95.24725722627235,38.95582806460254],[-95.24725722873563,38.955828979405034],[-95.24726501679942,38.9558289678449],[-95.24726491454086,38.95578808492131],[-95.24726785568465,38.95578808085047],[-95.24726841893686,38.95578796264445],[-95.24727604272611,38.95578452252604],[-95.24727645350754,38.95578419972667],[-95.24728085225053,38.955778243420355],[-95.24728100208154,38.95577780447585],[-95.2472809963616,38.95577092708733],[-95.24728084493569,38.955770488200145],[-95.24727643677886,38.95576453458632],[-95.24727602339298,38.95576421294751],[-95.2472683903225,38.95576077829638],[-95.24726782699727,38.95576066128081],[-95.2472648464716,38.95576066892278],[-95.24726467928085,38.95569347497734],[-95.24726762045583,38.955693470006075],[-95.2472681837072,38.95569335180005],[-95.24727580636821,38.955689910753854],[-95.24727621826719,38.95568958888227],[-95.24728061585112,38.95568363254851],[-95.24728076687019,38.955683192730994],[-95.24728076230346,38.95567631536978],[-95.24728061189067,38.95567588011156],[-95.24727620042054,38.95566992281397],[-95.2472757881533,38.95566960210299],[-95.24726815509305,38.95566616745176],[-95.24726759176853,38.95566605043619],[-95.24726461124683,38.955666058078144],[-95.24726452442566,38.95563123986787],[-95.24726746559806,38.955631234896586],[-95.24726802884894,38.95563111669055],[-95.24727565150322,38.95562767564442],[-95.24727606340183,38.95562735377278],[-95.2472804609819,38.955621397438996],[-95.24728061200082,38.95562095762155],[-95.24728060624588,38.95561408113327],[-95.24728045370222,38.955613641318315],[-95.24727604555521,38.955607687704386],[-95.24727563328838,38.955607366993405],[-95.24726800023483,38.95560393234221],[-95.24726743691083,38.95560381532659],[-95.24726445639178,38.95560382296851],[-95.24726426483433,38.95552705922974],[-95.24726720712052,38.955527055186266],[-95.24726776925243,38.95552693605248],[-95.24727539301367,38.95552349593406],[-95.24727580379354,38.95552317313466],[-95.24728020248526,38.955517217728605],[-95.24728035235083,38.95551677788375],[-95.24728034778413,38.955509900522436],[-95.24728019520562,38.955509461607875],[-95.24727578706513,38.95550350799391],[-95.2472753736808,38.9555031863551],[-95.24726774060346,38.95549975260424],[-95.24726717731531,38.95549963468826],[-95.24726419676556,38.95549964323057],[-95.24726417062499,38.955488963085976],[-95.24729581911576,38.95548891510743],[-95.24729582778264,38.95549257519052],[-95.24730637687234,38.95549255978689],[-95.24730636378726,38.955487175554254],[-95.24743998971566,38.95548697294647],[-95.24744001107634,38.9554956720831],[-95.24748572466252,38.95549560288745],[-95.24748570310531,38.955486760451485],[-95.2476404274713,38.95548666826861],[-95.24764042125481,38.95548392298807],[-95.24763978407844,38.95548392408404],[-95.24763972700107,38.955460935169235],[-95.24763862003238,38.95546093682865],[-95.24763683779814,38.95546093958103],[-95.24763683042866,38.95545819427309],[-95.24748563269489,38.95545842424747],[-95.24748561179231,38.955450187450566],[-95.24743989823551,38.95545025664614],[-95.2474399179796,38.9554584934157],[-95.24730629325812,38.95545869605073],[-95.24730626748375,38.955448628748364],[-95.24729571836552,38.9554486450524],[-95.24729573371572,38.95545459350607],[-95.24726408524027,38.95545464148459],[-95.24726406989274,38.95544869303094],[-95.24718670786378,38.9554488100966],[-95.24718672316979,38.955454759450724],[-95.2471271592236,38.95545484934615],[-95.2471271547172,38.95545303867673],[-95.24712715340891,38.95545289444957],[-95.24712714633483,38.95545275008546],[-95.2471271323067,38.95545260645752],[-95.24712711135962,38.955452462665235],[-95.24712708457653,38.95545232053691],[-95.24712705202775,38.955452178271635],[-95.2471270124898,38.95545203764292],[-95.247126967151,38.955451897777635],[-95.24712691485814,38.95545175864848],[-95.24712685669428,38.9554516220836],[-95.24712679272956,38.9554514862822],[-95.24712672289385,38.9554513530451],[-95.24712664606899,38.95545122144448],[-95.24712656452635,38.95545109243557],[-95.24712647714775,38.9554509650905],[-95.2471263838981,38.95545084030971],[-95.2471262847775,38.95545071809319],[-95.24712618090396,38.95545059936875],[-95.24712607234768,38.95545048233558],[-95.24712595785023,38.955450369667425],[-95.24712583751689,38.9554502586632],[-95.24712571354864,38.95545015207879],[-95.24712558482756,38.95545004898639],[-95.2471254513535,38.955449949386086],[-95.24712531316165,38.95544985237744],[-95.24712517129993,38.95544976068903],[-95.24712502587347,38.95544967161962],[-95.24712487562401,38.95544958784306],[-95.24712472177477,38.95544950758592],[-95.24712456432582,38.95544943084824],[-95.2471244043601,38.95544935945813],[-95.24712424075959,38.95544929248784],[-95.24712407471247,38.95544922906444],[-95.24712390499552,38.95544917096116],[-95.24712373395003,38.95544911733247],[-95.24712355926972,38.955449068123635],[-95.24712338437902,38.95544902431716],[-95.2471232058535,38.955448984930506],[-95.24712302715264,38.95544895004581],[-95.2471228459351,38.95544892050874],[-95.247122663389,38.95544889544622],[-95.24712248063257,38.95544887578605],[-95.24712229651254,38.95544886150087],[-95.24712211221718,38.95544885171771],[-95.24712192774648,38.95544884643641],[-95.24712174303032,38.955448847457944],[-95.24712155817389,38.95544885208102],[-95.24712137307199,38.95544886300685],[-95.2471211901011,38.95544887848943],[-95.24712100695483,38.955448898473946],[-95.24712082475133,38.95544892388822],[-95.24712064352566,38.95544895383181],[-95.24712046439595,38.95544898923253],[-95.24712028739721,38.95544902919],[-95.24712011137626,38.955449073676796],[-95.24711993748636,38.955449122720324],[-95.24711976684551,38.95544917724831],[-95.24711959718246,38.95544923630569],[-95.24711943199182,38.95544929907418],[-95.24711926889712,38.95544936729976],[-95.24711910796839,38.95544943918166],[-95.24711895147708,38.95544951567503],[-95.24711879826987,38.955449596752594],[-95.24711864838187,38.95544968151379],[-95.24711850293117,38.9554497708865],[-95.2471183619879,38.95544986306991],[-95.24711822432879,38.9554499598374],[-95.2471180911421,38.955450060316004],[-95.24711796246278,38.95545016360532],[-95.24711783937397,38.95545027153352],[-95.24711772082772,38.95545038137196],[-95.24711760671869,38.955450495821935],[-95.24711749715222,38.95545061218223],[-95.24711739439948,38.95545073140794],[-95.24711729611916,38.955450854344804],[-95.24711720353449,38.955450979219286],[-95.2471171166455,38.95545110603148],[-95.24711703541708,38.955451235681785],[-95.24711695984932,38.95545136817013],[-95.24711689001226,38.95545150169582],[-95.24711682702404,38.955451637186556],[-95.24711676973153,38.95545177461496],[-95.24711671816972,38.95545191308069],[-95.24711667349183,38.95545205261105],[-95.24711663450958,38.95545219407916],[-95.24711660244628,38.95545233571149],[-95.24711657607871,38.95545247928157],[-95.24711655666515,38.95545262211551],[-95.24711654298231,38.95545276598672],[-95.2471165361834,38.95545291092264],[-95.24711653633848,38.95545305512244],[-95.24711654084464,38.955454865791815],[-95.24705844169748,38.955454953481556],[-95.2470584370917,38.955453115772954],[-95.24705843117088,38.95545297143624],[-95.24705841948433,38.95545282696265],[-95.2470583996905,38.95545268319776],[-95.24705837409584,38.955452540196376],[-95.24705834273536,38.955452397058096],[-95.24705830438582,38.95545225555631],[-95.24705826023536,38.95545211481796],[-95.247058210249,38.95545197574358],[-95.24705815327346,38.95545183830563],[-95.24705809049713,38.9554517016312],[-95.24705802069658,38.95545156749363],[-95.2470579462133,38.95545143504739],[-95.24705786470581,38.955451305138],[-95.24705777851554,38.955451176919865],[-95.24705768645427,38.95545105126604],[-95.24705758848698,38.955450929076854],[-95.24705748468365,38.95545080855155],[-95.24705737612749,38.95545069151831],[-95.24705726285342,38.95545057707672],[-95.2470571436733,38.955450466099784],[-95.2470570197403,38.95545035861488],[-95.2470568922426,38.95545025374903],[-95.24705675880372,38.95545015324828],[-95.24705662176514,38.955450056266926],[-95.24705647997362,38.95544996277762],[-95.2470563333941,38.95544987368073],[-95.24705618436798,38.95544978813068],[-95.24705603055394,38.955449706973056],[-95.24705587425817,38.95544963026266],[-95.24705571320953,38.955449557044304],[-95.24705554964412,38.95544948917351],[-95.24705538363219,38.955449424849554],[-95.2470552139503,38.95544936584584],[-95.24705504293995,38.95544931131668],[-95.24705486829475,38.955449261207335],[-95.24705469228601,38.95544921647297],[-95.24705451494874,38.955449176213186],[-95.24705433509477,38.955449141301],[-95.24705415391232,38.95544911086344],[-95.24705397140133,38.9554490849004],[-95.24705378752678,38.95544906431238],[-95.24705360344183,38.9554490491267],[-95.2470534180284,38.955449038415594],[-95.24705323355771,38.95544903313428],[-95.24705304772347,38.95544903322788],[-95.24705286286702,38.95544903785085],[-95.24705267780017,38.95544904787619],[-95.24705249371114,38.95544906243088],[-95.24705230941174,38.95544908238793],[-95.24705212724331,38.95544910690165],[-95.24705194601762,38.95544913684519],[-95.24705176576971,38.95544917131804],[-95.24705158761776,38.95544921124797],[-95.24705141163187,38.955449254834264],[-95.24705123655367,38.955449304750715],[-95.24705106479468,38.95544935835084],[-95.24705089516668,38.95544941650776],[-95.24705072878773,38.95544948014908],[-95.24705056457483,38.9554495474468],[-95.2470504036461,38.95544961932864],[-95.24705024715463,38.95544969582194],[-95.2470500927942,38.95544977687198],[-95.24704994290612,38.95544986163313],[-95.24704979633727,38.955449950077956],[-95.2470496542057,38.95545004313429],[-95.24704951539334,38.95545013987436],[-95.2470493822065,38.95545024035288],[-95.24704925352714,38.955450343642084],[-95.24704912928509,38.95545045154281],[-95.24704900955042,38.95545056225423],[-95.24704889432321,38.95545067577638],[-95.2470487859098,38.95545079216396],[-95.24704868196874,38.95545091226264],[-95.24704858253509,38.95545103517206],[-95.24704848995036,38.95545116004651],[-95.24704840302611,38.95545128775904],[-95.24704832064444,38.955451417381916],[-95.24704824507654,38.955451549870254],[-95.24704817523934,38.95545168339586],[-95.24704811106281,38.95545181975953],[-95.2470480537701,38.95545195718794],[-95.24704800220815,38.95545209565362],[-95.24704795749507,38.95545223608436],[-95.2470479185127,38.955452377552405],[-95.24704788526103,38.95545252005776],[-95.24704785889331,38.9554526636278],[-95.24704783944452,38.955452807362114],[-95.24704782572648,38.95545295213372],[-95.2470478189625,38.95545309616923],[-95.24704781908237,38.955453241269446],[-95.24704782331845,38.955454969920964],[-95.2469881127802,38.95545505986916],[-95.2469881085456,38.95545333121765],[-95.24698810723758,38.955453186990475],[-95.24698810016379,38.95545304262637],[-95.24698808617103,38.95545289809798],[-95.2469880652242,38.95545275430575],[-95.24698803847654,38.95545261127695],[-95.24698800477482,38.95545246898426],[-95.24698796527224,38.95545232745507],[-95.24698791881556,38.95545218666198],[-95.24698786764114,38.95545204846051],[-95.24698780835945,38.955451910967824],[-95.24698774439497,38.95545177516632],[-95.24698767344142,38.955451641001375],[-95.24698759777,38.95545150942806],[-95.2469875151095,38.955451379491265],[-95.24698742657799,38.95545125211871],[-95.24698733332865,38.95545112733781],[-95.24698723420828,38.95545100512118],[-95.24698712918179,38.95545088636926],[-95.24698701947253,38.95545076930855],[-95.24698690501042,38.95545065573989],[-95.24698678464217,38.955450545635905],[-95.24698665952104,38.955450439024006],[-95.24698652968202,38.955450335003654],[-95.24698639620819,38.9554502354032],[-95.24698625798142,38.95545013929476],[-95.24698611500177,38.95545004667836],[-95.24698596838728,38.95544995848181],[-95.24698581701989,38.9554498737773],[-95.24698566317082,38.95544979352001],[-95.24698550568695,38.9554497176825],[-95.24698534456822,38.95544964626482],[-95.2469851798147,38.955449579266954],[-95.24698501257944,38.95544951671633],[-95.2469848428626,38.95544945861289],[-95.24698467066408,38.95544940495659],[-95.2469844959488,38.95544935664798],[-95.24698431990504,38.955449312813876],[-95.24698414137958,38.955449273427035],[-95.24698396149059,38.955449239415124],[-95.24698377908483,38.95544921075084],[-95.24698359650372,38.95544918658848],[-95.24698341259413,38.95544916690074],[-95.24698322847412,38.955449152615365],[-95.24698304414372,38.95544914373231],[-95.2469828584848,38.95544913932385],[-95.2469826726155,38.95544914031775],[-95.246982487724,38.955449145841],[-95.24698230258699,38.955449157667026],[-95.24698211846288,38.95544917312195],[-95.24698193528154,38.95544919400669],[-95.24698175304295,38.95544922032111],[-95.24698157178214,38.95544925116491],[-95.24698139261729,38.9554492874658],[-95.24698121443022,38.95544932829605],[-95.24698103837414,38.955449373683045],[-95.24698086444903,38.95544942362675],[-95.246980693773,38.95544947905493],[-95.24698052522795,38.9554495390399],[-95.24698035884897,38.95544960268117],[-95.24698019571903,38.95544967180691],[-95.2469800359083,38.95544974461645],[-95.2469798793817,38.955449822010024],[-95.24697972613926,38.95544990398775],[-95.24697957736922,38.95544998967656],[-95.24697943191835,38.95545007904911],[-95.24697928975162,38.955450173005744],[-95.24697915321039,38.95545027070087],[-95.24697902114158,38.955450372107094],[-95.24697889242705,38.95545047629661],[-95.24697876930294,38.955450585125035],[-95.24697865187449,38.95545069589117],[-95.2469785377653,38.955450810340984],[-95.24697843043475,38.95545092855666],[-95.24697832764677,38.955451048682676],[-95.24697823051935,38.955451171646786],[-95.2469781390525,38.955451297448946],[-95.24697805209314,38.955451426061856],[-95.24697797198255,38.95545155663981],[-95.24697789756767,38.955451689155474],[-95.24697783000163,38.95545182363622],[-95.24697776697806,38.95545196002727],[-95.24697771083842,38.95545209748299],[-95.24697766154762,38.9554522369038],[-95.24697761795244,38.95545237826231],[-95.24697758012307,38.955452519757685],[-95.24697754917764,38.95545266231779],[-95.24697752396293,38.9554528059152],[-95.24697750682033,38.955452949704245],[-95.2469774942553,38.955453094503255],[-95.24697748864432,38.95545323856612],[-95.24697749042087,38.955453785652345],[-95.24684738167228,38.95545398292489],[-95.24684735017942,38.95544154526125],[-95.2468368010972,38.95544156062316],[-95.24683682572592,38.95545159635708],[-95.24681472329142,38.95545162936588],[-95.24681472219669,38.95545121297355],[-95.24679068974837,38.95545124971434],[-95.24679069084294,38.95545166610668],[-95.24677001396503,38.9554516969099],[-95.2467699881576,38.955441662048955],[-95.24675943904028,38.955441678304204],[-95.24675946793737,38.955453085805495],[-95.2467609327365,38.95545308363953],[-95.2467610098329,38.95548423363664],[-95.24675954503306,38.95548423580257],[-95.24675954577678,38.95548466119882],[-95.24663778830062,38.95548484566656],[-95.24663782979879,38.95550135170209],[-95.2464699189272,38.9555016052258],[-95.24646987746824,38.95548509919022],[-95.24634284488715,38.95548529054828],[-95.24634319503576,38.955626724644105],[-95.24632209674571,38.95562675707599],[-95.24632214476087,38.955646204869424],[-95.24623687090657,38.95564633436969],[-95.24623623345943,38.95538903183479],[-95.24623271749729,38.95538903664601],[-95.24623336413934,38.955650458002225],[-95.24626940826609,38.95565040385322],[-95.24626971657574,38.955775102092765],[-95.24630898356251,38.95577504336551],[-95.24630905198897,38.95580249993707],[-95.24634363023361,38.95580244789787],[-95.24634365832252,38.955813430002664],[-95.24635537908205,38.95581341277145],[-95.24635535217949,38.955802429793614],[-95.24640868552343,38.955802349125925],[-95.24640870903387,38.95581173054455],[-95.24641925820649,38.9558117143212],[-95.24641925056821,38.95580874009439],[-95.24647727267457,38.95580865269074],[-95.24647731796311,38.95582695676245]]]},"properties":{"SDE.FloorAll.FLOORLOCATION":"1"}},{"type":"Feature","geometry":{"type":"Polygon","coordinates":[[[-95.24676097269396,38.95582332526757],[-95.24677035024634,38.95582331093061],[-95.2467703232443,38.955812328853284],[-95.24683830815583,38.955812225508154],[-95.24683833513336,38.95582320848588],[-95.24684771268575,38.95582319414265],[-95.24684769610337,38.95581633001357],[-95.24692036977682,38.95581621989865],[-95.24692026368679,38.95577366240159],[-95.24726487789378,38.95577313992786],[-95.2472641590031,38.955483897020656],[-95.24634284600522,38.95548529147608],[-95.24634319615384,38.95562672557188],[-95.24634356294688,38.95577499135374],[-95.24641916734346,38.95577487725885],[-95.24647660305241,38.955774790349096],[-95.24647670119968,38.955814374520145],[-95.24676095025487,38.95581394477676],[-95.24676097269396,38.95582332526757]]]},"properties":{"SDE.FloorAll.FLOORLOCATION":"2"}},{"type":"Feature","geometry":{"type":"Polygon","coordinates":[[[-95.24676101496479,38.95584025669885],[-95.24684775497732,38.955840125573914],[-95.24684769610337,38.95581633001357],[-95.24726498419128,38.95581569742457],[-95.2472642602989,38.9555246564545],[-95.24684074648152,38.955525298877994],[-95.24684064431177,38.95548453851597],[-95.24683610328546,38.95548454604107],[-95.2468362043345,38.9555253054753],[-95.24677349368717,38.955525400677594],[-95.24677339270934,38.95548464034288],[-95.24676892324916,38.95548464776234],[-95.24676902541265,38.955525407224],[-95.24634294676994,38.955526050910706],[-95.24634365828744,38.955813430903056],[-95.24676094636276,38.95581280012764],[-95.24676101496479,38.95584025669885]]]},"properties":{"SDE.FloorAll.FLOORLOCATION":"3"}},{"type":"Feature","geometry":{"type":"Polygon","coordinates":[[[-95.24634299934274,38.95554710029087],[-95.24634372676253,38.95584088657412],[-95.24726504320566,38.95583949298476],[-95.24726431195776,38.95554570670724],[-95.24683625590099,38.95554635482782],[-95.24683626661434,38.95555070259539],[-95.24677355713271,38.955550796924676],[-95.24677354638816,38.95554645005751],[-95.24634299934274,38.95554710029087]]]},"properties":{"SDE.FloorAll.FLOORLOCATION":"4"}},{"type":"Feature","geometry":{"type":"Polygon","coordinates":[[[-95.2468422680897,38.95551888944343],[-95.24676490598323,38.955519006227746],[-95.24634293090337,38.955519643718766],[-95.2463432946122,38.95566653686161],[-95.24634365832252,38.955813430002664],[-95.24726497440788,38.95581203641379],[-95.24726424316061,38.9555182501357],[-95.2468422680897,38.95551888944343]]]},"properties":{"SDE.FloorAll.FLOORLOCATION":"ROOF"}}]}
