{"type":"FeatureCollection","features":[{"type":"Feature","geometry":{"type":"Polygon","coordinates":[[[-95.24193406722667,38.95856594949293],[-95.24201758482361,38.95860920692032],[-95.24207655365582,38.95853980467938],[-95.2420892514987,38.95854638195559],[-95.24207791164733,38.95855972886302],[-95.242090121876,38.95856605301175],[-95.24209207584268,38.95856706470304],[-95.24214650769775,38.95850300152777],[-95.24213429747493,38.958496677384964],[-95.24215406256685,38.95847341550007],[-95.24213940961315,38.95846582651302],[-95.24215155999424,38.95845152645508],[-95.24219837820618,38.95839642420933],[-95.2421148607851,38.958353166011],[-95.24205459638651,38.958424093870036],[-95.24203122711492,38.95841198877203],[-95.24197096258233,38.95848291658726],[-95.24199433186706,38.958495021697345],[-95.24193406722667,38.95856594949293]]]},"properties":{"SDE.FloorAll.FLOORLOCATION":"-1"}},{"type":"Feature","geometry":{"type":"Polygon","coordinates":[[[-95.24193406722667,38.95856594949293],[-95.24201758482361,38.95860920692032],[-95.24207655365582,38.95853980467938],[-95.24209120542974,38.95854739454729],[-95.24215406256685,38.95847341550007],[-95.24213940961315,38.95846582651302],[-95.24219837820618,38.95839642420933],[-95.24218012398974,38.95838696964705],[-95.24218077246205,38.95838620641109],[-95.24217686453612,38.95838418303145],[-95.24217621725215,38.958384945394464],[-95.2421370839862,38.95836467605921],[-95.24213773127045,38.958363913696445],[-95.24213382450017,38.958361890342765],[-95.24213317606275,38.95836265267805],[-95.2421148607851,38.958353166011],[-95.2420520049022,38.95842714416471],[-95.24205371444434,38.95842803017958],[-95.24203812205104,38.95844638138114],[-95.24203641247352,38.95844549626645],[-95.24193406722667,38.95856594949293]]]},"properties":{"SDE.FloorAll.FLOORLOCATION":"1"}},{"type":"Feature","geometry":{"type":"Polygon","coordinates":[[[-95.2419340672618,38.958565948592515],[-95.24201734043798,38.95860908034276],[-95.24207655365582,38.95853980467938],[-95.24209120546487,38.9585473936469],[-95.24215406256685,38.95847341550007],[-95.24213940961315,38.95846582651302],[-95.24219837820618,38.95839642420933],[-95.24211797443897,38.95835477846656],[-95.2421148607851,38.958353166011],[-95.2419340672618,38.958565948592515]]]},"properties":{"SDE.FloorAll.FLOORLOCATION":"2"}},{"type":"Feature","geometry":{"type":"Polygon","coordinates":[[[-95.24193406722667,38.95856594949293],[-95.24201758482361,38.95860920692032],[-95.24207655365582,38.95853980467938],[-95.24209120542974,38.95854739454729],[-95.24215406256685,38.95847341550007],[-95.24213940961315,38.95846582651302],[-95.24219837820618,38.95839642420933],[-95.2421148607851,38.958353166011],[-95.24193406722667,38.95856594949293]]]},"properties":{"SDE.FloorAll.FLOORLOCATION":"3"}},{"type":"Feature","geometry":{"type":"Polygon","coordinates":[[[-95.24201097204427,38.95862192455308],[-95.24205889381614,38.958565524706806],[-95.24206020966844,38.95856620579075],[-95.2420618417273,38.958564285343925],[-95.24206052591009,38.95856360335954],[-95.2420736720365,38.95854813106607],[-95.24208816050226,38.958555587273125],[-95.24215482984319,38.958477121570965],[-95.24214041337719,38.958469654467315],[-95.24214039825722,38.9584695982316],[-95.24215354438378,38.95845412502851],[-95.24215486019985,38.95845480701178],[-95.24215649225353,38.958452886563634],[-95.24215517643746,38.95845220458037],[-95.24220309797926,38.958395804673636],[-95.2421261461383,38.95835594706388],[-95.24212717690625,38.95835473419689],[-95.24212434837963,38.95835326911498],[-95.24212331876485,38.95835448200934],[-95.24211369948976,38.95834950013509],[-95.24204970517916,38.95842481746915],[-95.24204904094044,38.9584256001564],[-95.242025079925,38.9584131889841],[-95.24196227230689,38.958487109660666],[-95.24198623333639,38.95849952084586],[-95.24198556794308,38.9585003035053],[-95.24192157454783,38.95857561989474],[-95.24193119268698,38.958580601757404],[-95.24193016191236,38.95858181462266],[-95.2419329904441,38.95858327970927],[-95.24193402006547,38.9585820668166],[-95.24201097204427,38.95862192455308]]]},"properties":{"SDE.FloorAll.FLOORLOCATION":"ROOF"}}]}
