{"type":"FeatureCollection","features":[{"type":"Feature","geometry":{"type":"Polygon","coordinates":[[[-95.24371105885182,38.95884890456258],[-95.24376515595358,38.95884892342107],[-95.24376515510752,38.95884782029976],[-95.2437716087375,38.9588478196024],[-95.24377160780901,38.95884278172445],[-95.24381757488264,38.95884278123231],[-95.24381757466116,38.95884781908288],[-95.24382402825599,38.958847819283015],[-95.2438240273238,38.95884278140504],[-95.24386007446796,38.958842781210215],[-95.24386007439819,38.95884757843687],[-95.2438605372588,38.95884757862465],[-95.24386053680446,38.95884892234244],[-95.24387626159076,38.95884892302273],[-95.24387626225196,38.95883990716929],[-95.24391755794382,38.95883990644692],[-95.2439175579814,38.95884721719649],[-95.24398795089029,38.95884721595022],[-95.24398795084542,38.95883990520067],[-95.24401846319589,38.95883990497574],[-95.24403019581545,38.958830745307814],[-95.24403019314897,38.95869330641801],[-95.2440184603524,38.95868414685234],[-95.24396270738777,38.958684147329144],[-95.24389644700418,38.95868414765335],[-95.24389644558157,38.9586342458106],[-95.24382636572108,38.958634246326746],[-95.2438263658136,38.95865058376216],[-95.24371171221414,38.95865058447827],[-95.24371168752592,38.958752745123576],[-95.24371105727438,38.958752745462085],[-95.24371105885182,38.95884890456258]]]},"properties":{"SDE.FloorAll.FLOORLOCATION":"1"}},{"type":"Feature","geometry":{"type":"Polygon","coordinates":[[[-95.24372044483783,38.95884569491409],[-95.24376236498428,38.958845694671794],[-95.24376236481541,38.95884356777329],[-95.24376345331541,38.958843567513036],[-95.24376389426494,38.958843567180395],[-95.2437638938753,38.95883807149219],[-95.24382119370892,38.958838070928444],[-95.24382119292505,38.958775396017835],[-95.24381507754454,38.95877539574609],[-95.24381507796302,38.958773105739624],[-95.24381463816718,38.95877310609985],[-95.24380495836179,38.958773105812455],[-95.2438045185659,38.95877310617264],[-95.2438045181471,38.95877539617912],[-95.24380431846558,38.95877539593861],[-95.24380431755277,38.95875822124433],[-95.24372044273214,38.95875822182212],[-95.24372044319314,38.95875856520035],[-95.24372044483783,38.95884569491409]]]},"properties":{"SDE.FloorAll.FLOORLOCATION":"1.5"}},{"type":"Feature","geometry":{"type":"Polygon","coordinates":[[[-95.24354535140563,38.95850484505652],[-95.24354535153981,38.9585554543379],[-95.24361017126209,38.958555454214995],[-95.24361017108144,38.9585048449336],[-95.24354535140563,38.95850484505652]]]},"properties":{"SDE.FloorAll.FLOORLOCATION":"10"}},{"type":"Feature","geometry":{"type":"Polygon","coordinates":[[[-95.24354535140563,38.95850484505652],[-95.24354535153981,38.9585554543379],[-95.24361017126209,38.958555454214995],[-95.24361017108144,38.9585048449336],[-95.24354535140563,38.95850484505652]]]},"properties":{"SDE.FloorAll.FLOORLOCATION":"11"}},{"type":"Feature","geometry":{"type":"Polygon","coordinates":[[[-95.2439173857714,38.95884680845237],[-95.24398771864249,38.95884680758161],[-95.24398771807444,38.95884007270327],[-95.24401746629441,38.95884007234002],[-95.24402991803034,38.9588303502765],[-95.24402991537812,38.95869302944768],[-95.24401819267965,38.958683877331794],[-95.24389672759942,38.958683878547916],[-95.24389672650608,38.95863408666265],[-95.24382991671398,38.95863408740641],[-95.24382991557292,38.958575624818884],[-95.24395726151799,38.958575623775126],[-95.24402614592975,38.95852096422408],[-95.24402614402928,38.95842344066664],[-95.24395949645992,38.95837056046781],[-95.24395725720771,38.958368783194615],[-95.24382287976542,38.958368784710856],[-95.24382288089869,38.95844275830816],[-95.24382053655525,38.95844275845646],[-95.24382053677678,38.95845053784864],[-95.24382288112048,38.958450537700344],[-95.24382288068469,38.958462300497935],[-95.24382411808324,38.95846230017183],[-95.24382405359691,38.95846350988729],[-95.2437528415544,38.95846351047856],[-95.24375284267391,38.95848044274848],[-95.243752842862,38.95848227314397],[-95.24375284260648,38.958493942218496],[-95.2437730632777,38.95849394164243],[-95.2437730642271,38.95861667068703],[-95.24374612446266,38.95861667105655],[-95.2437461255629,38.958656336763866],[-95.2436065613822,38.95865633821255],[-95.2436065627572,38.95875338682299],[-95.2436592211667,38.95875338595028],[-95.24365922202797,38.958755909404964],[-95.24366742665462,38.95875590978393],[-95.24366742694626,38.9587533863567],[-95.24371167755312,38.95875338565853],[-95.24371167841628,38.958755909113215],[-95.24371988318339,38.95875590588693],[-95.24371988378371,38.958753404096484],[-95.24376413439059,38.95875340337835],[-95.2437641348046,38.95875590879775],[-95.24377233946636,38.958755908268905],[-95.24377233936805,38.958753394745955],[-95.24381659804743,38.958753394199704],[-95.24381659814736,38.958755907722654],[-95.2438248039272,38.958755908117894],[-95.24382480392413,38.95875075760868],[-95.24387022724764,38.95875075768995],[-95.24387022728914,38.95875590729882],[-95.24387249776709,38.95875590719594],[-95.24387249985752,38.95883719877101],[-95.24389628617332,38.95883719911446],[-95.24389628516063,38.95883950442756],[-95.24391738548806,38.95883950400552],[-95.2439173857714,38.95884680845237]]]},"properties":{"SDE.FloorAll.FLOORLOCATION":"2"}},{"type":"Feature","geometry":{"type":"Polygon","coordinates":[[[-95.24360661828057,38.95884413354167],[-95.2435957980005,38.958844134062645],[-95.2435957974254,38.95884986134345],[-95.24387733782933,38.95884985884421],[-95.24387733684365,38.958837599437715],[-95.24389630290979,38.95883759875558],[-95.243896302945,38.9588399067973],[-95.24391742060588,38.95883990588606],[-95.2439174206435,38.958847216635625],[-95.24398781351724,38.95884721628982],[-95.24398781347237,38.958839905540245],[-95.2440183165971,38.95883990509609],[-95.24403004921673,38.95883074542819],[-95.24403004655053,38.95869330653839],[-95.24401831378907,38.958684146072294],[-95.24389610649047,38.95868414767023],[-95.24389610589854,38.958671049231135],[-95.24389610550693,38.958670319228446],[-95.2438949327899,38.95867031838923],[-95.24389493166588,38.958639561306704],[-95.24389585853754,38.95863956170945],[-95.24389585878042,38.95863322068602],[-95.24382985120853,38.958633221573145],[-95.24382984980731,38.958575801698416],[-95.2439573042599,38.95857580053026],[-95.24402628944374,38.958521013597846],[-95.24402624609775,38.95842348725286],[-95.2439573010998,38.95836878243544],[-95.24382984702045,38.95836878360363],[-95.24382984582934,38.95828800304103],[-95.24356528820627,38.958288005362526],[-95.2435652892361,38.958395420778125],[-95.24354364538873,38.95839542082873],[-95.24352751405415,38.95840824480331],[-95.24352751368774,38.958444067649296],[-95.24355264577649,38.95844406761625],[-95.24355264533456,38.95845505986603],[-95.24355733863509,38.95845505968992],[-95.24356232451102,38.95845895255809],[-95.24356232463505,38.95846072527369],[-95.24356789748866,38.95846072527892],[-95.24356789782578,38.95848368493446],[-95.2435623249704,38.95848368492921],[-95.24356232539016,38.95848574604433],[-95.24355733830589,38.95848963884366],[-95.24355264615625,38.95848963904719],[-95.24355264571439,38.95850063129693],[-95.24354208751117,38.95850063173353],[-95.24354208778252,38.958557423432374],[-95.24356525878126,38.95855742363739],[-95.2435652603901,38.95865703984984],[-95.24360632281568,38.95865703910273],[-95.24360632195688,38.958670321358795],[-95.24359664331882,38.95867032108138],[-95.24359664437543,38.95872161801896],[-95.24360749580859,38.95872161733773],[-95.24360749712184,38.95875482305994],[-95.24360661641226,38.95875482285112],[-95.24360661828057,38.95884413354167]]]},"properties":{"SDE.FloorAll.FLOORLOCATION":"3"}},{"type":"Feature","geometry":{"type":"Polygon","coordinates":[[[-95.24359869856195,38.95884449321254],[-95.24359578975633,38.95884449345604],[-95.24359579030389,38.95884850482828],[-95.24387709848482,38.95884850762379],[-95.2438770983443,38.95883717379692],[-95.24389603785129,38.95883717338479],[-95.24389603799183,38.9588394787253],[-95.24391713713095,38.9588394791763],[-95.2439171378468,38.958839964053105],[-95.24391713741424,38.95884678362312],[-95.24398747947586,38.95884678387217],[-95.24398748040338,38.958839507392284],[-95.24401791772443,38.95883950718657],[-95.24402967058066,38.95883033177761],[-95.24402967156405,38.95869300652911],[-95.24401794886566,38.95868385441321],[-95.24389604877852,38.95868385159736],[-95.24389604878614,38.958670145745884],[-95.24389560187095,38.95863930596863],[-95.24389560193828,38.95863296944715],[-95.24382964863783,38.95863296982176],[-95.24382964880044,38.958575598650455],[-95.24395699467526,38.95857559940772],[-95.24402592257417,38.95852086068137],[-95.24402592361534,38.95842349851339],[-95.24395699613181,38.95836875896432],[-95.24382965178275,38.95836875823439],[-95.24382965250122,38.958288047111594],[-95.24356532129251,38.958288044901856],[-95.24356531898476,38.958395368313],[-95.24354357819776,38.95839536786143],[-95.24352778586027,38.95840769791203],[-95.24352778527326,38.95843085851954],[-95.2435426980987,38.95844250181565],[-95.24356089989749,38.9584425019473],[-95.24356089950098,38.95850839782076],[-95.24354213439227,38.95850839781604],[-95.24354213314216,38.958557237055594],[-95.24356531686125,38.958557236661754],[-95.24356531563697,38.95865630395998],[-95.24360016568166,38.958656304228406],[-95.24360016587902,38.95866991455602],[-95.24359635676748,38.958669914124606],[-95.24359635565503,38.95872253941852],[-95.24359870000775,38.95872253927482],[-95.24359869856195,38.95884449321254]]]},"properties":{"SDE.FloorAll.FLOORLOCATION":"4"}},{"type":"Feature","geometry":{"type":"Polygon","coordinates":[[[-95.24359704620409,38.95884394563935],[-95.24359541404816,38.95884394559087],[-95.24359541436326,38.95884864369219],[-95.24387632548762,38.95884864606261],[-95.24387632662352,38.95875362528094],[-95.2438880483571,38.95875362543395],[-95.24388804830576,38.95875448520277],[-95.24389625412054,38.95875448469251],[-95.24389625574723,38.958633904239456],[-95.24382927286823,38.95863390357217],[-95.24382368382089,38.95863390409613],[-95.2438236837896,38.958651872748504],[-95.24362313100427,38.958651870904376],[-95.2436231312558,38.958600954315656],[-95.24364074327778,38.958600953931516],[-95.24364074449561,38.95855267615711],[-95.24363901421822,38.95855267648017],[-95.24363901503385,38.958500916356684],[-95.24363991995763,38.95850091714097],[-95.24363992092569,38.95849908677288],[-95.24369725623406,38.95849908712031],[-95.24369725694295,38.9584996017375],[-95.24369813534291,38.95849960189078],[-95.24369813540405,38.95854684148198],[-95.24369725585031,38.95854684130127],[-95.24369725622364,38.95855050209217],[-95.24369813577742,38.95855050227291],[-95.24369813489247,38.95858145667856],[-95.24376201962485,38.95858145767532],[-95.2437620204819,38.95855050326971],[-95.24376319323203,38.95855050320986],[-95.24382605244618,38.95849960285608],[-95.24382605321938,38.958495942092554],[-95.2438248805053,38.95849594125261],[-95.24382488067542,38.95844869355771],[-95.24382605342387,38.95844869349728],[-95.24382605304386,38.95844503270631],[-95.24376319445487,38.95839412241848],[-95.24376202250946,38.95839413150967],[-95.24376202228346,38.95836317527537],[-95.24369813767808,38.958363176079345],[-95.24369813710909,38.95839412238196],[-95.24369725871044,38.958394122228626],[-95.24369725793058,38.95839778299223],[-95.24369813748245,38.95839778317294],[-95.24369813719248,38.95844503176842],[-95.24363992122223,38.958445031212854],[-95.2436399217455,38.95844371543461],[-95.24363901563413,38.958443715523295],[-95.24363901684627,38.95839434275786],[-95.24357139010736,38.95839434195076],[-95.2435649434732,38.95839434190103],[-95.24356494304648,38.958395507176846],[-95.24354547618542,38.95839550671098],[-95.2435296505401,38.95840786210553],[-95.24352965069322,38.95843005661575],[-95.2435451824442,38.958442641086535],[-95.24355543937043,38.95844264069729],[-95.24355543933558,38.95845726309729],[-95.24356393712351,38.95845726324405],[-95.24356393674344,38.95848838078533],[-95.24355543895179,38.95848838063857],[-95.24355543867304,38.958505998709775],[-95.24354459538056,38.95850599867766],[-95.24354459424465,38.95855610774811],[-95.24356494073893,38.958556107495454],[-95.24356493952173,38.95865644732577],[-95.24360085845903,38.95865644686951],[-95.24360085841553,38.95866890902882],[-95.24359704926896,38.95866890949787],[-95.24359704620409,38.95884394563935]]]},"properties":{"SDE.FloorAll.FLOORLOCATION":"5"}},{"type":"Feature","geometry":{"type":"Polygon","coordinates":[[[-95.24359992904789,38.95884449272433],[-95.2435981710862,38.95884449238882],[-95.24359817044555,38.958848504634034],[-95.24387832897081,38.95884850713265],[-95.24387832989632,38.958752514823935],[-95.24388917322665,38.95875251482487],[-95.24388917372615,38.95875457413913],[-95.24389649994953,38.95875457435003],[-95.24389650126786,38.95863376497815],[-95.24382935449252,38.95863376401994],[-95.24382935465606,38.95862023210856],[-95.24383609566061,38.95862023193075],[-95.2438360954374,38.95861245253871],[-95.24382935558677,38.9586124527439],[-95.24382935503188,38.95859002931519],[-95.24383609599849,38.95859003003776],[-95.24383609577524,38.95858225064566],[-95.24382935596257,38.95858224995049],[-95.24382935761513,38.95836259676608],[-95.24383609859515,38.9583625965883],[-95.24383609837191,38.95835481719606],[-95.24382935854587,38.95835481740126],[-95.243829358914,38.95833308072855],[-95.24383609873797,38.95833308052336],[-95.24383609893985,38.95832392857326],[-95.24382935796358,38.95832392875107],[-95.24382935934112,38.95828804645147],[-95.24378247040895,38.958288045753896],[-95.24378247130305,38.95828278351363],[-95.24377192123995,38.95828278326265],[-95.24377192077188,38.95828800495786],[-95.2437437876292,38.95828800489329],[-95.24374378809937,38.95828278319807],[-95.24373323803628,38.95828278294361],[-95.2437332382566,38.95828804611169],[-95.24366056167327,38.958288045172374],[-95.24366056142328,38.95828278290468],[-95.24365001251338,38.958282782670054],[-95.2436500116094,38.95828804491031],[-95.24362246482204,38.95828804523716],[-95.24362246576315,38.958282782096504],[-95.24361191570007,38.95828278183099],[-95.24361191591133,38.958288044999094],[-95.24356502697923,38.95828804421362],[-95.24356502642307,38.95832461236936],[-95.24355857979528,38.9583246123193],[-95.24355857944832,38.9583328495218],[-95.24356502607694,38.958332849571896],[-95.24356502624114,38.95835504408226],[-95.24355857961055,38.9583550440322],[-95.24355857926362,38.958363281234696],[-95.24356502593012,38.95836328038439],[-95.24356502628778,38.95839325428694],[-95.24354216468338,38.95839325422624],[-95.24352517111711,38.95840652183379],[-95.24352517070054,38.95843100995215],[-95.24354216365464,38.95844427804472],[-95.24356502527553,38.95844427810539],[-95.24356502344992,38.958505859773325],[-95.24354467815844,38.95850585915301],[-95.24354467732942,38.95855619714231],[-95.24356502382368,38.95855619688965],[-95.24356502342125,38.95858293446916],[-95.24355857561665,38.95858293439165],[-95.24355857526977,38.95859117159399],[-95.24356502307508,38.95859117167149],[-95.24356502262567,38.95861290834373],[-95.24355857481838,38.95861290826626],[-95.24355857565976,38.95862114459562],[-95.24356502231464,38.958621144645676],[-95.243565021616,38.95865641412956],[-95.24360198285179,38.95865641411873],[-95.24360198303594,38.95865824451421],[-95.24360081143728,38.9586582445998],[-95.24360081115668,38.95866991367416],[-95.2435987600025,38.95866991357829],[-95.24359875847526,38.95872139520586],[-95.24359993122825,38.95872139514767],[-95.24359992904789,38.95884449272433]]]},"properties":{"SDE.FloorAll.FLOORLOCATION":"6"}},{"type":"Feature","geometry":{"type":"Polygon","coordinates":[[[-95.24360833140838,38.958847888222074],[-95.24387812464933,38.958847885836946],[-95.24387812307162,38.95875124728938],[-95.24388926767142,38.95875124724183],[-95.24388926817896,38.958754224004785],[-95.2438974808779,38.95875422455937],[-95.24389747900507,38.95863308255911],[-95.2438339577685,38.95863308306889],[-95.24383395702321,38.95854332179708],[-95.24382721025992,38.95854332183768],[-95.24382720866485,38.95840408951999],[-95.24383395426166,38.95840408945194],[-95.24383395281808,38.95828406407535],[-95.2435617689207,38.95828406624976],[-95.24356177135661,38.95850507319481],[-95.24354340099754,38.95850507356252],[-95.24354340132436,38.95855632902794],[-95.24356177169669,38.95855632866024],[-95.24356177294776,38.95865690106574],[-95.24359831056877,38.95865690089883],[-95.24359831020841,38.958668808796325],[-95.24359713745636,38.958668808854476],[-95.24359713759253,38.95871941903557],[-95.24359831034545,38.95871941897742],[-95.2435983118941,38.95884330882093],[-95.2436083322587,38.958843308209204],[-95.24360833140838,38.958847888222074]]]},"properties":{"SDE.FloorAll.FLOORLOCATION":"7"}},{"type":"Feature","geometry":{"type":"MultiPolygon","coordinates":[[[[-95.24360833140838,38.958847888222074],[-95.2438781234961,38.95884788580954],[-95.24387812018577,38.95867160403812],[-95.24359830961876,38.958671606189455],[-95.24359831134404,38.9588443884772],[-95.2436083317088,38.95884438786547],[-95.24360833140838,38.958847888222074]]],[[[-95.2435453502875,38.95850484412868],[-95.24354535042174,38.958555453410135],[-95.24361017129719,38.95855545331459],[-95.24361016996336,38.958504844005816],[-95.2435453502875,38.95850484412868]]]]},"properties":{"SDE.FloorAll.FLOORLOCATION":"8"}},{"type":"Feature","geometry":{"type":"Polygon","coordinates":[[[-95.24354535140563,38.95850484505652],[-95.24354535153981,38.9585554543379],[-95.24361017126209,38.958555454214995],[-95.24361017108144,38.9585048449336],[-95.24354535140563,38.95850484505652]]]},"properties":{"SDE.FloorAll.FLOORLOCATION":"9"}},{"type":"Feature","geometry":{"type":"Polygon","coordinates":[[[-95.24358495893696,38.958858320342664],[-95.2438908605605,38.958858317459544],[-95.24389085830106,38.95876033426642],[-95.24389846388361,38.958760333907875],[-95.24389846414786,38.958753873923136],[-95.24390081772731,38.958753873992606],[-95.243900817585,38.95876216617359],[-95.24389320508295,38.958762166367784],[-95.24389320596029,38.95883603000523],[-95.24389320608182,38.958837862201456],[-95.24391154304895,38.95883786188373],[-95.24391154308591,38.95884517263329],[-95.24398664315778,38.95884517152617],[-95.24398664311306,38.958837860776605],[-95.24401576569268,38.95883786086345],[-95.24402887223476,38.95882762714691],[-95.24402886987852,38.95868867059916],[-95.24401576260568,38.95867843834759],[-95.24396139133997,38.95867843832043],[-95.24396139056509,38.95866744604346],[-95.24392852583058,38.95866744711232],[-95.24392852663546,38.95867843848893],[-95.24391374025627,38.958678439392806],[-95.24391373950064,38.95862363579566],[-95.24383724762707,38.95862363620969],[-95.2438372478824,38.95857434363462],[-95.24395511372799,38.95857434254817],[-95.24402619004968,38.95851853015902],[-95.24402618855848,38.958467917248484],[-95.24402618807918,38.95841828489617],[-95.24395567614316,38.95836149344349],[-95.24383730970402,38.95836149433839],[-95.2438373083228,38.95828151766544],[-95.24355842270704,38.95828152004149],[-95.24355842385577,38.9583884289709],[-95.24354032596491,38.95838842860515],[-95.24351921005193,38.95840410451973],[-95.24351921011886,38.95843328623761],[-95.24354012721138,38.958448814170666],[-95.24355842483344,38.95844881387703],[-95.24355842563428,38.95848839576621],[-95.24356176611171,38.95848839587285],[-95.24356554638322,38.95848839562002],[-95.24356554730551,38.95850032968387],[-95.24355857545984,38.958500329765165],[-95.24355857569094,38.95850171495587],[-95.24353380142776,38.9585017144852],[-95.24353380224282,38.95852093225968],[-95.24353187343856,38.958520932367556],[-95.24353187324513,38.95853076384347],[-95.24353187391105,38.95854048448891],[-95.24353364685696,38.958540485181835],[-95.24353364743907,38.95855982731994],[-95.24355836518016,38.95855982734764],[-95.24355836535398,38.95856133240007],[-95.24355836696594,38.95865937957747],[-95.24358495700744,38.95865937904822],[-95.2435849571761,38.95866899423805],[-95.24358495714533,38.958670474952534],[-95.24358495893696,38.958858320342664]]]},"properties":{"SDE.FloorAll.FLOORLOCATION":"ROOF"}}]}
