{"type":"FeatureCollection","features":[{"type":"Feature","geometry":{"type":"Polygon","coordinates":[[[-95.25253710017867,38.95788603803431],[-95.25252654934015,38.95788597096807],[-95.25252647366649,38.957893292520176],[-95.25275790535744,38.95789476770406],[-95.25276089031367,38.95760922708292],[-95.25304682101363,38.957611048532875],[-95.25304643854832,38.95764764988376],[-95.253042893541,38.957647627179185],[-95.25304287436519,38.95764945711033],[-95.25304641937261,38.957649479814876],[-95.253046399917,38.95765131694912],[-95.25305343339028,38.957651361919545],[-95.25305618679357,38.95738778676165],[-95.25288270803148,38.95738668128262],[-95.2528830332156,38.95735556522288],[-95.25279629387472,38.957355012386316],[-95.25279618376982,38.95736553697316],[-95.25267246080672,38.9573647485155],[-95.25266921204448,38.95735805474987],[-95.25266568633614,38.95735144814903],[-95.25266188458991,38.95734493504321],[-95.25265781348011,38.95733852189899],[-95.25265347503323,38.95733221597416],[-95.25264887588845,38.957326024635826],[-95.2526440192604,38.95731995426869],[-95.25263891185833,38.957314010439035],[-95.25263355805006,38.9573081995589],[-95.25262796332166,38.957302528968036],[-95.25261851840149,38.95730447981827],[-95.25260916530247,38.95730668158134],[-95.25259991335504,38.95730913177467],[-95.25259077531415,38.95731182889809],[-95.2525817605453,38.95731476956862],[-95.25257288075535,38.957317949557584],[-95.25256414530972,38.95732136548204],[-95.2525555659154,38.95732501311335],[-95.25254715081954,38.957328888140815],[-95.25253891172913,38.95733298633576],[-95.25253085689134,38.95733730338762],[-95.25252299577681,38.95734183321219],[-95.25251533897416,38.95734657065309],[-95.25250789480081,38.95735150959896],[-95.25250067265718,38.95735664576635],[-95.25249367974243,38.95736197211626],[-95.252486924339,38.957367483437565],[-95.25248041486917,38.95737317091761],[-95.25247415958036,38.95737903024589],[-95.25246816570672,38.957385053482724],[-95.25246243929425,38.957391233561694],[-95.25245698754217,38.957397563443614],[-95.2524518176497,38.9574040360894],[-95.25244693457961,38.95741064260436],[-95.25244234437797,38.95741737592204],[-95.25243805312583,38.95742422807564],[-95.25243406456278,38.95743119194391],[-95.25243038483994,38.95743825775924],[-95.25242701769689,38.95744541840048],[-95.25242396694341,38.95745266494562],[-95.252430720978,38.95745894791306],[-95.25243775353982,38.957465043717214],[-95.25244505344703,38.95747094308078],[-95.25245261402534,38.957476639537084],[-95.25246042514105,38.95748212653731],[-95.25246847669536,38.957487396632274],[-95.25247675970773,38.957492443300616],[-95.25248526400925,38.95749726089391],[-95.25249397827804,38.95750184373652],[-95.25250289353333,38.95750618530702],[-95.25251199726505,38.95751028080281],[-95.25252127811605,38.95751412544852],[-95.25253072707079,38.957517713623254],[-95.25254032924254,38.95752104227042],[-95.252539958426,38.957556565137125],[-95.25252999503408,38.957556501175674],[-95.25252993739703,38.957561992769605],[-95.25254048818721,38.95756205983549],[-95.25253964657051,38.957642596691805],[-95.25252909576831,38.95764252962586],[-95.2525290381661,38.95764802031931],[-95.25253958893416,38.95764808828572],[-95.2525387461622,38.95772862511412],[-95.25252819538214,38.957728557147675],[-95.25252813889799,38.95773404876885],[-95.25253868971387,38.95773411583489],[-95.25253800059102,38.95780000961313],[-95.2525274497653,38.957799942547034],[-95.25252739212785,38.957805434140816],[-95.25253794295438,38.95780550120692],[-95.25253740748147,38.95785675193518],[-95.25252685549411,38.95785668484168],[-95.2525267990447,38.95786217556239],[-95.25253734987969,38.95786224262857],[-95.25253710017867,38.95788603803431]]]},"properties":{"SDE.FloorAll.FLOORLOCATION":"-1"}},{"type":"Feature","geometry":{"type":"Polygon","coordinates":[[[-95.2526659381844,38.95793081758991],[-95.25275502196213,38.95793138550189],[-95.25275506036373,38.95792772473945],[-95.25276209386436,38.957927769727476],[-95.25276218873174,38.95791861734386],[-95.25278797669307,38.95791878226002],[-95.25278788071078,38.95792793371598],[-95.2527949142114,38.95792797870202],[-95.25279495145774,38.95792431791225],[-95.25279964007353,38.95792434789362],[-95.25279971687212,38.957917026368705],[-95.25279590759277,38.95791700190144],[-95.2527965964764,38.957851108122334],[-95.25280040575221,38.95785113258961],[-95.25280047661151,38.95784440933651],[-95.25280294251675,38.9578455573429],[-95.2528066323735,38.95784072498906],[-95.25280540291637,38.95784013529732],[-95.2528104067892,38.95783416248653],[-95.25281565831307,38.957828321714615],[-95.25282115154694,38.95782261734697],[-95.25282688159804,38.957817056477396],[-95.25283284133718,38.95781164434428],[-95.25283902471834,38.95780638801413],[-95.2528454257655,38.957801292752634],[-95.25284642387062,38.957802103169605],[-95.2528514970901,38.957798295838586],[-95.25285049556038,38.95779748443925],[-95.25285726484582,38.9577926853924],[-95.2528642327862,38.95778806138326],[-95.25287138991087,38.95778361849593],[-95.25287873027898,38.957779361095845],[-95.25288624448986,38.95777529346629],[-95.25289392544944,38.957771419945296],[-95.25290176487539,38.95776774574389],[-95.25290246341868,38.95776872029535],[-95.25290860447235,38.957766037755164],[-95.25290789928975,38.95776505583658],[-95.2529153846494,38.9577619680531],[-95.25292299094491,38.95775906518171],[-95.25293070996396,38.957756350632614],[-95.2529385335641,38.95775382601535],[-95.25294645472134,38.95775149386723],[-95.25295446637652,38.957749357625765],[-95.2529543494324,38.95774901058761],[-95.25296676159745,38.95774564479354],[-95.25296737441023,38.95774745905644],[-95.25297417897191,38.9577460584524],[-95.25297380923635,38.95774496912519],[-95.2529826975406,38.957743352929704],[-95.25299164971277,38.95774196445393],[-95.25300065530415,38.95774080525266],[-95.25300970386608,38.957739876880844],[-95.25301878617303,38.95773917911989],[-95.25302789408269,38.9577387135793],[-95.25303701487492,38.95773848085894],[-95.25303700282893,38.95773962242401],[-95.25304539565617,38.957739677069725],[-95.25304632766193,38.957650414013514],[-95.25305336117009,38.957650458083506],[-95.25305610554504,38.95738779835512],[-95.25288262562968,38.95738669284856],[-95.25288295084889,38.9573555758885],[-95.2527994402804,38.95735504457994],[-95.25279956450923,38.95734314686263],[-95.25276498119823,38.95734292585107],[-95.2527647572844,38.957364426450305],[-95.25267193066854,38.957363836532345],[-95.2526682912177,38.95735653329415],[-95.25266432453365,38.95734933405366],[-95.25266003484418,38.957342248824574],[-95.25265542871858,38.95733528677469],[-95.25265051052482,38.95732845431609],[-95.2526452879152,38.957321762444714],[-95.25263976637589,38.95731521850028],[-95.252633952546,38.957308829849964],[-95.25262785418305,38.95730260478839],[-95.25261841506388,38.95730455487491],[-95.2526090665776,38.95730675674724],[-95.25259982036114,38.957309207977566],[-95.25259068812117,38.95731190433721],[-95.25258167918831,38.95731484334359],[-95.25257280404611,38.957318022541465],[-95.25256407440148,38.95732143770213],[-95.25255549853665,38.95732508361464],[-95.25254708927677,38.95732895697797],[-95.2525388548691,38.95733305348143],[-95.25253080474909,38.957337367941385],[-95.2525229483173,38.95734189607447],[-95.25251529623246,38.95734663092352],[-95.2525078567418,38.95735156817785],[-95.25250063700958,38.95735670169874],[-95.25249364881266,38.957362025456746],[-95.25248689704378,38.95736753235804],[-95.2524803911035,38.95737321811932],[-95.2524741394143,38.957379073927974],[-95.25246814798703,38.95738509361791],[-95.25246242402096,38.957391270149934],[-95.25245697590346,38.95739759561189],[-95.25245180730418,38.957404064683395],[-95.25244692671549,38.95741066675103],[-95.2524423389602,38.95741739652183],[-95.25243804900126,38.95742424510112],[-95.25243406176637,38.957431204494796],[-95.2524303833367,38.957438266735856],[-95.25242701636871,38.957445422875104],[-95.25242396694341,38.95745266494562],[-95.25243041896199,38.95745867038893],[-95.25243712469556,38.95746450340184],[-95.25244407624689,38.957470159291],[-95.25245126578847,38.95747563156238],[-95.25245868552808,38.95748091282142],[-95.25246632645002,38.95748599744718],[-95.25247418069193,38.957490879845885],[-95.25248223920322,38.957495555296916],[-95.25249049296829,38.95750001817925],[-95.25249893293653,38.957504263772314],[-95.25250755009232,38.957508286455],[-95.25251633416181,38.95751208328023],[-95.25252527501117,38.95751564769919],[-95.25253436460295,38.95751897862019],[-95.25254359049696,38.957522069439854],[-95.25254320069412,38.95755662574461],[-95.25253152707359,38.95755655189893],[-95.25253147062483,38.95756204261977],[-95.25253791557311,38.95756208358927],[-95.25253707395349,38.957642620445604],[-95.25253062784466,38.95764257944874],[-95.25253057132751,38.95764804222996],[-95.2525370162837,38.9576480831995],[-95.25253617469524,38.95772864889518],[-95.25252972857857,38.9577286078983],[-95.2525296709413,38.95773409949213],[-95.25253611705851,38.95773414048904],[-95.25253542775825,38.957800038769236],[-95.25252898167003,38.95779999687189],[-95.25252892403269,38.957805488465674],[-95.25253537096138,38.957805508753594],[-95.25253483485665,38.957856775688896],[-95.25252838872824,38.957856734691894],[-95.25252833109082,38.95786222628571],[-95.25253477721968,38.95786226728264],[-95.25253452779778,38.95788605548526],[-95.2525280828549,38.957886013615195],[-95.25252800630821,38.95789332793676],[-95.25266631994002,38.95789420991105],[-95.2526659381844,38.95793081758991]]]},"properties":{"SDE.FloorAll.FLOORLOCATION":"1"}},{"type":"Feature","geometry":{"type":"Polygon","coordinates":[[[-95.25279380304218,38.95793619496694],[-95.25279592752511,38.95793620835407],[-95.25279605158066,38.9579243151393],[-95.2527996393053,38.95792433796196],[-95.25279972917522,38.95791572979919],[-95.25279738659746,38.95791571484948],[-95.25279825497695,38.95784324278469],[-95.25280086450249,38.95784449693361],[-95.25280462106677,38.95783973014726],[-95.25280963787147,38.957833721593985],[-95.25281490687003,38.95782784698963],[-95.2528204243578,38.95782211255509],[-95.25282618313564,38.95781652532946],[-95.25283217838069,38.95781109060583],[-95.2528384005874,38.95780581536868],[-95.25284484496792,38.95780070401072],[-95.25284651235549,38.95780205389637],[-95.25285158508503,38.95779825917084],[-95.25284992360346,38.95779690582032],[-95.25285670983862,38.957792086446894],[-95.25286369689508,38.95778744576746],[-95.25287087540725,38.95778298716492],[-95.25287823939927,38.95777871590498],[-95.25288578058866,38.95777463719877],[-95.25289348957494,38.957770755329584],[-95.25290135811085,38.95776707460814],[-95.25290253897167,38.957768706764625],[-95.25290867380438,38.95776603579292],[-95.25290750468544,38.957764398507365],[-95.25291562278193,38.95776106796528],[-95.25292387813232,38.95775794795606],[-95.25293226018286,38.95775504273576],[-95.25294076075635,38.95775235481419],[-95.25294937048713,38.95774988757446],[-95.25295808000979,38.957747644399426],[-95.25296687891056,38.9577456259436],[-95.25296748945198,38.957747439251484],[-95.2529742988348,38.95774606309467],[-95.25297369643565,38.95774424817733],[-95.25298260916539,38.957742656893636],[-95.25299158034699,38.95774128418901],[-95.25300060295636,38.95774013260076],[-95.25300966769801,38.95773920371108],[-95.25301876534637,38.95773849730134],[-95.25302788664102,38.95773801405336],[-95.25303702343956,38.957737755576716],[-95.2530370001158,38.95774004863854],[-95.25304539178991,38.95774010325694],[-95.25304546852783,38.957732782632135],[-95.25304312364966,38.95773276763282],[-95.2530434922773,38.95769753220952],[-95.25304583600114,38.957697547181525],[-95.25304588341629,38.957692970989534],[-95.25304353969263,38.957692956017475],[-95.25304390831984,38.95765772059409],[-95.25304625204235,38.95765773556611],[-95.2530463288151,38.957650414040835],[-95.25305336113509,38.95765045898394],[-95.25305610669822,38.95738779838243],[-95.25288262674793,38.95738669377628],[-95.25288295196707,38.95735557681623],[-95.25279950950704,38.95735504531896],[-95.25279963373588,38.95734314760166],[-95.25276505157804,38.95734292661744],[-95.25276492734338,38.9573548243347],[-95.25253365201768,38.95735335102571],[-95.25253357519215,38.957360672550834],[-95.25253826377043,38.957360702542786],[-95.25253801560966,38.957384488072464],[-95.2525333270298,38.9573844580805],[-95.2525332690431,38.95738995867842],[-95.25253795762333,38.95738998867039],[-95.25253711319536,38.957470776001514],[-95.25253242460978,38.95747074600952],[-95.25253236981843,38.95747598622946],[-95.25253705836937,38.957476017121834],[-95.25253621559663,38.9575565539514],[-95.25253152700537,38.95755652395938],[-95.25253147055656,38.957562014680214],[-95.2525361591482,38.95756204467228],[-95.25253531637344,38.95764258150122],[-95.2525306277764,38.95764255150913],[-95.25253057013933,38.95764804310306],[-95.25253525873667,38.95764807309512],[-95.25253441711304,38.957728609950806],[-95.25252972851031,38.95772857995873],[-95.25252967090809,38.95773407065218],[-95.25253435951113,38.95773410064425],[-95.25253367038421,38.95779999442247],[-95.2525289817418,38.95779996533074],[-95.25252892413947,38.957805456024154],[-95.25253361274724,38.95780548601628],[-95.25253307727121,38.95785673674449],[-95.25252838866004,38.957856706752345],[-95.25252833102255,38.95786219834611],[-95.25253301963416,38.957862228338264],[-95.25253277111982,38.957886022870944],[-95.2525280825067,38.95788599287879],[-95.25252798349999,38.957895488531165],[-95.25266160890708,38.95789633061439],[-95.25266122599582,38.95793293826589],[-95.25275499954577,38.957933536191995],[-95.25275501943405,38.95793159903201],[-95.25279384857406,38.95793184583849],[-95.25279380304218,38.95793619496694]]]},"properties":{"SDE.FloorAll.FLOORLOCATION":"2"}},{"type":"Feature","geometry":{"type":"Polygon","coordinates":[[[-95.25266125310641,38.957930637182585],[-95.25275355995154,38.957931225590514],[-95.25275364972717,38.9579225309079],[-95.25278559304212,38.9579227344253],[-95.25278557891728,38.9579241075557],[-95.25279964361138,38.957924197473076],[-95.25280231888875,38.95766818082005],[-95.2529648836125,38.957669198153674],[-95.25296752213428,38.95741672514807],[-95.25287280413613,38.95741612212365],[-95.25287306521773,38.95739108059613],[-95.25288258202019,38.95739114115726],[-95.2528829549798,38.95735543990155],[-95.25279951251994,38.95735490840435],[-95.25279963674883,38.95734301068702],[-95.252765054591,38.95734278970279],[-95.25276493032135,38.957354688320486],[-95.25253365503113,38.957353214111116],[-95.25252800869352,38.957893177488906],[-95.25266163601763,38.957894029531076],[-95.25266125310641,38.957930637182585]]]},"properties":{"SDE.FloorAll.FLOORLOCATION":"3"}},{"type":"Feature","geometry":{"type":"Polygon","coordinates":[[[-95.25266740680603,38.957888341660485],[-95.25266701489913,38.957925863841],[-95.25275844240197,38.95792644672996],[-95.25275883544852,38.957888923676066],[-95.25266740680603,38.957888341660485]]]},"properties":{"SDE.FloorAll.FLOORLOCATION":"4"}},{"type":"Feature","geometry":{"type":"Polygon","coordinates":[[[-95.25273173418591,38.9580675286373],[-95.25282372502195,38.958068114904826],[-95.25282396307254,38.958045359237374],[-95.25280562586603,38.95804519422713],[-95.25280565165204,38.95804274891679],[-95.25279884200184,38.95804270563061],[-95.25279883181662,38.95804362103263],[-95.25279853869245,38.958043619494745],[-95.25279707429476,38.95804361003185],[-95.25279835386544,38.957921209097485],[-95.25280185272328,38.95792123161695],[-95.25280268441284,38.95784171471772],[-95.25280530508486,38.957841731750364],[-95.25280635159532,38.95784055431363],[-95.25280927834831,38.95784196197692],[-95.25280866344022,38.957842696324384],[-95.25282973863422,38.95785262878362],[-95.2528697446713,38.95781309008763],[-95.25286730760672,38.957811110936426],[-95.25286857275772,38.957810158578106],[-95.2528698413333,38.95780920720215],[-95.25287227839789,38.95781118635335],[-95.25292057039998,38.95778318225847],[-95.25291885012537,38.95778078750376],[-95.25291983889791,38.95778035310896],[-95.25292038144023,38.957780114521874],[-95.25292092628898,38.95777987598952],[-95.25292191614467,38.95777944342278],[-95.25292363757254,38.957781838204795],[-95.25297940334067,38.957764230137116],[-95.25297850926057,38.957761574677214],[-95.25297960652725,38.957761348331395],[-95.25298020923935,38.95776122472383],[-95.25298151820827,38.95776095653012],[-95.25298191030132,38.957760876598556],[-95.25298280438156,38.957763532058436],[-95.25304652745298,38.957757451683044],[-95.25304672837883,38.9577382333411],[-95.25304584904346,38.95773825756925],[-95.25304583869315,38.95773570235472],[-95.25304866286038,38.95773550250207],[-95.25304959721265,38.95764606015797],[-95.25305663068545,38.9576461051282],[-95.25305706645867,38.95760438969439],[-95.25305710316171,38.957600831631375],[-95.25305796508155,38.95751836123984],[-95.2530580017845,38.95751480317679],[-95.25305886366726,38.957432333685084],[-95.25305890040511,38.95742877472167],[-95.25305936490129,38.95738435990127],[-95.2528860326733,38.95738325609619],[-95.25288603874995,38.957382683963054],[-95.25288635378361,38.95735248240503],[-95.25280518465972,38.95735196512079],[-95.25280538568495,38.957332745878176],[-95.25276611838024,38.957332495895486],[-95.25276591734428,38.95735171513803],[-95.25266532110908,38.957351074499236],[-95.2526543004277,38.95733366847813],[-95.2526413781555,38.957317078065614],[-95.25262785414805,38.9573026056888],[-95.25260401445874,38.95730806186857],[-95.25258168516247,38.957314867818184],[-95.25258087546491,38.95731511990002],[-95.25257756613891,38.95731639872554],[-95.25255861123082,38.95732372622996],[-95.25253739285165,38.95733381461772],[-95.25251738142889,38.95734530867255],[-95.25249872814089,38.95735812005264],[-95.25248157756185,38.95737215214875],[-95.25246605735362,38.95738729803741],[-95.25245228738609,38.95740344340068],[-95.25244037180455,38.95742046273341],[-95.25244001958708,38.957421090650946],[-95.2524380638329,38.957424576201795],[-95.25243040210466,38.95743822932922],[-95.25242396697841,38.95745266404524],[-95.25244136887899,38.957468007899585],[-95.2524604165805,38.957482109211185],[-95.25248096649871,38.95749486093593],[-95.25250286086067,38.957506164705855],[-95.25252593441381,38.95751593639548],[-95.25253353414034,38.957518725524295],[-95.25253314128776,38.95755629995575],[-95.25252961160672,38.957893869760426],[-95.25266499529715,38.9578947327763],[-95.25266465079396,38.9579276796654],[-95.25275842433696,38.95792827758868],[-95.2527575123506,38.95801544217333],[-95.25275633988933,38.95801543512093],[-95.25275605256631,38.95801543281919],[-95.25275606397523,38.95801451564364],[-95.25275019597304,38.95801447844412],[-95.25275024330256,38.95800990495357],[-95.25273233813562,38.95800979072349],[-95.25273173418591,38.9580675286373]]]},"properties":{"SDE.FloorAll.FLOORLOCATION":"ROOF"}}]}
