{"type":"FeatureCollection","features":[{"type":"Feature","geometry":{"type":"Polygon","coordinates":[[[-95.25913807006211,38.95333071362192],[-95.25921758720176,38.95331799003143],[-95.25921011535556,38.95328952313028],[-95.25922748282076,38.953286744272205],[-95.25913483404155,38.95293371090687],[-95.25916468863475,38.952928934556596],[-95.25912274696097,38.95276911611602],[-95.25909289239752,38.952773893355975],[-95.25898800885278,38.95237423693617],[-95.25897063866667,38.952377002170834],[-95.25896317110809,38.95234854886661],[-95.2588836550129,38.95236127228366],[-95.25889112547644,38.952389739180745],[-95.2588568218374,38.95239522767382],[-95.25892105769783,38.95263999804187],[-95.25880651977079,38.95265832451677],[-95.25881004825607,38.95267177307129],[-95.2588078961959,38.952672117825074],[-95.25880839593688,38.952674023109054],[-95.258784282119,38.95267788157172],[-95.25878378237867,38.95267597628765],[-95.25876297037921,38.95267930629129],[-95.25875944078432,38.95266585680769],[-95.25875341317752,38.95266682189189],[-95.25883600079663,38.952981525778426],[-95.25900364603176,38.95295470180965],[-95.25909629418346,38.95330773527917],[-95.25913059939973,38.95330224674293],[-95.25913807006211,38.95333071362192]]]},"properties":{"SDE.FloorAll.FLOORLOCATION":"1"}},{"type":"Feature","geometry":{"type":"Polygon","coordinates":[[[-95.25913493701412,38.95331650027886],[-95.25913436212954,38.953316592131145],[-95.259138068909,38.953330713594646],[-95.25921729801236,38.95331803636712],[-95.25921359237088,38.95330391493337],[-95.25921301863964,38.95330400681333],[-95.2592092535883,38.953289661373134],[-95.25922719478464,38.953286790635154],[-95.25912230972003,38.95288713435351],[-95.2591521643293,38.95288235710607],[-95.25912245892691,38.95276916247873],[-95.25909260439832,38.95277393881821],[-95.25898772082023,38.95237428329854],[-95.2589697798457,38.95237715399968],[-95.25896601489299,38.952362808550454],[-95.25896658861693,38.952362716671686],[-95.25896288307563,38.9523485952289],[-95.2588836538598,38.952361272256404],[-95.25888735938594,38.9523753937017],[-95.25888793426321,38.95237530185063],[-95.25889169920069,38.95238964730238],[-95.25885653380467,38.95239527403589],[-95.25896141667236,38.95279492967349],[-95.25895108150634,38.95279658329904],[-95.25895255275061,38.952802187636806],[-95.25896378451738,38.95280039028531],[-95.25896968127783,38.95282286108641],[-95.25896788692437,38.95282314851104],[-95.25896755520782,38.95282530360203],[-95.25896894582743,38.95282718308406],[-95.25897074018096,38.95282689565945],[-95.25897663694585,38.95284936646009],[-95.25897484259175,38.952849653884854],[-95.25897451087532,38.95285180897584],[-95.25897590149563,38.95285368845782],[-95.25897769584981,38.95285340103306],[-95.2589835926191,38.952875871833356],[-95.2589817982644,38.95287615925821],[-95.25898146654798,38.95287831434925],[-95.25898285716902,38.95288019383109],[-95.25898465148894,38.952879907306624],[-95.25899054941577,38.95290237813375],[-95.25897931766846,38.95290417458747],[-95.25898078776412,38.95290977889765],[-95.25899112294601,38.95290812526953],[-95.25909600614712,38.95330778164182],[-95.25913117197794,38.953302154836116],[-95.25913493701412,38.95331650027886]]]},"properties":{"SDE.FloorAll.FLOORLOCATION":"10"}},{"type":"Feature","geometry":{"type":"Polygon","coordinates":[[[-95.25901021805836,38.952787121691095],[-95.2590398941424,38.95290020480759],[-95.25915213633603,38.952882245593926],[-95.25912245892691,38.95276916247873],[-95.25901021805836,38.952787121691095]]]},"properties":{"SDE.FloorAll.FLOORLOCATION":"11"}},{"type":"Feature","geometry":{"type":"Polygon","coordinates":[[[-95.25913493816728,38.953316500306116],[-95.25913436443582,38.953316592185686],[-95.25913807006211,38.95333071362192],[-95.2592173003535,38.95331803552121],[-95.259213593524,38.95330391496065],[-95.25921270855429,38.953304056259896],[-95.25920894350303,38.95328971081967],[-95.25922719597267,38.953286789762],[-95.25913454719485,38.95293375639643],[-95.25916440178807,38.95292898004627],[-95.25912246008002,38.95276916250598],[-95.25909260555144,38.95277393884548],[-95.25898772200824,38.95237428242538],[-95.25896978099878,38.95237715402694],[-95.25896601608106,38.95236280767731],[-95.25896658980498,38.952362715798586],[-95.25896288422872,38.95234859525618],[-95.2588836550129,38.95236127228366],[-95.2588873616922,38.952375393756235],[-95.25888793541631,38.95237530187789],[-95.25889170035379,38.952389647329646],[-95.25885653495777,38.95239527406313],[-95.25892077085217,38.95264004353091],[-95.25875312633164,38.95266686738056],[-95.2588357139146,38.9529815721677],[-95.25900335914996,38.952954748199325],[-95.2590960073352,38.95330778076871],[-95.25913117313105,38.9533021548634],[-95.25913493816728,38.953316500306116]]]},"properties":{"SDE.FloorAll.FLOORLOCATION":"2"}},{"type":"Feature","geometry":{"type":"Polygon","coordinates":[[[-95.25913807006211,38.95333071362192],[-95.25921729916547,38.95331803639438],[-95.259213593524,38.95330391496065],[-95.25921301979275,38.953304006840575],[-95.2592092547414,38.95328966140037],[-95.25922719593777,38.9532867906624],[-95.2591343409688,38.952932972865064],[-95.25916419559655,38.95292819561452],[-95.25916310756938,38.95292404860353],[-95.25915218356555,38.95292579647347],[-95.25914130089569,38.95288432900865],[-95.25915222485847,38.95288258204016],[-95.25912246008002,38.95276916250598],[-95.25909260551651,38.95277393974584],[-95.25898772197334,38.9523742833258],[-95.25896978099878,38.95237715402694],[-95.25896601604614,38.952362808577696],[-95.25896658977007,38.952362716698964],[-95.25896288422872,38.95234859525618],[-95.2588836550129,38.95236127228366],[-95.25888736053908,38.95237539372897],[-95.25888793541631,38.95237530187789],[-95.25889170035379,38.952389647329646],[-95.25885653495777,38.95239527406313],[-95.25894918164198,38.952748307666305],[-95.25888783612984,38.952758123467284],[-95.25888798297758,38.95275868209222],[-95.25885899131738,38.952763321058725],[-95.25885884446986,38.95276276243378],[-95.25875972023832,38.952778622557545],[-95.2587606917615,38.95278232071319],[-95.25876040372712,38.95278236707501],[-95.25881263999358,38.95298141053937],[-95.25881292687562,38.95298136415019],[-95.25881389721637,38.95298506317855],[-95.25900335914996,38.952954748199325],[-95.25909600730029,38.95330778166908],[-95.25913059939973,38.95330224674293],[-95.25913807006211,38.95333071362192]]]},"properties":{"SDE.FloorAll.FLOORLOCATION":"3"}},{"type":"Feature","geometry":{"type":"Polygon","coordinates":[[[-95.25913522501554,38.95331645481656],[-95.2591346512841,38.95331654669612],[-95.25913835691044,38.9533306681323],[-95.25921758604859,38.95331799000418],[-95.25921388037214,38.953303869470886],[-95.25921330664092,38.953303961350834],[-95.25920954162443,38.953289615010206],[-95.25922748282076,38.953286744272205],[-95.25912259887284,38.952887088918494],[-95.259152453482,38.95288231167097],[-95.25912274692605,38.95276911701644],[-95.25909289239752,38.952773893355975],[-95.25898800885278,38.95237423693617],[-95.25897006787825,38.952377107637346],[-95.25896630292557,38.952362762188116],[-95.25896687664948,38.95236267030938],[-95.25896317107318,38.95234854976699],[-95.25888394185745,38.952361226794686],[-95.2588876485368,38.952375348267275],[-95.25888822226094,38.952375256388926],[-95.2588919871985,38.95238960184063],[-95.2588568218374,38.95239522767382],[-95.25896170467179,38.95279488421163],[-95.25895137065883,38.952796537864394],[-95.25895284075007,38.95280214217496],[-95.25896407251676,38.952800344823416],[-95.25896996927732,38.95282281562445],[-95.25896817492388,38.95282310304917],[-95.2589678432073,38.95282525814014],[-95.25896923382693,38.95282713762216],[-95.25897102818051,38.95282685019747],[-95.25897692494546,38.95284932099818],[-95.25897513059135,38.95284960842296],[-95.2589747988749,38.952851763513955],[-95.25897618949523,38.95285364299587],[-95.2589779838494,38.952853355571115],[-95.25898388061879,38.95287582637139],[-95.25898208741718,38.952876113823514],[-95.25898175570083,38.95287826891457],[-95.25898314632187,38.952880148396424],[-95.25898493952357,38.95287986094424],[-95.25899083745048,38.95290233177139],[-95.25897960566827,38.95290412912554],[-95.25898107579884,38.95290973253529],[-95.25899141094582,38.95290807980752],[-95.25909629418346,38.95330773527917],[-95.25913145997927,38.953302109373794],[-95.25913522501554,38.95331645481656]]]},"properties":{"SDE.FloorAll.FLOORLOCATION":"4"}},{"type":"Feature","geometry":{"type":"Polygon","coordinates":[[[-95.25913493816728,38.953316500306116],[-95.25913436443582,38.953316592185686],[-95.25913807006211,38.95333071362192],[-95.2592172992004,38.95331803549393],[-95.259213593524,38.95330391496065],[-95.25921301979275,38.953304006840575],[-95.25920925477632,38.953289660499976],[-95.25922719597267,38.953286789762],[-95.25912231202629,38.95288713440805],[-95.25915216663552,38.95288235716057],[-95.25912246008002,38.95276916250598],[-95.25909260555144,38.95277393884548],[-95.25898772200824,38.95237428242538],[-95.25896978103371,38.9523771531265],[-95.25896601608106,38.95236280767731],[-95.25896658980498,38.952362715798586],[-95.25896288422872,38.95234859525618],[-95.2588836550129,38.95236127228366],[-95.2588873616922,38.952375393756235],[-95.25888793541631,38.95237530187789],[-95.25889170035379,38.952389647329646],[-95.25885653499269,38.952395273162736],[-95.25896141782552,38.952794929700765],[-95.25895108381255,38.95279658335355],[-95.25895255390371,38.95280218766409],[-95.25896378567047,38.95280039031257],[-95.25896968243096,38.95282286111366],[-95.25896788807754,38.9528231485383],[-95.25896755636093,38.95282530362931],[-95.25896894698054,38.95282718311132],[-95.25897074133412,38.95282689568669],[-95.25897663809901,38.95284936648735],[-95.25897484374488,38.95284965391213],[-95.25897451202843,38.952851809003135],[-95.25897590264876,38.95285368848507],[-95.25897769700292,38.95285340106031],[-95.25898359377221,38.95287587186062],[-95.25898180057061,38.95287615931273],[-95.25898146885423,38.95287831440376],[-95.25898285947527,38.952880193885605],[-95.25898465267697,38.95287990643345],[-95.2589905506038,38.95290237726061],[-95.25897931882157,38.952904174614744],[-95.25898078895213,38.95290977802451],[-95.25899112409913,38.95290812529677],[-95.2590960073352,38.95330778076871],[-95.25913117313105,38.9533021548634],[-95.25913493816728,38.953316500306116]]]},"properties":{"SDE.FloorAll.FLOORLOCATION":"5"}},{"type":"Feature","geometry":{"type":"Polygon","coordinates":[[[-95.25913493816728,38.953316500306116],[-95.25913436443582,38.953316592185686],[-95.25913807006211,38.95333071362192],[-95.2592172992004,38.95331803549393],[-95.259213593524,38.95330391496065],[-95.25921301979275,38.953304006840575],[-95.25920925477632,38.953289660499976],[-95.25922719597267,38.953286789762],[-95.25912231202629,38.95288713440805],[-95.25915216663552,38.95288235716057],[-95.25912246008002,38.95276916250598],[-95.25909260555144,38.95277393884548],[-95.25898772200824,38.95237428242538],[-95.25896978103371,38.9523771531265],[-95.25896601608106,38.95236280767731],[-95.25896658980498,38.952362715798586],[-95.25896288422872,38.95234859525618],[-95.2588836550129,38.95236127228366],[-95.2588873616922,38.952375393756235],[-95.25888793541631,38.95237530187789],[-95.25889170035379,38.952389647329646],[-95.25885653499269,38.952395273162736],[-95.25896141782552,38.952794929700765],[-95.25895108381255,38.95279658335355],[-95.25895255390371,38.95280218766409],[-95.25896378567047,38.95280039031257],[-95.25896968243096,38.95282286111366],[-95.25896788807754,38.9528231485383],[-95.25896755636093,38.95282530362931],[-95.25896894698054,38.95282718311132],[-95.25897074133412,38.95282689568669],[-95.25897663809901,38.95284936648735],[-95.25897484374488,38.95284965391213],[-95.25897451202843,38.952851809003135],[-95.25897590264876,38.95285368848507],[-95.25897769700292,38.95285340106031],[-95.25898359377221,38.95287587186062],[-95.25898180057061,38.95287615931273],[-95.25898146885423,38.95287831440376],[-95.25898285947527,38.952880193885605],[-95.25898465267697,38.95287990643345],[-95.2589905506038,38.95290237726061],[-95.25897931882157,38.952904174614744],[-95.25898078895213,38.95290977802451],[-95.25899112409913,38.95290812529677],[-95.2590960073352,38.95330778076871],[-95.25913117313105,38.9533021548634],[-95.25913493816728,38.953316500306116]]]},"properties":{"SDE.FloorAll.FLOORLOCATION":"6"}},{"type":"Feature","geometry":{"type":"Polygon","coordinates":[[[-95.25913493816728,38.953316500306116],[-95.25913436443582,38.953316592185686],[-95.25913807006211,38.95333071362192],[-95.2592172992004,38.95331803549393],[-95.259213593524,38.95330391496065],[-95.25921301979275,38.953304006840575],[-95.25920925477632,38.953289660499976],[-95.25922719597267,38.953286789762],[-95.25912231202629,38.95288713440805],[-95.25915216663552,38.95288235716057],[-95.25912246008002,38.95276916250598],[-95.25909260555144,38.95277393884548],[-95.25898772200824,38.95237428242538],[-95.25896978103371,38.9523771531265],[-95.25896601608106,38.95236280767731],[-95.25896658980498,38.952362715798586],[-95.25896288422872,38.95234859525618],[-95.2588836550129,38.95236127228366],[-95.2588873616922,38.952375393756235],[-95.25888793541631,38.95237530187789],[-95.25889170035379,38.952389647329646],[-95.25885653499269,38.952395273162736],[-95.25896141782552,38.952794929700765],[-95.25895108381255,38.95279658335355],[-95.25895255390371,38.95280218766409],[-95.25896378567047,38.95280039031257],[-95.25896968243096,38.95282286111366],[-95.25896788807754,38.9528231485383],[-95.25896755636093,38.95282530362931],[-95.25896894698054,38.95282718311132],[-95.25897074133412,38.95282689568669],[-95.25897663809901,38.95284936648735],[-95.25897484374488,38.95284965391213],[-95.25897451202843,38.952851809003135],[-95.25897590264876,38.95285368848507],[-95.25897769700292,38.95285340106031],[-95.25898359377221,38.95287587186062],[-95.25898180057061,38.95287615931273],[-95.25898146885423,38.95287831440376],[-95.25898285947527,38.952880193885605],[-95.25898465267697,38.95287990643345],[-95.2589905506038,38.95290237726061],[-95.25897931882157,38.952904174614744],[-95.25898078895213,38.95290977802451],[-95.25899112409913,38.95290812529677],[-95.2590960073352,38.95330778076871],[-95.25913117313105,38.9533021548634],[-95.25913493816728,38.953316500306116]]]},"properties":{"SDE.FloorAll.FLOORLOCATION":"7"}},{"type":"Feature","geometry":{"type":"Polygon","coordinates":[[[-95.25913493816728,38.953316500306116],[-95.25913436443582,38.953316592185686],[-95.25913807006211,38.95333071362192],[-95.2592172992004,38.95331803549393],[-95.259213593524,38.95330391496065],[-95.25921301979275,38.953304006840575],[-95.25920925477632,38.953289660499976],[-95.25922719597267,38.953286789762],[-95.25912231202629,38.95288713440805],[-95.25915216663552,38.95288235716057],[-95.25912246008002,38.95276916250598],[-95.25909260555144,38.95277393884548],[-95.25898772200824,38.95237428242538],[-95.25896978103371,38.9523771531265],[-95.25896601608106,38.95236280767731],[-95.25896658980498,38.952362715798586],[-95.25896288422872,38.95234859525618],[-95.2588836550129,38.95236127228366],[-95.2588873616922,38.952375393756235],[-95.25888793541631,38.95237530187789],[-95.25889170035379,38.952389647329646],[-95.25885653499269,38.952395273162736],[-95.25896141782552,38.952794929700765],[-95.25895108381255,38.95279658335355],[-95.25895255390371,38.95280218766409],[-95.25896378567047,38.95280039031257],[-95.25896968243096,38.95282286111366],[-95.25896788807754,38.9528231485383],[-95.25896755636093,38.95282530362931],[-95.25896894698054,38.95282718311132],[-95.25897074133412,38.95282689568669],[-95.25897663809901,38.95284936648735],[-95.25897484374488,38.95284965391213],[-95.25897451202843,38.952851809003135],[-95.25897590264876,38.95285368848507],[-95.25897769700292,38.95285340106031],[-95.25898359377221,38.95287587186062],[-95.25898180057061,38.95287615931273],[-95.25898146885423,38.95287831440376],[-95.25898285947527,38.952880193885605],[-95.25898465267697,38.95287990643345],[-95.2589905506038,38.95290237726061],[-95.25897931882157,38.952904174614744],[-95.25898078895213,38.95290977802451],[-95.25899112409913,38.95290812529677],[-95.2590960073352,38.95330778076871],[-95.25913117313105,38.9533021548634],[-95.25913493816728,38.953316500306116]]]},"properties":{"SDE.FloorAll.FLOORLOCATION":"8"}},{"type":"Feature","geometry":{"type":"Polygon","coordinates":[[[-95.25913551189873,38.953316408426566],[-95.25913493816728,38.953316500306116],[-95.25913864379366,38.95333062174233],[-95.25921787293176,38.95331794361399],[-95.2592141672553,38.9533038230807],[-95.259213593524,38.95330391496065],[-95.25920982850745,38.953289568620036],[-95.25922776970376,38.95328669788197],[-95.25912288575428,38.95288704252854],[-95.2591527403634,38.952882265280934],[-95.25912303380703,38.952769070626466],[-95.25909317927852,38.952773846966096],[-95.25898829573228,38.952374190546536],[-95.25897035475775,38.95237706124775],[-95.25896658980498,38.952362715798586],[-95.25896716352891,38.952362623919825],[-95.25896345795253,38.95234850337745],[-95.2588842287369,38.95236118040533],[-95.25888793541631,38.95237530187789],[-95.25888850914046,38.95237520999954],[-95.25889227407806,38.95238955545128],[-95.25885710871701,38.95239518128455],[-95.25896199155295,38.95279483782205],[-95.25895165754002,38.952796491474864],[-95.25895312763127,38.95280209578541],[-95.25896435939798,38.95280029843382],[-95.25897025615859,38.95282276923491],[-95.25896846180518,38.95282305665953],[-95.25896813008859,38.952825211750564],[-95.25896952070823,38.95282709123259],[-95.2589713150618,38.95282680380789],[-95.25897721182686,38.95284927460858],[-95.25897541747274,38.95284956203336],[-95.2589750857563,38.95285171712433],[-95.25897647637663,38.95285359660632],[-95.2589782707308,38.95285330918152],[-95.25898416750027,38.95287577998181],[-95.25898237429868,38.95287606743392],[-95.25898204258233,38.952878222524966],[-95.25898343320337,38.95288010200679],[-95.25898522640507,38.95287981455461],[-95.25899112433208,38.95290228538176],[-95.25897989254989,38.952904082735934],[-95.25898136268047,38.952909686145716],[-95.25899169782745,38.95290803341794],[-95.25909658106663,38.953307688889325],[-95.2591317468624,38.95330206298384],[-95.25913551189873,38.953316408426566]]]},"properties":{"SDE.FloorAll.FLOORLOCATION":"9"}},{"type":"Feature","geometry":{"type":"Polygon","coordinates":[[[-95.25913807006211,38.95333071362192],[-95.25921729916547,38.95331803639438],[-95.25921706386052,38.95331713952296],[-95.25923184837077,38.953314774547025],[-95.25922461301215,38.95328720364501],[-95.25922719593777,38.9532867906624],[-95.25922704915607,38.953286230237154],[-95.25923393854151,38.95328512778573],[-95.25914102413,38.952931085987345],[-95.25914096587215,38.952930862008174],[-95.25912920137444,38.9528860319628],[-95.2591521654824,38.95288235713332],[-95.25912246008002,38.95276916250598],[-95.25909949485414,38.95277283730237],[-95.25908752306586,38.95272722279307],[-95.25908746480833,38.95272699881388],[-95.25899475805161,38.95237374131408],[-95.25898786875123,38.95237484375135],[-95.25898772197334,38.9523742833258],[-95.25898513789163,38.952374697176246],[-95.25897035472282,38.952377062148166],[-95.25896288422872,38.95234859525618],[-95.2588836550129,38.95236127228366],[-95.25889112547644,38.952389739180745],[-95.25885653495777,38.95239527406313],[-95.25885668173467,38.95239583448888],[-95.25884979243,38.95239693691796],[-95.25891388037158,38.952641145936525],[-95.25882715058339,38.9526550235668],[-95.2588237059182,38.95265557478049],[-95.25875312629671,38.95266686828094],[-95.25878153802869,38.952775131584055],[-95.25875972023832,38.952778622557545],[-95.25881389721637,38.95298506317855],[-95.25899647094627,38.95295585066435],[-95.25908897112984,38.95330832368693],[-95.2590958605196,38.95330722124368],[-95.25909600730029,38.95330778166908],[-95.25913059939973,38.95330224674293],[-95.25913807006211,38.95333071362192]]]},"properties":{"SDE.FloorAll.FLOORLOCATION":"ROOF"}}]}
