{"type":"FeatureCollection","features":[{"type":"Feature","geometry":{"type":"Polygon","coordinates":[[[-95.24366946657628,38.957454918797815],[-95.24368765602706,38.957454933041674],[-95.2436876734739,38.957441817004685],[-95.24370642617072,38.957441832018354],[-95.24370668204388,38.957243818792044],[-95.24371011698892,38.957243822042756],[-95.24371015896934,38.95721113284833],[-95.24371792226673,38.95721113895855],[-95.24371793044966,38.957204653926496],[-95.24370295557186,38.95720464220405],[-95.24370295402709,38.95720562901049],[-95.24368617394738,38.95720561582794],[-95.24368619833153,38.95718728996458],[-95.24367663560146,38.957187282530946],[-95.24367670954507,38.95713033127292],[-95.24368627226744,38.95713033870652],[-95.24368629582095,38.957111590147974],[-95.24370271461491,38.95711160285334],[-95.24370271332363,38.957112731158375],[-95.24371768818202,38.9571127428808],[-95.24371769694089,38.95710597667964],[-95.24370993945605,38.957105969806115],[-95.24370998174477,38.957073124706454],[-95.24370690345854,38.957073121823186],[-95.24370715899903,38.95687633064634],[-95.24369127698137,38.95687631808377],[-95.24369129321167,38.956864298810075],[-95.243666677268,38.95686427868598],[-95.24366666255433,38.95687619976217],[-95.24361254942394,38.95687615700893],[-95.24361255542948,38.956870912012576],[-95.2436050287826,38.95687090611308],[-95.24360501767816,38.956879330515896],[-95.24357246070258,38.956879304534],[-95.24357247181084,38.95687088013122],[-95.2435637320803,38.95687087332743],[-95.24356372446893,38.956876277802806],[-95.24355375666262,38.95687626974007],[-95.24355377279616,38.95686339519937],[-95.2435193933021,38.9568633682315],[-95.24351937633423,38.95687655998427],[-95.24348742069496,38.956876534756496],[-95.24347236624683,38.956876522913355],[-95.24347227739634,38.95694518796647],[-95.24342374603246,38.956945148955626],[-95.24342370114925,38.956979004272156],[-95.2434728431328,38.95697904338016],[-95.24347272025594,38.95707373865525],[-95.24347029638807,38.957073736904654],[-95.24347025383247,38.95710685236858],[-95.24346318885651,38.957106846621784],[-95.24346318102761,38.95711299640655],[-95.2434785206091,38.95711300872003],[-95.24347852172995,38.95711206245867],[-95.24349487010939,38.95711207532183],[-95.24349484544271,38.95713052554903],[-95.24350392798279,38.957130533297594],[-95.24350385445284,38.957187144806156],[-95.24349457104005,38.957187137689544],[-95.24349454604565,38.95720621786632],[-95.24347819764452,38.957206205003075],[-95.24347819838643,38.957205416447415],[-95.24346306073336,38.95720540533025],[-95.24346305292046,38.95721202825932],[-95.24347057383773,38.957212034030924],[-95.24347053234415,38.957244145553204],[-95.24347217711309,38.95724414680541],[-95.24347192042993,38.957442045571746],[-95.2435651691691,38.95744211936171],[-95.24356516206232,38.95744762929235],[-95.2435726552929,38.95744763529981],[-95.24357266744336,38.95743868100088],[-95.24360528471277,38.957438706607526],[-95.2436052732943,38.957447316655134],[-95.24361342790095,38.9574473230622],[-95.24361343500398,38.95744181313153],[-95.24366948307296,38.95744185681172],[-95.24366946657628,38.957454918797815]]]},"properties":{"SDE.FloorAll.FLOORLOCATION":"-1"}},{"type":"Feature","geometry":{"type":"Polygon","coordinates":[[[-95.2435651169714,38.95744769040503],[-95.24357323121632,38.95744769585535],[-95.24357324014188,38.95743879465217],[-95.24360612198392,38.95743881393127],[-95.24360611436121,38.957447119454514],[-95.24361405087402,38.95744712428161],[-95.24361405619933,38.957441778331976],[-95.24370642617072,38.957441832018354],[-95.24370644728883,38.95741882420573],[-95.24370786697881,38.95741882551116],[-95.24370786792112,38.95741788375174],[-95.24370780907319,38.957417883254024],[-95.24370795628113,38.957261876319585],[-95.24370804630014,38.95726187665712],[-95.2437080477669,38.95726074385017],[-95.2437072709683,38.957260743408206],[-95.24370728655967,38.95724421167813],[-95.24371040182561,38.95724421363782],[-95.24371043294754,38.95721109249771],[-95.24371744604049,38.95721109699576],[-95.24371745226824,38.957204602904966],[-95.24370229490577,38.95720459405417],[-95.24370229406544,38.9572057403944],[-95.24368625258803,38.95720573035081],[-95.2436862703087,38.957186776174005],[-95.2436756767987,38.95718676947019],[-95.24367573096767,38.957130177331486],[-95.24368613635924,38.957130183168296],[-95.24368615466804,38.95711145070719],[-95.24370204033853,38.95711145975106],[-95.2437020389935,38.9571125006358],[-95.2437183863603,38.95711250983849],[-95.24371839306397,38.95710570753944],[-95.2437103319049,38.95710570336033],[-95.24371036215352,38.95707295981301],[-95.24370768087934,38.95707295825678],[-95.24370830957035,38.95689906890945],[-95.24370714726145,38.956899068315046],[-95.24370716937769,38.956876330893046],[-95.24361422418016,38.95687627703293],[-95.24361422905288,38.956871297871515],[-95.2436062729655,38.956871293478734],[-95.2436062648884,38.956879788249175],[-95.243573691452,38.956879769987346],[-95.24357369947214,38.95687160236076],[-95.2435655968251,38.956871597184616],[-95.24356559224832,38.956876657463546],[-95.24347319415075,38.95687660387994],[-95.24347317284266,38.956899289051755],[-95.24347157309096,38.956899287968405],[-95.24347142336106,38.957056648502146],[-95.24347302199823,38.957056648657634],[-95.24347300706883,38.957073457982794],[-95.24347022424404,38.95707345580918],[-95.24347019363279,38.95710623539952],[-95.24346380841054,38.95710623229529],[-95.24346380344993,38.95711236772861],[-95.24347866068312,38.957112376685444],[-95.24347866072667,38.95711139885547],[-95.24349476917284,38.957111407816825],[-95.24349475112936,38.95713013217444],[-95.2435049960875,38.95713013781822],[-95.24350494230646,38.957187101274684],[-95.24349470198794,38.957187094840194],[-95.24349468446216,38.95720548034875],[-95.24347932280963,38.95720547111806],[-95.24347932321321,38.9572048096273],[-95.2434634929099,38.9572048009685],[-95.24346348693655,38.95721093277278],[-95.24347041116368,38.95721093697549],[-95.24347037888472,38.95724441047031],[-95.24347229028615,38.957244411753],[-95.24347227491742,38.957260581196486],[-95.24347108143128,38.95726058075988],[-95.2434709310054,38.957418847005194],[-95.24347215912505,38.957418847363904],[-95.24347213837994,38.957441695670106],[-95.24356512356434,38.95744174967581],[-95.2435651169714,38.95744769040503]]]},"properties":{"SDE.FloorAll.FLOORLOCATION":"1"}},{"type":"Feature","geometry":{"type":"Polygon","coordinates":[[[-95.24347109835787,38.95744157811774],[-95.24357280642049,38.95744168809324],[-95.24357280501248,38.957442493756346],[-95.24357426971247,38.95744249523222],[-95.24357427112045,38.957441689569116],[-95.2435826911011,38.95744169868238],[-95.24358268969318,38.9574425043455],[-95.24358415324004,38.95744250579381],[-95.24358415464796,38.95744170013068],[-95.24359348991753,38.95744171027463],[-95.24359348850976,38.95744251593773],[-95.24359495320982,38.957442517413384],[-95.24359495461756,38.957441711750256],[-95.24360245930923,38.957441719830655],[-95.24360245790156,38.95744252549381],[-95.24360392260157,38.95744252696931],[-95.24360392400926,38.95744172130616],[-95.24370642617072,38.957441832018354],[-95.24370646709826,38.957418849009755],[-95.24370712270814,38.957418849274426],[-95.24370740222444,38.95726054465374],[-95.24371025889582,38.95726054767576],[-95.24371034747865,38.9572102946828],[-95.24371809571433,38.957210302237435],[-95.24371810726694,38.95720411559144],[-95.24371108620771,38.95720410820038],[-95.24371108783804,38.95720341519586],[-95.24371035950905,38.95720341500495],[-95.24371037428666,38.957195280884946],[-95.24371110258039,38.95719528197625],[-95.24371110402741,38.95719444567237],[-95.24371037573368,38.95719444458108],[-95.24371038743166,38.95718766222772],[-95.24371111572532,38.95718766331907],[-95.2437111167159,38.95718683872028],[-95.24371038957543,38.95718683765637],[-95.24371040284872,38.95717871251285],[-95.24371113114228,38.9571787136042],[-95.24371113258931,38.95717787730027],[-95.24371040544894,38.9571778762364],[-95.24371040611479,38.95717729676352],[-95.24371815431175,38.95717730521852],[-95.24371816471117,38.95717111854511],[-95.24371114480839,38.957171111181424],[-95.24371112697496,38.957170414109335],[-95.24371041828563,38.95717041348404],[-95.24371043232588,38.95716229827223],[-95.24371116065439,38.9571622984632],[-95.24371116185013,38.95716149820239],[-95.24371043355676,38.95716149711107],[-95.24371044540065,38.95715468141584],[-95.24371117372907,38.95715468160675],[-95.24371117507077,38.95715384800405],[-95.24371044793064,38.95715384694016],[-95.24371045993789,38.95714652385822],[-95.24371118823112,38.95714652494951],[-95.24371118953225,38.95714572198752],[-95.24371046120392,38.95714572179663],[-95.24371046383473,38.95714452953636],[-95.2437182120632,38.95714453709098],[-95.24371822361582,38.95713835044494],[-95.24371047426996,38.95713834196256],[-95.24371047511586,38.95713811307111],[-95.24371120344412,38.95713811326203],[-95.24371120485603,38.957137277858536],[-95.2437104765629,38.957137276767256],[-95.24371049060858,38.95712913181507],[-95.24371121890164,38.95712913290641],[-95.24371122034866,38.95712829660246],[-95.2437104920556,38.95712829551118],[-95.24371050404665,38.957122008839406],[-95.24371123118645,38.95712200990333],[-95.2437112337867,38.95712117362687],[-95.24371050549368,38.95712117253553],[-95.24371051946369,38.95711305912448],[-95.24371124775656,38.95711306021584],[-95.24371124920359,38.95711222391194],[-95.24371052091071,38.95711222282061],[-95.24371052243566,38.95711153251727],[-95.24371827066051,38.957111540071864],[-95.24371828105993,38.957105353398426],[-95.24371053287086,38.95710534494347],[-95.24371059160991,38.95707216678103],[-95.24370682312156,38.957072162810746],[-95.24370685340482,38.95705555031931],[-95.24370790259881,38.95705555092824],[-95.24370818110714,38.956898337664384],[-95.24370713079742,38.95689833612762],[-95.24370716937769,38.956876330893046],[-95.24360572411133,38.95687622185626],[-95.24360572486133,38.956875758643605],[-95.24360468493062,38.95687575735266],[-95.2436046841806,38.95687622056531],[-95.243595636374,38.95687621094597],[-95.24359563712406,38.95687574773331],[-95.2435945971933,38.95687574644225],[-95.24359459644324,38.95687620965492],[-95.24358429980423,38.956876198283354],[-95.24358430170751,38.95687573509812],[-95.24358326058852,38.956875734679926],[-95.24358325983836,38.956876197892576],[-95.24357462871704,38.95687618826435],[-95.24357462946725,38.956875725051624],[-95.24357358953652,38.9568757237604],[-95.2435735887863,38.95687618697306],[-95.24347216085324,38.95687607733032],[-95.24347184235278,38.95705590864289],[-95.24347268491582,38.95705590974882],[-95.2434726561353,38.95707260068395],[-95.24346994491346,38.957072597509004],[-95.24346987473454,38.95711213355624],[-95.2434689109809,38.95711213227281],[-95.24346890892849,38.957113013623676],[-95.24346987383535,38.957113014934585],[-95.24346986041864,38.95712063989454],[-95.24346889551167,38.957120638583646],[-95.24346889430758,38.95712146858476],[-95.24346985806139,38.95712146986826],[-95.24346984700584,38.957128057572476],[-95.2434688820988,38.95712805626154],[-95.24346888116443,38.95712893854024],[-95.24346984495348,38.95712893892333],[-95.24346983091914,38.95713687569303],[-95.2434688671651,38.95713687440955],[-95.24346886596099,38.95713770441071],[-95.24346982971507,38.957137705694166],[-95.24346981657202,38.95714517564961],[-95.2434688528179,38.95714517436618],[-95.2434688507655,38.957146055717075],[-95.24346981451959,38.95714605700058],[-95.24346980110286,38.957153681960456],[-95.24346883734866,38.95715368067698],[-95.24346883614457,38.95715451067813],[-95.24346979989878,38.95715451196162],[-95.24346978884327,38.9571610996658],[-95.24346882393574,38.957161098354895],[-95.24346882300142,38.9571619806336],[-95.24346978679085,38.9571619810167],[-95.2434697727565,38.95716991778633],[-95.24346880900207,38.957169916502906],[-95.24346880664481,38.957170746476606],[-95.24346977155241,38.95717074778747],[-95.24346975816196,38.957178046504005],[-95.24346879440739,38.957178045220516],[-95.243468792355,38.957178926571416],[-95.24346975726272,38.95717892788232],[-95.24346974269282,38.9571865528148],[-95.24346877893811,38.95718655153131],[-95.24346877773407,38.95718738153249],[-95.24346974148874,38.95718738281593],[-95.24346973043319,38.957193970520095],[-95.24346876552521,38.9571939692092],[-95.2434687645909,38.957194851487905],[-95.24346972838077,38.95719485187097],[-95.24346971434642,38.95720278864063],[-95.24346875059155,38.95720278735717],[-95.24346874938745,38.957203617358296],[-95.24346971314233,38.957203618641806],[-95.24346964222347,38.95724355842055],[-95.24347144969742,38.95724356083735],[-95.24347141980802,38.957260013822044],[-95.24347053799895,38.957260012684394],[-95.24347025773372,38.95741873727087],[-95.24347113954472,38.95741873840856],[-95.24347109835787,38.95744157811774]]]},"properties":{"SDE.FloorAll.FLOORLOCATION":"2"}},{"type":"Feature","geometry":{"type":"Polygon","coordinates":[[[-95.24347109835787,38.95744157811774],[-95.2435728052673,38.957441688065806],[-95.24357280385927,38.957442493728934],[-95.2435742685593,38.95744249520481],[-95.24357426996728,38.95744168954168],[-95.24358268994791,38.957441698654975],[-95.24358268854004,38.957442504318095],[-95.24358415324004,38.95744250579381],[-95.24358415464796,38.95744170013068],[-95.24359348991753,38.95744171027463],[-95.24359348850976,38.95744251593773],[-95.2435949520566,38.95744251738596],[-95.24359495346434,38.957441711722815],[-95.24360245815603,38.95744171980325],[-95.24360245674839,38.95744252546639],[-95.24360392144838,38.9574425269419],[-95.24360392285604,38.95744172127875],[-95.24370642617072,38.957441832018354],[-95.24370646709826,38.957418849009755],[-95.24370712270814,38.957418849274426],[-95.24370740222444,38.95726054465374],[-95.24370674661608,38.95726054438912],[-95.24370677630034,38.95724376966286],[-95.24371028739091,38.95724377382251],[-95.24371035764075,38.95720426211355],[-95.24371108596968,38.95720426230446],[-95.24371108741668,38.95720342600056],[-95.24371035908771,38.957203425809624],[-95.24371037313348,38.95719528085753],[-95.24371110142721,38.95719528194883],[-95.24371110287423,38.95719444564496],[-95.24371037458052,38.95719444455366],[-95.24371038743166,38.95718766222772],[-95.24371111572532,38.95718766331907],[-95.24371111717234,38.95718682701518],[-95.2437103888436,38.95718682682425],[-95.24371040284872,38.95717871251285],[-95.24371113114228,38.9571787136042],[-95.24371113258931,38.95717787730027],[-95.2437104042957,38.95717787620897],[-95.24371041572053,38.95717124886013],[-95.24371114401403,38.95717124995147],[-95.24371114619294,38.95717042447969],[-95.24371041789941,38.95717042338835],[-95.24371043229077,38.95716229917267],[-95.243711159431,38.95716230023655],[-95.24371116203118,38.95716146396009],[-95.2437104337378,38.95716146286877],[-95.24371044540065,38.95715468141584],[-95.24371117372907,38.95715468160675],[-95.24371117517609,38.95715384530288],[-95.24371044684769,38.95715384511193],[-95.24371045940579,38.95714656710443],[-95.24371118769902,38.95714656819576],[-95.24371118914603,38.95714573189187],[-95.24371046085281,38.95714573080053],[-95.24371047511586,38.95713811307111],[-95.24371120229095,38.95713811323461],[-95.24371120370286,38.957137277831116],[-95.2437104765629,38.957137276767256],[-95.24371049060858,38.95712913181507],[-95.24371121890164,38.95712913290641],[-95.24371122034866,38.95712829660246],[-95.2437104920556,38.95712829551118],[-95.24371050289346,38.957122008812],[-95.24371123118645,38.95712200990333],[-95.24371123263346,38.95712117359945],[-95.2437105043405,38.9571211725081],[-95.24371051831051,38.95711305909708],[-95.2437112466034,38.95711306018841],[-95.24371124805042,38.957112223884536],[-95.24371052091071,38.95711222282061],[-95.24371059160991,38.95707216678103],[-95.24370682312156,38.957072162810746],[-95.24370685225163,38.957055550291905],[-95.24370790259881,38.95705555092824],[-95.24370817995393,38.956898337636964],[-95.24370712964424,38.956898336100195],[-95.24370716937769,38.956876330893046],[-95.24360572411133,38.95687622185626],[-95.24360572486133,38.956875758643605],[-95.24360468493062,38.95687575735266],[-95.2436046841806,38.95687622056531],[-95.243595636374,38.95687621094597],[-95.24359563712406,38.95687574773331],[-95.2435945971933,38.95687574644225],[-95.24359459644324,38.95687620965492],[-95.24358429980423,38.956876198283354],[-95.24358430055437,38.956875735070696],[-95.24358326058852,38.956875734679926],[-95.24358325983836,38.956876197892576],[-95.24357462756387,38.95687618823691],[-95.24357462831408,38.95687572502422],[-95.24357358838336,38.95687572373297],[-95.24357358763314,38.95687618694562],[-95.24347300341414,38.9568760784362],[-95.24347296370922,38.95689828822414],[-95.24347212111294,38.95689828801866],[-95.24347184235278,38.95705590864289],[-95.24347268491582,38.95705590974882],[-95.24347265498213,38.95707260065654],[-95.24346994491346,38.957072597509004],[-95.24346987473454,38.95711213355624],[-95.24346890982773,38.957112132245385],[-95.24346890892849,38.957113013623676],[-95.24346987268218,38.95711301490717],[-95.24346985926542,38.957120639867114],[-95.24346889551167,38.957120638583646],[-95.24346889315441,38.95712146855736],[-95.24346985806139,38.95712146986826],[-95.24346984585266,38.95712805754505],[-95.2434688820988,38.95712805626154],[-95.24346888001126,38.95712893851282],[-95.24346984495348,38.95712893892333],[-95.24346983091914,38.95713687569303],[-95.24346886601192,38.95713687438212],[-95.24346886480785,38.95713770438333],[-95.24346982856183,38.957137705666746],[-95.24346981541883,38.957145175622216],[-95.24346885166469,38.95714517433875],[-95.2434688496123,38.95714605568966],[-95.24346981451959,38.95714605700058],[-95.24346980110286,38.957153681960456],[-95.24346883619546,38.957153680649576],[-95.24346883499136,38.95715451065071],[-95.24346979989878,38.95715451196162],[-95.24346978769009,38.95716109963837],[-95.24346882393574,38.957161098354895],[-95.24346882184824,38.957161980606195],[-95.24346978563769,38.95716198098926],[-95.24346977160332,38.95716991775891],[-95.24346880784884,38.9571699164755],[-95.24346880664481,38.957170746476606],[-95.24346977039924,38.957170747760046],[-95.24346975816196,38.957178046504005],[-95.24346879325421,38.95717804519309],[-95.243468792355,38.957178926571416],[-95.24346975610955,38.957178927854905],[-95.24346974269282,38.9571865528148],[-95.24346877893811,38.95718655153131],[-95.24346877658084,38.957187381505065],[-95.24346974148874,38.95718738281593],[-95.24346972927997,38.95719397049268],[-95.24346876552521,38.9571939692092],[-95.24346876343773,38.957194851460486],[-95.24346972838077,38.95719485187097],[-95.24346971434642,38.95720278864063],[-95.2434687494383,38.957202787329756],[-95.24346874823424,38.95720361733089],[-95.24346971198915,38.95720361861438],[-95.24346964222347,38.95724355842055],[-95.24347144854418,38.95724356080995],[-95.24347141980802,38.957260013822044],[-95.24347053799895,38.957260012684394],[-95.24347025658057,38.95741873724345],[-95.24347113839156,38.95741873838114],[-95.24347109835787,38.95744157811774]]]},"properties":{"SDE.FloorAll.FLOORLOCATION":"3"}},{"type":"Feature","geometry":{"type":"Polygon","coordinates":[[[-95.24347109835787,38.95744157811774],[-95.2435728052673,38.957441688065806],[-95.24357280385927,38.957442493728934],[-95.2435742685593,38.95744249520481],[-95.24357426996728,38.95744168954168],[-95.24358268994791,38.957441698654975],[-95.24358268854004,38.957442504318095],[-95.24358415324004,38.95744250579381],[-95.24358415464796,38.95744170013068],[-95.24359348991753,38.95744171027463],[-95.24359348850976,38.95744251593773],[-95.2435949520566,38.95744251738596],[-95.24359495346434,38.957441711722815],[-95.24360245815603,38.95744171980325],[-95.24360245674839,38.95744252546639],[-95.24360392144838,38.9574425269419],[-95.24360392285604,38.95744172127875],[-95.24370642617072,38.957441832018354],[-95.24370646709826,38.957418849009755],[-95.24370712270814,38.957418849274426],[-95.24370740222444,38.95726054465374],[-95.24370674661608,38.95726054438912],[-95.24370677630034,38.95724376966286],[-95.24371028739091,38.95724377382251],[-95.24371035764075,38.95720426211355],[-95.24371108596968,38.95720426230446],[-95.24371108741668,38.95720342600056],[-95.24371035908771,38.957203425809624],[-95.24371037313348,38.95719528085753],[-95.24371110142721,38.95719528194883],[-95.24371110287423,38.95719444564496],[-95.24371037458052,38.95719444455366],[-95.24371038743166,38.95718766222772],[-95.24371111572532,38.95718766331907],[-95.24371111717234,38.95718682701518],[-95.2437103888436,38.95718682682425],[-95.24371040284872,38.95717871251285],[-95.24371113114228,38.9571787136042],[-95.24371113258931,38.95717787730027],[-95.2437104042957,38.95717787620897],[-95.24371041572053,38.95717124886013],[-95.24371114401403,38.95717124995147],[-95.24371114619294,38.95717042447969],[-95.24371041789941,38.95717042338835],[-95.24371043229077,38.95716229917267],[-95.243711159431,38.95716230023655],[-95.24371116203118,38.95716146396009],[-95.2437104337378,38.95716146286877],[-95.24371044540065,38.95715468141584],[-95.24371117372907,38.95715468160675],[-95.24371117517609,38.95715384530288],[-95.24371044684769,38.95715384511193],[-95.24371045940579,38.95714656710443],[-95.24371118769902,38.95714656819576],[-95.24371118914603,38.95714573189187],[-95.24371046085281,38.95714573080053],[-95.24371047511586,38.95713811307111],[-95.24371120229095,38.95713811323461],[-95.24371120370286,38.957137277831116],[-95.2437104765629,38.957137276767256],[-95.24371049060858,38.95712913181507],[-95.24371121890164,38.95712913290641],[-95.24371122034866,38.95712829660246],[-95.2437104920556,38.95712829551118],[-95.24371050289346,38.957122008812],[-95.24371123118645,38.95712200990333],[-95.24371123263346,38.95712117359945],[-95.2437105043405,38.9571211725081],[-95.24371051831051,38.95711305909708],[-95.2437112466034,38.95711306018841],[-95.24371124805042,38.957112223884536],[-95.24371052091071,38.95711222282061],[-95.24371059160991,38.95707216678103],[-95.24370682312156,38.957072162810746],[-95.24370685225163,38.957055550291905],[-95.24370790259881,38.95705555092824],[-95.24370817995393,38.956898337636964],[-95.24370712964424,38.956898336100195],[-95.24370716937769,38.956876330893046],[-95.24360572411133,38.95687622185626],[-95.24360572486133,38.956875758643605],[-95.24360468493062,38.95687575735266],[-95.2436046841806,38.95687622056531],[-95.243595636374,38.95687621094597],[-95.24359563712406,38.95687574773331],[-95.2435945971933,38.95687574644225],[-95.24359459644324,38.95687620965492],[-95.24358429980423,38.956876198283354],[-95.24358430055437,38.956875735070696],[-95.24358326058852,38.956875734679926],[-95.24358325983836,38.956876197892576],[-95.24357462756387,38.95687618823691],[-95.24357462831408,38.95687572502422],[-95.24357358838336,38.95687572373297],[-95.24357358763314,38.95687618694562],[-95.24347300341414,38.9568760784362],[-95.24347296370922,38.95689828822414],[-95.24347212111294,38.95689828801866],[-95.24347184235278,38.95705590864289],[-95.24347268491582,38.95705590974882],[-95.24347265498213,38.95707260065654],[-95.24346994491346,38.957072597509004],[-95.24346987473454,38.95711213355624],[-95.24346890982773,38.957112132245385],[-95.2434689084776,38.95711299558843],[-95.24346987338447,38.95711299689934],[-95.24346985926542,38.957120639867114],[-95.24346889551167,38.957120638583646],[-95.24346889315441,38.95712146855736],[-95.24346985806139,38.95712146986826],[-95.24346984585266,38.95712805754505],[-95.2434688820988,38.95712805626154],[-95.24346888001126,38.95712893851282],[-95.24346984495348,38.95712893892333],[-95.24346983091914,38.95713687569303],[-95.24346886601192,38.95713687438212],[-95.24346886480785,38.95713770438333],[-95.24346982856183,38.957137705666746],[-95.24346981541883,38.957145175622216],[-95.24346885166469,38.95714517433875],[-95.2434688496123,38.95714605568966],[-95.24346981451959,38.95714605700058],[-95.24346980110286,38.957153681960456],[-95.24346883619546,38.957153680649576],[-95.24346883499136,38.95715451065071],[-95.24346979989878,38.95715451196162],[-95.24346978769009,38.95716109963837],[-95.24346882393574,38.957161098354895],[-95.24346882184824,38.957161980606195],[-95.24346978563769,38.95716198098926],[-95.24346977160332,38.95716991775891],[-95.24346880784884,38.9571699164755],[-95.24346880664481,38.957170746476606],[-95.24346977039924,38.957170747760046],[-95.24346975816196,38.957178046504005],[-95.24346879325421,38.95717804519309],[-95.243468792355,38.957178926571416],[-95.24346975610955,38.957178927854905],[-95.24346974269282,38.9571865528148],[-95.24346877893811,38.95718655153131],[-95.24346877658084,38.957187381505065],[-95.24346974148874,38.95718738281593],[-95.24346972927997,38.95719397049268],[-95.24346876552521,38.9571939692092],[-95.24346876343773,38.957194851460486],[-95.24346972838077,38.95719485187097],[-95.24346971434642,38.95720278864063],[-95.2434687494383,38.957202787329756],[-95.24346874823424,38.95720361733089],[-95.24346971198915,38.95720361861438],[-95.24346964222347,38.95724355842055],[-95.24347144854418,38.95724356080995],[-95.24347141980802,38.957260013822044],[-95.24347053799895,38.957260012684394],[-95.24347025658057,38.95741873724345],[-95.24347113839156,38.95741873838114],[-95.24347109835787,38.95744157811774]]]},"properties":{"SDE.FloorAll.FLOORLOCATION":"4"}},{"type":"Feature","geometry":{"type":"Polygon","coordinates":[[[-95.24347109835787,38.95744157811774],[-95.2435728052673,38.957441688065806],[-95.24357280385927,38.957442493728934],[-95.2435742685593,38.95744249520481],[-95.24357426996728,38.95744168954168],[-95.24358268994791,38.957441698654975],[-95.24358268854004,38.957442504318095],[-95.24358415324004,38.95744250579381],[-95.24358415464796,38.95744170013068],[-95.24359348991753,38.95744171027463],[-95.24359348850976,38.95744251593773],[-95.2435949520566,38.95744251738596],[-95.24359495346434,38.957441711722815],[-95.24360245815603,38.95744171980325],[-95.24360245674839,38.95744252546639],[-95.24360392144838,38.9574425269419],[-95.24360392285604,38.95744172127875],[-95.24370642617072,38.957441832018354],[-95.24370646709826,38.957418849009755],[-95.24370712270814,38.957418849274426],[-95.24370740222444,38.95726054465374],[-95.24370674661608,38.95726054438912],[-95.24370677630034,38.95724376966286],[-95.24371028739091,38.95724377382251],[-95.24371035764075,38.95720426211355],[-95.24371108596968,38.95720426230446],[-95.24371108741668,38.95720342600056],[-95.24371035908771,38.957203425809624],[-95.24371037313348,38.95719528085753],[-95.24371110142721,38.95719528194883],[-95.24371110287423,38.95719444564496],[-95.24371037458052,38.95719444455366],[-95.24371038743166,38.95718766222772],[-95.24371111572532,38.95718766331907],[-95.24371111717234,38.95718682701518],[-95.2437103888436,38.95718682682425],[-95.24371040284872,38.95717871251285],[-95.24371113114228,38.9571787136042],[-95.24371113258931,38.95717787730027],[-95.2437104042957,38.95717787620897],[-95.24371041572053,38.95717124886013],[-95.24371114401403,38.95717124995147],[-95.24371114619294,38.95717042447969],[-95.24371041789941,38.95717042338835],[-95.24371043229077,38.95716229917267],[-95.243711159431,38.95716230023655],[-95.24371116203118,38.95716146396009],[-95.2437104337378,38.95716146286877],[-95.24371044540065,38.95715468141584],[-95.24371117372907,38.95715468160675],[-95.24371117517609,38.95715384530288],[-95.24371044684769,38.95715384511193],[-95.24371045940579,38.95714656710443],[-95.24371118769902,38.95714656819576],[-95.24371118914603,38.95714573189187],[-95.24371046085281,38.95714573080053],[-95.24371047511586,38.95713811307111],[-95.24371120229095,38.95713811323461],[-95.24371120370286,38.957137277831116],[-95.2437104765629,38.957137276767256],[-95.24371049060858,38.95712913181507],[-95.24371121890164,38.95712913290641],[-95.24371122034866,38.95712829660246],[-95.2437104920556,38.95712829551118],[-95.24371050289346,38.957122008812],[-95.24371123118645,38.95712200990333],[-95.24371123263346,38.95712117359945],[-95.2437105043405,38.9571211725081],[-95.24371051831051,38.95711305909708],[-95.2437112466034,38.95711306018841],[-95.24371124805042,38.957112223884536],[-95.24371052091071,38.95711222282061],[-95.24371059160991,38.95707216678103],[-95.24370682312156,38.957072162810746],[-95.24370685225163,38.957055550291905],[-95.24370790259881,38.95705555092824],[-95.24370817995393,38.956898337636964],[-95.24370712964424,38.956898336100195],[-95.24370716937769,38.956876330893046],[-95.24360572411133,38.95687622185626],[-95.24360572486133,38.956875758643605],[-95.24360468493062,38.95687575735266],[-95.2436046841806,38.95687622056531],[-95.243595636374,38.95687621094597],[-95.24359563712406,38.95687574773331],[-95.2435945971933,38.95687574644225],[-95.24359459644324,38.95687620965492],[-95.24358429980423,38.956876198283354],[-95.24358430055437,38.956875735070696],[-95.24358326058852,38.956875734679926],[-95.24358325983836,38.956876197892576],[-95.24357462756387,38.95687618823691],[-95.24357462831408,38.95687572502422],[-95.24357358838336,38.95687572373297],[-95.24357358763314,38.95687618694562],[-95.24347300341414,38.9568760784362],[-95.24347296370922,38.95689828822414],[-95.24347212111294,38.95689828801866],[-95.24347184235278,38.95705590864289],[-95.24347268491582,38.95705590974882],[-95.24347265498213,38.95707260065654],[-95.24346994491346,38.957072597509004],[-95.24346987473454,38.95711213355624],[-95.24346890982773,38.957112132245385],[-95.2434689084776,38.95711299558843],[-95.24346987338447,38.95711299689934],[-95.24346985926542,38.957120639867114],[-95.24346889551167,38.957120638583646],[-95.24346889315441,38.95712146855736],[-95.24346985806139,38.95712146986826],[-95.24346984585266,38.95712805754505],[-95.2434688820988,38.95712805626154],[-95.24346888001126,38.95712893851282],[-95.24346984495348,38.95712893892333],[-95.24346983091914,38.95713687569303],[-95.24346886601192,38.95713687438212],[-95.24346886480785,38.95713770438333],[-95.24346982856183,38.957137705666746],[-95.24346981541883,38.957145175622216],[-95.24346885166469,38.95714517433875],[-95.2434688496123,38.95714605568966],[-95.24346981451959,38.95714605700058],[-95.24346980110286,38.957153681960456],[-95.24346883619546,38.957153680649576],[-95.24346883499136,38.95715451065071],[-95.24346979989878,38.95715451196162],[-95.24346978769009,38.95716109963837],[-95.24346882393574,38.957161098354895],[-95.24346882184824,38.957161980606195],[-95.24346978563769,38.95716198098926],[-95.24346977160332,38.95716991775891],[-95.24346880784884,38.9571699164755],[-95.24346880664481,38.957170746476606],[-95.24346977039924,38.957170747760046],[-95.24346975816196,38.957178046504005],[-95.24346879325421,38.95717804519309],[-95.243468792355,38.957178926571416],[-95.24346975610955,38.957178927854905],[-95.24346974269282,38.9571865528148],[-95.24346877893811,38.95718655153131],[-95.24346877658084,38.957187381505065],[-95.24346974148874,38.95718738281593],[-95.24346972927997,38.95719397049268],[-95.24346876552521,38.9571939692092],[-95.24346876343773,38.957194851460486],[-95.24346972838077,38.95719485187097],[-95.24346971434642,38.95720278864063],[-95.2434687494383,38.957202787329756],[-95.24346874823424,38.95720361733089],[-95.24346971198915,38.95720361861438],[-95.24346964222347,38.95724355842055],[-95.24347144854418,38.95724356080995],[-95.24347141980802,38.957260013822044],[-95.24347053799895,38.957260012684394],[-95.24347025658057,38.95741873724345],[-95.24347113839156,38.95741873838114],[-95.24347109835787,38.95744157811774]]]},"properties":{"SDE.FloorAll.FLOORLOCATION":"5"}},{"type":"Feature","geometry":{"type":"Polygon","coordinates":[[[-95.24347109835787,38.95744157811774],[-95.2435728052673,38.957441688065806],[-95.24357280385927,38.957442493728934],[-95.2435742685593,38.95744249520481],[-95.24357426996728,38.95744168954168],[-95.24358268994791,38.957441698654975],[-95.24358268854004,38.957442504318095],[-95.24358415324004,38.95744250579381],[-95.24358415464796,38.95744170013068],[-95.24359348991753,38.95744171027463],[-95.24359348850976,38.95744251593773],[-95.2435949520566,38.95744251738596],[-95.24359495346434,38.957441711722815],[-95.24360245815603,38.95744171980325],[-95.24360245674839,38.95744252546639],[-95.24360392144838,38.9574425269419],[-95.24360392285604,38.95744172127875],[-95.24370642617072,38.957441832018354],[-95.24370646709826,38.957418849009755],[-95.24370712270814,38.957418849274426],[-95.24370740222444,38.95726054465374],[-95.24370674661608,38.95726054438912],[-95.24370677630034,38.95724376966286],[-95.24371028739091,38.95724377382251],[-95.24371035764075,38.95720426211355],[-95.24371108596968,38.95720426230446],[-95.24371108741668,38.95720342600056],[-95.24371035908771,38.957203425809624],[-95.24371037313348,38.95719528085753],[-95.24371110142721,38.95719528194883],[-95.24371110287423,38.95719444564496],[-95.24371037458052,38.95719444455366],[-95.24371038743166,38.95718766222772],[-95.24371111572532,38.95718766331907],[-95.24371111717234,38.95718682701518],[-95.2437103888436,38.95718682682425],[-95.24371040284872,38.95717871251285],[-95.24371113114228,38.9571787136042],[-95.24371113258931,38.95717787730027],[-95.2437104042957,38.95717787620897],[-95.24371041572053,38.95717124886013],[-95.24371114401403,38.95717124995147],[-95.24371114619294,38.95717042447969],[-95.24371041789941,38.95717042338835],[-95.24371043229077,38.95716229917267],[-95.243711159431,38.95716230023655],[-95.24371116203118,38.95716146396009],[-95.2437104337378,38.95716146286877],[-95.24371044540065,38.95715468141584],[-95.24371117372907,38.95715468160675],[-95.24371117517609,38.95715384530288],[-95.24371044684769,38.95715384511193],[-95.24371045940579,38.95714656710443],[-95.24371118769902,38.95714656819576],[-95.24371118914603,38.95714573189187],[-95.24371046085281,38.95714573080053],[-95.24371047511586,38.95713811307111],[-95.24371120229095,38.95713811323461],[-95.24371120370286,38.957137277831116],[-95.2437104765629,38.957137276767256],[-95.24371049060858,38.95712913181507],[-95.24371121890164,38.95712913290641],[-95.24371122034866,38.95712829660246],[-95.2437104920556,38.95712829551118],[-95.24371050289346,38.957122008812],[-95.24371123118645,38.95712200990333],[-95.24371123263346,38.95712117359945],[-95.2437105043405,38.9571211725081],[-95.24371051831051,38.95711305909708],[-95.2437112466034,38.95711306018841],[-95.24371124805042,38.957112223884536],[-95.24371052091071,38.95711222282061],[-95.24371059160991,38.95707216678103],[-95.24370682312156,38.957072162810746],[-95.24370685225163,38.957055550291905],[-95.24370790259881,38.95705555092824],[-95.24370817995393,38.956898337636964],[-95.24370712964424,38.956898336100195],[-95.24370716937769,38.956876330893046],[-95.24360572411133,38.95687622185626],[-95.24360572486133,38.956875758643605],[-95.24360468493062,38.95687575735266],[-95.2436046841806,38.95687622056531],[-95.243595636374,38.95687621094597],[-95.24359563712406,38.95687574773331],[-95.2435945971933,38.95687574644225],[-95.24359459644324,38.95687620965492],[-95.24358429980423,38.956876198283354],[-95.24358430055437,38.956875735070696],[-95.24358326058852,38.956875734679926],[-95.24358325983836,38.956876197892576],[-95.24357462756387,38.95687618823691],[-95.24357462831408,38.95687572502422],[-95.24357358838336,38.95687572373297],[-95.24357358763314,38.95687618694562],[-95.24347300341414,38.9568760784362],[-95.24347296370922,38.95689828822414],[-95.24347212111294,38.95689828801866],[-95.24347184235278,38.95705590864289],[-95.24347268491582,38.95705590974882],[-95.24347265498213,38.95707260065654],[-95.24346994491346,38.957072597509004],[-95.24346987473454,38.95711213355624],[-95.24346890982773,38.957112132245385],[-95.2434689084776,38.95711299558843],[-95.24346987338447,38.95711299689934],[-95.24346985926542,38.957120639867114],[-95.24346889551167,38.957120638583646],[-95.24346889315441,38.95712146855736],[-95.24346985806139,38.95712146986826],[-95.24346984585266,38.95712805754505],[-95.2434688820988,38.95712805626154],[-95.24346888001126,38.95712893851282],[-95.24346984495348,38.95712893892333],[-95.24346983091914,38.95713687569303],[-95.24346886601192,38.95713687438212],[-95.24346886480785,38.95713770438333],[-95.24346982856183,38.957137705666746],[-95.24346981541883,38.957145175622216],[-95.24346885166469,38.95714517433875],[-95.2434688496123,38.95714605568966],[-95.24346981451959,38.95714605700058],[-95.24346980110286,38.957153681960456],[-95.24346883619546,38.957153680649576],[-95.24346883499136,38.95715451065071],[-95.24346979989878,38.95715451196162],[-95.24346978769009,38.95716109963837],[-95.24346882393574,38.957161098354895],[-95.24346882184824,38.957161980606195],[-95.24346978563769,38.95716198098926],[-95.24346977160332,38.95716991775891],[-95.24346880784884,38.9571699164755],[-95.24346880664481,38.957170746476606],[-95.24346977039924,38.957170747760046],[-95.24346975816196,38.957178046504005],[-95.24346879325421,38.95717804519309],[-95.243468792355,38.957178926571416],[-95.24346975610955,38.957178927854905],[-95.24346974269282,38.9571865528148],[-95.24346877893811,38.95718655153131],[-95.24346877658084,38.957187381505065],[-95.24346974148874,38.95718738281593],[-95.24346972927997,38.95719397049268],[-95.24346876552521,38.9571939692092],[-95.24346876343773,38.957194851460486],[-95.24346972838077,38.95719485187097],[-95.24346971434642,38.95720278864063],[-95.2434687494383,38.957202787329756],[-95.24346874823424,38.95720361733089],[-95.24346971198915,38.95720361861438],[-95.24346964222347,38.95724355842055],[-95.24347144854418,38.95724356080995],[-95.24347141980802,38.957260013822044],[-95.24347053799895,38.957260012684394],[-95.24347025658057,38.95741873724345],[-95.24347113839156,38.95741873838114],[-95.24347109835787,38.95744157811774]]]},"properties":{"SDE.FloorAll.FLOORLOCATION":"6"}},{"type":"Feature","geometry":{"type":"Polygon","coordinates":[[[-95.24347109835787,38.95744157811774],[-95.2435728052673,38.957441688065806],[-95.24357280385927,38.957442493728934],[-95.2435742685593,38.95744249520481],[-95.24357426996728,38.95744168954168],[-95.24358268994791,38.957441698654975],[-95.24358268854004,38.957442504318095],[-95.24358415324004,38.95744250579381],[-95.24358415464796,38.95744170013068],[-95.24359348991753,38.95744171027463],[-95.24359348850976,38.95744251593773],[-95.2435949520566,38.95744251738596],[-95.24359495346434,38.957441711722815],[-95.24360245815603,38.95744171980325],[-95.24360245674839,38.95744252546639],[-95.24360392144838,38.9574425269419],[-95.24360392285604,38.95744172127875],[-95.24370642617072,38.957441832018354],[-95.24370646709826,38.957418849009755],[-95.24370712270814,38.957418849274426],[-95.24370740222444,38.95726054465374],[-95.24370674661608,38.95726054438912],[-95.24370677630034,38.95724376966286],[-95.24371028739091,38.95724377382251],[-95.24371035764075,38.95720426211355],[-95.24371108596968,38.95720426230446],[-95.24371108741668,38.95720342600056],[-95.24371035908771,38.957203425809624],[-95.24371037313348,38.95719528085753],[-95.24371110142721,38.95719528194883],[-95.24371110287423,38.95719444564496],[-95.24371037458052,38.95719444455366],[-95.24371038743166,38.95718766222772],[-95.24371111572532,38.95718766331907],[-95.24371111717234,38.95718682701518],[-95.2437103888436,38.95718682682425],[-95.24371040284872,38.95717871251285],[-95.24371113114228,38.9571787136042],[-95.24371113258931,38.95717787730027],[-95.2437104042957,38.95717787620897],[-95.24371041572053,38.95717124886013],[-95.24371114401403,38.95717124995147],[-95.24371114619294,38.95717042447969],[-95.24371041789941,38.95717042338835],[-95.24371043229077,38.95716229917267],[-95.243711159431,38.95716230023655],[-95.24371116203118,38.95716146396009],[-95.2437104337378,38.95716146286877],[-95.24371044540065,38.95715468141584],[-95.24371117372907,38.95715468160675],[-95.24371117517609,38.95715384530288],[-95.24371044684769,38.95715384511193],[-95.24371045940579,38.95714656710443],[-95.24371118769902,38.95714656819576],[-95.24371118914603,38.95714573189187],[-95.24371046085281,38.95714573080053],[-95.24371047511586,38.95713811307111],[-95.24371120229095,38.95713811323461],[-95.24371120370286,38.957137277831116],[-95.2437104765629,38.957137276767256],[-95.24371049060858,38.95712913181507],[-95.24371121890164,38.95712913290641],[-95.24371122034866,38.95712829660246],[-95.2437104920556,38.95712829551118],[-95.24371050289346,38.957122008812],[-95.24371123118645,38.95712200990333],[-95.24371123263346,38.95712117359945],[-95.2437105043405,38.9571211725081],[-95.24371051831051,38.95711305909708],[-95.2437112466034,38.95711306018841],[-95.24371124805042,38.957112223884536],[-95.24371052091071,38.95711222282061],[-95.24371059160991,38.95707216678103],[-95.24370682312156,38.957072162810746],[-95.24370685225163,38.957055550291905],[-95.24370790259881,38.95705555092824],[-95.24370817995393,38.956898337636964],[-95.24370712964424,38.956898336100195],[-95.24370716937769,38.956876330893046],[-95.24360572411133,38.95687622185626],[-95.24360572486133,38.956875758643605],[-95.24360468493062,38.95687575735266],[-95.2436046841806,38.95687622056531],[-95.243595636374,38.95687621094597],[-95.24359563712406,38.95687574773331],[-95.2435945971933,38.95687574644225],[-95.24359459644324,38.95687620965492],[-95.24358429980423,38.956876198283354],[-95.24358430055437,38.956875735070696],[-95.24358326058852,38.956875734679926],[-95.24358325983836,38.956876197892576],[-95.24357462756387,38.95687618823691],[-95.24357462831408,38.95687572502422],[-95.24357358838336,38.95687572373297],[-95.24357358763314,38.95687618694562],[-95.24347300341414,38.9568760784362],[-95.24347296370922,38.95689828822414],[-95.24347212111294,38.95689828801866],[-95.24347184235278,38.95705590864289],[-95.24347268491582,38.95705590974882],[-95.24347265498213,38.95707260065654],[-95.24346994491346,38.957072597509004],[-95.24346987473454,38.95711213355624],[-95.24346890982773,38.957112132245385],[-95.2434689084776,38.95711299558843],[-95.24346987338447,38.95711299689934],[-95.24346985926542,38.957120639867114],[-95.24346889551167,38.957120638583646],[-95.24346889315441,38.95712146855736],[-95.24346985806139,38.95712146986826],[-95.24346984585266,38.95712805754505],[-95.2434688820988,38.95712805626154],[-95.24346888001126,38.95712893851282],[-95.24346984495348,38.95712893892333],[-95.24346983091914,38.95713687569303],[-95.24346886601192,38.95713687438212],[-95.24346886480785,38.95713770438333],[-95.24346982856183,38.957137705666746],[-95.24346981541883,38.957145175622216],[-95.24346885166469,38.95714517433875],[-95.2434688496123,38.95714605568966],[-95.24346981451959,38.95714605700058],[-95.24346980110286,38.957153681960456],[-95.24346883619546,38.957153680649576],[-95.24346883499136,38.95715451065071],[-95.24346979989878,38.95715451196162],[-95.24346978769009,38.95716109963837],[-95.24346882393574,38.957161098354895],[-95.24346882184824,38.957161980606195],[-95.24346978563769,38.95716198098926],[-95.24346977160332,38.95716991775891],[-95.24346880784884,38.9571699164755],[-95.24346880664481,38.957170746476606],[-95.24346977039924,38.957170747760046],[-95.24346975816196,38.957178046504005],[-95.24346879325421,38.95717804519309],[-95.243468792355,38.957178926571416],[-95.24346975610955,38.957178927854905],[-95.24346974269282,38.9571865528148],[-95.24346877893811,38.95718655153131],[-95.24346877658084,38.957187381505065],[-95.24346974148874,38.95718738281593],[-95.24346972927997,38.95719397049268],[-95.24346876552521,38.9571939692092],[-95.24346876343773,38.957194851460486],[-95.24346972838077,38.95719485187097],[-95.24346971434642,38.95720278864063],[-95.2434687494383,38.957202787329756],[-95.24346874823424,38.95720361733089],[-95.24346971198915,38.95720361861438],[-95.24346964222347,38.95724355842055],[-95.24347144854418,38.95724356080995],[-95.24347141980802,38.957260013822044],[-95.24347053799895,38.957260012684394],[-95.24347025658057,38.95741873724345],[-95.24347113839156,38.95741873838114],[-95.24347109835787,38.95744157811774]]]},"properties":{"SDE.FloorAll.FLOORLOCATION":"7"}},{"type":"Feature","geometry":{"type":"Polygon","coordinates":[[[-95.24347295757892,38.95744164485047],[-95.24370642617072,38.957441832018354],[-95.24370668491447,38.95724492917149],[-95.24370924154542,38.95724493046818],[-95.24370946927992,38.957071762486365],[-95.24370691153713,38.957071760261854],[-95.24370716937769,38.956876330893046],[-95.24347370265318,38.95687614372663],[-95.24347344513708,38.957071992188425],[-95.24347069117715,38.95707198979984],[-95.24347046313868,38.95724515057803],[-95.24347321710542,38.95724515296661],[-95.24347295757892,38.95744164485047]]]},"properties":{"SDE.FloorAll.FLOORLOCATION":"8"}},{"type":"Feature","geometry":{"type":"MultiPolygon","coordinates":[[[[-95.2435693084575,38.95707160453464],[-95.24356925808952,38.95710939086948],[-95.24361765338485,38.95710942928564],[-95.24361770253867,38.95707164382374],[-95.2435693084575,38.95707160453464]]],[[[-95.24356913523232,38.95720317139599],[-95.2435690848641,38.95724095773047],[-95.2436174802495,38.957240996146666],[-95.2436175294035,38.95720321068518],[-95.24356913523232,38.95720317139599]]]]},"properties":{"SDE.FloorAll.FLOORLOCATION":"9"}},{"type":"Feature","geometry":{"type":"Polygon","coordinates":[[[-95.24347295757892,38.95744164485047],[-95.24370642617072,38.957441832018354],[-95.24370668491447,38.95724492917149],[-95.24370924154542,38.95724493046818],[-95.24370946927992,38.957071762486365],[-95.24370691153713,38.957071760261854],[-95.24370716937769,38.956876330893046],[-95.24347370265318,38.95687614372663],[-95.24347344513708,38.957071992188425],[-95.24347069117715,38.95707198979984],[-95.24347046313868,38.95724515057803],[-95.24347321710542,38.95724515296661],[-95.24347295757892,38.95744164485047]]]},"properties":{"SDE.FloorAll.FLOORLOCATION":"ROOF"}}]}
