{"type":"FeatureCollection","features":[{"type":"Feature","geometry":{"type":"Polygon","coordinates":[[[-95.24143299816689,38.96544896231641],[-95.24143182544296,38.9654489587511],[-95.24143180891747,38.96545216221875],[-95.24149042407788,38.96545234717842],[-95.2414904406007,38.965449143710764],[-95.24148868265046,38.965449138841294],[-95.24148872765306,38.965440443975915],[-95.24148931399739,38.9654404462085],[-95.2414893773792,38.96542820455225],[-95.24151165091436,38.96542827568932],[-95.24151290606795,38.96518665874455],[-95.24156565975211,38.965186824998085],[-95.2415653181038,38.9652527208715],[-95.24188213352207,38.96525372305693],[-95.24188122213783,38.96542944415877],[-95.2419931786095,38.96542979810847],[-95.24199312242921,38.96544043755348],[-95.24200865631045,38.9654404870839],[-95.2420086031397,38.96545078323312],[-95.24200743041564,38.965450779673645],[-95.24200741395141,38.96545398224103],[-95.24206602907971,38.965454167810194],[-95.2420660455413,38.9654509652428],[-95.24206487397058,38.965450961711355],[-95.2420649528982,38.965435745478324],[-95.24207315846957,38.965435771208455],[-95.24207318890846,38.96543005094679],[-95.2421259427404,38.965430217845906],[-95.24212702022461,38.96522235756372],[-95.24216098046168,38.965222464999016],[-95.24216115187677,38.965189287719966],[-95.24212719162058,38.96518918118508],[-95.24212826231654,38.964982677984445],[-95.24198875825816,38.96498223671114],[-95.2419884170052,38.965048132586936],[-95.24151363387213,38.96504663084162],[-95.24151397556763,38.96498073496715],[-95.2414524302137,38.96498053978356],[-95.2414510739799,38.96498053545761],[-95.24143935146634,38.96498049901526],[-95.24143601802372,38.964980488207466],[-95.24142942267918,38.96498046739227],[-95.24137447151689,38.96498029295506],[-95.24137215246249,38.96542663249353],[-95.24137214598052,38.965427833674454],[-95.24141801357494,38.96542797856479],[-95.24141795565862,38.96543913347198],[-95.24143304865393,38.96543918070203],[-95.24143299816689,38.96544896231641]]]},"properties":{"SDE.FloorAll.FLOORLOCATION":"-1"}},{"type":"Feature","geometry":{"type":"Polygon","coordinates":[[[-95.2420074150696,38.96545398316884],[-95.24206603023302,38.96545416783761],[-95.24206615487297,38.965430029648466],[-95.24212594270526,38.965430218746285],[-95.2421265811871,38.96530712189091],[-95.24196285457101,38.9653066046833],[-95.2419630272326,38.96527342743215],[-95.24188203367515,38.96527317185446],[-95.241881223256,38.96542944508657],[-95.24200753976471,38.9654298440794],[-95.2420074150696,38.96545398316884]]]},"properties":{"SDE.FloorAll.FLOORLOCATION":"-2"}},{"type":"Feature","geometry":{"type":"Polygon","coordinates":[[[-95.24143299831685,38.96544907677576],[-95.24143182559291,38.965449073210436],[-95.24143181192753,38.96545181892303],[-95.24149042708764,38.96545200388266],[-95.24149044190406,38.96544925819753],[-95.24148882941303,38.965449253183515],[-95.24148883195426,38.965427745469974],[-95.24151165492722,38.96542781796166],[-95.24151290907758,38.965186315448776],[-95.24156566276146,38.96518648170234],[-95.24156531819642,38.96525277765099],[-95.24193459527926,38.965253946184866],[-95.24193493949801,38.965187650235116],[-95.24198769314873,38.96518781719712],[-95.24198644062025,38.965429319715106],[-95.2420087141914,38.965429389856354],[-95.24200865931766,38.96544014378815],[-95.24200860329059,38.96545089769249],[-95.24200743056659,38.965450894133],[-95.24200741695869,38.96545363894526],[-95.24206603208665,38.965453824514434],[-95.24206604672976,38.96545096436988],[-95.24206483825273,38.965450959960606],[-95.24206491614285,38.96543585905988],[-95.2420731228676,38.96543588481748],[-95.24207319172925,38.96542959409208],[-95.24212594559597,38.96542976009077],[-95.24212826532316,38.964982334688685],[-95.24198876126547,38.964981893415384],[-95.24198826298924,38.965077933386205],[-95.24193433670264,38.96507776286424],[-95.24193445430652,38.96505522598566],[-95.24189124983073,38.9650550887616],[-95.24189128927783,38.965047481545284],[-95.2416104975617,38.96504659369015],[-95.2416103358703,38.96507771100218],[-95.24156974571534,38.96507758267577],[-95.24151347399447,38.96507740483032],[-95.24151397857725,38.9649803916714],[-95.24137447452719,38.9649799496593],[-95.24137214899085,38.96542749037871],[-95.24142490281922,38.96542765759664],[-95.24142487080616,38.96543394919966],[-95.24143307634198,38.96543397587545],[-95.24143299831685,38.96544907677576]]]},"properties":{"SDE.FloorAll.FLOORLOCATION":"1"}},{"type":"Feature","geometry":{"type":"Polygon","coordinates":[[[-95.24143299813176,38.96544896321679],[-95.24143182540782,38.96544895965152],[-95.24143180891747,38.96545216221875],[-95.24149042523118,38.96545234720585],[-95.24149044171887,38.96544914463857],[-95.24148871959193,38.96544913881889],[-95.24148883079452,38.96542777518287],[-95.24151165376749,38.96542784767457],[-95.24151290889236,38.96518620188982],[-95.24156566257614,38.965186368143364],[-95.24156552297462,38.9652133105979],[-95.24193479988642,38.965214478230735],[-95.24193493931203,38.96518753667615],[-95.2419876929627,38.965187703638136],[-95.24198643949586,38.96542934852757],[-95.24200926362317,38.965429420948794],[-95.24200920856967,38.965440031581295],[-95.2420091525427,38.96545078548567],[-95.2420074303805,38.96545078057406],[-95.2420074139163,38.96545398314142],[-95.24206603023302,38.96545416783761],[-95.24206604669462,38.965450965270236],[-95.24206487397058,38.965450961711355],[-95.24206495189587,38.965435859910244],[-95.24207315858543,38.965435886568216],[-95.24207319172925,38.96542959409208],[-95.24212594556084,38.96542976099115],[-95.24212826513696,38.96498222112968],[-95.24198876107947,38.96498177985641],[-95.24198825830148,38.965078793044796],[-95.24193550473214,38.965078626083056],[-95.24193566628037,38.96504750877057],[-95.24156639027582,38.96504634024008],[-95.24156622856506,38.965077457552056],[-95.24151347496253,38.9650772912988],[-95.241513978392,38.964980278112435],[-95.2413744743422,38.964979836100326],[-95.24137214880585,38.965427376819726],[-95.24142490378743,38.96542754406511],[-95.24142487062106,38.96543383564074],[-95.24143307615682,38.9654338623165],[-95.24143299813176,38.96544896321679]]]},"properties":{"SDE.FloorAll.FLOORLOCATION":"2"}},{"type":"Feature","geometry":{"type":"MultiPolygon","coordinates":[[[[-95.2420086031397,38.96545078323312],[-95.24200743041564,38.965450779673645],[-95.24200741680778,38.96545352448591],[-95.24206603193569,38.96545371005504],[-95.24206604557645,38.96545096434243],[-95.2420648740057,38.96545096081094],[-95.24206495460088,38.9654352876958],[-95.2420731613255,38.96543531345332],[-95.24207319157826,38.96542947963267],[-95.2421259454449,38.9654296456314],[-95.2421282651721,38.96498222022934],[-95.24198876111461,38.964981778956016],[-95.2419882583366,38.96507879214443],[-95.24193198780213,38.965078613629025],[-95.24193142237668,38.96518752422209],[-95.24198769299782,38.96518770273775],[-95.24198706731136,38.965308454011065],[-95.24198644046939,38.96542920525573],[-95.24199318131508,38.96542922589399],[-95.24199312528565,38.96543997979837],[-95.24200865916679,38.96544002932875],[-95.2420086031397,38.96545078323312]]],[[[-95.24143299816689,38.96544896231641],[-95.24143182544296,38.9654489587511],[-95.24143181177755,38.96545170446368],[-95.24149042693757,38.96545188942329],[-95.24149044175401,38.96544914373816],[-95.24148926903005,38.96544914017347],[-95.2414893802389,38.96542774679716],[-95.24151165377391,38.96542781793423],[-95.24151228127671,38.965306952232766],[-95.24151290892749,38.96518620098942],[-95.24156917958167,38.96518637880773],[-95.24156974556517,38.96507746821644],[-95.24151347384432,38.96507729037097],[-95.24151397842715,38.96498027721206],[-95.24137447437732,38.96497983519994],[-95.241372148841,38.965427375919354],[-95.24142490266925,38.9654275431373],[-95.24142487065619,38.96543383474031],[-95.24143307619197,38.96543386141611],[-95.24143299816689,38.96544896231641]]]]},"properties":{"SDE.FloorAll.FLOORLOCATION":"3"}},{"type":"Feature","geometry":{"type":"MultiPolygon","coordinates":[[[[-95.2420086031397,38.96545078323312],[-95.24200743041564,38.965450779673645],[-95.24200741680778,38.96545352448591],[-95.24206603193569,38.96545371005504],[-95.24206604672976,38.96545096436988],[-95.2420648740057,38.96545096081094],[-95.24206495575417,38.965435287723224],[-95.2420731613255,38.96543531345332],[-95.24207319176438,38.96542959319164],[-95.24212594559597,38.96542976009077],[-95.2421282651721,38.96498222022934],[-95.24198876111461,38.964981778956016],[-95.2419882583366,38.96507879214443],[-95.24193198780213,38.965078613629025],[-95.24193142237668,38.96518752422209],[-95.24198769299782,38.96518770273775],[-95.241987066251,38.965308510763116],[-95.24198644062025,38.965429319715106],[-95.24199318146596,38.96542934035336],[-95.24199312528565,38.96543997979837],[-95.24200865916679,38.96544002932875],[-95.2420086031397,38.96545078323312]]],[[[-95.24143299816689,38.96544896231641],[-95.24143182544296,38.9654489587511],[-95.24143181177755,38.96545170446368],[-95.24149042693757,38.96545188942329],[-95.24149044175401,38.96544914373816],[-95.24148926903005,38.96544914017347],[-95.2414893802389,38.96542774679716],[-95.24151165377391,38.96542781793423],[-95.24151228136932,38.965307009012264],[-95.24151290892749,38.96518620098942],[-95.24156917958167,38.96518637880773],[-95.24156974556517,38.96507746821644],[-95.24151347499767,38.96507729039842],[-95.24151397842715,38.96498027721206],[-95.24137447437732,38.96497983519994],[-95.241372148841,38.965427375919354],[-95.24142490382258,38.96542754316476],[-95.24142487065619,38.96543383474031],[-95.24143307619197,38.96543386141611],[-95.24143299816689,38.96544896231641]]]]},"properties":{"SDE.FloorAll.FLOORLOCATION":"4"}},{"type":"Feature","geometry":{"type":"MultiPolygon","coordinates":[[[[-95.2419319885587,38.96507850549982],[-95.24193142334408,38.96518741069057],[-95.24199267687922,38.96518760408221],[-95.24199314658169,38.9650969996312],[-95.24199322741349,38.96508143917415],[-95.24200231247332,38.9650814678041],[-95.2420023272698,38.96507872211884],[-95.2419319885587,38.96507850549982]]],[[[-95.24201534731897,38.965097069843765],[-95.24201518873221,38.96512772760032],[-95.24204984493593,38.965127837202836],[-95.24205000357789,38.96509717764544],[-95.24201534731897,38.965097069843765]]],[[[-95.24145154167621,38.96509528445753],[-95.24145138277467,38.96512594401408],[-95.24148603897665,38.965126053785035],[-95.24148619782795,38.965095395128785],[-95.24145154167621,38.96509528445753]]],[[[-95.24150839856425,38.96509546543843],[-95.24150792820534,38.9651860707879],[-95.24156918058478,38.96518626437581],[-95.24156974632228,38.96507736008724],[-95.24149940807074,38.96507713150083],[-95.24149939440804,38.965079877213505],[-95.24150847946754,38.965079905882114],[-95.24150839856425,38.96509546543843]]]]},"properties":{"SDE.FloorAll.FLOORLOCATION":"5"}},{"type":"Feature","geometry":{"type":"Polygon","coordinates":[[[-95.24143122372637,38.96545216001336],[-95.24149013204139,38.96545234653979],[-95.24149021105758,38.96543713120753],[-95.24150222680146,38.965437169211164],[-95.24150227481209,38.965428131050004],[-95.24151135991633,38.96542815971843],[-95.24151150498017,38.965400131415784],[-95.24151267770331,38.96540013498028],[-95.24151326575354,38.96539967943017],[-95.24151327600327,38.965397849282695],[-95.2415126913304,38.965397390168114],[-95.24151151979578,38.965397385730675],[-95.24151198446745,38.96530769499262],[-95.24151315718912,38.96530769855711],[-95.24151374639189,38.96530724303447],[-95.24151375548828,38.965305412859514],[-95.24151317200466,38.96530495287194],[-95.24151199928303,38.96530494930746],[-95.24151255796538,38.96519741110993],[-95.24151373065006,38.96519741557479],[-95.24151431873373,38.96519695912429],[-95.24151432898341,38.96519512897678],[-95.24151374431217,38.9651946698622],[-95.2415125727809,38.965194665424725],[-95.24151261403257,38.965186658105935],[-95.24151510489529,38.96518666599067],[-95.2415653677167,38.96518682435964],[-95.2415653052012,38.9651988371249],[-95.24156413248141,38.965198833560954],[-95.24156354443316,38.9651992891113],[-95.24156353533807,38.96520111928625],[-95.24156411885635,38.96520157837317],[-95.24156529038775,38.96520158281009],[-95.24156522699691,38.965213765886354],[-95.2415650361088,38.965250717946304],[-95.24156502315138,38.965253120308326],[-95.24188183972477,38.96525412252192],[-95.24188172587073,38.965276030433564],[-95.24188135792201,38.96534707438206],[-95.24188093010146,38.96542944352112],[-95.24198614457407,38.96542977680539],[-95.24199288541976,38.9654297974437],[-95.24199283039277,38.96544043691612],[-95.24200719155013,38.96544048288709],[-95.24200712191495,38.96545398160368],[-95.24206603023302,38.96545416783761],[-95.24206612562195,38.96543574903724],[-95.24207286643315,38.96543577057131],[-95.24207289672107,38.96542993585026],[-95.24212565055292,38.9654301027495],[-95.242127970282,38.96498267734742],[-95.2419884662236,38.964982236073766],[-95.24198796229189,38.96507924923471],[-95.24193550191042,38.96507908293781],[-95.2419356634587,38.9650479656253],[-95.24157342137869,38.96504682022415],[-95.24157332671487,38.96506501013349],[-95.24157215518572,38.96506500569666],[-95.24157156595017,38.96506546212001],[-95.24157155685529,38.965067292295],[-95.24157214037257,38.965067751381866],[-95.24157331190173,38.96506775581872],[-95.24157325967103,38.96507793753617],[-95.24151317894987,38.96507774748747],[-95.24151368353307,38.96498073432858],[-95.24137417948236,38.96498029231612],[-95.24137185394416,38.96542783303552],[-95.24142460777277,38.96542800025359],[-95.24142457575967,38.96543429185663],[-95.24143131657054,38.96543431342793],[-95.24143122372637,38.96545216001336]]]},"properties":{"SDE.FloorAll.FLOORLOCATION":"ROOF"}}]}
