{"type":"FeatureCollection","features":[{"type":"Feature","geometry":{"type":"Polygon","coordinates":[[[-95.25398603113719,38.95675760810783],[-95.25403098608437,38.956792861627925],[-95.2540191495979,38.956802063970336],[-95.25403238275372,38.95681244044157],[-95.25404974918501,38.956826384511956],[-95.2541590111053,38.956741443533],[-95.25416893538457,38.956749226311196],[-95.2541697661212,38.956748580882156],[-95.25418808015344,38.956762942109],[-95.25419461191238,38.95675786429227],[-95.25419006310612,38.956754296769496],[-95.25418602355693,38.95675743829845],[-95.25417597938159,38.956749562560056],[-95.25418657088753,38.956741328372715],[-95.25419773627748,38.956750084121644],[-95.2542500664901,38.956709402094106],[-95.25425010460827,38.95669567375877],[-95.25432682161195,38.95663603429882],[-95.25432103169949,38.956631493809375],[-95.25431853946286,38.95663343100019],[-95.25422632431092,38.956561116692576],[-95.25422748717067,38.956560211465145],[-95.2542229383405,38.95655664484397],[-95.2542217755157,38.95655754917094],[-95.25421859096785,38.95655505306807],[-95.25421882645708,38.95647072665835],[-95.2542211104134,38.956468951263595],[-95.25422317814974,38.95647057286684],[-95.2542277460971,38.95646702117668],[-95.25422567836075,38.95646539957346],[-95.25427987812216,38.956423263978266],[-95.25428318696173,38.9564258585527],[-95.25429190863149,38.956419077909665],[-95.25431299823474,38.9564356164148],[-95.25434663991877,38.95640946290305],[-95.25432555031546,38.95639292440401],[-95.25432762598973,38.95639131080121],[-95.25426104955717,38.956339100734425],[-95.25423716855096,38.95635766635914],[-95.25418112348031,38.95631371662292],[-95.25416617237397,38.95632534070423],[-95.25416390976146,38.95632356578274],[-95.25416141753134,38.95632550297024],[-95.2541337114572,38.95630377620791],[-95.25409446394336,38.956334288592835],[-95.25412299664843,38.95635666399559],[-95.25410492968157,38.95637070886321],[-95.25410410305055,38.956370060232004],[-95.2540995339501,38.956373611889994],[-95.25410160168093,38.956375233495486],[-95.25407419052809,38.956396543522246],[-95.25419415513855,38.95649061908577],[-95.25419395320128,38.95656329527345],[-95.25428682918431,38.95663612813962],[-95.25418258187638,38.956717170335885],[-95.25411062862506,38.956660744903225],[-95.25398603113719,38.95675760810783]]]},"properties":{"SDE.FloorAll.FLOORLOCATION":"-1"}},{"type":"Feature","geometry":{"type":"Polygon","coordinates":[[[-95.25399239447357,38.95676248122829],[-95.25398372274063,38.95676922247791],[-95.25408677064057,38.95685003161431],[-95.25413285442485,38.95685010913641],[-95.25422306847459,38.95677997650679],[-95.25421417804002,38.95677300498515],[-95.2542426283107,38.956750887702384],[-95.2542657857475,38.95676904781847],[-95.25429091896422,38.956749508777776],[-95.25430751708888,38.956736135655355],[-95.25427072325759,38.956707282238895],[-95.25427194916166,38.956706328936676],[-95.25425286338798,38.9566913618492],[-95.2542584834658,38.9566869924299],[-95.25425987242147,38.95668808155658],[-95.25432673948909,38.95663609814337],[-95.25428807511427,38.95660577740272],[-95.25428857141591,38.95660539171636],[-95.25430260957326,38.95660541503988],[-95.25432140497269,38.95659080339859],[-95.2543263863401,38.95659081231508],[-95.25432639324137,38.95658825751009],[-95.25442198279244,38.95651394598922],[-95.2543268072047,38.956439310399205],[-95.25432681407098,38.95643675649454],[-95.25432183271444,38.95643674757807],[-95.25430311887621,38.956422072289065],[-95.25428908075526,38.9564220489656],[-95.25428858682301,38.95642166055714],[-95.25432762714297,38.9563913108285],[-95.25426104955717,38.956339100734425],[-95.25422221629138,38.95636929042029],[-95.25416989455528,38.956328258696935],[-95.25422819320808,38.956282937042175],[-95.2542286360438,38.95612377343597],[-95.25421271812101,38.9561112903291],[-95.25422951032196,38.956098236343486],[-95.25422952353267,38.956093261001385],[-95.25421618813297,38.956082785697234],[-95.25421622519966,38.95606932229584],[-95.25416426011688,38.956028504488884],[-95.25413124693995,38.956054169948054],[-95.25413120748729,38.95606840744435],[-95.25410368697744,38.956089802304405],[-95.25410120478793,38.95608785635599],[-95.2539773307314,38.956184158079886],[-95.2539768034043,38.95637346922958],[-95.25395091921159,38.95639359243262],[-95.25396023518772,38.95640089849558],[-95.2540153534614,38.95640099177784],[-95.25403683394606,38.95641783609498],[-95.25402499636989,38.956427038410915],[-95.25400969674553,38.956415039458356],[-95.25397875429805,38.956439093868134],[-95.25399405507555,38.95645109285203],[-95.25398159503118,38.95646077879785],[-95.25397911398517,38.956458832874226],[-95.25397454487268,38.95646238452731],[-95.25397813370762,38.956465199332115],[-95.25397809655813,38.95647872311408],[-95.25396889210842,38.956478706987944],[-95.2539687895019,38.95651554477408],[-95.25397799395641,38.956515560900215],[-95.25397787445223,38.956558389620035],[-95.2539173802665,38.95651095119011],[-95.25384651450855,38.95651083004906],[-95.2537364527577,38.95659639256073],[-95.25383781097146,38.95667587766633],[-95.25387768239831,38.95664488176275],[-95.25396419480155,38.95671272369899],[-95.2539464930735,38.956726485198466],[-95.25399239447357,38.95676248122829]]]},"properties":{"SDE.FloorAll.FLOORLOCATION":"1"}},{"type":"Feature","geometry":{"type":"Polygon","coordinates":[[[-95.25400988795809,38.95674888061503],[-95.25398372162243,38.9567692215502],[-95.25400039577083,38.95678229667502],[-95.25400038961533,38.95678423776472],[-95.25410851618729,38.95686902980696],[-95.25422418489472,38.95677910803091],[-95.2541430073067,38.95671544994769],[-95.25415110653246,38.95670915385094],[-95.25416350963003,38.956718880694076],[-95.25421526850765,38.9566786438743],[-95.25421530709791,38.956664606430316],[-95.25422265409983,38.956658895433094],[-95.25425987130322,38.95668808062889],[-95.25432673837089,38.956636097215686],[-95.25422947481735,38.95655982414686],[-95.25422973112762,38.95646741425601],[-95.2543276260247,38.956391309900816],[-95.25420810610028,38.95629758296483],[-95.25422819631765,38.95628196559691],[-95.25422872272716,38.95609263100704],[-95.25421618701479,38.95608278476953],[-95.25421622523463,38.95606932139546],[-95.25416426015185,38.95602850358849],[-95.25413124697492,38.956054169047675],[-95.25413121755463,38.95606452340933],[-95.25397733076638,38.95618415717949],[-95.2539768034043,38.95637346922958],[-95.25395091805844,38.9563935924053],[-95.25396023406948,38.956400897567875],[-95.25401535230824,38.956400991750535],[-95.2540368327929,38.95641783606767],[-95.25398159506615,38.95646077789747],[-95.253979112832,38.9564588328469],[-95.25397454487268,38.95646238452731],[-95.25397813374259,38.95646519843175],[-95.25397808802943,38.956481468039016],[-95.25397240029365,38.95648145859962],[-95.2539723987033,38.95648191548228],[-95.25397298500872,38.95648191675135],[-95.25397290044151,38.956512348166484],[-95.25397231413585,38.95651234689741],[-95.25397231251048,38.95651280468048],[-95.25398210330529,38.95651282117495],[-95.25398197714287,38.956557990214556],[-95.25398007639538,38.95655946826481],[-95.25391810481754,38.95651087011755],[-95.25391810881776,38.95650957875892],[-95.2539169280992,38.95650957692945],[-95.25391479201855,38.95650790233209],[-95.25385359352748,38.956507798373856],[-95.25385144882055,38.95650946530807],[-95.25384949134657,38.95650946220353],[-95.25384764428769,38.95650801344781],[-95.25384602087036,38.956509275462345],[-95.25384353363162,38.9565092715259],[-95.25378053922694,38.95655824348123],[-95.25378053421858,38.956560184598224],[-95.2537339655509,38.95659638772157],[-95.25383739149538,38.956677494439454],[-95.25388635002037,38.95663943458076],[-95.25392522149363,38.95666991717679],[-95.25391717341329,38.95667617391448],[-95.25400988795809,38.95674888061503]]]},"properties":{"SDE.FloorAll.FLOORLOCATION":"2"}},{"type":"Feature","geometry":{"type":"Polygon","coordinates":[[[-95.2540289838988,38.956762961180154],[-95.25413096055465,38.956683684911326],[-95.25413093427007,38.95669333458995],[-95.25416351074823,38.95671888162178],[-95.25421526966086,38.956678643901604],[-95.25421530821609,38.95666460735804],[-95.25422265525306,38.95665889546042],[-95.25425987242147,38.95668808155658],[-95.25432673948909,38.95663609814337],[-95.25422947481735,38.95655982414686],[-95.2542297322458,38.956467415183724],[-95.25432762717794,38.956391309928115],[-95.25420810721852,38.95629758389253],[-95.25422819631765,38.95628196559691],[-95.25422872272716,38.95609263100704],[-95.25421618778321,38.95608279470115],[-95.25421622519966,38.95606932229584],[-95.25416426127003,38.95602850451618],[-95.25413124697492,38.956054169047675],[-95.25413121867281,38.95606452433702],[-95.25397733076638,38.95618415717949],[-95.25397680455751,38.956373469256924],[-95.25395091921159,38.95639359243262],[-95.25396023518772,38.95640089849558],[-95.2540153534614,38.95640099177784],[-95.25403683394606,38.95641783609498],[-95.25398159503118,38.95646077879785],[-95.25397911398517,38.956458832874226],[-95.25397454602584,38.9564623845546],[-95.25397813374259,38.95646519843175],[-95.25397804488597,38.95649725555253],[-95.2539821479416,38.95649726260759],[-95.25398197829603,38.956557990241876],[-95.25398007754858,38.95655946829214],[-95.25397883644722,38.95655849531667],[-95.2538714753103,38.956641958979134],[-95.25387850517801,38.95664747153987],[-95.25388302314623,38.95664395923394],[-95.25391837968354,38.95667168555213],[-95.25391256444709,38.95667620534358],[-95.25400755397956,38.95675069537628],[-95.25401046159787,38.95674843547822],[-95.2540289838988,38.956762961180154]]]},"properties":{"SDE.FloorAll.FLOORLOCATION":"3"}},{"type":"Feature","geometry":{"type":"Polygon","coordinates":[[[-95.25413019266087,38.95668497079587],[-95.25413017144272,38.95669273703739],[-95.25416351074823,38.95671888162178],[-95.25421526850765,38.9566786438743],[-95.25421530821609,38.95666460735804],[-95.25422265409983,38.956658895433094],[-95.25425987126825,38.95668808152926],[-95.25432673948909,38.95663609814337],[-95.25422947481735,38.95655982414686],[-95.2542297322458,38.956467415183724],[-95.25432762717794,38.956391309928115],[-95.2542081072535,38.95629758299213],[-95.25422819631765,38.95628196559691],[-95.25422872272716,38.95609263100704],[-95.25421654959054,38.9560830781428],[-95.25421603207396,38.956082672953364],[-95.25421622523463,38.95606932139546],[-95.25416426011688,38.956028504488884],[-95.25413124697492,38.956054169047675],[-95.25413121751964,38.95606452430971],[-95.25397733076638,38.95618415717949],[-95.2539768034043,38.95637346922958],[-95.25395091921159,38.95639359243262],[-95.25396023522269,38.95640089759519],[-95.25396766456855,38.95640091043275],[-95.25396766906921,38.95639930906514],[-95.25400245674052,38.95639936784262],[-95.25400245220568,38.956400970110685],[-95.2540153534614,38.95640099177784],[-95.2540368327929,38.95641783606767],[-95.25398159503118,38.95646077879785],[-95.25397911398517,38.956458832874226],[-95.25397454487268,38.95646238452731],[-95.25397813374259,38.95646519843175],[-95.25397808802943,38.956481468039016],[-95.25397240029365,38.95648145859962],[-95.25397231251048,38.95651280468048],[-95.25398210445846,38.95651282120224],[-95.25398197829603,38.956557990241876],[-95.25397509306154,38.956563342659074],[-95.25397964184467,38.956566910190325],[-95.25398088179297,38.95656788313848],[-95.25413019266087,38.95668497079587]]]},"properties":{"SDE.FloorAll.FLOORLOCATION":"4"}},{"type":"Feature","geometry":{"type":"Polygon","coordinates":[[[-95.25397681028903,38.95637076662321],[-95.25402483969137,38.95640843164389],[-95.25396627895476,38.95645395697933],[-95.25397578985701,38.9564614154581],[-95.25397454487268,38.95646238452731],[-95.25398222660756,38.95646840909518],[-95.25398197714287,38.956557990214556],[-95.25397509190836,38.956563342631746],[-95.25413003583222,38.95668484812024],[-95.25413001461409,38.95669261436172],[-95.25416350959506,38.956718881594476],[-95.25421526735448,38.95667864384699],[-95.25421530706292,38.95666460733074],[-95.25422745057092,38.9566551662062],[-95.25422823859941,38.95637171043284],[-95.25425978315317,38.95634718806351],[-95.25426102310148,38.956348161008705],[-95.2542655921922,38.95634460934427],[-95.25420685996882,38.95629855200922],[-95.25422819516446,38.956281965569595],[-95.254228721574,38.956092630979775],[-95.25421618701479,38.95608278476953],[-95.25421622408147,38.956069321368155],[-95.25416426011688,38.956028504488884],[-95.25413124582177,38.956054169020376],[-95.25413121751964,38.95606452430971],[-95.25397732961322,38.9561841571522],[-95.25397681028903,38.95637076662321]]]},"properties":{"SDE.FloorAll.FLOORLOCATION":"5"}},{"type":"Feature","geometry":{"type":"Polygon","coordinates":[[[-95.25404211888234,38.956422954941274],[-95.25410166655186,38.956469651713476],[-95.25416126625946,38.956423318186545],[-95.25416279854815,38.95642452065835],[-95.25416799010425,38.95642048536259],[-95.25417587748724,38.956414352776626],[-95.25426559103903,38.956344609316965],[-95.2542010824269,38.956294020818035],[-95.25416162555236,38.95632469409186],[-95.25413309284791,38.956302318698576],[-95.25404255201529,38.956372705765304],[-95.25407451452557,38.95639777055104],[-95.25404211888234,38.956422954941274]]]},"properties":{"SDE.FloorAll.FLOORLOCATION":"6"}},{"type":"Feature","geometry":{"type":"MultiPolygon","coordinates":[[[[-95.25400925430628,38.956753247356495],[-95.25400364612442,38.95675760713242],[-95.25398869493003,38.956769230290014],[-95.25400636484326,38.956783086926656],[-95.25404089377965,38.956810162747125],[-95.25404271286025,38.95681158920743],[-95.25404395396689,38.956812562182215],[-95.25404519392038,38.95681353512966],[-95.25404145552696,38.9568164413571],[-95.25404331605135,38.95681790034176],[-95.2541093439774,38.95686967846546],[-95.25417685999592,38.95681719049583],[-95.25417872859586,38.95681573781649],[-95.25422542686492,38.956779434846915],[-95.25414582196547,38.95671700903241],[-95.25415350466983,38.9567110356226],[-95.25416351074823,38.95671888162178],[-95.25421526850765,38.9566786438743],[-95.25421528468506,38.9566728196502],[-95.25422333389182,38.956666562919125],[-95.25425530330827,38.956691633220686],[-95.25432673948909,38.95663609814337],[-95.25429611531219,38.95661208350842],[-95.25432099839396,38.95659268273464],[-95.25432286590174,38.956591228224845],[-95.25442198279244,38.95651394598922],[-95.25432332249008,38.95643657828006],[-95.2543183391837,38.95644045268909],[-95.2543158469537,38.95644238987985],[-95.25431708805765,38.956443362851736],[-95.2543183280084,38.956444335796235],[-95.25432082023839,38.956442398605404],[-95.25432989546043,38.95644951508667],[-95.25429392257648,38.9564584838337],[-95.25429389483224,38.956458425498376],[-95.25429384266242,38.95645834225161],[-95.25429378228043,38.95645826241522],[-95.25429371365128,38.95645818688963],[-95.25429363558682,38.95645811654797],[-95.25429355154665,38.95645805147211],[-95.25429345915435,38.95645799340829],[-95.25429336078633,38.956457940610285],[-95.25429325752579,38.956457894906244],[-95.25429314933771,38.95645785719643],[-95.2542930374103,38.95645782660793],[-95.25429292289674,38.95645780316791],[-95.25429280576199,38.95645778777681],[-95.25429268712433,38.95645778136243],[-95.25429256820686,38.95645778215118],[-95.2542924501278,38.95645779107082],[-95.25429233288715,38.95645780812131],[-95.25429221879119,38.95645783335728],[-95.25429210787505,38.95645786587834],[-95.25429200129173,38.95645790571176],[-95.25429189900639,38.95645795375805],[-95.25429180227712,38.95645800734316],[-95.25429171222208,38.95645806739498],[-95.25429162884127,38.956458133913365],[-95.25429155332289,38.956458206025296],[-95.25429148689005,38.95645828195728],[-95.25429142835458,38.956458362582424],[-95.25429137890463,38.95645844702761],[-95.25429133969344,38.95645853532016],[-95.25429133060688,38.95645856124042],[-95.25429131082585,38.95645862475889],[-95.2542912911138,38.956458716216844],[-95.25429128174538,38.956458808821],[-95.25429128390874,38.956458901698255],[-95.25429129533254,38.95645899389361],[-95.25429131416509,38.956459073647245],[-95.25422547228153,38.95647156627147],[-95.25422547207482,38.956471482452784],[-95.2542254749672,38.956470724592315],[-95.25429985310502,38.95641290160633],[-95.25430172287989,38.95641144805191],[-95.25432762717794,38.956391309928115],[-95.25426104955717,38.956339100734425],[-95.25425146148356,38.95634655389778],[-95.25420037965908,38.956306496033726],[-95.25423171235224,38.95628213808502],[-95.25423183779186,38.956237072671485],[-95.25422128758036,38.95623705533578],[-95.25422128389732,38.956238427811925],[-95.2542212802143,38.956239800288095],[-95.25422479691659,38.956239806967176],[-95.25422468527921,38.95627985199161],[-95.25419541753102,38.95630260509613],[-95.25419048454667,38.956298736477876],[-95.25416165479042,38.95632114846982],[-95.25413517185565,38.95630038163888],[-95.25406444879403,38.95635536210868],[-95.2540557283335,38.95636214096118],[-95.25404296956089,38.956372059563584],[-95.254044065014,38.956372919139675],[-95.25403437702475,38.95638719218153],[-95.25403435319271,38.956387181703654],[-95.25403424273354,38.95638714303863],[-95.2540341273818,38.9563871114675],[-95.25403400940888,38.95638708794535],[-95.25403388884982,38.95638707157169],[-95.25403376675274,38.95638706507511],[-95.254033645529,38.95638706580895],[-95.25403352395551,38.95638707554678],[-95.25403340440853,38.95638709254238],[-95.25403328681814,38.95638711859654],[-95.25403317240738,38.95638715193581],[-95.25403306229458,38.956387193487885],[-95.25403295770286,38.95638724147929],[-95.25403285856213,38.95638729771077],[-95.25403276497748,38.95638735948124],[-95.25403268037336,38.95638742777292],[-95.25403260251346,38.95638750073045],[-95.25403253366912,38.95638757930889],[-95.2540324738753,38.95638766260773],[-95.25403242432016,38.95638774975397],[-95.2540324016391,38.95638779878413],[-95.2539958107467,38.956377883884656],[-95.25398385015514,38.9563685045593],[-95.25398395256828,38.95633193893781],[-95.2539839598398,38.956329166946354],[-95.25398747658156,38.95632917273223],[-95.25398748026913,38.95632780025612],[-95.2539874839917,38.95632642687957],[-95.25397693492015,38.95632640954896],[-95.25397681371571,38.95636981681475],[-95.25394609597892,38.95639370260161],[-95.25395877008681,38.95640364136661],[-95.25401886164457,38.956403743388066],[-95.25401987871898,38.95640454072615],[-95.25396112875009,38.95645021298276],[-95.25397813880389,38.956463552917384],[-95.25397799870406,38.95651389374914],[-95.2539779925783,38.95651595289985],[-95.25397788501084,38.95655467142178],[-95.25397549868882,38.95655652639886],[-95.25393997190534,38.956528667189886],[-95.25394262605346,38.956526603164384],[-95.25394138495324,38.956525630188494],[-95.25393873080512,38.95652769421396],[-95.25391621090661,38.9565100330853],[-95.25384603069874,38.95650991376141],[-95.25377876826181,38.956562203868394],[-95.25377612476412,38.95656013152615],[-95.25377487977526,38.95656110059327],[-95.25377752211976,38.956563172908204],[-95.25373479423543,38.95659638932553],[-95.25383780801799,38.956677171753405],[-95.25387513841156,38.956648150628254],[-95.25400925430628,38.956753247356495]]],[[[-95.25400561597992,38.95616087707492],[-95.25401305912415,38.956166713943674],[-95.25401430525594,38.956165744901355],[-95.25401555135272,38.95616477675936],[-95.25401307031616,38.95616283083641],[-95.25407080361583,38.95611794828543],[-95.2540732846524,38.956119894207156],[-95.25407452959442,38.95611892603722],[-95.25407577572452,38.95611795699418],[-95.25406833258025,38.95611212012944],[-95.25400561597992,38.95616087707492]]],[[[-95.25422506196604,38.9561444980447],[-95.25422496203922,38.956180497754545],[-95.25422144530485,38.956180491975886],[-95.25422144162182,38.95618186445205],[-95.25422143790381,38.9561832378286],[-95.25423198695405,38.95618325513698],[-95.25423210328962,38.956141662822816],[-95.2542215531274,38.95614164458675],[-95.25422154940934,38.95614301796332],[-95.25422154572631,38.956144390439455],[-95.25422506245887,38.95614439621816],[-95.25422506196604,38.9561444980447]]],[[[-95.25402295462752,38.95620702571978],[-95.254022850036,38.95620707371118],[-95.25402275093055,38.95620712904225],[-95.25402265846431,38.95620719174038],[-95.25402257270723,38.9562072600048],[-95.25402249600067,38.95620733298965],[-95.2540224271565,38.95620741156802],[-95.25402236736278,38.95620749486691],[-95.25402231665463,38.95620758198586],[-95.25402227625504,38.95620767115135],[-95.25402224609414,38.95620776416428],[-95.25402222631183,38.956207857423],[-95.25402221683818,38.956207952728356],[-95.25402221774306,38.95620804827947],[-95.25402223021469,38.956208143203305],[-95.25402225198172,38.95620823654487],[-95.25402228535042,38.956208328358734],[-95.25402232804949,38.95620841768994],[-95.25402238126708,38.95620850366536],[-95.25402239880844,38.95620852751262],[-95.25402244388495,38.9562085853573],[-95.25402251474993,38.95620866273843],[-95.25402259389705,38.95620873490835],[-95.2540226813263,38.95620880186714],[-95.25402277595441,38.956208861786585],[-95.25402287659328,38.95620891553985],[-95.25402291852623,38.95620893545867],[-95.25402298212467,38.956208962199234],[-95.25402309370176,38.956209001791926],[-95.2540232090532,38.956209033363095],[-95.2540233270258,38.956209056885314],[-95.25402344761962,38.956209072358554],[-95.25402356852818,38.956209079728225],[-95.25402369090477,38.95620907902168],[-95.25402381247795,38.95620906928388],[-95.25402393205962,38.9562090513879],[-95.2540240496148,38.95620902623415],[-95.25402416402521,38.95620899289487],[-95.25402427413773,38.95620895134278],[-95.25402437876424,38.95620890245104],[-95.2540244778697,38.95620884711994],[-95.25402457030094,38.956208785322204],[-95.25402465605802,38.9562087170578],[-95.2540247339527,38.95620864319987],[-95.25402480279693,38.95620856462147],[-95.2540248625556,38.95620848222297],[-95.25402491211061,38.95620839507675],[-95.25402495254517,38.95620830501083],[-95.25402498267111,38.95620821289831],[-95.25402500248836,38.95620811873913],[-95.25402501196203,38.95620802343385],[-95.25402501102216,38.9562079287831],[-95.2540249985505,38.956207833859274],[-95.2540249767835,38.95620774051771],[-95.2540249434148,38.95620764870379],[-95.25402490071573,38.956207559372636],[-95.25402485078277,38.956207477981124],[-95.2540606798836,38.95619287867451],[-95.2540770493306,38.956166938916866],[-95.25407715412851,38.95616697474411],[-95.25407726832675,38.95616700628784],[-95.25407738741754,38.956167030737696],[-95.25407750685805,38.95616704618361],[-95.25407762895478,38.95616705268016],[-95.25407775133122,38.956167051973566],[-95.25407787290439,38.956167042235684],[-95.25407799245099,38.956167025240056],[-95.25407811004101,38.956166999185825],[-95.25407822445132,38.95616696584649],[-95.25407833341059,38.95616692426709],[-95.25407843915517,38.95616687630297],[-95.25407853826053,38.95616682097182],[-95.25407863072671,38.95616675827363],[-95.25407871648362,38.956166690009226],[-95.25407879319012,38.95616661702434],[-95.2540788620342,38.95616653844589],[-95.25407892182774,38.956166455147006],[-95.25407897253586,38.95616636802804],[-95.25407901293532,38.95616627886249],[-95.25407904309613,38.95616618584952],[-95.25407906287835,38.956166092590784],[-95.25407907235197,38.956165997285474],[-95.25407907029378,38.956165901707045],[-95.25407905897524,38.956165806810496],[-95.25407903605499,38.956165713441635],[-95.25407900383942,38.956165621655096],[-95.25407895998713,38.95616553229663],[-95.25407890792275,38.95616544634852],[-95.25407889038135,38.9561654225013],[-95.25411873093915,38.95614774948047],[-95.25414152715405,38.95611672851487],[-95.25414159075245,38.9561167552553],[-95.25414170232952,38.956116794847965],[-95.25414181652769,38.95611682639165],[-95.25414193565335,38.95611684994103],[-95.25414205624698,38.956116865414145],[-95.25414217715546,38.956116872783745],[-95.25414229956687,38.95611687117666],[-95.25414242110487,38.95611686233912],[-95.25414254068637,38.95611684444302],[-95.25414265827628,38.95611681838876],[-95.25414277268654,38.95611678504938],[-95.25414288276386,38.95611674439756],[-95.25414298739011,38.95611669550568],[-95.25414308649538,38.95611664017449],[-95.25414317896137,38.95611657747627],[-95.25414326468325,38.95611651011216],[-95.25414334142455,38.956116436226836],[-95.25414341026851,38.95611635764841],[-95.254143470062,38.956116274349434],[-95.25414352076994,38.95611618723044],[-95.25414356116929,38.95611609806489],[-95.254143591295,38.95611600595231],[-95.2541436111121,38.956115911793184],[-95.25414362058564,38.956115816487845],[-95.25414361968059,38.95611572093672],[-95.25414360717384,38.95611562691329],[-95.2541435842885,38.95611553264405],[-95.25414355207279,38.956115440857545],[-95.25414350933866,38.95611535242672],[-95.25414345612104,38.95611526645138],[-95.25414339353809,38.95611518385913],[-95.25414336030697,38.956115147924415],[-95.25421268815336,38.95607658440337],[-95.25421266870813,38.95608388926062],[-95.25422520274347,38.956093719236776],[-95.25422508334422,38.95613684626227],[-95.25422156661207,38.95613684048363],[-95.25422156292899,38.95613821295975],[-95.25422155924598,38.95613958543596],[-95.25423210825473,38.956139603644715],[-95.25423224260902,38.95609145625736],[-95.25422248527131,38.95608380540942],[-95.25422251733636,38.95607240208655],[-95.25416427070563,38.9560265680103],[-95.25412376279448,38.95605815364989],[-95.25412373303855,38.956069051441396],[-95.25407020116374,38.95611066745181],[-95.25407764546121,38.95611650434373],[-95.25407889159125,38.956115535300654],[-95.25408013653305,38.95611456713067],[-95.25407765661467,38.95611262213682],[-95.25413354983696,38.956069169477416],[-95.25413358018929,38.95605816715814],[-95.25416424393542,38.956034328713315],[-95.25419219074539,38.9560562441207],[-95.25414298909946,38.95611486876611],[-95.25414296082977,38.956114853677015],[-95.25414285529843,38.95611480701777],[-95.25414274372142,38.956114767425156],[-95.25414262837005,38.956114735854115],[-95.25414251039753,38.956114712332045],[-95.25414238980392,38.95611469685892],[-95.25414226889549,38.95611468948937],[-95.25414214648409,38.9561146910964],[-95.25414202494602,38.956114699933934],[-95.25414190536455,38.95611471783004],[-95.25414178780962,38.95611474298393],[-95.25414167336444,38.956114777223725],[-95.25414156328712,38.956114817875495],[-95.25414145866083,38.95611486676741],[-95.25414135955559,38.956114922098564],[-95.25414126712452,38.95611498389645],[-95.25414118136771,38.95611505216089],[-95.25414110347322,38.95611512601891],[-95.25414103462924,38.956115204597374],[-95.25414097483576,38.95611528789629],[-95.25414092531594,38.95611537414222],[-95.25414088488164,38.95611546420818],[-95.2541408547559,38.95611555632071],[-95.25414083378558,38.95611565045258],[-95.25414082546527,38.956115745785205],[-95.25414082640529,38.95611584043596],[-95.2541408388771,38.956115935359776],[-95.2541408606442,38.95611602870131],[-95.25414089401306,38.95611612051519],[-95.25414093671223,38.95611620984631],[-95.25414098992988,38.956116295821666],[-95.25414100628309,38.956116320542],[-95.25410116571355,38.95613399447091],[-95.25407836947538,38.956165015428525],[-95.25407830591197,38.95616498778767],[-95.25407819548803,38.95616494822227],[-95.25407808013664,38.956164916651225],[-95.25407796216409,38.95616489312908],[-95.25407784157039,38.95616487765589],[-95.25407771950869,38.9561648702589],[-95.25407759828538,38.956164870992815],[-95.25407747671225,38.9561648807307],[-95.25407735713065,38.95616489862671],[-95.25407723957564,38.95616492378056],[-95.25407712516531,38.95616495711988],[-95.25407701505284,38.95616499867196],[-95.25407691042649,38.95616504756382],[-95.25407681132108,38.95616510289497],[-95.25407671773678,38.95616516466542],[-95.25407663313301,38.95616523295715],[-95.25407655523837,38.95616530681514],[-95.2540764863943,38.95616538539354],[-95.25407642663568,38.95616546779204],[-95.2540763759276,38.95616555491101],[-95.25407633549312,38.95616564497696],[-95.25407630536728,38.956165737089535],[-95.2540762855501,38.95616583124862],[-95.25407627611148,38.956165925653586],[-95.2540762781696,38.956166021232],[-95.25407628948814,38.956166116128564],[-95.25407631240839,38.956166209497404],[-95.2540763457772,38.956166301311264],[-95.25407638847628,38.956166390642416],[-95.25407641772318,38.95616644000121],[-95.25404311469305,38.95617912275584],[-95.25402426030377,38.95620701969311],[-95.25402413506346,38.95620697527062],[-95.25402401971202,38.9562069436995],[-95.25402390177437,38.956206919276916],[-95.25402378118058,38.95620690380367],[-95.25402366023704,38.95620689733436],[-95.25402353786045,38.95620689804091],[-95.25402341628727,38.9562069077787],[-95.25402329674061,38.956206924774314],[-95.25402317915048,38.95620695082845],[-95.25402306474003,38.9562069841677],[-95.25402295462752,38.95620702571978]]],[[[-95.25409497420907,38.956224738933216],[-95.25409487230978,38.956224747334566],[-95.25409477131886,38.95622476206603],[-95.25409467354261,38.956224783182186],[-95.25409457779291,38.956224811556105],[-95.25409448525785,38.95622484631474],[-95.25409439712561,38.95622488658501],[-95.25409431336126,38.95622493326727],[-95.25409423630613,38.95622498551575],[-95.25409416484196,38.95622504240278],[-95.25409410008692,38.95622510485606],[-95.25409404214606,38.956225170174356],[-95.25409399210257,38.956225240185795],[-95.25409395002634,38.95622531308965],[-95.25409391595235,38.95622538798543],[-95.25409388984569,38.95622546577358],[-95.25409387292952,38.95622554468065],[-95.25409386520376,38.95622562470655],[-95.25409386673836,38.956225704050574],[-95.25409387634517,38.956225783585765],[-95.25409389521242,38.956225862439055],[-95.254093923375,38.956225939710045],[-95.25409395971477,38.956226014470985],[-95.25409400423169,38.95622608672196],[-95.25409405584261,38.95622615463483],[-95.25409411563068,38.95622622003766],[-95.25409418251266,38.95622628110242],[-95.25409425537043,38.95622633690132],[-95.25409433420393,38.95622638743443],[-95.25409441901324,38.95622643270173],[-95.25409450868003,38.95622647177549],[-95.25409460205124,38.95622650462844],[-95.25409469797363,38.956226531233206],[-95.25409479763537,38.95622655071679],[-95.2540948986952,38.95622656392489],[-95.25409500003478,38.95622656992985],[-95.25409510280741,38.956226568758964],[-95.2540952046717,38.95622656125796],[-95.25409530566262,38.9562265465265],[-95.25409540347383,38.95622652450993],[-95.25409549918862,38.95622649703644],[-95.25409559172367,38.956226462277776],[-95.25409567989084,38.95622642110714],[-95.2540957636202,38.95622637532526],[-95.25409584067538,38.95622632307678],[-95.25409586569658,38.95622630294121],[-95.25409591217455,38.956226265289345],[-95.25409597689455,38.95622620373648],[-95.25409603487037,38.95622613751779],[-95.25409608487895,38.95622606840668],[-95.25409612810833,38.95622599553019],[-95.2540961610641,38.956225919706654],[-95.25409618713577,38.95622584281894],[-95.254096204052,38.956225763911874],[-95.25409621177776,38.95622568388594],[-95.25409621027815,38.95622560364158],[-95.25409620067126,38.95622552410634],[-95.25409618176909,38.95622544615349],[-95.25409615360644,38.956225368882485],[-95.25409611726668,38.95622529412154],[-95.2540960739029,38.95622522189786],[-95.25409602117385,38.95622515305728],[-95.25409596135081,38.95622508855484],[-95.25409589446882,38.95622502749014],[-95.25409582161102,38.9562249716912],[-95.25409574277751,38.95622492115808],[-95.25409565796826,38.95622487589081],[-95.25409556830144,38.95622483681704],[-95.2540954760834,38.95622480399143],[-95.25409537900782,38.95622477735929],[-95.25409527934607,38.95622475787576],[-95.25409517828632,38.956224744667615],[-95.25409507694665,38.956224738662684],[-95.25409497420907,38.956224738933216]]],[[[-95.25422481783703,38.95623225611095],[-95.25422130110009,38.95623225033229],[-95.25422129741705,38.956233622808455],[-95.25422129369902,38.95623499618499],[-95.254231842757,38.956235013493384],[-95.25423198198894,38.95618531431507],[-95.25422143178515,38.95618529697939],[-95.25422142810213,38.956186669455576],[-95.2542214244191,38.9561880419317],[-95.25422494111885,38.956188048610805],[-95.25422481783703,38.95623225611095]]],[[[-95.25397720233146,38.95623018683509],[-95.25398775250689,38.956230205093384],[-95.25398775619445,38.95622883261722],[-95.25398775991701,38.95622745924067],[-95.25398424318033,38.95622745345481],[-95.25398424940853,38.95622545108356],[-95.25398436077266,38.956185149200756],[-95.2540062172376,38.95616815878195],[-95.25400869830914,38.956170103804645],[-95.25400994440608,38.956169135662755],[-95.25401119053797,38.956168166620444],[-95.25400374739371,38.95616232975159],[-95.25397733487044,38.956182863119636],[-95.25397720233146,38.95623018683509]]],[[[-95.25405341458371,38.95625938633374],[-95.25405331271934,38.956259393834664],[-95.25405321172835,38.95625940856609],[-95.25405311391707,38.956259430582605],[-95.25405301820228,38.95625945805612],[-95.25405292566717,38.95625949281471],[-95.25405283749987,38.95625953398533],[-95.25405275373546,38.956259580667556],[-95.25405267671523,38.95625963201564],[-95.254052605216,38.95625968980301],[-95.25405253934272,38.956259751328524],[-95.25405248252,38.956259817574555],[-95.25405243135823,38.95625988665827],[-95.25405238928188,38.9562599595621],[-95.25405235517293,38.95626003535826],[-95.2540523302544,38.95626011227334],[-95.25405231333811,38.956260191180355],[-95.25405230561229,38.95626027120628],[-95.25405230711186,38.9562603514507],[-95.25405231671866,38.9562604309859],[-95.25405233562084,38.956260508938804],[-95.25405236378339,38.956260586209766],[-95.25405240012313,38.95626066097078],[-95.25405244348687,38.956260733194455],[-95.25405249621596,38.956260802035004],[-95.25405255603899,38.956260866537484],[-95.25405262176778,38.95626092757496],[-95.25405269577874,38.956260983401194],[-95.25405277461226,38.95626103393434],[-95.25405285942155,38.95626107920163],[-95.25405294793521,38.95626111824816],[-95.25405304130646,38.9562611511011],[-95.25405313838205,38.95626117773324],[-95.25405323685568,38.95626119808991],[-95.25405333795048,38.95626121039763],[-95.25405344044333,38.95626121642997],[-95.25405354318103,38.95626121615952],[-95.25405364508033,38.956261207758146],[-95.25405374491815,38.956261192999406],[-95.2540538438476,38.95626117191065],[-95.25405393959743,38.95626114353671],[-95.25405403213257,38.956261108778115],[-95.25405412026481,38.95626106850791],[-95.25405420287608,38.95626102179838],[-95.25405428108449,38.95626096957724],[-95.25405435254875,38.9562609126902],[-95.25405440888177,38.956260859049735],[-95.25405447524471,38.9562607849187],[-95.25405452528832,38.95626071490722],[-95.25405456736459,38.956260642003436],[-95.25405460143861,38.95626056710763],[-95.25405462754533,38.95626048931947],[-95.25405464330838,38.956260410385134],[-95.25405465099928,38.95626033125962],[-95.25405465065286,38.956260251042515],[-95.25405463989284,38.95626017148002],[-95.25405462102566,38.95626009262671],[-95.25405459398132,38.95626001628344],[-95.25405455767653,38.95625994062204],[-95.25405451312464,38.95625986927148],[-95.25405446154875,38.9562598004582],[-95.25405440176071,38.95625973505533],[-95.25405433484372,38.95625967489099],[-95.25405426198593,38.95625961909204],[-95.25405418318738,38.95625956765848],[-95.25405409834315,38.95625952329156],[-95.25405400871128,38.9562594833174],[-95.25405391534008,38.956259450464415],[-95.2540538194176,38.95625942385958],[-95.2540537197558,38.95625940437601],[-95.254053618696,38.95625939116784],[-95.25405351735638,38.95625938516287],[-95.25405341458371,38.95625938633374]]],[[[-95.2539770705584,38.9562775799627],[-95.25398761958766,38.95627759819371],[-95.25398762442846,38.95627622574486],[-95.25398762815101,38.95627485236832],[-95.25398411141197,38.95627484658249],[-95.25398414795167,38.95626169499122],[-95.25398422223424,38.956235004310976],[-95.2539877389713,38.95623501009687],[-95.25398774269387,38.95623363672031],[-95.25398774638144,38.956232264244136],[-95.2539771973589,38.95623224601317],[-95.2539770705584,38.9562775799627]]],[[[-95.25415872665921,38.95628950025219],[-95.25415862203269,38.95628954914408],[-95.25415852292723,38.95628960447531],[-95.25415843049599,38.95628966627315],[-95.25415834473895,38.956289734537656],[-95.25415826799747,38.95628980842296],[-95.25415819915335,38.95628988700147],[-95.25415813939472,38.956289969400004],[-95.25415808868667,38.95629005651899],[-95.25415804825221,38.956290146584955],[-95.25415801812645,38.95629023869752],[-95.25415799830931,38.956290332856696],[-95.25415798887082,38.95629042726161],[-95.25415798977589,38.956290522812765],[-95.2541580022477,38.956290617736556],[-95.25415802516811,38.9562907111054],[-95.25415805738385,38.95629080289192],[-95.25415810008315,38.956290892223095],[-95.25415815326599,38.956290979098796],[-95.25415821591906,38.95629105989029],[-95.25415828678429,38.95629113727136],[-95.25415836593167,38.956291209441176],[-95.2541584533611,38.95629127639985],[-95.25415854795446,38.95629133721958],[-95.25415864859355,38.95629139097273],[-95.25415876436381,38.95629144147935],[-95.25415886573742,38.956291476324175],[-95.25415898108905,38.9562915078952],[-95.25415909906185,38.95629153141724],[-95.25415921962086,38.95629154779074],[-95.25415934171778,38.9562915542872],[-95.25415946294129,38.95629155355322],[-95.25415958451458,38.95629154381529],[-95.25415970406138,38.95629152681954],[-95.25415982165163,38.956291500765246],[-95.2541599360621,38.956291467425885],[-95.25416004617468,38.95629142587365],[-95.25416015076623,38.95629137788216],[-95.2541602498717,38.95629132255092],[-95.25416034233791,38.95629125985266],[-95.25416042809496,38.956291191588186],[-95.25416050595466,38.956291118630574],[-95.25416057479879,38.956291040052136],[-95.25416063459232,38.95629095675316],[-95.25416068414722,38.95629086960686],[-95.25416072454668,38.95629078044127],[-95.25416075586061,38.95629068745561],[-95.25416077564275,38.95629059419688],[-95.25416078396309,38.956290498864234],[-95.254160783058,38.95629040331308],[-95.25416077058617,38.956290308389285],[-95.25416074881893,38.956290215047744],[-95.25416071545003,38.956290123233885],[-95.25416067275071,38.95629003390275],[-95.25416063581625,38.956289974448545],[-95.25419483324401,38.95627661259029],[-95.25421109544754,38.95625075859475],[-95.25421119678614,38.956250794339944],[-95.25421131213774,38.956250825910864],[-95.2542114301105,38.95625084943286],[-95.2542115507044,38.95625086490592],[-95.25421167161309,38.95625087227544],[-95.25421179402471,38.95625087066829],[-95.25421191556296,38.956250861830725],[-95.25421203514463,38.95625084393455],[-95.25421215269978,38.95625081878053],[-95.25421226714519,38.956250784540735],[-95.2542123772227,38.956250743888894],[-95.25421248184912,38.95625069499695],[-95.2542125809545,38.95625063966565],[-95.25421267338562,38.956250577867756],[-95.25421275914258,38.95625050960325],[-95.25421283588395,38.95625043571789],[-95.25421290472796,38.95625035713939],[-95.25421296452147,38.9562502738404],[-95.25421301519447,38.956250187621805],[-95.25421305562881,38.95625009755578],[-95.2542130857545,38.9562500054432],[-95.25421310557155,38.956249911284054],[-95.25421311504496,38.95624981597868],[-95.25421311410484,38.956249721328],[-95.25421310163294,38.95624962640413],[-95.25421307990062,38.95624953216223],[-95.25421304649669,38.9562494412488],[-95.25421300379735,38.9562493519177],[-95.2542129668628,38.956249292463454],[-95.25421295057949,38.95624926594238],[-95.25421288796137,38.95624918425054],[-95.25421281709613,38.95624910686952],[-95.25421273798369,38.9562490337993],[-95.25421265051929,38.956248967741075],[-95.25421255592596,38.95624890692135],[-95.25421245528688,38.95624885316827],[-95.25421234860214,38.95624880648177],[-95.25421223817806,38.95624876691653],[-95.25421212282646,38.95624873534561],[-95.25421200485373,38.95624871182361],[-95.2542118842598,38.9562486963505],[-95.25421176335114,38.95624868898105],[-95.25421164093952,38.95624869058816],[-95.25421151940127,38.95624869942575],[-95.2542113998196,38.95624871732194],[-95.25421128222943,38.95624874337631],[-95.25421116781905,38.95624877671575],[-95.25421105774154,38.956248817367594],[-95.2542109531151,38.956248866259536],[-95.25421085400974,38.956248921590806],[-95.25421076154363,38.95624898428909],[-95.25421067582165,38.95624905165321],[-95.2542105990803,38.95624912553857],[-95.25421052908307,38.956249204089794],[-95.2542104692896,38.956249287388744],[-95.25421041976975,38.95624937363467],[-95.25421037933542,38.95624946370072],[-95.25421034920973,38.956249555813265],[-95.25421032939268,38.95624964997243],[-95.25421031991927,38.95624974527778],[-95.2542103208244,38.956249840828846],[-95.25421033333127,38.95624993485232],[-95.25421035506358,38.95625002909423],[-95.25421038843255,38.956250120908045],[-95.25421043116685,38.95625020933876],[-95.25421045929568,38.956250257769774],[-95.2541772680066,38.95626285669207],[-95.25416001752056,38.95628948936697],[-95.25415990709645,38.956289449801666],[-95.25415979289798,38.95628941825795],[-95.25415967377201,38.95628939470861],[-95.25415955433127,38.95628937926283],[-95.25415943226932,38.95628937186597],[-95.2541593098926,38.95628937257262],[-95.2541591883193,38.95628938231058],[-95.25415906873754,38.95628940020671],[-95.25415895118232,38.956289425360595],[-95.2541588367718,38.956289458700006],[-95.25415872665921,38.95628950025219]]],[[[-95.25398594220354,38.95629914547423],[-95.2539861262931,38.95630542955998],[-95.25405026721805,38.956280386004025],[-95.25406964767794,38.956272818705095],[-95.25409344833399,38.956291470842],[-95.25409340440606,38.95629153198605],[-95.25409336232983,38.9562916048899],[-95.25409332825583,38.956291679785686],[-95.25409330330234,38.95629175760114],[-95.25409328638608,38.95629183650821],[-95.25409327866029,38.9562919165341],[-95.25409328019488,38.95629199587814],[-95.25409328980177,38.95629207541331],[-95.254093308669,38.95629215426659],[-95.25409333683166,38.9562922315376],[-95.25409337201823,38.956292306271244],[-95.25409341653527,38.95629237852221],[-95.25409346926438,38.95629244736276],[-95.2540935279343,38.956292511837916],[-95.25409359481637,38.95629257290264],[-95.25409366882738,38.95629262872887],[-95.25409374766097,38.956292679261985],[-95.25409383247029,38.95629272452931],[-95.25409392098405,38.956292763575746],[-95.2540940143553,38.956292796428684],[-95.254094111431,38.95629282306078],[-95.25409420993964,38.95629284251705],[-95.25409431099955,38.95629285572519],[-95.25409441349245,38.95629286175741],[-95.25409451511194,38.95629286055921],[-95.2540946169763,38.9562928530582],[-95.25409471796733,38.956292838326746],[-95.25409481689691,38.95629281723792],[-95.25409491264668,38.956292788864],[-95.25409500518184,38.956292754105334],[-95.25409509334912,38.95629271293469],[-95.25409517592543,38.956292667125524],[-95.25409525413379,38.95629261490434],[-95.25409532559804,38.95629255801732],[-95.25409539035314,38.95629249556404],[-95.25409544832901,38.95629242934535],[-95.25409549833759,38.95629236023426],[-95.25409554041383,38.95629228733045],[-95.25409557452285,38.956292211534254],[-95.25409559944131,38.95629213461921],[-95.25409561635757,38.95629205571215],[-95.25409562408336,38.95629197568621],[-95.25409562370191,38.9562918963695],[-95.25409561294191,38.956291816807024],[-95.25409559407466,38.95629173795373],[-95.25409556706519,38.95629166071005],[-95.2540955307254,38.95629158594912],[-95.25409548620843,38.95629151369812],[-95.25409543463243,38.95629144488485],[-95.25409537480934,38.95629138038242],[-95.25409530792727,38.95629131931771],[-95.25409523506947,38.956291263518786],[-95.25409515508267,38.95629121295832],[-95.25409506468236,38.956291163052555],[-95.25413599718217,38.95625949645202],[-95.25413608122308,38.95625953178764],[-95.25413617459431,38.95625956464054],[-95.25413627051681,38.95625959124528],[-95.25413637017861,38.95625961072881],[-95.25413647123844,38.9562596239369],[-95.25413657257806,38.956259629941805],[-95.25413667535076,38.9562596287709],[-95.25413677721505,38.956259621269844],[-95.25413687820607,38.956259606538374],[-95.25413697601735,38.95625958452178],[-95.25413707288531,38.95625955707554],[-95.25413716426718,38.95625952228952],[-95.25413725243442,38.95625948111887],[-95.25413733619875,38.95625943443658],[-95.25413741321893,38.95625938308843],[-95.2541374847181,38.95625932530098],[-95.2541375505913,38.95625926377541],[-95.25413760741395,38.9562591975294],[-95.25413765857563,38.95625912844558],[-95.25413770065185,38.95625905554176],[-95.25413773476073,38.956258979745535],[-95.25413775967917,38.95625890283047],[-95.25413777659537,38.956258823923406],[-95.25413778432112,38.95625874389752],[-95.25413778282143,38.95625866365308],[-95.25413777321457,38.95625858411791],[-95.25413775431227,38.95625850616504],[-95.25413772614961,38.95625842889404],[-95.25413769096296,38.95625835416043],[-95.25413764644597,38.95625828190948],[-95.25413759371679,38.956258213068885],[-95.2541375338937,38.9562581485665],[-95.25413746816477,38.95625808752907],[-95.25413739415382,38.95625803170289],[-95.25413731532022,38.956257981169806],[-95.25413723051086,38.95625793590253],[-95.25413714199719,38.956257896856116],[-95.25413704862589,38.956257864003234],[-95.25413695155028,38.95625783737116],[-95.25413685307662,38.956257817014546],[-95.25413675198183,38.956257804706865],[-95.25413664948898,38.95625779867465],[-95.25413654675128,38.956257798945195],[-95.254136444852,38.956257807346624],[-95.2541363450142,38.956257822105385],[-95.25413624608476,38.95625784319429],[-95.2541361467705,38.956257874187486],[-95.2541267599638,38.956250519597475],[-95.2542216767254,38.95621345880456],[-95.25422149444343,38.95620686023544],[-95.2541211940503,38.95624615653549],[-95.25410780066531,38.956235658216684],[-95.25410728989245,38.95623525769263],[-95.25406486639028,38.95626822458418],[-95.25406414557344,38.95626850671888],[-95.25398594220354,38.95629914547423]]],[[[-95.25397693992768,38.956324349470506],[-95.25398749011717,38.956324367728826],[-95.25398749380476,38.95632299525267],[-95.25398749752729,38.95632162187612],[-95.25398398078595,38.95632161609027],[-95.25398409046586,38.95628239743861],[-95.25398760720529,38.956282403224435],[-95.25398761089285,38.95628103074833],[-95.25398761461541,38.95627965737179],[-95.25397706443262,38.956279639113504],[-95.25397693992768,38.956324349470506]]],[[[-95.25428630530257,38.95642887038833],[-95.25428615248822,38.95642888209025],[-95.25428600156054,38.95642890465153],[-95.25428585370767,38.9564289371991],[-95.25428571011774,38.956428978859826],[-95.25428557190902,38.956429030561466],[-95.2542854402696,38.95642909143089],[-95.25428531519948,38.95642916146817],[-95.25428519903997,38.95642923982743],[-95.25428509182616,38.95642932560833],[-95.25428499474609,38.95642941793782],[-95.25428490779989,38.95642951681578],[-95.25428483217554,38.956429621369274],[-95.25428476909632,38.95642972982471],[-95.25428471852716,38.95642984308251],[-95.25428468053803,38.95642995934194],[-95.25428465516397,38.95643007770254],[-95.25428464362803,38.95643019639084],[-95.25428464589532,38.956430316307255],[-95.25428466088253,38.95643043562368],[-95.25428468862465,38.95643055343971],[-95.25428473030988,38.95643066888226],[-95.25428478481997,38.956430781023634],[-95.2542848510368,38.956430888936104],[-95.25428492899525,38.95643099171933],[-95.25428501869533,38.95643108937321],[-95.2542851179007,38.95643118004248],[-95.25428522776444,38.95643126375434],[-95.2542853460153,38.9564313395538],[-95.25428547265312,38.95643140744087],[-95.25428560655986,38.956431466487814],[-95.25428574661721,38.95643151576702],[-95.25428589167198,38.95643155525104],[-95.25428603941782,38.95643158488537],[-95.25428619100803,38.95643160469735],[-95.2542863441711,38.956431613731766],[-95.25428649775387,38.95643161196154],[-95.25428665056818,38.95643160025959],[-95.25428680030772,38.9564315785714],[-95.2542869481606,38.95643154602384],[-95.2542870917855,38.956431503462724],[-95.25428722999423,38.95643145176107],[-95.25428736278685,38.95643139091892],[-95.25428748670383,38.95643132085437],[-95.25428760282828,38.956431243395485],[-95.25428771119529,38.956431157641894],[-95.25428780827538,38.956431065312415],[-95.25428789406844,38.95643096640712],[-95.25428796969273,38.956430861853626],[-95.254288032807,38.956430752497816],[-95.25428808334117,38.95643064014038],[-95.25428812248344,38.95643052390826],[-95.25428814670433,38.956430405520344],[-95.25428815827523,38.956430285931646],[-95.25428815716111,38.95643016604257],[-95.25428814213892,38.95643004762653],[-95.25428811324358,38.956429929783205],[-95.25428807271155,38.95642981436796],[-95.25428801820141,38.95642970222656],[-95.25428795198461,38.9564295943141],[-95.25428787406116,38.956429490630526],[-95.25428778432605,38.956429393877],[-95.25428768396752,38.956429303180435],[-95.25428757410377,38.956429219468575],[-95.25428745588795,38.95642914276875],[-95.25428732921509,38.95642907578202],[-95.25428719530842,38.9564290167351],[-95.25428705640424,38.956428967483205],[-95.25428691134945,38.95642892799915],[-95.25428676245036,38.956428898337556],[-95.25428661086019,38.95642887852562],[-95.25428645885036,38.95642886951848],[-95.25428630530257,38.95642887038833]]],[[[-95.25431150537912,38.95643898498299],[-95.25431274532974,38.95643995792761],[-95.25431398643357,38.95644093089952],[-95.25431647866358,38.95643899370876],[-95.25431523755975,38.956438020736876],[-95.25431399760912,38.95643704779233],[-95.25431150537912,38.95643898498299]]]]},"properties":{"SDE.FloorAll.FLOORLOCATION":"ROOF"}}]}
