{"type":"FeatureCollection","features":[{"type":"Feature","geometry":{"type":"Polygon","coordinates":[[[-95.25868014671526,38.95453055490322],[-95.25875640797528,38.95455158559555],[-95.25876880141907,38.95452418586317],[-95.25878553396393,38.95452879919785],[-95.25893923211292,38.95418900068196],[-95.25896574228972,38.954196310900045],[-95.2590423476514,38.954026951036816],[-95.25901651362646,38.954019826249905],[-95.25917020959398,38.953680026513275],[-95.2591535080802,38.953675421173],[-95.25916588636534,38.9536480174402],[-95.25908962595808,38.953626987015554],[-95.25907723279593,38.953654386784265],[-95.25904269471502,38.95364486174967],[-95.25890581381188,38.953947484222915],[-95.25881822465547,38.95392332981211],[-95.25882290833381,38.95391297375393],[-95.25880633013963,38.95390840192175],[-95.25880164645912,38.953918757979224],[-95.2587467361527,38.953903086104695],[-95.25863607320613,38.95414774152364],[-95.25864905874732,38.95415132270363],[-95.25863734832757,38.95417721190294],[-95.25874289778669,38.95420631973751],[-95.25875460817265,38.954180430527565],[-95.2587953635111,38.95419166896367],[-95.25865869265745,38.95449382030267],[-95.25869254018485,38.95450315517895],[-95.25868014671526,38.95453055490322]]]},"properties":{"SDE.FloorAll.FLOORLOCATION":"1"}},{"type":"Feature","geometry":{"type":"Polygon","coordinates":[[[-95.25868014671526,38.95453055490322],[-95.25875640797528,38.95455158559555],[-95.25876880141907,38.95452418586317],[-95.25878553392903,38.954528800098274],[-95.2589392172617,38.95418899672597],[-95.25896574225479,38.95419631180043],[-95.25901643882872,38.954084232129205],[-95.25902583283063,38.9540868226291],[-95.25904222790167,38.95405057735073],[-95.2590328327509,38.954047986824875],[-95.2590423476514,38.954026951036816],[-95.25901651243842,38.95401982712304],[-95.25912610079705,38.95377754412269],[-95.25912983165094,38.95377857319845],[-95.2591403955177,38.95375521902393],[-95.25913666466484,38.9537541899485],[-95.25917020955906,38.95368002741372],[-95.25915349322906,38.953675417217006],[-95.25916588636534,38.9536480174402],[-95.25908941000945,38.953627049502],[-95.25907706604403,38.953654341385835],[-95.2590426946801,38.95364486265007],[-95.25890602594029,38.95394701429406],[-95.25881827838514,38.95392286695297],[-95.25882277013068,38.95391293623994],[-95.25880633010472,38.95390840282213],[-95.25880185481451,38.95391829607233],[-95.25874590326522,38.95390286634062],[-95.25863522644426,38.95414755207231],[-95.25864821198539,38.95415113325242],[-95.25863651921092,38.95417698411634],[-95.25868321511821,38.95418986178813],[-95.25868282502982,38.95419072404671],[-95.258730350037,38.954203830386206],[-95.25873072247941,38.95420300646281],[-95.25874288010627,38.95420635897323],[-95.25875460817265,38.954180430527565],[-95.25879536347618,38.95419166986411],[-95.25865869262253,38.95449382120303],[-95.25869254018485,38.95450315517895],[-95.25868014671526,38.95453055490322]]]},"properties":{"SDE.FloorAll.FLOORLOCATION":"2"}},{"type":"Feature","geometry":{"type":"Polygon","coordinates":[[[-95.25868014671526,38.95453055490322],[-95.25875640797528,38.95455158559555],[-95.25876880141907,38.95452418586317],[-95.25878553392903,38.954528800098274],[-95.25893987087579,38.95418758914891],[-95.25895881761807,38.95419281446763],[-95.25895651121026,38.95419791222706],[-95.25896406178235,38.95420211469442],[-95.25897188378929,38.954192769196524],[-95.25897935020082,38.954183247663885],[-95.25898645605537,38.954173558991464],[-95.25899319523819,38.95416371204703],[-95.25898068931932,38.95416026300893],[-95.25899259535156,38.954133939507365],[-95.25899987963089,38.95413652609411],[-95.25902559465932,38.9540923694284],[-95.25901336233198,38.95408802654068],[-95.25901557536915,38.95408313385399],[-95.25902604739402,38.954086022009044],[-95.2590424424648,38.95404977673062],[-95.25903317863367,38.954047222654594],[-95.2590423476514,38.954026951036816],[-95.25901651359155,38.95401982715028],[-95.25917020955906,38.95368002741372],[-95.25915349322906,38.953675417217006],[-95.25916588636534,38.9536480174402],[-95.25908962592318,38.95362698791595],[-95.25907723279593,38.953654386784265],[-95.2590426946801,38.95364486265007],[-95.25890342274553,38.95395277103886],[-95.25883185907489,38.953933035699855],[-95.2588171239184,38.95396561346933],[-95.25878921723935,38.95395791691745],[-95.25878997092542,38.953956250352746],[-95.2587825103271,38.95395419310696],[-95.25878175664089,38.953955859671574],[-95.25873008751262,38.95394161084887],[-95.258728721546,38.9539446309919],[-95.25872913608568,38.95394474533508],[-95.25870571532965,38.95399652464992],[-95.25870530078973,38.953996410306665],[-95.25870393482106,38.953999430449336],[-95.25870434936098,38.953999544792595],[-95.25868092856868,38.9540513241022],[-95.25868051402846,38.95405120975887],[-95.25867914690448,38.95405422987396],[-95.25867956144471,38.95405434421735],[-95.2586561406161,38.954106123521726],[-95.25865572607566,38.95410600917826],[-95.2586543601027,38.95410902932037],[-95.25870602933807,38.95412327817659],[-95.25870527313242,38.95412495008856],[-95.25870679309163,38.95412536994741],[-95.2587068171314,38.95412531554125],[-95.2587112377572,38.954126534875144],[-95.25871121375238,38.95412658838091],[-95.25871273374658,38.95412700733929],[-95.258713489952,38.954125335427285],[-95.25874277851473,38.954133412540834],[-95.25872853064047,38.95416491134276],[-95.25879928028581,38.954184422015295],[-95.25879510163064,38.95419365988051],[-95.25879453403452,38.95419350406747],[-95.25865859554759,38.954493794574766],[-95.25865869262253,38.95449382120303],[-95.25869254018485,38.95450315517895],[-95.25868014671526,38.95453055490322]]]},"properties":{"SDE.FloorAll.FLOORLOCATION":"3"}},{"type":"Feature","geometry":{"type":"Polygon","coordinates":[[[-95.25868014786843,38.954530554930486],[-95.25875640912847,38.95455158562284],[-95.2587688025722,38.95452418589041],[-95.25878553392903,38.954528800098274],[-95.25893967258368,38.95418802966463],[-95.25895844575889,38.954193206720035],[-95.25895612282379,38.95419834374245],[-95.25896366997145,38.95420254522776],[-95.25897156951757,38.954193164612875],[-95.25897908743475,38.9541835947307],[-95.25898621642023,38.95417384532206],[-95.25899294920603,38.95416392522743],[-95.25899977441956,38.95415302047926],[-95.2590061205117,38.954141940381106],[-95.25901198115834,38.95413069920308],[-95.2590173478337,38.954119308459575],[-95.25902221655487,38.95410778157488],[-95.2590265798795,38.954096131891326],[-95.25903043378976,38.954084373733636],[-95.2590179347322,38.954080926663885],[-95.25904234880453,38.95402695106409],[-95.25901651362646,38.954019826249905],[-95.25917021071218,38.95368002744098],[-95.25915349438218,38.95367541724427],[-95.25916588751852,38.95364801746745],[-95.2590896271112,38.953626987042824],[-95.25907723394904,38.953654386811515],[-95.25904269583322,38.95364486267735],[-95.25865869377567,38.954493821230315],[-95.25869254133805,38.95450315520617],[-95.25868014786843,38.954530554930486]]]},"properties":{"SDE.FloorAll.FLOORLOCATION":"4"}},{"type":"Feature","geometry":{"type":"Polygon","coordinates":[[[-95.25868016268483,38.95453055978692],[-95.25875642394483,38.95455159047925],[-95.25876881738856,38.95452419074687],[-95.2587855487454,38.95452880495468],[-95.25893968739999,38.95418803452102],[-95.2589584605752,38.95419321157643],[-95.25895613764011,38.95419834859886],[-95.25896368478777,38.954202550084126],[-95.25897158433388,38.9541931694693],[-95.25897910225106,38.954183599587104],[-95.25898623123653,38.95417385017847],[-95.25899296402233,38.95416393008384],[-95.25899978923586,38.95415302533567],[-95.25900613532797,38.95414194523749],[-95.25901199597457,38.954130704059466],[-95.25901736265,38.954119313316],[-95.25902223137116,38.95410778643123],[-95.2590265946958,38.95409613674768],[-95.25903044860605,38.95408437859002],[-95.2590179495485,38.954080931520274],[-95.25904236362081,38.9540269559205],[-95.25901652844274,38.954019831106265],[-95.25917022552841,38.95368003229733],[-95.25915350919841,38.953675422100666],[-95.25916590233469,38.95364802232387],[-95.2590896419274,38.95362699189923],[-95.25907724876525,38.95365439166792],[-95.25904271064944,38.953644867533704],[-95.25865870859202,38.95449382608679],[-95.2586925561544,38.95450316006266],[-95.25868016268483,38.95453055978692]]]},"properties":{"SDE.FloorAll.FLOORLOCATION":"5"}},{"type":"Feature","geometry":{"type":"Polygon","coordinates":[[[-95.25868014786843,38.954530554930486],[-95.25875640912847,38.95455158562284],[-95.2587688025722,38.95452418589041],[-95.25878553392903,38.954528800098274],[-95.25893967258368,38.95418802966463],[-95.25895844575889,38.954193206720035],[-95.25895612282379,38.95419834374245],[-95.25896366997145,38.95420254522776],[-95.25897156951757,38.954193164612875],[-95.25897908743475,38.9541835947307],[-95.25898621642023,38.95417384532206],[-95.25899294920603,38.95416392522743],[-95.25899977441956,38.95415302047926],[-95.2590061205117,38.954141940381106],[-95.25901198115834,38.95413069920308],[-95.2590173478337,38.954119308459575],[-95.25902221655487,38.95410778157488],[-95.2590265798795,38.954096131891326],[-95.25903043378976,38.954084373733636],[-95.2590179347322,38.954080926663885],[-95.25904234880453,38.95402695106409],[-95.25901651362646,38.954019826249905],[-95.25917021071218,38.95368002744098],[-95.25915349438218,38.95367541724427],[-95.25916588751852,38.95364801746745],[-95.2590896271112,38.953626987042824],[-95.25907723394904,38.953654386811515],[-95.25904269583322,38.95364486267735],[-95.25865869377567,38.954493821230315],[-95.25869254133805,38.95450315520617],[-95.25868014786843,38.954530554930486]]]},"properties":{"SDE.FloorAll.FLOORLOCATION":"6"}},{"type":"Feature","geometry":{"type":"Polygon","coordinates":[[[-95.25868014786843,38.954530554930486],[-95.25875640912847,38.95455158562284],[-95.2587688025722,38.95452418589041],[-95.25878553392903,38.954528800098274],[-95.25893967258368,38.95418802966463],[-95.25895844575889,38.954193206720035],[-95.25895612282379,38.95419834374245],[-95.25896366997145,38.95420254522776],[-95.25897156951757,38.954193164612875],[-95.25897908743475,38.9541835947307],[-95.25898621642023,38.95417384532206],[-95.25899294920603,38.95416392522743],[-95.25899977441956,38.95415302047926],[-95.2590061205117,38.954141940381106],[-95.25901198115834,38.95413069920308],[-95.2590173478337,38.954119308459575],[-95.25902221655487,38.95410778157488],[-95.2590265798795,38.954096131891326],[-95.25903043378976,38.954084373733636],[-95.2590179347322,38.954080926663885],[-95.25904234880453,38.95402695106409],[-95.25901651362646,38.954019826249905],[-95.25917021071218,38.95368002744098],[-95.25915349438218,38.95367541724427],[-95.25916588751852,38.95364801746745],[-95.2590896271112,38.953626987042824],[-95.25907723394904,38.953654386811515],[-95.25904269583322,38.95364486267735],[-95.25865869377567,38.954493821230315],[-95.25869254133805,38.95450315520617],[-95.25868014786843,38.954530554930486]]]},"properties":{"SDE.FloorAll.FLOORLOCATION":"7"}},{"type":"Feature","geometry":{"type":"Polygon","coordinates":[[[-95.25868014786843,38.954530554930486],[-95.25875640912847,38.95455158562284],[-95.2587688025722,38.95452418589041],[-95.25878553392903,38.954528800098274],[-95.25893967258368,38.95418802966463],[-95.25895844575889,38.954193206720035],[-95.25895612282379,38.95419834374245],[-95.25896366997145,38.95420254522776],[-95.2589719670922,38.95419267473519],[-95.25897984176895,38.95418259598585],[-95.25898728435763,38.95417231956653],[-95.25899428867365,38.9541618561457],[-95.25900084615633,38.9541512181382],[-95.25900694831483,38.95414041615805],[-95.25901259120114,38.95412946272903],[-95.25901776513632,38.95411836933829],[-95.25902246732548,38.954107148536885],[-95.25902669266746,38.95409581282147],[-95.25903043378976,38.954084373733636],[-95.2590179347322,38.954080926663885],[-95.25904234880453,38.95402695106409],[-95.25901623725444,38.954019750321905],[-95.25917021071218,38.95368002744098],[-95.25915349438218,38.95367541724427],[-95.25916588751852,38.95364801746745],[-95.2590896271112,38.953626987042824],[-95.25907723394904,38.953654386811515],[-95.25904269583322,38.95364486267735],[-95.25886175368096,38.95404489384491],[-95.25886071790637,38.95404460800179],[-95.25883873009131,38.954093219177665],[-95.25883976586651,38.95409350502098],[-95.25865869377567,38.954493821230315],[-95.25869254133805,38.95450315520617],[-95.25868014786843,38.954530554930486]]]},"properties":{"SDE.FloorAll.FLOORLOCATION":"8"}},{"type":"Feature","geometry":{"type":"Polygon","coordinates":[[[-95.2588835001959,38.95413941718871],[-95.25888389031654,38.95413855402902],[-95.25888444302629,38.95413870678602],[-95.25893274865585,38.9540319130659],[-95.25893219594688,38.954031760309164],[-95.2589325860663,38.95403089714932],[-95.25887525261003,38.954015086038574],[-95.25882616666262,38.95412360605384],[-95.2588835001959,38.95413941718871]]]},"properties":{"SDE.FloorAll.FLOORLOCATION":"9"}},{"type":"Feature","geometry":{"type":"MultiPolygon","coordinates":[[[[-95.25868014783354,38.95453055583086],[-95.25875642394483,38.95455159047925],[-95.25877132926207,38.95455570099025],[-95.25878372273567,38.9545283003559],[-95.25878552935134,38.95452879908879],[-95.25878879559524,38.95452157100618],[-95.25879543516953,38.95452340155728],[-95.25891880334254,38.95425065607173],[-95.2589372941998,38.954242784868796],[-95.25895488255543,38.954233661256595],[-95.2589713860051,38.95422337555138],[-95.25897374276776,38.95422162251665],[-95.25897689317365,38.95422869138347],[-95.25897772371032,38.95422846588644],[-95.25897444274511,38.95422110283814],[-95.25898667801958,38.95421200587239],[-95.25900064213401,38.95419963868756],[-95.25901317313577,38.954186367940814],[-95.25902417591159,38.954172295024534],[-95.25903356548237,38.95415752787929],[-95.25903614948857,38.95415280167628],[-95.25903654918459,38.95415201895131],[-95.2590783071667,38.954163535135805],[-95.2591035821711,38.95410765666902],[-95.25910133825305,38.95410849402861],[-95.25905361227801,38.95409533172037],[-95.25905313858017,38.95409957068547],[-95.2590523997584,38.954099365764684],[-95.25905309913831,38.954092402332925],[-95.25905359367498,38.95408747712914],[-95.25905352411378,38.954081442703284],[-95.25905340269242,38.954071030716364],[-95.25905334941979,38.95407046979794],[-95.25905217824823,38.95407052051637],[-95.25905050413269,38.95407059359101],[-95.25904866123925,38.9540706734902],[-95.25904885458552,38.95408143324688],[-95.25904894490371,38.95408642635063],[-95.25904840440789,38.954092179592294],[-95.2590478466556,38.954098109966736],[-95.25904668410257,38.954097789585305],[-95.2590461292373,38.95410331808292],[-95.25904274304348,38.95411914730446],[-95.2590376022089,38.954134685405435],[-95.25903284985228,38.9541451759326],[-95.25903219218839,38.95414662847551],[-95.25903182104368,38.95414640701271],[-95.259031652961,38.95414630660822],[-95.25903103580964,38.95414600002195],[-95.25903038577766,38.954145737719436],[-95.2590297086307,38.954145519837],[-95.25902901002989,38.95414534921208],[-95.259028703921,38.95414529601294],[-95.25902829574092,38.954145225981115],[-95.25902756911836,38.95414515292695],[-95.25902746648849,38.954145150500636],[-95.25902738255334,38.95414514220774],[-95.2590273145877,38.95414513879853],[-95.25902723837544,38.95414513970039],[-95.25902716198856,38.954145145104285],[-95.25902708651049,38.954145156838194],[-95.25902701204589,38.954145172201],[-95.25902694079628,38.954145193948335],[-95.2590269068314,38.95414520666369],[-95.25901834163346,38.954131213668035],[-95.25902254932684,38.95412191069276],[-95.25902264656825,38.954121694895946],[-95.25902768865693,38.954110548820516],[-95.25902778589831,38.954110333023685],[-95.25903282802025,38.95409918604764],[-95.25903292526161,38.95409897025076],[-95.25903629216111,38.95409152644585],[-95.25903638940244,38.95409131064899],[-95.2590372679989,38.95408936945945],[-95.25904066271067,38.95408186322643],[-95.25904073210388,38.95408171075793],[-95.2590405368367,38.95408165657436],[-95.25902967993845,38.954078662890865],[-95.25904212239055,38.95405115524341],[-95.2590332811371,38.95404871660066],[-95.25904303968235,38.95402714223446],[-95.25901651359155,38.95401982715028],[-95.25901914829656,38.954014001753976],[-95.25902577979207,38.954015831200756],[-95.25911719682456,38.953813723176445],[-95.25911996907625,38.95380759461434],[-95.25917337810965,38.953689515584934],[-95.25916674660598,38.95368768704699],[-95.2591688447345,38.95368304848958],[-95.25917162203645,38.9536838143955],[-95.25917466201125,38.95368465230025],[-95.25917770083296,38.95368549017764],[-95.25918074077299,38.95368632898263],[-95.2591837795949,38.95368716685985],[-95.25918681957002,38.95368800476428],[-95.25920057863661,38.953657584835305],[-95.25919753981579,38.9536567469585],[-95.25919449987683,38.95365590815398],[-95.25919146105613,38.95365507027703],[-95.25918842108238,38.95365423237273],[-95.25918538226183,38.95365339449563],[-95.25918234228823,38.95365255659117],[-95.25918011657585,38.95365194251338],[-95.2591658874836,38.95364801836788],[-95.2590896270763,38.95362698794322],[-95.25907723391414,38.95365438771194],[-95.25904269583322,38.95364486267735],[-95.259039231715,38.95365252227956],[-95.2590326002532,38.9536506928335],[-95.25889967077008,38.95394457764091],[-95.25881871313567,38.953922251783624],[-95.25882290945202,38.95391297468158],[-95.25880633125783,38.95390840284941],[-95.25880213493954,38.953917679950855],[-95.25874480160425,38.95390186877542],[-95.25873572469295,38.953921936169365],[-95.25872715983752,38.95391957343192],[-95.25872540259677,38.95392345670674],[-95.25873396860575,38.953925819471614],[-95.25872582088671,38.953943831517286],[-95.25871338693442,38.953940403076324],[-95.25864039262143,38.95410178037997],[-95.25865282544541,38.95410520880147],[-95.25864467628749,38.95412322711668],[-95.25863611025757,38.95412086434525],[-95.25863435412502,38.954124748546306],[-95.25864292019025,38.954127110417474],[-95.25863384577184,38.95414717155481],[-95.25864821310367,38.9541511341801],[-95.25863762497535,38.954174542715144],[-95.25862767826659,38.954171799425666],[-95.25862592101409,38.9541756826989],[-95.25863586887645,38.95417842601582],[-95.25863655188145,38.954176915494706],[-95.25863931549894,38.95417767748455],[-95.258639266301,38.954177785369204],[-95.25873984126726,38.95420552108446],[-95.25874032978552,38.95420444215594],[-95.25874309225208,38.9542052041161],[-95.25875480263778,38.95417931490616],[-95.25875590809227,38.9541796195209],[-95.25878920277216,38.954188801611615],[-95.25865552637633,38.954484333973284],[-95.25866215794147,38.954486162540356],[-95.25865869377567,38.954493821230315],[-95.25869254130312,38.95450315610653],[-95.25868014783354,38.95453055583086]]],[[[-95.2590454929781,38.95405829059699],[-95.2590461458093,38.95405868905017],[-95.25904744797741,38.954059486775186],[-95.25905094436304,38.9540591512669],[-95.25905196493026,38.9540581326803],[-95.25905247285522,38.95405762468305],[-95.2590454929781,38.95405829059699]]]]},"properties":{"SDE.FloorAll.FLOORLOCATION":"ROOF"}}]}
