{"type":"FeatureCollection","features":[{"type":"Feature","geometry":{"type":"Polygon","coordinates":[[[-95.24857558948361,38.95568940334783],[-95.24858262339318,38.955689402641916],[-95.24858262308003,38.955687572246],[-95.248659399371,38.955687563811175],[-95.2486863588464,38.95568756099219],[-95.24868635916224,38.9556893913881],[-95.24869339191866,38.95568939064811],[-95.24869339160264,38.9556875602522],[-95.24870569923185,38.955687558512835],[-95.24870565582454,38.955444506055876],[-95.24867958334275,38.95542415502577],[-95.24867626804966,38.955426743979594],[-95.2487009671642,38.955446023307694],[-95.24870096991528,38.95546332960087],[-95.24869353549552,38.95546333072276],[-95.24866146998869,38.95543830160662],[-95.24865815584744,38.955440890587305],[-95.24868690444748,38.95546333108133],[-95.24860192296718,38.955463340378095],[-95.24860192108542,38.955452358002546],[-95.24857378900096,38.955452360910385],[-95.2485737900786,38.955458767746315],[-95.2485019957085,38.95545877538688],[-95.24850200604796,38.95551523288973],[-95.24856178513885,38.95559605218622],[-95.24857381455918,38.95559605106882],[-95.24857382048954,38.95562762653732],[-95.24856151290581,38.95562762736227],[-95.24856151429493,38.95563586459399],[-95.24857382191514,38.95563586286868],[-95.24857383125239,38.95568757359221],[-95.24857558917063,38.95568757295192],[-95.24857558948361,38.95568940334783]]]},"properties":{"SDE.FloorAll.FLOORLOCATION":"-1"}},{"type":"Feature","geometry":{"type":"MultiPolygon","coordinates":[[[[-95.24865264388761,38.955877515156615],[-95.2486133755243,38.95587751967127],[-95.24861337730535,38.95588118049035],[-95.24865733303449,38.95588117545644],[-95.24865732911366,38.95585829505797],[-95.24871828100297,38.95585828777284],[-95.2487903586544,38.955801993483306],[-95.24879033932008,38.95569353958745],[-95.2488430867259,38.955693534020945],[-95.24894680773,38.95561252547623],[-95.24894680084425,38.95557637356777],[-95.24893625114991,38.95557637468697],[-95.24893623205776,38.955470666833165],[-95.24894678030235,38.955462428482136],[-95.24894677582161,38.955436802038804],[-95.24894501675638,38.955436802657324],[-95.24881827754224,38.95543681623076],[-95.24876436602277,38.95547892283081],[-95.24870180202103,38.95547892972838],[-95.24870179980752,38.95546611695689],[-95.24859865073307,38.95546612772],[-95.24859864885177,38.95545514534448],[-95.24857051676621,38.95545514825149],[-95.24857054824668,38.95563041387839],[-95.2485582406625,38.95563041470299],[-95.24855824205119,38.955638651934706],[-95.2485705496719,38.95563865020975],[-95.24857055477064,38.95567045456958],[-95.24854154423458,38.95567045735317],[-95.24854155059028,38.9557063803425],[-95.24854741179855,38.955706379746886],[-95.24854741381047,38.955718277770345],[-95.24852382353409,38.95571828030447],[-95.24852382076466,38.95570180584113],[-95.24852689794335,38.95570180586791],[-95.24852688970262,38.95565810345728],[-95.2484934838187,38.955658107363796],[-95.24849347919141,38.955630650524924],[-95.24833963354882,38.95563066737579],[-95.24833963795527,38.95565800975522],[-95.2480671115056,38.95565803846594],[-95.24806707678299,38.95545611718876],[-95.24763718890516,38.95545616150717],[-95.24763724349187,38.95579181974524],[-95.24763856278865,38.95579181952131],[-95.24784764710915,38.95579179813297],[-95.24784765602678,38.955847626557635],[-95.24855974479745,38.955847551953745],[-95.2485597463497,38.95585830541003],[-95.24865264059824,38.95585829554988],[-95.24865264388761,38.955877515156615]]],[[[-95.24874936216102,38.95596124768407],[-95.24878218300525,38.95596124333629],[-95.2487821732931,38.955911821720555],[-95.2487815881106,38.95591182135302],[-95.24878158747406,38.9559081605613],[-95.24874935302512,38.95590816440355],[-95.24874935410635,38.955917774193196],[-95.24876635029504,38.955917771951604],[-95.24876635631715,38.95594774594227],[-95.24876459727425,38.955947745657696],[-95.2487645920416,38.95591914515291],[-95.24874935492977,38.95591914677871],[-95.24874936216102,38.95596124768407]]]]},"properties":{"SDE.FloorAll.FLOORLOCATION":"1"}},{"type":"Feature","geometry":{"type":"Polygon","coordinates":[[[-95.24852689353126,38.95567057740689],[-95.24852690548985,38.95573944752214],[-95.24854635089771,38.95573944575893],[-95.24857672234194,38.955739441923924],[-95.24857671033482,38.95567057180867],[-95.24852689353126,38.95567057740689]]]},"properties":{"SDE.FloorAll.FLOORLOCATION":"10"}},{"type":"Feature","geometry":{"type":"MultiPolygon","coordinates":[[[[-95.24861337667751,38.955877519698625],[-95.24861337730535,38.95588118049035],[-95.24868898110071,38.95588117214475],[-95.24873967048254,38.95584158283884],[-95.2487903586544,38.955801993483306],[-95.24879033932008,38.95569353958745],[-95.2488430867259,38.955693534020945],[-95.24894680773,38.95561252547623],[-95.24894680084425,38.95557637356777],[-95.24893625230307,38.95557637471434],[-95.24893623205776,38.955470666833165],[-95.24894678030235,38.955462428482136],[-95.24894677582161,38.955436802038804],[-95.24881827754224,38.95543681623076],[-95.24879483825585,38.95545512358063],[-95.24857051676621,38.95545514825149],[-95.24857054718973,38.95562080408849],[-95.2485582406625,38.95563041470299],[-95.24855824829756,38.955670456321954],[-95.24854154423458,38.95567045735317],[-95.24854154437307,38.95567137300133],[-95.24852689249515,38.95567137496663],[-95.24852689085583,38.95565810348463],[-95.2484934838187,38.955658107363796],[-95.2484934794668,38.95563488358655],[-95.24849347919141,38.955630650524924],[-95.24833963354882,38.95563066737579],[-95.24833963811639,38.95565812421466],[-95.24806711166629,38.95565815292536],[-95.24806707678299,38.95545611718876],[-95.24770751857866,38.955456153878714],[-95.24770752896568,38.955522049932746],[-95.24763719922665,38.95552205756119],[-95.24763724464502,38.95579181977259],[-95.24778581575765,38.95579180481081],[-95.24778580858796,38.95575016171517],[-95.24784207184072,38.95575015624761],[-95.24784207907861,38.95579179844287],[-95.24784764710915,38.95579179813297],[-95.24784765602678,38.955847626557635],[-95.24855476313266,38.95584755179348],[-95.24855476464909,38.95585830615018],[-95.24861337343386,38.95585829919147],[-95.24861337667751,38.955877519698625]]],[[[-95.24876664125514,38.95590495892792],[-95.24874290547703,38.955904961660316],[-95.24874291665915,38.955968341487086],[-95.24879038941117,38.95596833604477],[-95.24879037818643,38.95590495621801],[-95.24876664125514,38.95590495892792]]]]},"properties":{"SDE.FloorAll.FLOORLOCATION":"2"}},{"type":"Feature","geometry":{"type":"Polygon","coordinates":[[[-95.24870429165496,38.956283639604834],[-95.24873535471575,38.95628363591255],[-95.2487352994479,38.955977722733024],[-95.2489011603396,38.95597770385021],[-95.24891346688067,38.955968093199594],[-95.24891340590143,38.95563861195626],[-95.24894680776505,38.955612524575855],[-95.24894680084425,38.95557637356777],[-95.24893625230307,38.95557637471434],[-95.24893623209279,38.955470665932765],[-95.24894678033738,38.955462427581715],[-95.24894677582161,38.955436802038804],[-95.24881827754224,38.95543681623076],[-95.24879425192395,38.9554551231858],[-95.24857051680125,38.9554551473511],[-95.2485705472248,38.95562080318812],[-95.2485582406625,38.95563041470299],[-95.24855824833261,38.955670455421576],[-95.24854154423458,38.95567045735317],[-95.24854154440813,38.95567137210095],[-95.2485268925302,38.955671374066256],[-95.24852689085583,38.95565810348463],[-95.24852557156154,38.955658103718655],[-95.2484934838187,38.955658107363796],[-95.24849347903005,38.955630536065485],[-95.24833963342275,38.95563055201597],[-95.24833963799031,38.95565800885479],[-95.24806711154066,38.95565803756554],[-95.24806707681805,38.95545611628838],[-95.24770751857866,38.955456153878714],[-95.24770752896568,38.955522049932746],[-95.2476371992617,38.955522056660826],[-95.24763724468006,38.955791818872214],[-95.2478476471442,38.95579179723256],[-95.24784765602678,38.955847626557635],[-95.24855827894213,38.95584755141385],[-95.24855830141043,38.95596813227784],[-95.24857061014544,38.95597774034242],[-95.24870423655649,38.95597772552485],[-95.24870429165496,38.956283639604834]]]},"properties":{"SDE.FloorAll.FLOORLOCATION":"3"}},{"type":"Feature","geometry":{"type":"Polygon","coordinates":[[[-95.24870429165496,38.956283639604834],[-95.24873535471575,38.95628363591255],[-95.24873529739143,38.95596902766377],[-95.24888357684375,38.955969011575704],[-95.24888357782216,38.955977823778234],[-95.24890116036146,38.955977821911226],[-95.24891346693758,38.95596821036025],[-95.2489134654724,38.95595997402911],[-95.24890232938483,38.95595997475097],[-95.2489023274564,38.95594899237587],[-95.24891170449933,38.955948991371635],[-95.2489117002096,38.955924279677085],[-95.24890232313491,38.95592428158166],[-95.24890231788424,38.95589407869943],[-95.24891169491988,38.955894077695234],[-95.24891168970818,38.95586885588526],[-95.24890231267587,38.955868856889445],[-95.24890230715891,38.955839164995446],[-95.24891168418733,38.955839163991264],[-95.24891167986257,38.95581445319684],[-95.24890230283744,38.95581445420101],[-95.24890229755172,38.955784252218926],[-95.24891167457285,38.95578425121474],[-95.24891167028315,38.95575953951979],[-95.24890229234337,38.955759030408714],[-95.24890228682645,38.95572933851444],[-95.24891166499343,38.955729337537626],[-95.24891165978175,38.955704115727244],[-95.24890228277124,38.95570411673145],[-95.24890227725437,38.95567442483705],[-95.24891165426088,38.955674423832804],[-95.24891164993615,38.95564971303806],[-95.24890227293291,38.95564971404229],[-95.24890227100445,38.95563873166689],[-95.24891340592332,38.955638730017306],[-95.24894680778698,38.955612642636844],[-95.24894680090121,38.95557649072838],[-95.2489133950559,38.955576494755846],[-95.24891339519434,38.955580613358066],[-95.24894152732978,38.955580610367875],[-95.24894153279028,38.955612231783796],[-95.24891815184007,38.955630492778205],[-95.24891340449327,38.95563049278555],[-95.24890109577213,38.955620884757096],[-95.24888351332157,38.955620886624025],[-95.24888351429993,38.95562969882677],[-95.24858813063823,38.95562973163235],[-95.24858812854352,38.95562091940223],[-95.24857054724609,38.9556209212491],[-95.24855824071885,38.95563053186359],[-95.24855824835394,38.95567057348259],[-95.24854154425584,38.9556705754142],[-95.24854154442939,38.95567149016195],[-95.24852689255147,38.955671492127266],[-95.24852689087706,38.95565822154565],[-95.24849348387492,38.95565822452442],[-95.24849347924763,38.95563076768555],[-95.24833963360484,38.95563078453641],[-95.24833963801123,38.95565812691585],[-95.24806711156113,38.95565815562655],[-95.24806707683851,38.95545623434937],[-95.24770751863358,38.95545627103933],[-95.24770752902064,38.95552216709335],[-95.24763719928146,38.95552217472182],[-95.24763724469987,38.955791936933224],[-95.24784764716436,38.955791915293595],[-95.24784765608199,38.95584774371827],[-95.24856179596108,38.95584766822212],[-95.24856179747866,38.95585842257879],[-95.24856941662212,38.955858421342],[-95.24856941846379,38.955869404617545],[-95.24856004143142,38.95586940559409],[-95.24856004563323,38.9558941163884],[-95.24856942382209,38.955894115439214],[-95.24856942896561,38.95592431742105],[-95.24856005189085,38.95592431929798],[-95.24856005582403,38.955949541080514],[-95.24856943286703,38.955949540103994],[-95.24856943501244,38.95596001149077],[-95.2485582988898,38.95596001307995],[-95.24855830146676,38.955968249438435],[-95.24857061016672,38.955977858403465],[-95.2485889741383,38.95597785620223],[-95.24858897319666,38.95596904399973],[-95.24870423562199,38.95596903138336],[-95.24870429165496,38.956283639604834]]]},"properties":{"SDE.FloorAll.FLOORLOCATION":"4"}},{"type":"Feature","geometry":{"type":"Polygon","coordinates":[[[-95.24855830143171,38.95596825033888],[-95.24857061016672,38.955977858403465],[-95.24858819270607,38.95597785658391],[-95.24858819176448,38.95596904438143],[-95.24888357684375,38.955969011575704],[-95.24888357782216,38.955977823778234],[-95.24890116036146,38.955977821911226],[-95.24891346693758,38.95596821036025],[-95.2489134654724,38.95595997402911],[-95.24890232938483,38.95595997475097],[-95.2489023274564,38.95594899237587],[-95.24891170449933,38.955948991371635],[-95.24891170017457,38.95592428057746],[-95.24890232313491,38.95592428158166],[-95.24890231788424,38.95589407869943],[-95.24891169491988,38.955894077695234],[-95.24891169059515,38.95586936690096],[-95.24890231356274,38.95586936790515],[-95.24890230712386,38.95583916589582],[-95.24891168534049,38.95583916401861],[-95.24891168036747,38.955813995386436],[-95.24890230334245,38.955813996390646],[-95.24890229755172,38.955784252218926],[-95.24891167457285,38.95578425121474],[-95.24891167028315,38.95575953951979],[-95.24890229323024,38.955759541424406],[-95.24890228797963,38.95572933854179],[-95.24891166499343,38.955729337537626],[-95.2489116606687,38.955704626742936],[-95.24890228250497,38.95570462771979],[-95.24890227725437,38.95567442483705],[-95.24891165426088,38.955674423832804],[-95.24891164993615,38.95564971303806],[-95.24890227293291,38.95564971404229],[-95.24890227100445,38.95563873166689],[-95.24891340592332,38.955638730017306],[-95.24891340449327,38.95563049278555],[-95.24890109577213,38.955620884757096],[-95.24888351332157,38.955620886624025],[-95.24888351424308,38.95562958166615],[-95.24858813061688,38.955629613571354],[-95.24858812969666,38.95562091942961],[-95.24857054724609,38.9556209212491],[-95.24855824068379,38.95563053276399],[-95.24855824835394,38.95567057348259],[-95.24854154425584,38.9556705754142],[-95.24854154442939,38.95567149016195],[-95.24852689255147,38.955671492127266],[-95.24852689087706,38.95565822154565],[-95.24849348387492,38.95565822452442],[-95.24849347921258,38.95563076858594],[-95.24833963360484,38.95563078453641],[-95.24833963817235,38.955658241375275],[-95.24788278960153,38.95565828934243],[-95.24788279091159,38.95566652657416],[-95.24784762598773,38.955666529996655],[-95.24784765720007,38.95584774464603],[-95.24855828011657,38.95584766950222],[-95.2485582816686,38.95585842295854],[-95.24856941658707,38.95585842224237],[-95.24856941961694,38.955869404644886],[-95.24856004143142,38.95586940559409],[-95.24856004563323,38.9558941163884],[-95.24856942382209,38.955894115439214],[-95.24856942331496,38.9558945732496],[-95.24856942893057,38.95592431832142],[-95.24856005189085,38.95592431929798],[-95.24856005609274,38.95594903009219],[-95.24856943313571,38.955949029115665],[-95.24856943378175,38.95594948695341],[-95.24856943501244,38.95596001149077],[-95.24855830004296,38.95596001310734],[-95.24855830143171,38.95596825033888]]]},"properties":{"SDE.FloorAll.FLOORLOCATION":"5"}},{"type":"Feature","geometry":{"type":"Polygon","coordinates":[[[-95.24855830143171,38.95596825033888],[-95.24857061016672,38.955977858403465],[-95.24858819270607,38.95597785658391],[-95.24858819176448,38.95596904438143],[-95.24888357684375,38.955969011575704],[-95.24888357782216,38.955977823778234],[-95.24890116036146,38.955977821911226],[-95.24891346693758,38.95596821036025],[-95.2489134654724,38.95595997402911],[-95.24890232938483,38.95595997475097],[-95.2489023274564,38.95594899237587],[-95.24891170449933,38.955948991371635],[-95.24891170017457,38.95592428057746],[-95.24890232313491,38.95592428158166],[-95.24890231788424,38.95589407869943],[-95.24891169491988,38.955894077695234],[-95.24891169059515,38.95586936690096],[-95.24890231356274,38.95586936790515],[-95.24890230712386,38.95583916589582],[-95.24891168534049,38.95583916401861],[-95.24891168036747,38.955813995386436],[-95.24890230334245,38.955813996390646],[-95.24890229755172,38.955784252218926],[-95.24891167457285,38.95578425121474],[-95.24891167028315,38.95575953951979],[-95.24890229323024,38.955759541424406],[-95.24890228797963,38.95572933854179],[-95.24891166499343,38.955729337537626],[-95.2489116606687,38.955704626742936],[-95.24890228250497,38.95570462771979],[-95.24890227725437,38.95567442483705],[-95.24891165426088,38.955674423832804],[-95.24891164993615,38.95564971303806],[-95.24890227293291,38.95564971404229],[-95.24890227100445,38.95563873166689],[-95.24891340592332,38.955638730017306],[-95.24891340449327,38.95563049278555],[-95.24890109577213,38.955620884757096],[-95.24888351332157,38.955620886624025],[-95.24888351424308,38.95562958166615],[-95.24858813061688,38.955629613571354],[-95.24858812969666,38.95562091942961],[-95.24857054724609,38.9556209212491],[-95.24855824068379,38.95563053276399],[-95.24855824835394,38.95567057348259],[-95.24854154425584,38.9556705754142],[-95.24854154442939,38.95567149016195],[-95.24852689255147,38.955671492127266],[-95.24852689087706,38.95565822154565],[-95.24849348387492,38.95565822452442],[-95.24849347921258,38.95563076858594],[-95.24833963360484,38.95563078453641],[-95.24833963817235,38.955658241375275],[-95.24788278960153,38.95565828934243],[-95.24788279091159,38.95566652657416],[-95.24784762598773,38.955666529996655],[-95.24784765720007,38.95584774464603],[-95.24855828011657,38.95584766950222],[-95.2485582816686,38.95585842295854],[-95.24856941658707,38.95585842224237],[-95.24856941961694,38.955869404644886],[-95.24856004143142,38.95586940559409],[-95.24856004563323,38.9558941163884],[-95.24856942382209,38.955894115439214],[-95.24856942331496,38.9558945732496],[-95.24856942893057,38.95592431832142],[-95.24856005189085,38.95592431929798],[-95.24856005609274,38.95594903009219],[-95.24856943313571,38.955949029115665],[-95.24856943378175,38.95594948695341],[-95.24856943501244,38.95596001149077],[-95.24855830004296,38.95596001310734],[-95.24855830143171,38.95596825033888]]]},"properties":{"SDE.FloorAll.FLOORLOCATION":"6"}},{"type":"Feature","geometry":{"type":"Polygon","coordinates":[[[-95.24855830143171,38.95596825033888],[-95.24857061016672,38.955977858403465],[-95.24858819270607,38.95597785658391],[-95.24858819176448,38.95596904438143],[-95.24888357684375,38.955969011575704],[-95.24888357782216,38.955977823778234],[-95.24890116036146,38.955977821911226],[-95.24891346693758,38.95596821036025],[-95.2489134654724,38.95595997402911],[-95.24890232938483,38.95595997475097],[-95.2489023274564,38.95594899237587],[-95.24891170449933,38.955948991371635],[-95.24891170017457,38.95592428057746],[-95.24890232313491,38.95592428158166],[-95.24890231788424,38.95589407869943],[-95.24891169491988,38.955894077695234],[-95.24891169059515,38.95586936690096],[-95.24890231356274,38.95586936790515],[-95.24890230712386,38.95583916589582],[-95.24891168534049,38.95583916401861],[-95.24891168036747,38.955813995386436],[-95.24890230334245,38.955813996390646],[-95.24890229755172,38.955784252218926],[-95.24891167457285,38.95578425121474],[-95.24891167028315,38.95575953951979],[-95.24890229323024,38.955759541424406],[-95.24890228797963,38.95572933854179],[-95.24891166499343,38.955729337537626],[-95.2489116606687,38.955704626742936],[-95.24890228250497,38.95570462771979],[-95.24890227725437,38.95567442483705],[-95.24891165426088,38.955674423832804],[-95.24891164993615,38.95564971303806],[-95.24890227293291,38.95564971404229],[-95.24890227100445,38.95563873166689],[-95.24891340592332,38.955638730017306],[-95.24891340449327,38.95563049278555],[-95.24890109577213,38.955620884757096],[-95.24888351332157,38.955620886624025],[-95.24888351424308,38.95562958166615],[-95.24858813061688,38.955629613571354],[-95.24858812969666,38.95562091942961],[-95.24857054724609,38.9556209212491],[-95.24855824068379,38.95563053276399],[-95.24855824835394,38.95567057348259],[-95.24854154425584,38.9556705754142],[-95.24854154442939,38.95567149016195],[-95.24852689255147,38.955671492127266],[-95.24852689087706,38.95565822154565],[-95.24849348387492,38.95565822452442],[-95.24849347921258,38.95563076858594],[-95.24833963360484,38.95563078453641],[-95.24833963817235,38.955658241375275],[-95.24788278960153,38.95565828934243],[-95.24788279091159,38.95566652657416],[-95.24784762598773,38.955666529996655],[-95.24784765720007,38.95584774464603],[-95.24855828011657,38.95584766950222],[-95.2485582816686,38.95585842295854],[-95.24856941658707,38.95585842224237],[-95.24856941961694,38.955869404644886],[-95.24856004143142,38.95586940559409],[-95.24856004563323,38.9558941163884],[-95.24856942382209,38.955894115439214],[-95.24856942331496,38.9558945732496],[-95.24856942893057,38.95592431832142],[-95.24856005189085,38.95592431929798],[-95.24856005609274,38.95594903009219],[-95.24856943313571,38.955949029115665],[-95.24856943378175,38.95594948695341],[-95.24856943501244,38.95596001149077],[-95.24855830004296,38.95596001310734],[-95.24855830143171,38.95596825033888]]]},"properties":{"SDE.FloorAll.FLOORLOCATION":"7"}},{"type":"Feature","geometry":{"type":"Polygon","coordinates":[[[-95.24855830150182,38.955968248538056],[-95.24857061138998,38.95597785663003],[-95.2485881939293,38.9559778548105],[-95.24858819183459,38.955969042580634],[-95.24888357576064,38.95596900974757],[-95.24888357785719,38.95597782287781],[-95.24890116043154,38.95597782011045],[-95.24891346581948,38.955968209432434],[-95.24891346438935,38.95595997220096],[-95.24890232941988,38.95595997385058],[-95.2489023275265,38.955948990575045],[-95.24891170456942,38.95594898957088],[-95.24891170024466,38.95592427877671],[-95.24890232205179,38.955924279753525],[-95.24890231676612,38.9558940777717],[-95.24891169380177,38.955894076767535],[-95.248911689477,38.95586936597321],[-95.24890231244463,38.9558693669774],[-95.24890230719394,38.955839164095075],[-95.24891168422236,38.95583916309083],[-95.24891167924937,38.95581399445867],[-95.24890230218925,38.95581399636329],[-95.24890229643361,38.95578425129118],[-95.2489116746079,38.95578425031437],[-95.24891166912998,38.95575953949245],[-95.24890229211213,38.95575954049666],[-95.24890228686148,38.95572933761404],[-95.24891166387535,38.955729336609835],[-95.24891165955057,38.95570462581519],[-95.24890228254,38.955704626819355],[-95.24890227725437,38.95567442483705],[-95.24891165426088,38.955674423832804],[-95.24891164993615,38.95564971303806],[-95.24890227177976,38.955649714014946],[-95.2489022698513,38.955638731639525],[-95.24891340592332,38.955638730017306],[-95.24891340449327,38.95563049278555],[-95.24890109461893,38.955620884729726],[-95.24888351216842,38.95562088659667],[-95.24888351427812,38.955629580765766],[-95.24858813177003,38.955629613598695],[-95.24858812969666,38.95562091942961],[-95.24857054724609,38.9556209212491],[-95.248558241872,38.955630531890975],[-95.24855824838899,38.9556705725822],[-95.24854154544404,38.95567057454117],[-95.24854154558254,38.9556714901893],[-95.24852689373965,38.95567149125424],[-95.2485268909121,38.95565822064527],[-95.24849348502809,38.95565822455179],[-95.24849348040078,38.95563076771293],[-95.248339634758,38.95563078456377],[-95.24833963932556,38.95565824140265],[-95.24788279306102,38.95565828942457],[-95.24788279440614,38.95566652575589],[-95.24784762948228,38.95566652917838],[-95.24784765957651,38.9558477429],[-95.24855828015158,38.95584766860184],[-95.24855828170365,38.95585842205815],[-95.24856941781033,38.955858420468914],[-95.248569419652,38.95586940374451],[-95.24856004261962,38.95586940472103],[-95.24856004682148,38.95589411551535],[-95.24856942385713,38.95589411453882],[-95.24856942450316,38.955894572376536],[-95.24856942900065,38.95592431652066],[-95.24856005196095,38.95592431749719],[-95.24856005616282,38.955949028291386],[-95.24856943435897,38.95594902734224],[-95.24856943385186,38.9559494851526],[-95.2485694362007,38.95596001061773],[-95.24855830011306,38.955960011306544],[-95.24855830150182,38.955968248538056]]]},"properties":{"SDE.FloorAll.FLOORLOCATION":"8"}},{"type":"Feature","geometry":{"type":"Polygon","coordinates":[[[-95.24856819050633,38.955867325189395],[-95.24871601267012,38.955867309283384],[-95.24871597828248,38.955680603446865],[-95.24857934797465,38.955680618175855],[-95.24857934665256,38.95567057038429],[-95.24856044489513,38.955670572436944],[-95.24854154429089,38.95567057451378],[-95.24854154442939,38.95567149016195],[-95.24852689255147,38.955671492127266],[-95.24852688975895,38.95565822061789],[-95.24849348387492,38.95565822452442],[-95.24849347809447,38.95563076765818],[-95.24833963245163,38.95563078450903],[-95.24833965529098,38.95575834358041],[-95.24856817108734,38.9557583188329],[-95.24856819050633,38.955867325189395]]]},"properties":{"SDE.FloorAll.FLOORLOCATION":"9"}}]}
