{"type":"FeatureCollection","features":[{"type":"Feature","geometry":{"type":"MultiPolygon","coordinates":[[[[-95.25331434777561,38.95304308245738],[-95.25344561524231,38.953043983349254],[-95.25344691371208,38.95292866915784],[-95.25343631650931,38.952928596552425],[-95.25343724421339,38.95284620249817],[-95.25348176188298,38.95284650729805],[-95.25348155613712,38.9528647540118],[-95.25351671815345,38.952864995780544],[-95.25351808881308,38.95274327559725],[-95.25325555153839,38.952741473747075],[-95.25325480890058,38.95280736717304],[-95.25325442192485,38.95284177124481],[-95.2532526597252,38.95299826850482],[-95.25327432494053,38.95299841679098],[-95.25327438414449,38.95299321001998],[-95.25331490601572,38.952993487807284],[-95.25331434777561,38.95304308245738]]],[[[-95.25325719330317,38.95321536722389],[-95.2533261191169,38.953270140831684],[-95.25336039783633,38.95324384139907],[-95.25329147202166,38.95318906781157],[-95.25325719330317,38.95321536722389]]],[[[-95.25270040516169,38.953244129427055],[-95.2527002196513,38.953260603013916],[-95.25292760239289,38.9532621643211],[-95.25292778785035,38.953245690733866],[-95.25270040516169,38.953244129427055]]],[[[-95.25316355544668,38.953287207750904],[-95.25323248122294,38.95334198231439],[-95.25328439548844,38.95330215247341],[-95.25321546971078,38.95324737794056],[-95.25316355544668,38.953287207750904]]],[[[-95.25335899196958,38.953360074096594],[-95.25336400872568,38.9533562257584],[-95.25336319027858,38.953355575512184],[-95.25336486178506,38.95335429211428],[-95.25336516965926,38.9533545373311],[-95.25338523559434,38.95333914214793],[-95.25338492768519,38.95333889783154],[-95.25338659919088,38.953337614433316],[-95.25338741875613,38.95333826560709],[-95.25339243554417,38.95333441636728],[-95.25337764759101,38.953322665552214],[-95.25338600847206,38.95331625134457],[-95.25337943629846,38.95331102896609],[-95.2533694039469,38.95331872567092],[-95.25337022574809,38.95331937870028],[-95.25334012745721,38.95334247058311],[-95.25333930562104,38.953341818454],[-95.25332927210768,38.953349515128004],[-95.25333584424608,38.95335473840968],[-95.25334420516973,38.953348323304596],[-95.25335899196958,38.953360074096594]]],[[[-95.2528921488916,38.95331340150413],[-95.25289150997868,38.953370142756114],[-95.25297941510169,38.953370746691185],[-95.25298005394401,38.95331400543872],[-95.2528921488916,38.95331340150413]]]]},"properties":{"SDE.FloorAll.FLOORLOCATION":"1"}},{"type":"Feature","geometry":{"type":"MultiPolygon","coordinates":[[[[-95.25337861932076,38.952845799594485],[-95.25339737324117,38.95284592845578],[-95.25339738752243,38.952844669784184],[-95.25345236386667,38.95284504752778],[-95.2534523495864,38.95284630619938],[-95.25351692389019,38.95284674906675],[-95.25351725376044,38.952817405819296],[-95.25351564180146,38.95281739466968],[-95.25351633220242,38.9527560773269],[-95.25351794415995,38.95275608847651],[-95.25351808881308,38.95274327559725],[-95.25349230322738,38.952743098237846],[-95.25349228898281,38.952744356009056],[-95.25339854138954,38.95274371316845],[-95.25339855563577,38.952742455397235],[-95.253379784446,38.95274232612634],[-95.25337861932076,38.952845799594485]]],[[[-95.2532728963471,38.95338763601314],[-95.25326996979996,38.95338988102258],[-95.25327982802462,38.95339771549973],[-95.25328986043209,38.953390017902315],[-95.2532865743453,38.95338740671046],[-95.25333255815923,38.95335212721908],[-95.25333584424608,38.95335473840968],[-95.25334587664145,38.95334704080738],[-95.25334259170768,38.95334442964441],[-95.2533726899986,38.95332133776089],[-95.25337597608551,38.95332394895034],[-95.25338600847206,38.95331625134457],[-95.25338272238513,38.95331364015536],[-95.25342870613812,38.95327835972531],[-95.253431991037,38.95328097178624],[-95.25344202456448,38.953273274202914],[-95.25343216745739,38.953265440667174],[-95.25342924092035,38.95326768568067],[-95.25340172070676,38.95324581620778],[-95.25340464724376,38.95324357119503],[-95.25339478902677,38.95323573672834],[-95.2533881007776,38.95324086846618],[-95.25338994927829,38.95324233709289],[-95.25324112810912,38.95335651483251],[-95.25323928076165,38.95335504623074],[-95.25323259133677,38.953360177932176],[-95.25324244958807,38.95336801151219],[-95.25324537613518,38.95336576650342],[-95.2532728963471,38.95338763601314]]]]},"properties":{"SDE.FloorAll.FLOORLOCATION":"2"}}]}
