{"type":"FeatureCollection","features":[{"type":"Feature","geometry":{"type":"Polygon","coordinates":[[[-95.25353490441384,38.954015206259974],[-95.25385363263985,38.95401541114774],[-95.25385480611217,38.95401470714897],[-95.25389052889251,38.954014730458596],[-95.25389053145472,38.95401184209716],[-95.25388813309561,38.954011840264805],[-95.25388816488454,38.953980837117925],[-95.25388523443937,38.95398083529976],[-95.25388526350076,38.95395337840371],[-95.25388819394477,38.95395338022186],[-95.25388863734857,38.95353310411364],[-95.25353453501427,38.95353287600511],[-95.25353449662396,38.953569659450366],[-95.2535249655181,38.953569623826006],[-95.25351367315584,38.953569616773564],[-95.25351368400308,38.95355855450708],[-95.25342107757997,38.9535321682453],[-95.25342107397577,38.95353600376897],[-95.2534324804113,38.95353925343296],[-95.25343211179369,38.953679886101554],[-95.25343167206458,38.9536798855979],[-95.25342090600758,38.9536768187326],[-95.25342093739782,38.953681803244564],[-95.25343144655285,38.95368482797491],[-95.2534312023994,38.95391600505031],[-95.25343116475788,38.95395131230867],[-95.2535344954215,38.95395137910685],[-95.25353490441384,38.954015206259974]]]},"properties":{"SDE.FloorAll.FLOORLOCATION":"1"}},{"type":"Feature","geometry":{"type":"Polygon","coordinates":[[[-95.253530446206,38.95401495645431],[-95.25385421931931,38.95401516459021],[-95.25388994209986,38.95401518789998],[-95.25388994466215,38.954012299538526],[-95.25388813146981,38.95401229804796],[-95.25388845163202,38.953709130349985],[-95.25388493488073,38.95370912816269],[-95.25388469309472,38.95393829192568],[-95.25353883183068,38.95393806891652],[-95.25353893524665,38.953839487387945],[-95.25353937501175,38.95383948699082],[-95.25353951956352,38.95370283333166],[-95.25353907983427,38.95370283282842],[-95.25353918443764,38.953604250424895],[-95.25388504522202,38.953604473460345],[-95.25388493471064,38.95370901370324],[-95.25388845146192,38.9537090158905],[-95.25388863619544,38.95353310408635],[-95.25353336238238,38.95353287526336],[-95.25353332348278,38.95357008767916],[-95.25352437872678,38.95357008126554],[-95.25351308636452,38.953570074213076],[-95.25351309721178,38.95355901194659],[-95.25342049078829,38.95353262568432],[-95.25342048718406,38.953536461207996],[-95.25343189361965,38.95353971087202],[-95.25343189338753,38.9535401921201],[-95.25343167292928,38.95354019230482],[-95.25343152500086,38.953680343540654],[-95.25343108527173,38.953680343037],[-95.2534306156046,38.953916462489374],[-95.25343057217238,38.95395753293742],[-95.25353050611288,38.95395759767784],[-95.253530446206,38.95401495645431]]]},"properties":{"SDE.FloorAll.FLOORLOCATION":"1.5"}}]}
