{"type":"FeatureCollection","features":[{"type":"Feature","geometry":{"type":"Polygon","coordinates":[[[-95.25525142463107,38.95652603763741],[-95.25524889093145,38.95653356144956],[-95.25528885314736,38.95654176412474],[-95.25530069991127,38.95650657963753],[-95.25530976923078,38.95650844086764],[-95.25530798053829,38.95651375178994],[-95.25531251518103,38.95651468285502],[-95.25532570315814,38.95647551516651],[-95.25534242411713,38.95647894721382],[-95.25534063658104,38.956484258163954],[-95.2553451712223,38.956485189227735],[-95.25536253162515,38.95643362935412],[-95.25534495984165,38.956430023059234],[-95.25534935661646,38.95641696657986],[-95.25539952057841,38.95642726363206],[-95.25540071188085,38.95642372298886],[-95.25539390988884,38.95642232729679],[-95.25539629480039,38.95641524606514],[-95.2554413572906,38.95642449587982],[-95.25545186273828,38.956393294576934],[-95.2554422266265,38.9563913163001],[-95.25544461153216,38.956384235067496],[-95.25544857933012,38.95638504996988],[-95.25544977062943,38.95638150932622],[-95.25544580283164,38.956380694423906],[-95.25544818770163,38.9563736140916],[-95.25545782384611,38.95637559146755],[-95.25546832927928,38.956344390162975],[-95.25542326683662,38.95633514035875],[-95.25542565058909,38.95632805909923],[-95.25543245253772,38.95632945568987],[-95.25543364499005,38.95632591507366],[-95.2553708104701,38.9563130163712],[-95.25537766535575,38.95629265779043],[-95.25537985020105,38.95629310694987],[-95.25537997807142,38.956292726956974],[-95.25540463460976,38.956297787904],[-95.25540420804964,38.956299053037235],[-95.25540647536472,38.9562995185679],[-95.2554313622865,38.956225608977725],[-95.25533358480743,38.95620553847637],[-95.25526018103291,38.956190470804714],[-95.25525399675504,38.956208837329484],[-95.25528092171984,38.956214363863765],[-95.25524113349148,38.95633253121],[-95.25521534331281,38.956327237010846],[-95.25517853496079,38.95643655187187],[-95.25519865686331,38.95644068269269],[-95.25518271194461,38.9564880385031],[-95.25518724661906,38.956488968672694],[-95.25518903531997,38.956483657752194],[-95.25519810459855,38.95648551989144],[-95.25518625778709,38.95652070436828],[-95.25522621883532,38.95652890703776],[-95.25522875138401,38.95652138319877],[-95.25523782066847,38.95652324533492],[-95.25523677812609,38.95652634339279],[-95.25524131280366,38.95652727356021],[-95.25524235534583,38.956524175502345],[-95.25525142463107,38.95652603763741]]]},"properties":{"SDE.FloorAll.FLOORLOCATION":"-1"}},{"type":"Feature","geometry":{"type":"MultiPolygon","coordinates":[[[[-95.25526098322189,38.95642532332015],[-95.25528396905578,38.956430041930105],[-95.25528702461136,38.95642096865141],[-95.2552859665202,38.956420751642774],[-95.25530593500544,38.956361447122575],[-95.2553082023219,38.95636191265518],[-95.25530781884926,38.95636304903195],[-95.2553194394277,38.95636543478701],[-95.25532242595585,38.95635656354984],[-95.25532554295243,38.956357203305394],[-95.25532815359064,38.956349451501225],[-95.25531341601851,38.956346425991306],[-95.25531297100436,38.956347750168106],[-95.25531070368838,38.9563472846356],[-95.25533558957386,38.95627337503896],[-95.25535117681103,38.95627657476924],[-95.25535713793424,38.95625887166482],[-95.25534183354263,38.95625573000063],[-95.25534481349337,38.95624687933545],[-95.2553445306864,38.95624682036977],[-95.25535257683975,38.95622292204815],[-95.25542711434177,38.9562382219762],[-95.25542658594776,38.956239791114776],[-95.25543820650994,38.9562421768579],[-95.25544310568417,38.956227625423026],[-95.2554314850892,38.95622524058076],[-95.25543076490798,38.95622737925856],[-95.25535622860473,38.95621207845976],[-95.25535682483184,38.95621030815199],[-95.25535852072932,38.956210656516234],[-95.25536157507773,38.9562015841085],[-95.25533770759043,38.95619668422355],[-95.25533465320419,38.95620575753104],[-95.25533585215405,38.956206003107994],[-95.25531588370288,38.9562653085345],[-95.25531361638946,38.95626484300203],[-95.2553141121458,38.95626337132458],[-95.25530249154936,38.95626098646947],[-95.25529942936268,38.95627008212208],[-95.25529631121701,38.95626944233848],[-95.25529366262585,38.95627730950136],[-95.25530840018274,38.95628033501386],[-95.25530884771264,38.95627900548926],[-95.25531111506145,38.95627947012137],[-95.25526924061552,38.95640383356637],[-95.255194703008,38.956388532636716],[-95.25519502385738,38.956387582232146],[-95.25518340324454,38.95638519736508],[-95.25517909248083,38.956397999927724],[-95.25519071309567,38.95640038479522],[-95.25519105236235,38.956399376247134],[-95.25526559001543,38.95641467627879],[-95.25526499378432,38.95641644658606],[-95.25526403759211,38.95641625091514],[-95.25526098322189,38.95642532332015]]],[[[-95.25533381498768,38.95620558538153],[-95.25533686933898,38.95619651297447],[-95.25533307676518,38.956195733758825],[-95.25533344989232,38.95619462597621],[-95.25534722897282,38.95619745485844],[-95.2553525194267,38.9561817447043],[-95.2553551263162,38.95617400002071],[-95.25535397894512,38.95617376377588],[-95.25534519366224,38.95617196064175],[-95.25534578988928,38.95617019033408],[-95.2553469235271,38.956170423550184],[-95.2553484135179,38.95616599776731],[-95.2553495471906,38.95616623008301],[-95.25534828037001,38.956169991540065],[-95.25536868620138,38.95617418042409],[-95.25537509361631,38.956155149567266],[-95.2553648906679,38.95615305602668],[-95.25536191072369,38.95616190669243],[-95.25536077705101,38.95616167437689],[-95.25536316080387,38.95615459311851],[-95.25535409152842,38.95615273189253],[-95.25535170777466,38.95615981315069],[-95.25535057413707,38.956159579934635],[-95.25536048335915,38.95613014894704],[-95.25535934968698,38.95612991663147],[-95.25535994591331,38.95612814632368],[-95.2553712824952,38.956130473080606],[-95.2553802979428,38.95610369756663],[-95.25536896139985,38.95610136991021],[-95.25536866386352,38.956102255077774],[-95.25536639651999,38.956101790446745],[-95.25536863150218,38.95609515177198],[-95.25533547264108,38.956088344847274],[-95.25532451972867,38.95612087386425],[-95.25534974300422,38.956126051881384],[-95.25534914677766,38.95612782218906],[-95.2553482971351,38.95612764706556],[-95.25534010103455,38.956151988843914],[-95.25533925020363,38.95615181459344],[-95.25534744630444,38.95612747281514],[-95.25532165619262,38.956122178639504],[-95.25532195488282,38.95612129349938],[-95.25531061830401,38.95611896673762],[-95.25529675979001,38.95616012557467],[-95.25533388646552,38.95616774741675],[-95.25533656891146,38.95615978101878],[-95.25533741858929,38.95615995524197],[-95.25533473614342,38.95616792163995],[-95.25533558697455,38.9561680958905],[-95.25533499074726,38.956169866198124],[-95.25529389625186,38.95616143034925],[-95.25529695060644,38.956152357943175],[-95.25527796241741,38.95614846035606],[-95.25526358201641,38.95619116865476],[-95.25533381498768,38.95620558538153]]],[[[-95.255359074951,38.95621077057294],[-95.25542909382041,38.95622514342025],[-95.25544347412843,38.956182435101184],[-95.25542448592324,38.95617853753811],[-95.25542143043073,38.95618760992021],[-95.25538176728082,38.956179468439004],[-95.25538033591468,38.95617917410196],[-95.2553809321409,38.95617740379411],[-95.25538178293729,38.95617757894467],[-95.25538446537826,38.9561696125456],[-95.25538531505632,38.956169786768434],[-95.25538263261548,38.956177753167566],[-95.25541975934446,38.95618537408175],[-95.2554336177918,38.956144215230104],[-95.25542228239374,38.95614188760619],[-95.25542198370478,38.95614277274658],[-95.2553961935468,38.956137479487964],[-95.25538799749654,38.956161820369275],[-95.25538714781858,38.95616164614647],[-95.25539534275087,38.95613730433749],[-95.25539449307313,38.95613713011471],[-95.25539508929869,38.95613535980677],[-95.25542031258453,38.95614053780853],[-95.25543126545591,38.95610800878256],[-95.25539810658273,38.956101201875704],[-95.25539587044997,38.95610784052372],[-95.2553936042943,38.956107375020125],[-95.25539390183032,38.95610648985254],[-95.25538256525151,38.9561041630978],[-95.25537354980466,38.95613093861195],[-95.25538488638746,38.956133265367534],[-95.25538429016171,38.95613503567539],[-95.25538315648944,38.95613480336006],[-95.25538166650142,38.95613922914339],[-95.255380532864,38.95613899592759],[-95.25538179968231,38.95613523447016],[-95.25536139386139,38.956131045588464],[-95.25535558151839,38.95614830610955],[-95.25536465079335,38.95615016733543],[-95.25536703569864,38.95614308610424],[-95.2553681693361,38.956143319320155],[-95.25536518935772,38.956152170886426],[-95.25537539115281,38.9561542643997],[-95.25537837224822,38.95614541376087],[-95.2553785279963,38.95614544538568],[-95.25537950592071,38.9561456460763],[-95.25536959555116,38.95617507703814],[-95.25537072918912,38.956175310254054],[-95.25537013296265,38.956177080561815],[-95.25536107860553,38.95617522149206],[-95.25535318004081,38.95619867810373],[-95.25536621710884,38.95620135423497],[-95.25536584520528,38.95620246024422],[-95.25536212933433,38.9562016972648],[-95.255359074951,38.95621077057294]]],[[[-95.25534739422703,38.95624551559394],[-95.2553904720961,38.9562543588623],[-95.25539732697048,38.95623400028031],[-95.25535424907795,38.956225157914844],[-95.25534739422703,38.95624551559394]]],[[[-95.25552861886605,38.95625172418564],[-95.2555629114973,38.95625876336869],[-95.25556589145536,38.95624991179739],[-95.2555647578156,38.95624967858346],[-95.2555653540378,38.95624790827464],[-95.25557385645868,38.956249654227754],[-95.25558257319234,38.95622376293872],[-95.25554091176404,38.9562152119211],[-95.25553428125471,38.956234906212764],[-95.25553201394081,38.95623444068458],[-95.2555322371094,38.956233776358395],[-95.25550106145084,38.95622737781751],[-95.25550128577294,38.956226713518696],[-95.25553246024313,38.956233112932594],[-95.25553924067336,38.95621297608433],[-95.25554037434739,38.95621320839821],[-95.25554335545964,38.956204356854784],[-95.25549064032758,38.9561935362434],[-95.25548087991855,38.95622252465803],[-95.25549108284544,38.95622461908886],[-95.25549085967643,38.95622528341491],[-95.25548065674944,38.95622318898411],[-95.25548043246218,38.95622385238253],[-95.25547816514897,38.95622338685328],[-95.25548896923898,38.956191300406],[-95.25550058864214,38.95619368611556],[-95.25550558159664,38.95617885932151],[-95.25545088313812,38.95616763215592],[-95.2554316429434,38.95622477207654],[-95.25544326350327,38.956227157819164],[-95.25544518532516,38.95622144990337],[-95.25544660295917,38.956221741210825],[-95.25544298101694,38.95623250079269],[-95.25547302069191,38.95623866698012],[-95.25547548271659,38.956231353254495],[-95.25547775002997,38.95623181878379],[-95.25547745249445,38.95623270395159],[-95.25548312079562,38.95623386732445],[-95.25548282210694,38.95623475246499],[-95.25547800463796,38.95623376334161],[-95.25547263977168,38.95624969614395],[-95.25549701342462,38.95625469990678],[-95.25549969585555,38.956246733505054],[-95.25548835928574,38.9562444058603],[-95.25548865682116,38.95624352069248],[-95.2554977260769,38.95624538280834],[-95.25550011097205,38.95623830157447],[-95.25549104171718,38.956236439458806],[-95.25549133925259,38.956235554290956],[-95.25552903282593,38.9562432922277],[-95.25552933151404,38.956242407087046],[-95.25553097475154,38.956242744288716],[-95.25553159882813,38.95624287261525],[-95.25552861886605,38.95625172418564]]],[[[-95.2553927394097,38.956254824393255],[-95.25541739593574,38.95625988533761],[-95.25542425080286,38.956239526753976],[-95.25539959428342,38.95623446581112],[-95.2553927394097,38.956254824393255]]],[[[-95.25526901343935,38.95626052649455],[-95.25529905538244,38.956266693682004],[-95.25530248283384,38.95625651439377],[-95.25530389934977,38.9562568047753],[-95.25530259467762,38.95626067889003],[-95.2553142152391,38.956263064645576],[-95.25533298861474,38.95620730788357],[-95.25527829016164,38.9561960806366],[-95.2552732983464,38.95621090654771],[-95.25528491778044,38.95621329137852],[-95.2552741135945,38.95624537780676],[-95.25527184624706,38.95624491317389],[-95.2552720705713,38.956244248875485],[-95.25526186764809,38.95624215442549],[-95.25526209078427,38.95624149100024],[-95.25527229370748,38.956243585450245],[-95.2552820542399,38.95621459615282],[-95.25522934029341,38.95620377544998],[-95.25522919152415,38.95620421803363],[-95.25522635914193,38.95621262698535],[-95.25522749278002,38.956212860202655],[-95.25522071341418,38.95623299705998],[-95.25525188786173,38.956239396549314],[-95.25525166472545,38.95624005997455],[-95.25522048912445,38.956233660457855],[-95.25522026595293,38.95623432478343],[-95.2552179986411,38.95623385924911],[-95.25522463039167,38.9562141650028],[-95.25518296904728,38.95620561295623],[-95.25517425105124,38.956231503287576],[-95.25518275349545,38.956233248368946],[-95.25518215726379,38.9562350186758],[-95.25518102359058,38.95623478635848],[-95.2551780435849,38.95624363791987],[-95.25521233617731,38.956250677206555],[-95.25521531617899,38.95624182564428],[-95.25521758349099,38.956242291178654],[-95.25521728595217,38.95624317634583],[-95.2552229542499,38.95624433973136],[-95.2552229125931,38.95624446131158],[-95.25522265555793,38.95624522487124],[-95.25521783809188,38.95624423573705],[-95.25521247316617,38.956260168527336],[-95.25523457952643,38.956264705910485],[-95.25523696329545,38.956257624654725],[-95.25522789401005,38.9562557634189],[-95.255228192702,38.95625487827901],[-95.2552395292999,38.956257205048786],[-95.25524221060671,38.95624923862574],[-95.25523087516316,38.95624691188356],[-95.25523121313552,38.95624590690966],[-95.25526890672087,38.956253644030504],[-95.25526916494375,38.95625287959759],[-95.25527143229142,38.956253344230554],[-95.25526901343935,38.95626052649455]]],[[[-95.2553531166238,38.95627697306749],[-95.25536081290463,38.95627855305361],[-95.25535805609003,38.956286740293734],[-95.2554051029662,38.9562963975889],[-95.25541680086296,38.95626165567291],[-95.25536238523135,38.95625048563039],[-95.25535642411016,38.95626818873509],[-95.25535609660893,38.95626812150162],[-95.2553531166238,38.95627697306749]]],[[[-95.25540737028119,38.956296863119555],[-95.25546206764464,38.95630809117867],[-95.25546706061535,38.95629326438644],[-95.25545544000879,38.95629087954659],[-95.2554662441194,38.95625879310162],[-95.25546851143359,38.9562592586311],[-95.25546828829926,38.95625992205672],[-95.25547849123119,38.95626201648859],[-95.25547826690884,38.95626268078737],[-95.25546806397682,38.956260586355484],[-95.25545830354922,38.95628957476804],[-95.25551101874788,38.956300395393995],[-95.25551399871426,38.95629154382411],[-95.255512865039,38.95629131151001],[-95.25551964551536,38.95627117376262],[-95.25548846984142,38.956264775218386],[-95.25548869301052,38.9562641108923],[-95.25551986864923,38.95627051033687],[-95.25552009181811,38.9562698460107],[-95.25552235913302,38.9562703115391],[-95.25551572857837,38.95629000673002],[-95.25555739004768,38.956298557756654],[-95.25556610791165,38.95627266739666],[-95.25555760545325,38.95627092234334],[-95.2555582016758,38.95626915203458],[-95.25555933531591,38.95626938524864],[-95.25556231527493,38.95626053367745],[-95.2555280226429,38.95625349449424],[-95.25552504156167,38.95626234513683],[-95.255522774212,38.95626188050887],[-95.2555230729003,38.95626099536827],[-95.25551740463125,38.95625983109695],[-95.25551744513433,38.956259709489345],[-95.25551770216636,38.95625894592905],[-95.25552252079078,38.95625993507804],[-95.2555278856466,38.956244002273436],[-95.25550577927405,38.95623946494625],[-95.25550339437942,38.95624654618016],[-95.25551246367081,38.95624840739448],[-95.25551216613566,38.95624929256241],[-95.25550082953005,38.95624696581927],[-95.25549814709926,38.956254932220986],[-95.25550948370606,38.95625725896439],[-95.25550918501767,38.95625814410502],[-95.25547149140357,38.95625040706226],[-95.2554711938679,38.956251292230014],[-95.2554689265539,38.95625082670061],[-95.25547145630598,38.95624331450671],[-95.25544141435778,38.956237147363915],[-95.25543798692732,38.956247326656296],[-95.255436570446,38.956247035376016],[-95.25543806441675,38.95624259616797],[-95.25542644497271,38.95624021135253],[-95.25540737028119,38.956296863119555]]],[[[-95.25525461240873,38.95630914542684],[-95.25526509933673,38.9563112979703],[-95.25526457750861,38.956312846535525],[-95.25529277698085,38.95631863575321],[-95.25529925883129,38.95629938315875],[-95.2552890558993,38.95629728871112],[-95.25528942895768,38.95629618272947],[-95.25530218204604,38.956298800775144],[-95.25530827622615,38.95628070338337],[-95.25529353863416,38.956277678771265],[-95.25529273499502,38.95628006421022],[-95.25529613598316,38.956280762059286],[-95.25529576288996,38.956281868941375],[-95.2552912282624,38.95628093787563],[-95.25529465571564,38.95627075858764],[-95.25526829871845,38.95626534824214],[-95.25526606372154,38.95627198691485],[-95.25526521288933,38.95627181266385],[-95.25526487491733,38.95627281763783],[-95.25526260760404,38.95627235210437],[-95.25526294672923,38.9562713471577],[-95.25526152909497,38.956271055847964],[-95.2552671915487,38.95625423788813],[-95.25524338471405,38.9562493511358],[-95.25524070340737,38.95625731755883],[-95.25524297072002,38.956257783092695],[-95.25523998956797,38.9562666346284],[-95.25521136526392,38.95626075873597],[-95.25521102725631,38.95626176461023],[-95.25520875994366,38.95626129907572],[-95.25521173994625,38.956252447513556],[-95.25517744735303,38.956245408226664],[-95.25517446619331,38.956254259760634],[-95.25517559986687,38.95625449207807],[-95.25517500478801,38.956256262412126],[-95.25516650234123,38.956254517330194],[-95.25515778433318,38.95628040766022],[-95.25519944571857,38.95628895971583],[-95.25520607747949,38.956269265470674],[-95.25520834482725,38.956269730104836],[-95.25520111680038,38.95629119555739],[-95.2551999831611,38.956290962339885],[-95.25519700315543,38.95629981390172],[-95.25524971716858,38.95631063461911],[-95.25525992514544,38.95628031850058],[-95.25526219245903,38.95628078403407],[-95.25526208412342,38.95628110681097],[-95.25526335977779,38.95628136862411],[-95.25526037866227,38.95629021925989],[-95.25527681669726,38.95629359415159],[-95.25527875415563,38.956287840646],[-95.25528017067208,38.95628813102779],[-95.25527823436698,38.95629388456073],[-95.25527880120424,38.956294000718955],[-95.25527842811076,38.95629510760099],[-95.2552665247032,38.95629266377638],[-95.25526555653262,38.956295540992876],[-95.2552700911608,38.95629647205962],[-95.25526971810208,38.95629757804124],[-95.25525923232918,38.95629542552553],[-95.25525461240873,38.95630914542684]]],[[[-95.25523825905167,38.956348265209584],[-95.25526263275695,38.956353268121255],[-95.2552824717984,38.9563573408621],[-95.25528671865787,38.95634472694138],[-95.25526687958478,38.956340655101634],[-95.2552674758152,38.95633888479439],[-95.25528844852825,38.956343189850706],[-95.25529559972067,38.956321948781344],[-95.25527462827161,38.956317641052486],[-95.25525138825243,38.95631287046],[-95.25525025457773,38.95631263814332],[-95.25523825905167,38.956348265209584]]],[[[-95.25520501769718,38.95636509988765],[-95.25525518160129,38.95637539700231],[-95.25526218529572,38.95635459584485],[-95.2552120214053,38.956344298733214],[-95.25520501769718,38.95636509988765]]],[[[-95.25541007893973,38.95637430805886],[-95.25544437161862,38.95638134727684],[-95.25544735159676,38.95637249570873],[-95.25544621792041,38.95637226339398],[-95.25544681414662,38.956370493085814],[-95.25545531661425,38.95637223814721],[-95.25546403452468,38.95634634779504],[-95.25542237192023,38.95633779580723],[-95.25541574136638,38.956357490091875],[-95.25541347404935,38.95635702456138],[-95.2554207008304,38.9563355599688],[-95.2554218345061,38.95633579228379],[-95.25542481563828,38.95632694074348],[-95.25540001710806,38.95632185030432],[-95.25539964401632,38.956322957186806],[-95.25539033101096,38.95635061786933],[-95.25537516742511,38.95634750567876],[-95.25537554051736,38.956346398796384],[-95.25538914441641,38.95634919198314],[-95.25539808551844,38.956322637309995],[-95.25538731574247,38.95632042671342],[-95.25538441016076,38.95632905653793],[-95.25538299248988,38.95632876613009],[-95.25538500434232,38.95632279088068],[-95.25537168440897,38.9563200566863],[-95.25536363706291,38.95634395588217],[-95.25536420390068,38.95634407203996],[-95.25536383196145,38.95634517894956],[-95.25536241432529,38.956344887641066],[-95.25536174373033,38.95634687879053],[-95.25535947637901,38.95634641415933],[-95.25536327691799,38.95633512798708],[-95.25535392362399,38.956333208668546],[-95.25535146549721,38.95634051076829],[-95.25535004782623,38.95634022036006],[-95.2553529534475,38.956331589636],[-95.25535408708794,38.95633182285205],[-95.25536372322411,38.95633380023576],[-95.25537042934523,38.956313884239236],[-95.2553820487645,38.956316269960695],[-95.25538920233737,38.95629502623896],[-95.25533450384239,38.956283798118214],[-95.25531351649089,38.956346127361186],[-95.25532825406296,38.95634915287114],[-95.25532912029159,38.95634658236044],[-95.25532571933495,38.95634588361193],[-95.25532605852952,38.95634487686431],[-95.25533059316164,38.956345807928656],[-95.25532709018978,38.95635620803201],[-95.25535429802382,38.95636179351491],[-95.25535686833042,38.95635415881564],[-95.25535913564696,38.95635462434724],[-95.25535883810944,38.95635550951477],[-95.25541041851274,38.95636609784349],[-95.25541079160459,38.95636499096106],[-95.2554130589218,38.95636545649159],[-95.25541007893973,38.95637430805886]]],[[[-95.25525744891787,38.95637586253588],[-95.25527502068346,38.95637946884402],[-95.25528187556819,38.95635911116941],[-95.25526430384228,38.95635550396191],[-95.25525744891787,38.95637586253588]]],[[[-95.25515043645846,38.956383220086565],[-95.25518047847828,38.956389386404304],[-95.25518390595273,38.956379207119625],[-95.25518532243568,38.95637949840298],[-95.25518356235875,38.95638472618729],[-95.25519518181834,38.95638711102707],[-95.25521444838876,38.956329892457646],[-95.2551597498946,38.95631866425453],[-95.25515475804585,38.956333490160354],[-95.25516637746108,38.95633587590343],[-95.2551555743558,38.956367962347585],[-95.25515330704013,38.956367496812014],[-95.25515353021275,38.956366832486545],[-95.25514332727533,38.95636473802614],[-95.25514355041308,38.95636407460108],[-95.25515375335041,38.95636616906155],[-95.25516351391339,38.95633718067479],[-95.2551107998937,38.9563263599182],[-95.25510781991032,38.95633521057733],[-95.25510895354999,38.95633544379572],[-95.25510217298549,38.956355580618684],[-95.2551333474763,38.956361980139775],[-95.25513312430353,38.95636264446517],[-95.25510194865923,38.95635624491667],[-95.25510172552113,38.95635690834164],[-95.2550994582062,38.95635644280499],[-95.25510609000126,38.9563367485657],[-95.255064428599,38.95632819647658],[-95.2550557105445,38.95635408679878],[-95.25506421296555,38.956355832789235],[-95.2550636167299,38.956357603095455],[-95.25506248309,38.95635736987653],[-95.25505950306432,38.9563662214348],[-95.25509379570438,38.95637326075651],[-95.25509677572607,38.95636440919738],[-95.25509904304123,38.95636487473407],[-95.25509874550039,38.95636575990091],[-95.25510441380601,38.95636692329223],[-95.25510411511205,38.9563678084318],[-95.25509929763929,38.95636681929269],[-95.25509393267757,38.95638275207733],[-95.2551160390336,38.956387290383404],[-95.25511842281861,38.95638020913017],[-95.25510935355558,38.956378346984664],[-95.25510965224954,38.95637746184512],[-95.25512098882822,38.956379789526835],[-95.25512367130621,38.956371823133914],[-95.2551123347287,38.956369495452456],[-95.25511263226943,38.95636861028559],[-95.25515032587224,38.9563763483453],[-95.25515062456567,38.956375463205596],[-95.25515289188152,38.95637592874125],[-95.25515043645846,38.956383220086565]]],[[[-95.25521417989394,38.9563792821442],[-95.25523486977335,38.95638352914461],[-95.25523106921122,38.956394815312585],[-95.2552475073041,38.95639818930803],[-95.2552510091366,38.95638778917983],[-95.2552447740239,38.9563865087369],[-95.25524835025844,38.95637588686673],[-95.25521745855836,38.956369546342536],[-95.25521417989394,38.9563792821442]]],[[[-95.25524999779316,38.95639799051613],[-95.2552675695289,38.95640159772579],[-95.25527129453019,38.95639053327133],[-95.25527442445289,38.95638123915128],[-95.25525685268688,38.95637763284307],[-95.25524999779316,38.95639799051613]]],[[[-95.25528883006896,38.95641944686839],[-95.25534352866164,38.956430675010566],[-95.25534852047768,38.95641584909668],[-95.25533689988995,38.9564134633446],[-95.25534770407309,38.95638137691096],[-95.25534997139047,38.95638184244274],[-95.25534974821964,38.95638250676856],[-95.25535995120075,38.95638460031046],[-95.25535972687683,38.956385264609004],[-95.25534952393065,38.95638317016666],[-95.25533976343753,38.95641215856896],[-95.25539247870944,38.95642297924872],[-95.25539545869584,38.956414127681946],[-95.25539432501898,38.95641389536672],[-95.2554011055059,38.95639375852684],[-95.25536992982362,38.9563873590504],[-95.25537015414746,38.95638669475183],[-95.25540132867624,38.956393094200926],[-95.25540155296484,38.95639243080269],[-95.25540382028294,38.95639289633342],[-95.25539718856552,38.956412590589636],[-95.25543885005776,38.956421142559186],[-95.25544756798027,38.95639525220834],[-95.25543906554498,38.956393506246],[-95.25543966177155,38.956391735937835],[-95.25544079541324,38.95639196915305],[-95.25544377539227,38.956383117585005],[-95.25540948271258,38.956376078366816],[-95.25540650157637,38.95638492990668],[-95.25540423425852,38.956384464376],[-95.2554045329488,38.95638357923565],[-95.25539886463692,38.956382415859],[-95.25539916217404,38.95638153069139],[-95.25540398084017,38.956382518944935],[-95.255409345697,38.95636658704635],[-95.25538723932868,38.956362048796194],[-95.25538485441804,38.95636913002766],[-95.25539392368707,38.9563709921516],[-95.25539362614992,38.95637187731921],[-95.25538228956354,38.95636954966408],[-95.25537960711472,38.95637751606303],[-95.25539094370231,38.95637984371836],[-95.25539064620004,38.95638072798555],[-95.25537562458808,38.95637764529145],[-95.2553759232787,38.95637676015119],[-95.25537847343857,38.95637728374761],[-95.25538115588743,38.95636931734873],[-95.25537860457466,38.956368793725076],[-95.2553812870232,38.95636082732618],[-95.25535946461903,38.95635634806364],[-95.25535380221406,38.95637316512745],[-95.25535295138042,38.95637299087703],[-95.25535265384273,38.95637387604452],[-95.25535038652558,38.95637341051281],[-95.25535053138043,38.95637297955233],[-95.25535046040773,38.956372964353875],[-95.25535277092007,38.956366104865204],[-95.25532279990273,38.95635995289021],[-95.25531937244925,38.95637013217896],[-95.25531795596594,38.95636984089721],[-95.25531932592011,38.956365771861094],[-95.2553077053416,38.95636338610605],[-95.25528883006896,38.95641944686839]]],[[[-95.25511623641266,38.95644789510731],[-95.25517093499988,38.956459123330845],[-95.25519062702091,38.95640063960609],[-95.25517900759424,38.956398253865494],[-95.25517670744323,38.95640508385601],[-95.25517528865349,38.95640479251795],[-95.25517891291663,38.956394033899564],[-95.25514887208313,38.95638786670837],[-95.25514633449843,38.956395401241224],[-95.25514406718194,38.95639493570545],[-95.25514436587552,38.956394050565834],[-95.25513869756708,38.956392887176406],[-95.25513899510753,38.956392002009466],[-95.25514381258253,38.9563929911469],[-95.2551491775338,38.95637705835996],[-95.25512480498148,38.956372055451816],[-95.25512212250364,38.956380021844765],[-95.2551334591181,38.95638234862488],[-95.2551331604244,38.956383233764484],[-95.2551240911257,38.95638137252054],[-95.2551217073412,38.956388453773876],[-95.25513077664077,38.956390315018005],[-95.25513047794708,38.95639120015764],[-95.2550927843035,38.956383462991894],[-95.25509248676254,38.95638434815873],[-95.25509021944673,38.9563838826219],[-95.25509319946933,38.95637503106286],[-95.25505890682847,38.956367991741],[-95.25505592564872,38.95637684327187],[-95.25505705932386,38.9563770755904],[-95.25505646424101,38.95637884592387],[-95.25504796178242,38.95637710083322],[-95.25503924371584,38.95640299115409],[-95.25508090515913,38.956411543252145],[-95.25508753696454,38.95639184901404],[-95.25508980428056,38.956392314550904],[-95.25508957998905,38.956392977948475],[-95.25512075564842,38.956399377500254],[-95.25512053247543,38.95640004182564],[-95.25508935681576,38.95639364227382],[-95.25508257624008,38.95641377909546],[-95.25508144259922,38.956413545876735],[-95.25507846257355,38.956422397435446],[-95.25513117665996,38.95643321820665],[-95.25514093839466,38.95640422984926],[-95.25513073545223,38.95640213538768],[-95.25513095859017,38.95640147196271],[-95.25514116153253,38.95640356642423],[-95.25514138470538,38.95640290209882],[-95.25514365202206,38.956403367634664],[-95.25513284889617,38.956435454076505],[-95.25512122827756,38.956433069203236],[-95.25511623641266,38.95644789510731]]],[[[-95.25519055256,38.95651874674658],[-95.25522371160899,38.9565255537125],[-95.25522594661791,38.956518915040746],[-95.2552282139389,38.95651938057487],[-95.25522791639905,38.95652026574206],[-95.25523925188628,38.95652259248452],[-95.25524826858708,38.95649581700893],[-95.25523693195065,38.9564934902401],[-95.2552375281831,38.95649171993301],[-95.25523866070752,38.95649195222247],[-95.25524015186508,38.95648752646841],[-95.25524128554254,38.95648775878516],[-95.2552400186755,38.956491521141345],[-95.25526042459327,38.956495710044294],[-95.25526623583485,38.9564784495012],[-95.25525716655534,38.95647658736731],[-95.25525478278101,38.95648366862328],[-95.2552536491035,38.95648343630671],[-95.25525662910984,38.956474584743525],[-95.25524642615382,38.95647249029215],[-95.25524344614631,38.956481341855046],[-95.25524231246888,38.956481109538316],[-95.25525222181608,38.956451677660375],[-95.2552510881391,38.956451445343724],[-95.25525168437085,38.956449675036566],[-95.25526073991348,38.95645153414212],[-95.25526863738392,38.95642807750996],[-95.25525560027775,38.95642540136782],[-95.25525597337231,38.95642429448583],[-95.25526052974426,38.956425230573615],[-95.25526358530264,38.95641615729554],[-95.25519272344644,38.956401612088854],[-95.25517834294247,38.95644432037605],[-95.25519733235856,38.956448218006685],[-95.2552003867729,38.956439144702955],[-95.25524148141855,38.956447580584786],[-95.25524088518658,38.95644935089186],[-95.25524003550547,38.95644917666795],[-95.25523735303766,38.95645714306352],[-95.25523650223828,38.95645696791188],[-95.25523918470621,38.95644900151635],[-95.25520205785827,38.95644138054453],[-95.25518819918288,38.956482540267864],[-95.25519953581595,38.95648486704152],[-95.25519983335606,38.956483981874435],[-95.2552256247439,38.95648927610425],[-95.25523382092294,38.956464934334655],[-95.25523467056927,38.95646510945903],[-95.25522647442541,38.956489450328256],[-95.25522732522518,38.95648962547999],[-95.25522672899248,38.95649139578699],[-95.25520150444244,38.95648621771598],[-95.25519055256,38.95651874674658]]],[[[-95.2552554218629,38.95652496518048],[-95.25525318570334,38.95653160382551],[-95.25528634591764,38.956538410800846],[-95.25529729891227,38.95650588178858],[-95.2552720743519,38.95650070373293],[-95.25527267058354,38.95649893342566],[-95.25527352141849,38.95649910767664],[-95.25528171754722,38.956474766804085],[-95.25528256722868,38.95647494102768],[-95.25527437106528,38.956499282800706],[-95.25530016134607,38.956504576086274],[-95.25529986380718,38.956505461253606],[-95.25531120041266,38.9565077889167],[-95.25532505902135,38.95646662917874],[-95.2552879321549,38.956459008234404],[-95.25528524969212,38.956466974631105],[-95.25528439885751,38.95646680038017],[-95.2552858900117,38.95646237462552],[-95.25528708132039,38.95645883398357],[-95.25528623167408,38.95645865885961],[-95.255286827905,38.95645688855225],[-95.25532792257131,38.95646532440345],[-95.25532486701904,38.95647439768317],[-95.25534385645128,38.95647829528977],[-95.25535823686225,38.9564355869822],[-95.25528755594583,38.956421077660515],[-95.2552845003903,38.95643015093922],[-95.255288741911,38.956431020992895],[-95.25528836878193,38.956432128775326],[-95.25527458853993,38.95642929895848],[-95.2552666910713,38.95645275559106],[-95.25527662491568,38.95645479500396],[-95.2552760286845,38.956456565311235],[-95.25527489504233,38.95645633209443],[-95.25527340504082,38.95646075787627],[-95.25527227136362,38.95646052555985],[-95.25527353822844,38.95645676320328],[-95.25525313232109,38.95645257430263],[-95.25524672484642,38.956471605152196],[-95.25525692664914,38.95647369957627],[-95.2552599078078,38.95646484804033],[-95.25526104145005,38.95646508125725],[-95.25525865655825,38.95647216158568],[-95.25526772583717,38.95647402371949],[-95.25527011076312,38.95646694249048],[-95.25527124444041,38.956467174806974],[-95.2552613339458,38.95649660665917],[-95.25526246762354,38.95649683897573],[-95.25526187139165,38.95649860928292],[-95.25525053590748,38.956496282542666],[-95.25524151920747,38.956523058018384],[-95.25525285584881,38.95652538478681],[-95.25525315454158,38.95652449964685],[-95.2552554218629,38.95652496518048]]]]},"properties":{"SDE.FloorAll.FLOORLOCATION":"1"}},{"type":"Feature","geometry":{"type":"Polygon","coordinates":[[[-95.25525255827428,38.956526270854404],[-95.25525032326757,38.9565329095267],[-95.25528801700808,38.95654064664116],[-95.25529956623329,38.95650634732132],[-95.25531090287383,38.95650867408409],[-95.25530941287347,38.956513099866356],[-95.25531168019485,38.95651356539888],[-95.25532457063375,38.956475282877896],[-95.25534299207416,38.95647906429938],[-95.25534355891305,38.95647918045725],[-95.25534206891531,38.956483606239935],[-95.25534433623594,38.95648407177187],[-95.25536110041028,38.95643428220606],[-95.25534466230363,38.95643090822672],[-95.25534965411946,38.956416082312785],[-95.2553986844387,38.956426146149255],[-95.25539928066654,38.95642437584131],[-95.25539361235147,38.95642321246438],[-95.25539659349089,38.95641436092489],[-95.25544052230342,38.95642337842458],[-95.25545043152506,38.95639394742998],[-95.25544192905492,38.9563922023682],[-95.25544490903383,38.95638335080014],[-95.25544774319016,38.95638393248743],[-95.25544833941642,38.956382162179224],[-95.25544550526014,38.956381580492014],[-95.25544848639132,38.956372728951166],[-95.25545698885928,38.9563744740124],[-95.2554668980672,38.95634504301624],[-95.25542296929997,38.95633602552644],[-95.25542594927883,38.95632717395882],[-95.25543161758672,38.95632833733422],[-95.25543221381292,38.95632656702609],[-95.25538318355795,38.95631650320373],[-95.25539033597732,38.95629525945467],[-95.25546827452008,38.956311258102765],[-95.25546887074522,38.95630948779449],[-95.2554632024382,38.95630832442094],[-95.25546819425547,38.9562934976014],[-95.25551722447169,38.95630356228822],[-95.25551782069553,38.95630179197964],[-95.25551215238833,38.95630062860851],[-95.25551513350776,38.95629177706585],[-95.25555906225924,38.95630079452081],[-95.25556897141435,38.956271363515704],[-95.25556046899098,38.956269617562256],[-95.25556344894984,38.95626076599106],[-95.25556628306727,38.95626134857583],[-95.25556687928952,38.956259578267016],[-95.25556404513719,38.95625899658267],[-95.25556702624836,38.95625014503868],[-95.2555755287045,38.95625189009129],[-95.2555854378459,38.95622245908467],[-95.25554150913976,38.95621344163967],[-95.25554448909861,38.95620459006893],[-95.25555015739864,38.95620575343851],[-95.25555075362082,38.956203983129775],[-95.255501723434,38.95619391935748],[-95.25550671523513,38.95617909253609],[-95.25551238353248,38.95618025590749],[-95.2555129797554,38.95617848559896],[-95.25544921205136,38.956165396317914],[-95.2554437728173,38.95618154996073],[-95.2554247846124,38.956177652397685],[-95.25543767492883,38.956139369863074],[-95.25543540761865,38.956138904332974],[-95.2554339164807,38.9561433300897],[-95.25542258104782,38.956141003366206],[-95.25543412898936,38.95610670400454],[-95.2553964354992,38.95609896603692],[-95.25539464797676,38.956104276988064],[-95.25539420051956,38.956105604712185],[-95.25538286394088,38.95610327795749],[-95.25538360893447,38.95610106506582],[-95.25538134162586,38.956100599534686],[-95.25538059663222,38.95610281242635],[-95.25536926005442,38.956100485670326],[-95.25537149503629,38.95609384699554],[-95.25533380152486,38.956086109907915],[-95.25532225353807,38.956120409259626],[-95.25531091699433,38.95611808159752],[-95.25531240698629,38.95611365581509],[-95.25531013964279,38.956113191182936],[-95.25529724926207,38.95615147370351],[-95.25527826110827,38.956147575216065],[-95.25527975110295,38.95614314943408],[-95.25527748379368,38.95614268390093],[-95.25526071962959,38.956192473455815],[-95.25527715764183,38.95619584834752],[-95.2552721646732,38.9562106742313],[-95.25522313455633,38.956200609440806],[-95.25522253832597,38.956202379747815],[-95.25522820662052,38.95620354313314],[-95.25522522662206,38.95621239469576],[-95.25518129793312,38.95620337801473],[-95.25517138862618,38.956232808986826],[-95.25517989107047,38.9562345540684],[-95.25517705868116,38.956242963018965],[-95.25517690991148,38.95624340560248],[-95.25517407576302,38.95624282390861],[-95.25517347953107,38.95624459421543],[-95.25517631367961,38.95624517590929],[-95.2551733336729,38.95625402747057],[-95.2551648312614,38.95625228148808],[-95.25515492190577,38.956281713359054],[-95.25519885064003,38.95629073005],[-95.25519586948107,38.95629958158451],[-95.25519020233251,38.956298418224954],[-95.25518960610049,38.95630018853178],[-95.25523863628169,38.956310253336376],[-95.25523148269701,38.95633149614837],[-95.25515354530373,38.956315498268864],[-95.25515294907065,38.95631726857556],[-95.25515861737327,38.95631843196421],[-95.25515362437108,38.95633325784278],[-95.2551045941861,38.95632319300229],[-95.25510399910489,38.95632496333598],[-95.25510966621918,38.95632612760016],[-95.25510683500599,38.956334535675836],[-95.25510668623569,38.95633497825924],[-95.25506275748567,38.956325961533416],[-95.25505284811221,38.95635539249507],[-95.25506135056834,38.95635713758535],[-95.25505836938935,38.956365989116286],[-95.25505553523692,38.95636540741953],[-95.25505493900098,38.95636717772566],[-95.25505777315347,38.95636775942248],[-95.2550547931268,38.9563766109806],[-95.25504629066852,38.95637486588983],[-95.25503638128133,38.95640429684996],[-95.2550803100766,38.956413313585756],[-95.2550774788215,38.95642172256105],[-95.25507733005082,38.95642216514444],[-95.25507166174124,38.956421001751785],[-95.25507106550522,38.956422772058],[-95.25512009575448,38.95643283691259],[-95.25511525265983,38.95644722023319],[-95.25511510273618,38.9564476627893],[-95.2551094355771,38.95644649942582],[-95.2551088393418,38.95644826973228],[-95.25517260723795,38.956461359200176],[-95.25517804540226,38.95644520554306],[-95.25519703481864,38.95644910317375],[-95.25518414431545,38.956487385680674],[-95.25518641163515,38.95648785121565],[-95.25518790164267,38.956483425434946],[-95.25519923824093,38.95648575310901],[-95.25518768897037,38.956520052418895],[-95.25522538269713,38.95652778955373],[-95.25522761885914,38.95652115090923],[-95.2552389554997,38.956523477678985],[-95.25523821049715,38.956525690569656],[-95.25524047666524,38.956526156076265],[-95.25524122282094,38.956523943212865],[-95.25525255827428,38.956526270854404]]]},"properties":{"SDE.FloorAll.FLOORLOCATION":"2"}},{"type":"Feature","geometry":{"type":"Polygon","coordinates":[[[-95.25525255827428,38.956526270854404],[-95.25525032326757,38.9565329095267],[-95.25528801700808,38.95654064664116],[-95.25529956623329,38.95650634732132],[-95.25531090287383,38.95650867408409],[-95.25530941287347,38.956513099866356],[-95.25531168019485,38.95651356539888],[-95.25532457063375,38.956475282877896],[-95.25534299207416,38.95647906429938],[-95.25534355891305,38.95647918045725],[-95.25534206891531,38.956483606239935],[-95.25534433623594,38.95648407177187],[-95.25536110041028,38.95643428220606],[-95.25534466230363,38.95643090822672],[-95.25534965411946,38.956416082312785],[-95.2553986844387,38.956426146149255],[-95.25539928066654,38.95642437584131],[-95.25539361235147,38.95642321246438],[-95.25539659349089,38.95641436092489],[-95.25544052230342,38.95642337842458],[-95.25545043152506,38.95639394742998],[-95.25544192905492,38.9563922023682],[-95.25544490903383,38.95638335080014],[-95.25544774319016,38.95638393248743],[-95.25544833941642,38.956382162179224],[-95.25544550526014,38.956381580492014],[-95.25544848639132,38.956372728951166],[-95.25545698885928,38.9563744740124],[-95.2554668980672,38.95634504301624],[-95.25542296929997,38.95633602552644],[-95.25542594927883,38.95632717395882],[-95.25543161758672,38.95632833733422],[-95.25543221381292,38.95632656702609],[-95.25538318355795,38.95631650320373],[-95.25539033597732,38.95629525945467],[-95.25546827452008,38.956311258102765],[-95.25546887074522,38.95630948779449],[-95.2554632024382,38.95630832442094],[-95.25546819425547,38.9562934976014],[-95.25551722447169,38.95630356228822],[-95.25551782069553,38.95630179197964],[-95.25551215238833,38.95630062860851],[-95.25551513350776,38.95629177706585],[-95.25555906225924,38.95630079452081],[-95.25556897141435,38.956271363515704],[-95.25556046899098,38.956269617562256],[-95.25556344894984,38.95626076599106],[-95.25556628306727,38.95626134857583],[-95.25556687928952,38.956259578267016],[-95.25556404513719,38.95625899658267],[-95.25556702624836,38.95625014503868],[-95.2555755287045,38.95625189009129],[-95.2555854378459,38.95622245908467],[-95.25554150913976,38.95621344163967],[-95.25554448909861,38.95620459006893],[-95.25555015739864,38.95620575343851],[-95.25555075362082,38.956203983129775],[-95.255501723434,38.95619391935748],[-95.25550671523513,38.95617909253609],[-95.25551238353248,38.95618025590749],[-95.2555129797554,38.95617848559896],[-95.25544921205136,38.956165396317914],[-95.2554437728173,38.95618154996073],[-95.2554247846124,38.956177652397685],[-95.25543767492883,38.956139369863074],[-95.25543540761865,38.956138904332974],[-95.2554339164807,38.9561433300897],[-95.25542258104782,38.956141003366206],[-95.25543412898936,38.95610670400454],[-95.2553964354992,38.95609896603692],[-95.25539464797676,38.956104276988064],[-95.25539420051956,38.956105604712185],[-95.25538286394088,38.95610327795749],[-95.25538360893447,38.95610106506582],[-95.25538134162586,38.956100599534686],[-95.25538059663222,38.95610281242635],[-95.25536926005442,38.956100485670326],[-95.25537149503629,38.95609384699554],[-95.25533380152486,38.956086109907915],[-95.25532225353807,38.956120409259626],[-95.25531091699433,38.95611808159752],[-95.25531240698629,38.95611365581509],[-95.25531013964279,38.956113191182936],[-95.25529724926207,38.95615147370351],[-95.25527826110827,38.956147575216065],[-95.25527975110295,38.95614314943408],[-95.25527748379368,38.95614268390093],[-95.25526071962959,38.956192473455815],[-95.25527715764183,38.95619584834752],[-95.2552721646732,38.9562106742313],[-95.25522313455633,38.956200609440806],[-95.25522253832597,38.956202379747815],[-95.25522820662052,38.95620354313314],[-95.25522522662206,38.95621239469576],[-95.25518129793312,38.95620337801473],[-95.25517138862618,38.956232808986826],[-95.25517989107047,38.9562345540684],[-95.25517705868116,38.956242963018965],[-95.25517690991148,38.95624340560248],[-95.25517407576302,38.95624282390861],[-95.25517347953107,38.95624459421543],[-95.25517631367961,38.95624517590929],[-95.2551733336729,38.95625402747057],[-95.2551648312614,38.95625228148808],[-95.25515492190577,38.956281713359054],[-95.25519885064003,38.95629073005],[-95.25519586948107,38.95629958158451],[-95.25519020233251,38.956298418224954],[-95.25518960610049,38.95630018853178],[-95.25523863628169,38.956310253336376],[-95.25523148269701,38.95633149614837],[-95.25515354530373,38.956315498268864],[-95.25515294907065,38.95631726857556],[-95.25515861737327,38.95631843196421],[-95.25515362437108,38.95633325784278],[-95.2551045941861,38.95632319300229],[-95.25510399910489,38.95632496333598],[-95.25510966621918,38.95632612760016],[-95.25510683500599,38.956334535675836],[-95.25510668623569,38.95633497825924],[-95.25506275748567,38.956325961533416],[-95.25505284811221,38.95635539249507],[-95.25506135056834,38.95635713758535],[-95.25505836938935,38.956365989116286],[-95.25505553523692,38.95636540741953],[-95.25505493900098,38.95636717772566],[-95.25505777315347,38.95636775942248],[-95.2550547931268,38.9563766109806],[-95.25504629066852,38.95637486588983],[-95.25503638128133,38.95640429684996],[-95.2550803100766,38.956413313585756],[-95.2550774788215,38.95642172256105],[-95.25507733005082,38.95642216514444],[-95.25507166174124,38.956421001751785],[-95.25507106550522,38.956422772058],[-95.25512009575448,38.95643283691259],[-95.25511525265983,38.95644722023319],[-95.25511510273618,38.9564476627893],[-95.2551094355771,38.95644649942582],[-95.2551088393418,38.95644826973228],[-95.25517260723795,38.956461359200176],[-95.25517804540226,38.95644520554306],[-95.25519703481864,38.95644910317375],[-95.25518414431545,38.956487385680674],[-95.25518641163515,38.95648785121565],[-95.25518790164267,38.956483425434946],[-95.25519923824093,38.95648575310901],[-95.25518768897037,38.956520052418895],[-95.25522538269713,38.95652778955373],[-95.25522761885914,38.95652115090923],[-95.2552389554997,38.956523477678985],[-95.25523821049715,38.956525690569656],[-95.25524047666524,38.956526156076265],[-95.25524122282094,38.956523943212865],[-95.25525255827428,38.956526270854404]]]},"properties":{"SDE.FloorAll.FLOORLOCATION":"3"}},{"type":"Feature","geometry":{"type":"Polygon","coordinates":[[[-95.25525255827428,38.956526270854404],[-95.25525032326757,38.9565329095267],[-95.25528801700808,38.95654064664116],[-95.25529956623329,38.95650634732132],[-95.25531090287383,38.95650867408409],[-95.25530941287347,38.956513099866356],[-95.25531168019485,38.95651356539888],[-95.25532457063375,38.956475282877896],[-95.25534299207416,38.95647906429938],[-95.25534355891305,38.95647918045725],[-95.25534206891531,38.956483606239935],[-95.25534433623594,38.95648407177187],[-95.25536110041028,38.95643428220606],[-95.25534466230363,38.95643090822672],[-95.25534965411946,38.956416082312785],[-95.2553986844387,38.956426146149255],[-95.25539928066654,38.95642437584131],[-95.25539361235147,38.95642321246438],[-95.25539659349089,38.95641436092489],[-95.25544052230342,38.95642337842458],[-95.25545043152506,38.95639394742998],[-95.25544192905492,38.9563922023682],[-95.25544490903383,38.95638335080014],[-95.25544774319016,38.95638393248743],[-95.25544833941642,38.956382162179224],[-95.25544550526014,38.956381580492014],[-95.25544848639132,38.956372728951166],[-95.25545698885928,38.9563744740124],[-95.2554668980672,38.95634504301624],[-95.25542296929997,38.95633602552644],[-95.25542594927883,38.95632717395882],[-95.25543161758672,38.95632833733422],[-95.25543221381292,38.95632656702609],[-95.25538318355795,38.95631650320373],[-95.25539033597732,38.95629525945467],[-95.25546827452008,38.956311258102765],[-95.25546887074522,38.95630948779449],[-95.2554632024382,38.95630832442094],[-95.25546819425547,38.9562934976014],[-95.25551722447169,38.95630356228822],[-95.25551782069553,38.95630179197964],[-95.25551215238833,38.95630062860851],[-95.25551513350776,38.95629177706585],[-95.25555906225924,38.95630079452081],[-95.25556897141435,38.956271363515704],[-95.25556046899098,38.956269617562256],[-95.25556344894984,38.95626076599106],[-95.25556628306727,38.95626134857583],[-95.25556687928952,38.956259578267016],[-95.25556404513719,38.95625899658267],[-95.25556702624836,38.95625014503868],[-95.2555755287045,38.95625189009129],[-95.2555854378459,38.95622245908467],[-95.25554150913976,38.95621344163967],[-95.25554448909861,38.95620459006893],[-95.25555015739864,38.95620575343851],[-95.25555075362082,38.956203983129775],[-95.255501723434,38.95619391935748],[-95.25550671523513,38.95617909253609],[-95.25551238353248,38.95618025590749],[-95.2555129797554,38.95617848559896],[-95.25544921205136,38.956165396317914],[-95.2554437728173,38.95618154996073],[-95.2554247846124,38.956177652397685],[-95.25543767492883,38.956139369863074],[-95.25543540761865,38.956138904332974],[-95.2554339164807,38.9561433300897],[-95.25542258104782,38.956141003366206],[-95.25543412898936,38.95610670400454],[-95.2553964354992,38.95609896603692],[-95.25539464797676,38.956104276988064],[-95.25539420051956,38.956105604712185],[-95.25538286394088,38.95610327795749],[-95.25538360893447,38.95610106506582],[-95.25538134162586,38.956100599534686],[-95.25538059663222,38.95610281242635],[-95.25536926005442,38.956100485670326],[-95.25537149503629,38.95609384699554],[-95.25533380152486,38.956086109907915],[-95.25532225353807,38.956120409259626],[-95.25531091699433,38.95611808159752],[-95.25531240698629,38.95611365581509],[-95.25531013964279,38.956113191182936],[-95.25529724926207,38.95615147370351],[-95.25527826110827,38.956147575216065],[-95.25527975110295,38.95614314943408],[-95.25527748379368,38.95614268390093],[-95.25526071962959,38.956192473455815],[-95.25527715764183,38.95619584834752],[-95.2552721646732,38.9562106742313],[-95.25522313455633,38.956200609440806],[-95.25522253832597,38.956202379747815],[-95.25522820662052,38.95620354313314],[-95.25522522662206,38.95621239469576],[-95.25518129793312,38.95620337801473],[-95.25517138862618,38.956232808986826],[-95.25517989107047,38.9562345540684],[-95.25517705868116,38.956242963018965],[-95.25517690991148,38.95624340560248],[-95.25517407576302,38.95624282390861],[-95.25517347953107,38.95624459421543],[-95.25517631367961,38.95624517590929],[-95.2551733336729,38.95625402747057],[-95.2551648312614,38.95625228148808],[-95.25515492190577,38.956281713359054],[-95.25519885064003,38.95629073005],[-95.25519586948107,38.95629958158451],[-95.25519020233251,38.956298418224954],[-95.25518960610049,38.95630018853178],[-95.25523863628169,38.956310253336376],[-95.25523148269701,38.95633149614837],[-95.25515354530373,38.956315498268864],[-95.25515294907065,38.95631726857556],[-95.25515861737327,38.95631843196421],[-95.25515362437108,38.95633325784278],[-95.2551045941861,38.95632319300229],[-95.25510399910489,38.95632496333598],[-95.25510966621918,38.95632612760016],[-95.25510683500599,38.956334535675836],[-95.25510668623569,38.95633497825924],[-95.25506275748567,38.956325961533416],[-95.25505284811221,38.95635539249507],[-95.25506135056834,38.95635713758535],[-95.25505836938935,38.956365989116286],[-95.25505553523692,38.95636540741953],[-95.25505493900098,38.95636717772566],[-95.25505777315347,38.95636775942248],[-95.2550547931268,38.9563766109806],[-95.25504629066852,38.95637486588983],[-95.25503638128133,38.95640429684996],[-95.2550803100766,38.956413313585756],[-95.2550774788215,38.95642172256105],[-95.25507733005082,38.95642216514444],[-95.25507166174124,38.956421001751785],[-95.25507106550522,38.956422772058],[-95.25512009575448,38.95643283691259],[-95.25511525265983,38.95644722023319],[-95.25511510273618,38.9564476627893],[-95.2551094355771,38.95644649942582],[-95.2551088393418,38.95644826973228],[-95.25517260723795,38.956461359200176],[-95.25517804540226,38.95644520554306],[-95.25519703481864,38.95644910317375],[-95.25518414431545,38.956487385680674],[-95.25518641163515,38.95648785121565],[-95.25518790164267,38.956483425434946],[-95.25519923824093,38.95648575310901],[-95.25518768897037,38.956520052418895],[-95.25522538269713,38.95652778955373],[-95.25522761885914,38.95652115090923],[-95.2552389554997,38.956523477678985],[-95.25523821049715,38.956525690569656],[-95.25524047666524,38.956526156076265],[-95.25524122282094,38.956523943212865],[-95.25525255827428,38.956526270854404]]]},"properties":{"SDE.FloorAll.FLOORLOCATION":"4"}},{"type":"Feature","geometry":{"type":"Polygon","coordinates":[[[-95.25525255827428,38.956526270854404],[-95.25525032326757,38.9565329095267],[-95.25528801700808,38.95654064664116],[-95.25529956623329,38.95650634732132],[-95.25531090287383,38.95650867408409],[-95.25530941287347,38.956513099866356],[-95.25531168019485,38.95651356539888],[-95.25532457063375,38.956475282877896],[-95.25534299207416,38.95647906429938],[-95.25534355891305,38.95647918045725],[-95.25534206891531,38.956483606239935],[-95.25534433623594,38.95648407177187],[-95.25536110041028,38.95643428220606],[-95.25534466230363,38.95643090822672],[-95.25534965411946,38.956416082312785],[-95.2553986844387,38.956426146149255],[-95.25539928066654,38.95642437584131],[-95.25539361235147,38.95642321246438],[-95.25539659349089,38.95641436092489],[-95.25544052230342,38.95642337842458],[-95.25545043152506,38.95639394742998],[-95.25544192905492,38.9563922023682],[-95.25544490903383,38.95638335080014],[-95.25544774319016,38.95638393248743],[-95.25544833941642,38.956382162179224],[-95.25544550526014,38.956381580492014],[-95.25544848639132,38.956372728951166],[-95.25545698885928,38.9563744740124],[-95.2554668980672,38.95634504301624],[-95.25542296929997,38.95633602552644],[-95.25542594927883,38.95632717395882],[-95.25543161758672,38.95632833733422],[-95.25543221381292,38.95632656702609],[-95.25538318355795,38.95631650320373],[-95.25539033597732,38.95629525945467],[-95.25546827452008,38.956311258102765],[-95.25546887074522,38.95630948779449],[-95.2554632024382,38.95630832442094],[-95.25546819425547,38.9562934976014],[-95.25551722447169,38.95630356228822],[-95.25551782069553,38.95630179197964],[-95.25551215238833,38.95630062860851],[-95.25551513350776,38.95629177706585],[-95.25555906225924,38.95630079452081],[-95.25556897141435,38.956271363515704],[-95.25556046899098,38.956269617562256],[-95.25556344894984,38.95626076599106],[-95.25556628306727,38.95626134857583],[-95.25556687928952,38.956259578267016],[-95.25556404513719,38.95625899658267],[-95.25556702624836,38.95625014503868],[-95.2555755287045,38.95625189009129],[-95.2555854378459,38.95622245908467],[-95.25554150913976,38.95621344163967],[-95.25554448909861,38.95620459006893],[-95.25555015739864,38.95620575343851],[-95.25555075362082,38.956203983129775],[-95.255501723434,38.95619391935748],[-95.25550671523513,38.95617909253609],[-95.25551238353248,38.95618025590749],[-95.2555129797554,38.95617848559896],[-95.25544921205136,38.956165396317914],[-95.2554437728173,38.95618154996073],[-95.2554247846124,38.956177652397685],[-95.25543767492883,38.956139369863074],[-95.25543540761865,38.956138904332974],[-95.2554339164807,38.9561433300897],[-95.25542258104782,38.956141003366206],[-95.25543412898936,38.95610670400454],[-95.2553964354992,38.95609896603692],[-95.25539464797676,38.956104276988064],[-95.25539420051956,38.956105604712185],[-95.25538286394088,38.95610327795749],[-95.25538360893447,38.95610106506582],[-95.25538134162586,38.956100599534686],[-95.25538059663222,38.95610281242635],[-95.25536926005442,38.956100485670326],[-95.25537149503629,38.95609384699554],[-95.25533380152486,38.956086109907915],[-95.25532225353807,38.956120409259626],[-95.25531091699433,38.95611808159752],[-95.25531240698629,38.95611365581509],[-95.25531013964279,38.956113191182936],[-95.25529724926207,38.95615147370351],[-95.25527826110827,38.956147575216065],[-95.25527975110295,38.95614314943408],[-95.25527748379368,38.95614268390093],[-95.25526071962959,38.956192473455815],[-95.25527715764183,38.95619584834752],[-95.2552721646732,38.9562106742313],[-95.25522313455633,38.956200609440806],[-95.25522253832597,38.956202379747815],[-95.25522820662052,38.95620354313314],[-95.25522522662206,38.95621239469576],[-95.25518129793312,38.95620337801473],[-95.25517138862618,38.956232808986826],[-95.25517989107047,38.9562345540684],[-95.25517705868116,38.956242963018965],[-95.25517690991148,38.95624340560248],[-95.25517407576302,38.95624282390861],[-95.25517347953107,38.95624459421543],[-95.25517631367961,38.95624517590929],[-95.2551733336729,38.95625402747057],[-95.2551648312614,38.95625228148808],[-95.25515492190577,38.956281713359054],[-95.25519885064003,38.95629073005],[-95.25519586948107,38.95629958158451],[-95.25519020233251,38.956298418224954],[-95.25518960610049,38.95630018853178],[-95.25523863628169,38.956310253336376],[-95.25523148269701,38.95633149614837],[-95.25515354530373,38.956315498268864],[-95.25515294907065,38.95631726857556],[-95.25515861737327,38.95631843196421],[-95.25515362437108,38.95633325784278],[-95.2551045941861,38.95632319300229],[-95.25510399910489,38.95632496333598],[-95.25510966621918,38.95632612760016],[-95.25510683500599,38.956334535675836],[-95.25510668623569,38.95633497825924],[-95.25506275748567,38.956325961533416],[-95.25505284811221,38.95635539249507],[-95.25506135056834,38.95635713758535],[-95.25505836938935,38.956365989116286],[-95.25505553523692,38.95636540741953],[-95.25505493900098,38.95636717772566],[-95.25505777315347,38.95636775942248],[-95.2550547931268,38.9563766109806],[-95.25504629066852,38.95637486588983],[-95.25503638128133,38.95640429684996],[-95.2550803100766,38.956413313585756],[-95.2550774788215,38.95642172256105],[-95.25507733005082,38.95642216514444],[-95.25507166174124,38.956421001751785],[-95.25507106550522,38.956422772058],[-95.25512009575448,38.95643283691259],[-95.25511525265983,38.95644722023319],[-95.25511510273618,38.9564476627893],[-95.2551094355771,38.95644649942582],[-95.2551088393418,38.95644826973228],[-95.25517260723795,38.956461359200176],[-95.25517804540226,38.95644520554306],[-95.25519703481864,38.95644910317375],[-95.25518414431545,38.956487385680674],[-95.25518641163515,38.95648785121565],[-95.25518790164267,38.956483425434946],[-95.25519923824093,38.95648575310901],[-95.25518768897037,38.956520052418895],[-95.25522538269713,38.95652778955373],[-95.25522761885914,38.95652115090923],[-95.2552389554997,38.956523477678985],[-95.25523821049715,38.956525690569656],[-95.25524047666524,38.956526156076265],[-95.25524122282094,38.956523943212865],[-95.25525255827428,38.956526270854404]]]},"properties":{"SDE.FloorAll.FLOORLOCATION":"5"}},{"type":"Feature","geometry":{"type":"Polygon","coordinates":[[[-95.25525255827428,38.956526270854404],[-95.25525032326757,38.9565329095267],[-95.25528801700808,38.95654064664116],[-95.25529956623329,38.95650634732132],[-95.25531090287383,38.95650867408409],[-95.25530941287347,38.956513099866356],[-95.25531168019485,38.95651356539888],[-95.25532457063375,38.956475282877896],[-95.25534299207416,38.95647906429938],[-95.25534355891305,38.95647918045725],[-95.25534206891531,38.956483606239935],[-95.25534433623594,38.95648407177187],[-95.25536110041028,38.95643428220606],[-95.25534466230363,38.95643090822672],[-95.25534965411946,38.956416082312785],[-95.2553986844387,38.956426146149255],[-95.25539928066654,38.95642437584131],[-95.25539361235147,38.95642321246438],[-95.25539659349089,38.95641436092489],[-95.25544052230342,38.95642337842458],[-95.25545043152506,38.95639394742998],[-95.25544192905492,38.9563922023682],[-95.25544490903383,38.95638335080014],[-95.25544774319016,38.95638393248743],[-95.25544833941642,38.956382162179224],[-95.25544550526014,38.956381580492014],[-95.25544848639132,38.956372728951166],[-95.25545698885928,38.9563744740124],[-95.2554668980672,38.95634504301624],[-95.25542296929997,38.95633602552644],[-95.25542594927883,38.95632717395882],[-95.25543161758672,38.95632833733422],[-95.25543221381292,38.95632656702609],[-95.25538318355795,38.95631650320373],[-95.25539033597732,38.95629525945467],[-95.25546827452008,38.956311258102765],[-95.25546887074522,38.95630948779449],[-95.2554632024382,38.95630832442094],[-95.25546819425547,38.9562934976014],[-95.25551722447169,38.95630356228822],[-95.25551782069553,38.95630179197964],[-95.25551215238833,38.95630062860851],[-95.25551513350776,38.95629177706585],[-95.25555906225924,38.95630079452081],[-95.25556897141435,38.956271363515704],[-95.25556046899098,38.956269617562256],[-95.25556344894984,38.95626076599106],[-95.25556628306727,38.95626134857583],[-95.25556687928952,38.956259578267016],[-95.25556404513719,38.95625899658267],[-95.25556702624836,38.95625014503868],[-95.2555755287045,38.95625189009129],[-95.2555854378459,38.95622245908467],[-95.25554150913976,38.95621344163967],[-95.25554448909861,38.95620459006893],[-95.25555015739864,38.95620575343851],[-95.25555075362082,38.956203983129775],[-95.255501723434,38.95619391935748],[-95.25550671523513,38.95617909253609],[-95.25551238353248,38.95618025590749],[-95.2555129797554,38.95617848559896],[-95.25544921205136,38.956165396317914],[-95.2554437728173,38.95618154996073],[-95.2554247846124,38.956177652397685],[-95.25543767492883,38.956139369863074],[-95.25543540761865,38.956138904332974],[-95.2554339164807,38.9561433300897],[-95.25542258104782,38.956141003366206],[-95.25543412898936,38.95610670400454],[-95.2553964354992,38.95609896603692],[-95.25539464797676,38.956104276988064],[-95.25539420051956,38.956105604712185],[-95.25538286394088,38.95610327795749],[-95.25538360893447,38.95610106506582],[-95.25538134162586,38.956100599534686],[-95.25538059663222,38.95610281242635],[-95.25536926005442,38.956100485670326],[-95.25537149503629,38.95609384699554],[-95.25533380152486,38.956086109907915],[-95.25532225353807,38.956120409259626],[-95.25531091699433,38.95611808159752],[-95.25531240698629,38.95611365581509],[-95.25531013964279,38.956113191182936],[-95.25529724926207,38.95615147370351],[-95.25527826110827,38.956147575216065],[-95.25527975110295,38.95614314943408],[-95.25527748379368,38.95614268390093],[-95.25526071962959,38.956192473455815],[-95.25527715764183,38.95619584834752],[-95.2552721646732,38.9562106742313],[-95.25522313455633,38.956200609440806],[-95.25522253832597,38.956202379747815],[-95.25522820662052,38.95620354313314],[-95.25522522662206,38.95621239469576],[-95.25518129793312,38.95620337801473],[-95.25517138862618,38.956232808986826],[-95.25517989107047,38.9562345540684],[-95.25517705868116,38.956242963018965],[-95.25517690991148,38.95624340560248],[-95.25517407576302,38.95624282390861],[-95.25517347953107,38.95624459421543],[-95.25517631367961,38.95624517590929],[-95.2551733336729,38.95625402747057],[-95.2551648312614,38.95625228148808],[-95.25515492190577,38.956281713359054],[-95.25519885064003,38.95629073005],[-95.25519586948107,38.95629958158451],[-95.25519020233251,38.956298418224954],[-95.25518960610049,38.95630018853178],[-95.25523863628169,38.956310253336376],[-95.25523148269701,38.95633149614837],[-95.25515354530373,38.956315498268864],[-95.25515294907065,38.95631726857556],[-95.25515861737327,38.95631843196421],[-95.25515362437108,38.95633325784278],[-95.2551045941861,38.95632319300229],[-95.25510399910489,38.95632496333598],[-95.25510966621918,38.95632612760016],[-95.25510683500599,38.956334535675836],[-95.25510668623569,38.95633497825924],[-95.25506275748567,38.956325961533416],[-95.25505284811221,38.95635539249507],[-95.25506135056834,38.95635713758535],[-95.25505836938935,38.956365989116286],[-95.25505553523692,38.95636540741953],[-95.25505493900098,38.95636717772566],[-95.25505777315347,38.95636775942248],[-95.2550547931268,38.9563766109806],[-95.25504629066852,38.95637486588983],[-95.25503638128133,38.95640429684996],[-95.2550803100766,38.956413313585756],[-95.2550774788215,38.95642172256105],[-95.25507733005082,38.95642216514444],[-95.25507166174124,38.956421001751785],[-95.25507106550522,38.956422772058],[-95.25512009575448,38.95643283691259],[-95.25511525265983,38.95644722023319],[-95.25511510273618,38.9564476627893],[-95.2551094355771,38.95644649942582],[-95.2551088393418,38.95644826973228],[-95.25517260723795,38.956461359200176],[-95.25517804540226,38.95644520554306],[-95.25519703481864,38.95644910317375],[-95.25518414431545,38.956487385680674],[-95.25518641163515,38.95648785121565],[-95.25518790164267,38.956483425434946],[-95.25519923824093,38.95648575310901],[-95.25518768897037,38.956520052418895],[-95.25522538269713,38.95652778955373],[-95.25522761885914,38.95652115090923],[-95.2552389554997,38.956523477678985],[-95.25523821049715,38.956525690569656],[-95.25524047666524,38.956526156076265],[-95.25524122282094,38.956523943212865],[-95.25525255827428,38.956526270854404]]]},"properties":{"SDE.FloorAll.FLOORLOCATION":"6"}},{"type":"Feature","geometry":{"type":"Polygon","coordinates":[[[-95.25525240950444,38.956526713438045],[-95.25525032326757,38.9565329095267],[-95.25528801700808,38.95654064664116],[-95.25529941746383,38.95650678990504],[-95.25531075410446,38.956509116667796],[-95.25530941287347,38.956513099866356],[-95.25531168019485,38.95651356539888],[-95.25532442071129,38.95647572543429],[-95.25534341014392,38.95647962304097],[-95.25534206891531,38.956483606239935],[-95.25534433623594,38.95648407177187],[-95.25536110041028,38.95643428220606],[-95.2553452291421,38.95643102438457],[-95.2553502209578,38.95641619847063],[-95.2553986844387,38.956426146149255],[-95.25539928066654,38.95642437584131],[-95.25539417918993,38.95642332862201],[-95.25539716032928,38.956414477082475],[-95.25544052230342,38.95642337842458],[-95.25545043152506,38.95639394742998],[-95.25544249589322,38.95639231852563],[-95.25544905322948,38.9563728451085],[-95.25545698885928,38.9563744740124],[-95.2554668980672,38.95634504301624],[-95.25542353613778,38.95633614168393],[-95.25542651608167,38.956327291016706],[-95.25543161758672,38.95632833733422],[-95.25543221381292,38.95632656702609],[-95.25538375039555,38.95631661936141],[-95.25539090281478,38.95629537561229],[-95.25546827452008,38.956311258102765],[-95.25546887074522,38.95630948779449],[-95.25546376927592,38.95630844057825],[-95.25546876105813,38.95629361465902],[-95.25551722447169,38.95630356228822],[-95.25551782069553,38.95630179197964],[-95.25551271922602,38.956300744765564],[-95.25551570034536,38.95629189322289],[-95.25555906225924,38.95630079452081],[-95.25556897141435,38.956271363515704],[-95.25556103579353,38.95626973461946],[-95.25556759308577,38.956250261195436],[-95.2555755287045,38.95625189009129],[-95.2555854378459,38.95622245908467],[-95.2555420759768,38.95621355779662],[-95.25554505593563,38.95620470622586],[-95.25555015739864,38.95620575343851],[-95.25555075362082,38.956203983129775],[-95.25550229027081,38.95619403551457],[-95.25550728207182,38.95617920869315],[-95.25551238353248,38.95618025590749],[-95.2555129797554,38.95617848559896],[-95.25544921205136,38.956165396317914],[-95.25544392158517,38.95618110737689],[-95.25542493338037,38.95617720981385],[-95.25543767492883,38.956139369863074],[-95.25543540761865,38.956138904332974],[-95.25543406640172,38.95614288753311],[-95.25542272981573,38.956140560782316],[-95.25543412898936,38.95610670400454],[-95.2553964354992,38.95609896603692],[-95.25539434928758,38.95610516212835],[-95.25536940882257,38.95610004308656],[-95.25537149503629,38.95609384699554],[-95.25533380152486,38.956086109907915],[-95.25532240230656,38.956119966675956],[-95.2553110657629,38.95611763901385],[-95.25531240698629,38.95611365581509],[-95.25531013964279,38.956113191182936],[-95.25529739803083,38.95615103111981],[-95.2552784098771,38.956147132632395],[-95.25527975110295,38.95614314943408],[-95.25527748379368,38.95614268390093],[-95.25526071962959,38.956192473455815],[-95.25527659084034,38.9561957312889],[-95.25527159783663,38.956210558073074],[-95.25522313455633,38.956200609440806],[-95.25522253832597,38.956202379747815],[-95.25522763978404,38.95620342697471],[-95.25522465978558,38.956212278537336],[-95.25518129793312,38.95620337801473],[-95.25517138862618,38.956232808986826],[-95.25517932423386,38.95623443790976],[-95.25517276687113,38.95625391041143],[-95.2551648312614,38.95625228148808],[-95.25515492190577,38.956281713359054],[-95.25515916795881,38.95628258532745],[-95.2551558892904,38.95629232112759],[-95.25515201435306,38.95630382813464],[-95.25514814056768,38.95631533516886],[-95.25515324661059,38.95631638340858],[-95.25515294907065,38.95631726857556],[-95.25515805053598,38.95631831580547],[-95.25515305753372,38.95633314168394],[-95.2551045941861,38.95632319300229],[-95.25510399910489,38.95632496333598],[-95.25510909941687,38.95632601054075],[-95.2551061193984,38.956334862100235],[-95.25506275748567,38.956325961533416],[-95.25505284811221,38.95635539249507],[-95.25506078373094,38.956357021426115],[-95.25505422628922,38.9563764948213],[-95.25504629066852,38.95637486588983],[-95.25503638128133,38.95640429684996],[-95.25507974323872,38.956413197426606],[-95.25507676321283,38.95642204898525],[-95.25507166174124,38.956421001751785],[-95.25507106550522,38.956422772058],[-95.25511952891638,38.95643272075364],[-95.25511453589793,38.956447546630336],[-95.2551094355771,38.95644649942582],[-95.2551088393418,38.95644826973228],[-95.25517260723795,38.956461359200176],[-95.25517789663218,38.95644564812663],[-95.25519688604865,38.956449545757316],[-95.25518414431545,38.956487385680674],[-95.25518641163515,38.95648785121565],[-95.25518775287257,38.956483868018466],[-95.25519908947089,38.956486195692534],[-95.25518768897037,38.956520052418895],[-95.25522538269713,38.95652778955373],[-95.25522746893606,38.956521593465496],[-95.25525240950444,38.956526713438045]]]},"properties":{"SDE.FloorAll.FLOORLOCATION":"ROOF"}}]}
