{"type":"FeatureCollection","features":[{"type":"Feature","geometry":{"type":"Polygon","coordinates":[[[-95.24208968414854,38.960416117270036],[-95.24220220953013,38.96041724807786],[-95.24220237490586,38.960407181702784],[-95.24227138484204,38.96040787495694],[-95.24227509551447,38.96018274843547],[-95.24220608695123,38.96018205521093],[-95.2422062523258,38.96017198883566],[-95.24209372733453,38.96017085803179],[-95.24209264071955,38.960236748820215],[-95.24204516998864,38.960236271283286],[-95.24204562255674,38.96020881715889],[-95.24201983506254,38.960208557959504],[-95.2420193824845,38.96023601208382],[-95.24203168948172,38.960236136289396],[-95.24203120703228,38.960265420996016],[-95.24207106006752,38.96026582098762],[-95.24207015491494,38.96032073013664],[-95.24203030184879,38.96032033014471],[-95.2420298193982,38.960349614851125],[-95.24209076958061,38.96035022735555],[-95.24208968414854,38.960416117270036]]]},"properties":{"SDE.FloorAll.FLOORLOCATION":"-1"}},{"type":"Feature","geometry":{"type":"Polygon","coordinates":[[[-95.24208968299531,38.96041611724259],[-95.24209334646493,38.96041615481236],[-95.2421084377727,38.9604163064822],[-95.24213305190048,38.96041655307233],[-95.24215883716444,38.96041681219171],[-95.24218345471716,38.960417059753844],[-95.24220220837688,38.96041724805044],[-95.24220237490586,38.960407181702784],[-95.24222142162647,38.96040737336176],[-95.24222684361715,38.96040742751811],[-95.24223050596828,38.96040746415568],[-95.24229131078867,38.96040807579987],[-95.24229119022931,38.960415396301364],[-95.24231697779987,38.96041565544043],[-95.2423170983917,38.96040833403848],[-95.24237116240185,38.9604088772457],[-95.24237099701506,38.960418944521386],[-95.24248352240566,38.96042007505631],[-95.24248486470475,38.960338627069966],[-95.24250596299075,38.96033883863383],[-95.24250732019416,38.96025647535541],[-95.24248622193274,38.960256263791834],[-95.24248756426074,38.96017481490397],[-95.24237503926048,38.96017368437298],[-95.24237487387478,38.96018375164888],[-95.24220608579799,38.96018205518351],[-95.24220625117259,38.96017198880823],[-95.24209372618125,38.96017085800434],[-95.24209264071955,38.960236748820215],[-95.24203168948172,38.960236136289396],[-95.24203120587907,38.960265420968575],[-95.2420710589143,38.960265820960196],[-95.24207015376172,38.96032073010922],[-95.24203030073065,38.96032032921689],[-95.24202981824496,38.960349614823706],[-95.24209076958061,38.96035022735555],[-95.24208968299531,38.96041611724259]]]},"properties":{"SDE.FloorAll.FLOORLOCATION":"1"}},{"type":"Feature","geometry":{"type":"Polygon","coordinates":[[[-95.24208968299531,38.96041611724259],[-95.24220220837688,38.96041724805044],[-95.24220237490586,38.960407181702784],[-95.24229131078867,38.96040807579987],[-95.24229119022931,38.960415396301364],[-95.24231697779987,38.96041565544043],[-95.2423170983917,38.96040833403848],[-95.24237116240185,38.9604088772457],[-95.24237099701506,38.960418944521386],[-95.24248352240566,38.96042007505631],[-95.24248486470475,38.960338627069966],[-95.24250596299075,38.96033883863383],[-95.24250732019416,38.96025647535541],[-95.24248622193274,38.960256263791834],[-95.24248756426074,38.96017481490397],[-95.24237503926048,38.96017368437298],[-95.24237487387478,38.96018375164888],[-95.24220608579799,38.96018205518351],[-95.24220625117259,38.96017198880823],[-95.24209372618125,38.96017085800434],[-95.24209264071955,38.960236748820215],[-95.24203168948172,38.960236136289396],[-95.24203120587907,38.960265420968575],[-95.2420710589143,38.960265820960196],[-95.24207015376172,38.96032073010922],[-95.24205213166758,38.96032054927799],[-95.24203030073065,38.96032032921689],[-95.24202981824496,38.960349614823706],[-95.24209076958061,38.96035022735555],[-95.24208968299531,38.96041611724259]]]},"properties":{"SDE.FloorAll.FLOORLOCATION":"2"}},{"type":"Feature","geometry":{"type":"Polygon","coordinates":[[[-95.24208968299531,38.96041611724259],[-95.24220220837688,38.96041724805044],[-95.24220237490586,38.960407181702784],[-95.24229131078867,38.96040807579987],[-95.24229119022931,38.960415396301364],[-95.24231697779987,38.96041565544043],[-95.2423170983917,38.96040833403848],[-95.24237116240185,38.9604088772457],[-95.24237099701506,38.960418944521386],[-95.24248352240566,38.96042007505631],[-95.24248486470475,38.960338627069966],[-95.24250596299075,38.96033883863383],[-95.24250732019416,38.96025647535541],[-95.24248622193274,38.960256263791834],[-95.24248756426074,38.96017481490397],[-95.24237503926048,38.96017368437298],[-95.24237487387478,38.96018375164888],[-95.24220608579799,38.96018205518351],[-95.24220625117259,38.96017198880823],[-95.24209372618125,38.96017085800434],[-95.24209264071955,38.960236748820215],[-95.24203168948172,38.960236136289396],[-95.24203120587907,38.960265420968575],[-95.2420710589143,38.960265820960196],[-95.24207015376172,38.96032073010922],[-95.24203030073065,38.96032032921689],[-95.24202981824496,38.960349614823706],[-95.24209076958061,38.96035022735555],[-95.24208968299531,38.96041611724259]]]},"properties":{"SDE.FloorAll.FLOORLOCATION":"3"}},{"type":"Feature","geometry":{"type":"Polygon","coordinates":[[[-95.24214489058471,38.96026115132415],[-95.24214392893637,38.96031949190167],[-95.24221674881785,38.96032022353872],[-95.24221771040604,38.96026188296058],[-95.24214489058471,38.96026115132415]]]},"properties":{"SDE.FloorAll.FLOORLOCATION":"4"}},{"type":"Feature","geometry":{"type":"Polygon","coordinates":[[[-95.24208855801977,38.96041595710298],[-95.24220108340111,38.96041708791192],[-95.24220110476747,38.96041583030743],[-95.2422063790738,38.96041588275462],[-95.24220645587215,38.960411192794425],[-95.2422877739938,38.960412010251964],[-95.24228769073544,38.96041704342584],[-95.24231816645087,38.96041734917778],[-95.24231824970711,38.96041231600387],[-95.24236469480063,38.960412782551785],[-95.24236462763456,38.960416900461894],[-95.24236461801277,38.96041747251209],[-95.24236989343737,38.96041752587964],[-95.24236987203882,38.96041878438452],[-95.24248239742916,38.960419914920465],[-95.24248241882572,38.96041865641561],[-95.24248769309726,38.960418709750385],[-95.24248894687152,38.96034263727876],[-95.24251004397034,38.96034284971481],[-95.24251153782541,38.960252249770285],[-95.2424904395653,38.9602520382075],[-95.24249169329845,38.960175966635134],[-95.242486419045,38.96017591330053],[-95.24248643928817,38.960174654768196],[-95.24237391428812,38.96017352423611],[-95.242373894043,38.960174782768405],[-95.24236861860132,38.96017473030147],[-95.24236854181393,38.960179420261824],[-95.24221056071988,38.960177833024844],[-95.2422103034077,38.960177830509714],[-95.24221038024066,38.96017313964905],[-95.24220510595251,38.960173087202044],[-95.24220512620064,38.960171828669736],[-95.24209260120963,38.960170697864726],[-95.24209258095946,38.96017195639701],[-95.24208730670661,38.96017190304428],[-95.2420863086713,38.960232417417785],[-95.2420253574372,38.960231804883634],[-95.24202335066545,38.960353519210365],[-95.24208430200441,38.96035413174564],[-95.24208330396397,38.960414646118195],[-95.24208857823496,38.96041469947109],[-95.24208855801977,38.96041595710298]]]},"properties":{"SDE.FloorAll.FLOORLOCATION":"ROOF"}}]}
