{"type":"FeatureCollection","features":[{"type":"Feature","geometry":{"type":"Polygon","coordinates":[[[-95.25601728458093,38.95688131653837],[-95.25601456895639,38.95688880091221],[-95.25605432377755,38.95689759591906],[-95.2560670253596,38.95686259381251],[-95.2560760468339,38.95686458903223],[-95.25607412997668,38.956869872598936],[-95.25607864127349,38.95687087067244],[-95.25608870616672,38.95684313310619],[-95.25610534145733,38.95684681265177],[-95.25610326437567,38.9568525367299],[-95.25616895747946,38.95686706899462],[-95.25617023572897,38.95686354752529],[-95.25616346995326,38.9568620499974],[-95.25616818250676,38.95684906224652],[-95.25621808721215,38.95686010171501],[-95.25621936549406,38.956856579344716],[-95.25621259852981,38.95685508269282],[-95.25621515509381,38.95684803795234],[-95.25625998428474,38.95685795513201],[-95.25627124725324,38.956826915884946],[-95.25626166162591,38.956824794677274],[-95.2562642181839,38.956817749935695],[-95.25626816525788,38.95681862379949],[-95.25626944353654,38.956815101428646],[-95.25626549642779,38.956814228465305],[-95.25626805183181,38.95680718369636],[-95.25627763864512,38.956809304030415],[-95.25628890159808,38.95677826478153],[-95.2562440724537,38.956768347612986],[-95.25624662901141,38.95676130287178],[-95.25625339596732,38.956762799521755],[-95.25625467309254,38.95675927712376],[-95.25620476960576,38.956748237698214],[-95.25620948217905,38.95673524904512],[-95.25621624909672,38.95673674659766],[-95.25621752737649,38.95673322422736],[-95.25615296167621,38.95671894036852],[-95.25615264576602,38.956719823300574],[-95.25611880766563,38.9567123372344],[-95.25612615806857,38.956692084068166],[-95.25619579812984,38.95670748928593],[-95.25619707641005,38.95670396691585],[-95.2561903094609,38.956702470262655],[-95.25619286602159,38.95669542552258],[-95.25623769511263,38.95670534271097],[-95.2562489592198,38.95667430349295],[-95.25623937246061,38.95667218225611],[-95.25624192898037,38.95666513841539],[-95.2562458760805,38.95666601137954],[-95.25624715435751,38.9566624890089],[-95.25624320725757,38.95666161604477],[-95.25624568371607,38.956654791108946],[-95.2562457638115,38.956654571303524],[-95.25625534945021,38.95665669161218],[-95.25626661354191,38.956625652392326],[-95.25622178334416,38.956615735187775],[-95.2562243398986,38.956608690446956],[-95.25623110683942,38.95661018709824],[-95.2562323850812,38.95660666562812],[-95.25618360899291,38.95659587457107],[-95.25618832152496,38.956582886819035],[-95.2562046740903,38.9565865037853],[-95.25620595233296,38.956582982315474],[-95.25610642607161,38.956560964110665],[-95.25610187256433,38.956573512221425],[-95.25608213598117,38.95656914644706],[-95.25606488094263,38.956616696665385],[-95.25608461753804,38.956621062442686],[-95.25603109565463,38.95676855704542],[-95.25595919878961,38.95675265221228],[-95.25594058638562,38.95680394461132],[-95.25594509767632,38.95680494269002],[-95.25594669527355,38.95680053927393],[-95.25596332935861,38.956804219712964],[-95.25594950966877,38.956842303664864],[-95.25595402096204,38.956843301743206],[-95.25595593782751,38.95683801817851],[-95.25596496041376,38.95684001433456],[-95.25595235184686,38.95687475998144],[-95.25595225878523,38.95687501642996],[-95.25599201359081,38.95688381145815],[-95.25599472925249,38.95687632618445],[-95.25600375184477,38.95687832233747],[-95.2560026337796,38.956881404194505],[-95.25600714392289,38.95688240224351],[-95.25600826314111,38.95687932041372],[-95.25601728458093,38.95688131653837]]]},"properties":{"SDE.FloorAll.FLOORLOCATION":"-1"}},{"type":"Feature","geometry":{"type":"Polygon","coordinates":[[[-95.2560184129555,38.956881566746254],[-95.25601601659844,38.95688817097149],[-95.25605351578773,38.95689646649046],[-95.25606589810339,38.95686234453277],[-95.2560771752084,38.956864839239564],[-95.25607557765275,38.956869241757055],[-95.25607783328363,38.956869741244],[-95.25609165290967,38.95683165727692],[-95.25611054386272,38.956835835407986],[-95.25610471205106,38.9568519058877],[-95.2561681506414,38.956865939594124],[-95.25616878920705,38.95686417839562],[-95.2561631506529,38.95686293104686],[-95.25616850292526,38.95684818212473],[-95.25621727922022,38.956858972287556],[-95.2562179189378,38.956857211116066],[-95.25621227923011,38.95685596374238],[-95.25621547435851,38.956847157803175],[-95.25625917629216,38.95685682570486],[-95.256269800733,38.956827546756536],[-95.25626134232695,38.956825675726954],[-95.25626453741289,38.95681687068678],[-95.2562673572656,38.95681749437237],[-95.25626799698153,38.956815733200635],[-95.25626517712892,38.95681510951503],[-95.25626837224888,38.95680630357433],[-95.25627683065281,38.956808174603395],[-95.256287455079,38.95677889565334],[-95.25624375315476,38.95676922866265],[-95.25624694942847,38.9567604227498],[-95.25625258797592,38.956761670094544],[-95.25625322653853,38.95675990889556],[-95.25620445030644,38.956749118747766],[-95.25620980259646,38.9567343689232],[-95.25621544114118,38.95673561626975],[-95.25621608085764,38.95673385509825],[-95.25613854544424,38.956716703029784],[-95.25614621395368,38.95669556968601],[-95.25619499129317,38.95670635988563],[-95.25619562985672,38.956704598686954],[-95.25618999131483,38.956703351339414],[-95.25619318640413,38.956694546301144],[-95.25623688827531,38.95670421331094],[-95.2562475126675,38.9566749352647],[-95.25623905431529,38.95667306333306],[-95.25624224939713,38.95666425829336],[-95.25624506924352,38.95666488197956],[-95.25624570780543,38.95666312078061],[-95.25624288795912,38.95666249709443],[-95.25624608422811,38.95665369118154],[-95.25625454261319,38.956655562212276],[-95.25626516699074,38.9566262841643],[-95.25622146519882,38.95661661626466],[-95.25622466031524,38.95660781032504],[-95.25623029885014,38.956609057670875],[-95.25623093856514,38.95660729649927],[-95.25618216128849,38.95659650631468],[-95.25618751353667,38.9565817573914],[-95.25620386725485,38.95658537438499],[-95.25622184084898,38.95653584314165],[-95.25621958522774,38.95653534365747],[-95.25621798765349,38.95653974707748],[-95.25619909680816,38.95653556806337],[-95.25621291633848,38.9564974831804],[-95.25621066068359,38.95649698459648],[-95.2562090631446,38.95650138711595],[-95.25619778609294,38.95649889242192],[-95.25621016711612,38.95646477042045],[-95.25617266929056,38.95645647497916],[-95.25617027296232,38.95646307920777],[-95.25615899476499,38.9564605844827],[-95.25615979355307,38.956458382773135],[-95.25615753789977,38.95645788418814],[-95.25615673911162,38.95646008589771],[-95.25614546095018,38.956457590270944],[-95.2561478572805,38.956450986042796],[-95.25611035946956,38.95644269058134],[-95.25609797724886,38.95647681254491],[-95.25608669905188,38.956474317812855],[-95.25608829659785,38.956469915295024],[-95.25608604097965,38.956469415808236],[-95.25607222138646,38.956507500676196],[-95.25605333171151,38.95650332166567],[-95.25605916235293,38.95648725116079],[-95.25599572527717,38.95647321742161],[-95.25599508671074,38.95647497861923],[-95.25600072523098,38.956476225976225],[-95.25599537295182,38.95649097489102],[-95.25594659694454,38.95648018463457],[-95.25594595722366,38.95648194580462],[-95.25595159689676,38.95648319319128],[-95.2559484005988,38.95649199909621],[-95.25590470008636,38.9564823311044],[-95.255894074393,38.95651160999283],[-95.25590253275175,38.956513481049235],[-95.25589933759946,38.95652228698005],[-95.25589651891498,38.95652166331276],[-95.25589587922738,38.95652342358217],[-95.25589869903018,38.956524048177116],[-95.25589550391193,38.95653285320744],[-95.25588704555102,38.95653098215056],[-95.25587642099623,38.9565602610645],[-95.255920121553,38.956569929066895],[-95.2559169264353,38.956578734097725],[-95.25591128790832,38.956577486736705],[-95.25591064818568,38.95657924790655],[-95.25595942540897,38.95659003820533],[-95.25595407307765,38.956604788018495],[-95.25594843454792,38.95660354065919],[-95.25594779482597,38.95660530182926],[-95.25603576139999,38.95662476199444],[-95.25602809286526,38.95664589533105],[-95.2559688842642,38.956632797087124],[-95.25596824569566,38.95663455828456],[-95.25597388422817,38.95663580564282],[-95.25597068907923,38.95664461157555],[-95.25592698731623,38.956634943564936],[-95.25591636276235,38.95666422248233],[-95.25592482113996,38.9566660935371],[-95.25592162601849,38.956674898568025],[-95.25591880617452,38.95667427487405],[-95.25591816760436,38.95667603607119],[-95.25592098629518,38.956676659737916],[-95.25591779113783,38.956685465669125],[-95.25590933275814,38.95668359461389],[-95.25589870822456,38.95671287262913],[-95.2559424100319,38.95672254065027],[-95.25593921487514,38.956731346582025],[-95.25593357518242,38.95673009919479],[-95.25593293661213,38.95673186039203],[-95.25598171279093,38.956742650654],[-95.25597636045265,38.956757400467986],[-95.25596000789444,38.956753782569244],[-95.25594203406146,38.956803313771104],[-95.25594428968931,38.9568038132607],[-95.25594588728663,38.95679940984454],[-95.25596477818748,38.95680358889982],[-95.25595095731043,38.95684167372494],[-95.25595321297452,38.95684217231393],[-95.2559548105371,38.9568377697981],[-95.25596608878747,38.95684026454295],[-95.25595370642752,38.95687438649001],[-95.2559912056022,38.956882682029146],[-95.2559936019614,38.95687607780443],[-95.25600488021924,38.95687857254549],[-95.25600408142152,38.95688077425396],[-95.25600633708723,38.9568812728419],[-95.25600713588484,38.956879071133415],[-95.2560184129555,38.956881566746254]]]},"properties":{"SDE.FloorAll.FLOORLOCATION":"1"}},{"type":"Feature","geometry":{"type":"Polygon","coordinates":[[[-95.2560184129555,38.956881566746254],[-95.25601601659844,38.95688817097149],[-95.25605351578773,38.95689646649046],[-95.25606589810339,38.95686234453277],[-95.2560771752084,38.956864839239564],[-95.25607557765275,38.956869241757055],[-95.25607783328363,38.956869741244],[-95.25609165290967,38.95683165727692],[-95.25611054386272,38.956835835407986],[-95.25610471205106,38.9568519058877],[-95.2561681506414,38.956865939594124],[-95.25616878920705,38.95686417839562],[-95.2561631506529,38.95686293104686],[-95.25616850292526,38.95684818212473],[-95.25621727922022,38.956858972287556],[-95.2562179189378,38.956857211116066],[-95.25621227923011,38.95685596374238],[-95.25621547435851,38.956847157803175],[-95.25625917629216,38.95685682570486],[-95.256269800733,38.956827546756536],[-95.25626134232695,38.956825675726954],[-95.25626453741289,38.95681687068678],[-95.2562673572656,38.95681749437237],[-95.25626799698153,38.956815733200635],[-95.25626517712892,38.95681510951503],[-95.25626837224888,38.95680630357433],[-95.25627683065281,38.956808174603395],[-95.256287455079,38.95677889565334],[-95.25624375315476,38.95676922866265],[-95.25624694942847,38.9567604227498],[-95.25625258797592,38.956761670094544],[-95.25625322653853,38.95675990889556],[-95.25620445030644,38.956749118747766],[-95.25620980259646,38.9567343689232],[-95.25621544114118,38.95673561626975],[-95.25621608085764,38.95673385509825],[-95.25613854544424,38.956716703029784],[-95.25614621395368,38.95669556968601],[-95.25619499129317,38.95670635988563],[-95.25619562985672,38.956704598686954],[-95.25618999131483,38.956703351339414],[-95.25619318640413,38.956694546301144],[-95.25623688827531,38.95670421331094],[-95.2562475126675,38.9566749352647],[-95.25623905431529,38.95667306333306],[-95.25624224939713,38.95666425829336],[-95.25624506924352,38.95666488197956],[-95.25624570780543,38.95666312078061],[-95.25624288795912,38.95666249709443],[-95.25624608422811,38.95665369118154],[-95.25625454261319,38.956655562212276],[-95.25626516699074,38.9566262841643],[-95.25622146519882,38.95661661626466],[-95.25622466031524,38.95660781032504],[-95.25623029885014,38.956609057670875],[-95.25623093856514,38.95660729649927],[-95.25618216128849,38.95659650631468],[-95.25618751353667,38.9565817573914],[-95.25620386725485,38.95658537438499],[-95.25622184084898,38.95653584314165],[-95.25621958522774,38.95653534365747],[-95.25621798765349,38.95653974707748],[-95.25619909680816,38.95653556806337],[-95.25621291633848,38.9564974831804],[-95.25621066068359,38.95649698459648],[-95.2562090631446,38.95650138711595],[-95.25619778609294,38.95649889242192],[-95.25621016711612,38.95646477042045],[-95.25617266929056,38.95645647497916],[-95.25617027296232,38.95646307920777],[-95.25615899476499,38.9564605844827],[-95.25615979355307,38.956458382773135],[-95.25615753789977,38.95645788418814],[-95.25615673911162,38.95646008589771],[-95.25614546095018,38.956457590270944],[-95.2561478572805,38.956450986042796],[-95.25611035946956,38.95644269058134],[-95.25609797724886,38.95647681254491],[-95.25608669905188,38.956474317812855],[-95.25608829659785,38.956469915295024],[-95.25608604097965,38.956469415808236],[-95.25607222138646,38.956507500676196],[-95.25605333171151,38.95650332166567],[-95.25605916235293,38.95648725116079],[-95.25599572527717,38.95647321742161],[-95.25599508671074,38.95647497861923],[-95.25600072523098,38.956476225976225],[-95.25599537295182,38.95649097489102],[-95.25594659694454,38.95648018463457],[-95.25594595722366,38.95648194580462],[-95.25595159689676,38.95648319319128],[-95.2559484005988,38.95649199909621],[-95.25590470008636,38.9564823311044],[-95.255894074393,38.95651160999283],[-95.25590253275175,38.956513481049235],[-95.25589933759946,38.95652228698005],[-95.25589651891498,38.95652166331276],[-95.25589587922738,38.95652342358217],[-95.25589869903018,38.956524048177116],[-95.25589550391193,38.95653285320744],[-95.25588704555102,38.95653098215056],[-95.25587642099623,38.9565602610645],[-95.255920121553,38.956569929066895],[-95.2559169264353,38.956578734097725],[-95.25591128790832,38.956577486736705],[-95.25591064818568,38.95657924790655],[-95.25595942540897,38.95659003820533],[-95.25595407307765,38.956604788018495],[-95.25594843454792,38.95660354065919],[-95.25594779482597,38.95660530182926],[-95.25602533007098,38.956622454025435],[-95.25601766153333,38.956643587361334],[-95.2559688842642,38.956632797087124],[-95.25596824569566,38.95663455828456],[-95.25597388422817,38.95663580564282],[-95.25597068907923,38.95664461157555],[-95.25592698731623,38.956634943564936],[-95.25591636276235,38.95666422248233],[-95.25592482113996,38.9566660935371],[-95.25592162601849,38.956674898568025],[-95.25591880617452,38.95667427487405],[-95.25591816760436,38.95667603607119],[-95.25592098629518,38.956676659737916],[-95.25591779113783,38.956685465669125],[-95.25590933275814,38.95668359461389],[-95.25589870822456,38.95671287262913],[-95.2559424100319,38.95672254065027],[-95.25593921487514,38.956731346582025],[-95.25593357518242,38.95673009919479],[-95.25593293661213,38.95673186039203],[-95.25598171279093,38.956742650654],[-95.25597636045265,38.956757400467986],[-95.25596000789444,38.956753782569244],[-95.25594203406146,38.956803313771104],[-95.25594428968931,38.9568038132607],[-95.25594588728663,38.95679940984454],[-95.25596477818748,38.95680358889982],[-95.25595095731043,38.95684167372494],[-95.25595321297452,38.95684217231393],[-95.2559548105371,38.9568377697981],[-95.25596608878747,38.95684026454295],[-95.25595370642752,38.95687438649001],[-95.2559912056022,38.956882682029146],[-95.2559936019614,38.95687607780443],[-95.25600488021924,38.95687857254549],[-95.25600408142152,38.95688077425396],[-95.25600633708723,38.9568812728419],[-95.25600713588484,38.956879071133415],[-95.2560184129555,38.956881566746254]]]},"properties":{"SDE.FloorAll.FLOORLOCATION":"2"}},{"type":"Feature","geometry":{"type":"Polygon","coordinates":[[[-95.2560184129555,38.956881566746254],[-95.25601601659844,38.95688817097149],[-95.25605351578773,38.95689646649046],[-95.25606589810339,38.95686234453277],[-95.2560771752084,38.956864839239564],[-95.25607557765275,38.956869241757055],[-95.25607783328363,38.956869741244],[-95.25609165290967,38.95683165727692],[-95.25611054386272,38.956835835407986],[-95.25610471205106,38.9568519058877],[-95.2561681506414,38.956865939594124],[-95.25616878920705,38.95686417839562],[-95.2561631506529,38.95686293104686],[-95.25616850292526,38.95684818212473],[-95.25621727922022,38.956858972287556],[-95.2562179189378,38.956857211116066],[-95.25621227923011,38.95685596374238],[-95.25621547435851,38.956847157803175],[-95.25625917629216,38.95685682570486],[-95.256269800733,38.956827546756536],[-95.25626134232695,38.956825675726954],[-95.25626453741289,38.95681687068678],[-95.2562673572656,38.95681749437237],[-95.25626799698153,38.956815733200635],[-95.25626517712892,38.95681510951503],[-95.25626837224888,38.95680630357433],[-95.25627683065281,38.956808174603395],[-95.256287455079,38.95677889565334],[-95.25624375315476,38.95676922866265],[-95.25624694942847,38.9567604227498],[-95.25625258797592,38.956761670094544],[-95.25625322653853,38.95675990889556],[-95.25620445030644,38.956749118747766],[-95.25620980259646,38.9567343689232],[-95.25621544114118,38.95673561626975],[-95.25621608085764,38.95673385509825],[-95.25613854544424,38.956716703029784],[-95.25614621395368,38.95669556968601],[-95.25619499129317,38.95670635988563],[-95.25619562985672,38.956704598686954],[-95.25618999131483,38.956703351339414],[-95.25619318640413,38.956694546301144],[-95.25623688827531,38.95670421331094],[-95.2562475126675,38.9566749352647],[-95.25623905431529,38.95667306333306],[-95.25624224939713,38.95666425829336],[-95.25624506924352,38.95666488197956],[-95.25624570780543,38.95666312078061],[-95.25624288795912,38.95666249709443],[-95.25624608422811,38.95665369118154],[-95.25625454261319,38.956655562212276],[-95.25626516699074,38.9566262841643],[-95.25622146519882,38.95661661626466],[-95.25622466031524,38.95660781032504],[-95.25623029885014,38.956609057670875],[-95.25623093856514,38.95660729649927],[-95.25618216128849,38.95659650631468],[-95.25618751353667,38.9565817573914],[-95.25620386725485,38.95658537438499],[-95.25622184084898,38.95653584314165],[-95.25621958522774,38.95653534365747],[-95.25621798765349,38.95653974707748],[-95.25619909680816,38.95653556806337],[-95.25621291633848,38.9564974831804],[-95.25621066068359,38.95649698459648],[-95.2562090631446,38.95650138711595],[-95.25619778609294,38.95649889242192],[-95.25621016711612,38.95646477042045],[-95.25617266929056,38.95645647497916],[-95.25617027296232,38.95646307920777],[-95.25615899476499,38.9564605844827],[-95.25615979355307,38.956458382773135],[-95.25615753789977,38.95645788418814],[-95.25615673911162,38.95646008589771],[-95.25614546095018,38.956457590270944],[-95.2561478572805,38.956450986042796],[-95.25611035946956,38.95644269058134],[-95.25609797724886,38.95647681254491],[-95.25608669905188,38.956474317812855],[-95.25608829659785,38.956469915295024],[-95.25608604097965,38.956469415808236],[-95.25607222138646,38.956507500676196],[-95.25605333171151,38.95650332166567],[-95.25605916235293,38.95648725116079],[-95.25599572527717,38.95647321742161],[-95.25599508671074,38.95647497861923],[-95.25600072523098,38.956476225976225],[-95.25599537295182,38.95649097489102],[-95.25594659694454,38.95648018463457],[-95.25594595722366,38.95648194580462],[-95.25595159689676,38.95648319319128],[-95.2559484005988,38.95649199909621],[-95.25590470008636,38.9564823311044],[-95.255894074393,38.95651160999283],[-95.25590253275175,38.956513481049235],[-95.25589933759946,38.95652228698005],[-95.25589651891498,38.95652166331276],[-95.25589587922738,38.95652342358217],[-95.25589869903018,38.956524048177116],[-95.25589550391193,38.95653285320744],[-95.25588704555102,38.95653098215056],[-95.25587642099623,38.9565602610645],[-95.255920121553,38.956569929066895],[-95.2559169264353,38.956578734097725],[-95.25591128790832,38.956577486736705],[-95.25591064818568,38.95657924790655],[-95.25595942540897,38.95659003820533],[-95.25595407307765,38.956604788018495],[-95.25594843454792,38.95660354065919],[-95.25594779482597,38.95660530182926],[-95.25602533007098,38.956622454025435],[-95.25601766153333,38.956643587361334],[-95.2559688842642,38.956632797087124],[-95.25596824569566,38.95663455828456],[-95.25597388422817,38.95663580564282],[-95.25597068907923,38.95664461157555],[-95.25592698731623,38.956634943564936],[-95.25591636276235,38.95666422248233],[-95.25592482113996,38.9566660935371],[-95.25592162601849,38.956674898568025],[-95.25591880617452,38.95667427487405],[-95.25591816760436,38.95667603607119],[-95.25592098629518,38.956676659737916],[-95.25591779113783,38.956685465669125],[-95.25590933275814,38.95668359461389],[-95.25589870822456,38.95671287262913],[-95.2559424100319,38.95672254065027],[-95.25593921487514,38.956731346582025],[-95.25593357518242,38.95673009919479],[-95.25593293661213,38.95673186039203],[-95.25598171279093,38.956742650654],[-95.25597636045265,38.956757400467986],[-95.25596000789444,38.956753782569244],[-95.25594203406146,38.956803313771104],[-95.25594428968931,38.9568038132607],[-95.25594588728663,38.95679940984454],[-95.25596477818748,38.95680358889982],[-95.25595095731043,38.95684167372494],[-95.25595321297452,38.95684217231393],[-95.2559548105371,38.9568377697981],[-95.25596608878747,38.95684026454295],[-95.25595370642752,38.95687438649001],[-95.2559912056022,38.956882682029146],[-95.2559936019614,38.95687607780443],[-95.25600488021924,38.95687857254549],[-95.25600408142152,38.95688077425396],[-95.25600633708723,38.9568812728419],[-95.25600713588484,38.956879071133415],[-95.2560184129555,38.956881566746254]]]},"properties":{"SDE.FloorAll.FLOORLOCATION":"3"}},{"type":"Feature","geometry":{"type":"Polygon","coordinates":[[[-95.2560184129555,38.956881566746254],[-95.25601601659844,38.95688817097149],[-95.25605351578773,38.95689646649046],[-95.25606589810339,38.95686234453277],[-95.2560771752084,38.956864839239564],[-95.25607557765275,38.956869241757055],[-95.25607783328363,38.956869741244],[-95.25609165290967,38.95683165727692],[-95.25611054386272,38.956835835407986],[-95.25610471205106,38.9568519058877],[-95.2561681506414,38.956865939594124],[-95.25616878920705,38.95686417839562],[-95.2561631506529,38.95686293104686],[-95.25616850292526,38.95684818212473],[-95.25621727922022,38.956858972287556],[-95.2562179189378,38.956857211116066],[-95.25621227923011,38.95685596374238],[-95.25621547435851,38.956847157803175],[-95.25625917629216,38.95685682570486],[-95.256269800733,38.956827546756536],[-95.25626134232695,38.956825675726954],[-95.25626453741289,38.95681687068678],[-95.2562673572656,38.95681749437237],[-95.25626799698153,38.956815733200635],[-95.25626517712892,38.95681510951503],[-95.25626837224888,38.95680630357433],[-95.25627683065281,38.956808174603395],[-95.256287455079,38.95677889565334],[-95.25624375315476,38.95676922866265],[-95.25624694942847,38.9567604227498],[-95.25625258797592,38.956761670094544],[-95.25625322653853,38.95675990889556],[-95.25620445030644,38.956749118747766],[-95.25620980259646,38.9567343689232],[-95.25621544114118,38.95673561626975],[-95.25621608085764,38.95673385509825],[-95.25613854544424,38.956716703029784],[-95.25614621395368,38.95669556968601],[-95.25619499129317,38.95670635988563],[-95.25619562985672,38.956704598686954],[-95.25618999131483,38.956703351339414],[-95.25619318640413,38.956694546301144],[-95.25623688827531,38.95670421331094],[-95.2562475126675,38.9566749352647],[-95.25623905431529,38.95667306333306],[-95.25624224939713,38.95666425829336],[-95.25624506924352,38.95666488197956],[-95.25624570780543,38.95666312078061],[-95.25624288795912,38.95666249709443],[-95.25624608422811,38.95665369118154],[-95.25625454261319,38.956655562212276],[-95.25626516699074,38.9566262841643],[-95.25622146519882,38.95661661626466],[-95.25622466031524,38.95660781032504],[-95.25623029885014,38.956609057670875],[-95.25623093856514,38.95660729649927],[-95.25618216128849,38.95659650631468],[-95.25618751353667,38.9565817573914],[-95.25620386725485,38.95658537438499],[-95.25622184084898,38.95653584314165],[-95.25621958522774,38.95653534365747],[-95.25621798765349,38.95653974707748],[-95.25619909680816,38.95653556806337],[-95.25621291633848,38.9564974831804],[-95.25621066068359,38.95649698459648],[-95.2562090631446,38.95650138711595],[-95.25619778609294,38.95649889242192],[-95.25621016711612,38.95646477042045],[-95.25617266929056,38.95645647497916],[-95.25617027296232,38.95646307920777],[-95.25615899476499,38.9564605844827],[-95.25615979355307,38.956458382773135],[-95.25615753789977,38.95645788418814],[-95.25615673911162,38.95646008589771],[-95.25614546095018,38.956457590270944],[-95.2561478572805,38.956450986042796],[-95.25611035946956,38.95644269058134],[-95.25609797724886,38.95647681254491],[-95.25608669905188,38.956474317812855],[-95.25608829659785,38.956469915295024],[-95.25608604097965,38.956469415808236],[-95.25607222138646,38.956507500676196],[-95.25605333171151,38.95650332166567],[-95.25605916235293,38.95648725116079],[-95.25599572527717,38.95647321742161],[-95.25599508671074,38.95647497861923],[-95.25600072523098,38.956476225976225],[-95.25599537295182,38.95649097489102],[-95.25594659694454,38.95648018463457],[-95.25594595722366,38.95648194580462],[-95.25595159689676,38.95648319319128],[-95.2559484005988,38.95649199909621],[-95.25590470008636,38.9564823311044],[-95.255894074393,38.95651160999283],[-95.25590253275175,38.956513481049235],[-95.25589933759946,38.95652228698005],[-95.25589651891498,38.95652166331276],[-95.25589587922738,38.95652342358217],[-95.25589869903018,38.956524048177116],[-95.25589550391193,38.95653285320744],[-95.25588704555102,38.95653098215056],[-95.25587642099623,38.9565602610645],[-95.255920121553,38.956569929066895],[-95.2559169264353,38.956578734097725],[-95.25591128790832,38.956577486736705],[-95.25591064818568,38.95657924790655],[-95.25595942540897,38.95659003820533],[-95.25595407307765,38.956604788018495],[-95.25594843454792,38.95660354065919],[-95.25594779482597,38.95660530182926],[-95.25602533007098,38.956622454025435],[-95.25601766153333,38.956643587361334],[-95.2559688842642,38.956632797087124],[-95.25596824569566,38.95663455828456],[-95.25597388422817,38.95663580564282],[-95.25597068907923,38.95664461157555],[-95.25592698731623,38.956634943564936],[-95.25591636276235,38.95666422248233],[-95.25592482113996,38.9566660935371],[-95.25592162601849,38.956674898568025],[-95.25591880617452,38.95667427487405],[-95.25591816760436,38.95667603607119],[-95.25592098629518,38.956676659737916],[-95.25591779113783,38.956685465669125],[-95.25590933275814,38.95668359461389],[-95.25589870822456,38.95671287262913],[-95.2559424100319,38.95672254065027],[-95.25593921487514,38.956731346582025],[-95.25593357518242,38.95673009919479],[-95.25593293661213,38.95673186039203],[-95.25598171279093,38.956742650654],[-95.25597636045265,38.956757400467986],[-95.25596000789444,38.956753782569244],[-95.25594203406146,38.956803313771104],[-95.25594428968931,38.9568038132607],[-95.25594588728663,38.95679940984454],[-95.25596477818748,38.95680358889982],[-95.25595095731043,38.95684167372494],[-95.25595321297452,38.95684217231393],[-95.2559548105371,38.9568377697981],[-95.25596608878747,38.95684026454295],[-95.25595370642752,38.95687438649001],[-95.2559912056022,38.956882682029146],[-95.2559936019614,38.95687607780443],[-95.25600488021924,38.95687857254549],[-95.25600408142152,38.95688077425396],[-95.25600633708723,38.9568812728419],[-95.25600713588484,38.956879071133415],[-95.2560184129555,38.956881566746254]]]},"properties":{"SDE.FloorAll.FLOORLOCATION":"4"}},{"type":"Feature","geometry":{"type":"Polygon","coordinates":[[[-95.2560184129555,38.956881566746254],[-95.25601601659844,38.95688817097149],[-95.25605351578773,38.95689646649046],[-95.25606589810339,38.95686234453277],[-95.2560771752084,38.956864839239564],[-95.25607557765275,38.956869241757055],[-95.25607783328363,38.956869741244],[-95.25609165290967,38.95683165727692],[-95.25611054386272,38.956835835407986],[-95.25610471205106,38.9568519058877],[-95.2561681506414,38.956865939594124],[-95.25616878920705,38.95686417839562],[-95.2561631506529,38.95686293104686],[-95.25616850292526,38.95684818212473],[-95.25621727922022,38.956858972287556],[-95.2562179189378,38.956857211116066],[-95.25621227923011,38.95685596374238],[-95.25621547435851,38.956847157803175],[-95.25625917629216,38.95685682570486],[-95.256269800733,38.956827546756536],[-95.25626134232695,38.956825675726954],[-95.25626453741289,38.95681687068678],[-95.2562673572656,38.95681749437237],[-95.25626799698153,38.956815733200635],[-95.25626517712892,38.95681510951503],[-95.25626837224888,38.95680630357433],[-95.25627683065281,38.956808174603395],[-95.256287455079,38.95677889565334],[-95.25624375315476,38.95676922866265],[-95.25624694942847,38.9567604227498],[-95.25625258797592,38.956761670094544],[-95.25625322653853,38.95675990889556],[-95.25620445030644,38.956749118747766],[-95.25620980259646,38.9567343689232],[-95.25621544114118,38.95673561626975],[-95.25621608085764,38.95673385509825],[-95.25613854544424,38.956716703029784],[-95.25614621395368,38.95669556968601],[-95.25619499129317,38.95670635988563],[-95.25619562985672,38.956704598686954],[-95.25618999131483,38.956703351339414],[-95.25619318640413,38.956694546301144],[-95.25623688827531,38.95670421331094],[-95.2562475126675,38.9566749352647],[-95.25623905431529,38.95667306333306],[-95.25624224939713,38.95666425829336],[-95.25624506924352,38.95666488197956],[-95.25624570780543,38.95666312078061],[-95.25624288795912,38.95666249709443],[-95.25624608422811,38.95665369118154],[-95.25625454261319,38.956655562212276],[-95.25626516699074,38.9566262841643],[-95.25622146519882,38.95661661626466],[-95.25622466031524,38.95660781032504],[-95.25623029885014,38.956609057670875],[-95.25623093856514,38.95660729649927],[-95.25618216128849,38.95659650631468],[-95.25618751353667,38.9565817573914],[-95.25620386725485,38.95658537438499],[-95.25622184084898,38.95653584314165],[-95.25621958522774,38.95653534365747],[-95.25621798765349,38.95653974707748],[-95.25619909680816,38.95653556806337],[-95.25621291633848,38.9564974831804],[-95.25621066068359,38.95649698459648],[-95.2562090631446,38.95650138711595],[-95.25619778609294,38.95649889242192],[-95.25621016711612,38.95646477042045],[-95.25617266929056,38.95645647497916],[-95.25617027296232,38.95646307920777],[-95.25615899476499,38.9564605844827],[-95.25615979355307,38.956458382773135],[-95.25615753789977,38.95645788418814],[-95.25615673911162,38.95646008589771],[-95.25614546095018,38.956457590270944],[-95.2561478572805,38.956450986042796],[-95.25611035946956,38.95644269058134],[-95.25609797724886,38.95647681254491],[-95.25608669905188,38.956474317812855],[-95.25608829659785,38.956469915295024],[-95.25608604097965,38.956469415808236],[-95.25607222138646,38.956507500676196],[-95.25605333171151,38.95650332166567],[-95.25605916235293,38.95648725116079],[-95.25599572527717,38.95647321742161],[-95.25599508671074,38.95647497861923],[-95.25600072523098,38.956476225976225],[-95.25599537295182,38.95649097489102],[-95.25594659694454,38.95648018463457],[-95.25594595722366,38.95648194580462],[-95.25595159689676,38.95648319319128],[-95.2559484005988,38.95649199909621],[-95.25590470008636,38.9564823311044],[-95.255894074393,38.95651160999283],[-95.25590253275175,38.956513481049235],[-95.25589933759946,38.95652228698005],[-95.25589651891498,38.95652166331276],[-95.25589587922738,38.95652342358217],[-95.25589869903018,38.956524048177116],[-95.25589550391193,38.95653285320744],[-95.25588704555102,38.95653098215056],[-95.25587642099623,38.9565602610645],[-95.255920121553,38.956569929066895],[-95.2559169264353,38.956578734097725],[-95.25591128790832,38.956577486736705],[-95.25591064818568,38.95657924790655],[-95.25595942540897,38.95659003820533],[-95.25595407307765,38.956604788018495],[-95.25594843454792,38.95660354065919],[-95.25594779482597,38.95660530182926],[-95.25602533007098,38.956622454025435],[-95.25601766153333,38.956643587361334],[-95.2559688842642,38.956632797087124],[-95.25596824569566,38.95663455828456],[-95.25597388422817,38.95663580564282],[-95.25597068907923,38.95664461157555],[-95.25592698731623,38.956634943564936],[-95.25591636276235,38.95666422248233],[-95.25592482113996,38.9566660935371],[-95.25592162601849,38.956674898568025],[-95.25591880617452,38.95667427487405],[-95.25591816760436,38.95667603607119],[-95.25592098629518,38.956676659737916],[-95.25591779113783,38.956685465669125],[-95.25590933275814,38.95668359461389],[-95.25589870822456,38.95671287262913],[-95.2559424100319,38.95672254065027],[-95.25593921487514,38.956731346582025],[-95.25593357518242,38.95673009919479],[-95.25593293661213,38.95673186039203],[-95.25598171279093,38.956742650654],[-95.25597636045265,38.956757400467986],[-95.25596000789444,38.956753782569244],[-95.25594203406146,38.956803313771104],[-95.25594428968931,38.9568038132607],[-95.25594588728663,38.95679940984454],[-95.25596477818748,38.95680358889982],[-95.25595095731043,38.95684167372494],[-95.25595321297452,38.95684217231393],[-95.2559548105371,38.9568377697981],[-95.25596608878747,38.95684026454295],[-95.25595370642752,38.95687438649001],[-95.2559912056022,38.956882682029146],[-95.2559936019614,38.95687607780443],[-95.25600488021924,38.95687857254549],[-95.25600408142152,38.95688077425396],[-95.25600633708723,38.9568812728419],[-95.25600713588484,38.956879071133415],[-95.2560184129555,38.956881566746254]]]},"properties":{"SDE.FloorAll.FLOORLOCATION":"5"}},{"type":"Feature","geometry":{"type":"Polygon","coordinates":[[[-95.2560184129555,38.956881566746254],[-95.25601601659844,38.95688817097149],[-95.25605351578773,38.95689646649046],[-95.25606589810339,38.95686234453277],[-95.2560771752084,38.956864839239564],[-95.25607557765275,38.956869241757055],[-95.25607783328363,38.956869741244],[-95.25609165290967,38.95683165727692],[-95.25611054386272,38.956835835407986],[-95.25610471205106,38.9568519058877],[-95.2561681506414,38.956865939594124],[-95.25616878920705,38.95686417839562],[-95.2561631506529,38.95686293104686],[-95.25616850292526,38.95684818212473],[-95.25621727922022,38.956858972287556],[-95.2562179189378,38.956857211116066],[-95.25621227923011,38.95685596374238],[-95.25621547435851,38.956847157803175],[-95.25625917629216,38.95685682570486],[-95.256269800733,38.956827546756536],[-95.25626134232695,38.956825675726954],[-95.25626453741289,38.95681687068678],[-95.2562673572656,38.95681749437237],[-95.25626799698153,38.956815733200635],[-95.25626517712892,38.95681510951503],[-95.25626837224888,38.95680630357433],[-95.25627683065281,38.956808174603395],[-95.256287455079,38.95677889565334],[-95.25624375315476,38.95676922866265],[-95.25624694942847,38.9567604227498],[-95.25625258797592,38.956761670094544],[-95.25625322653853,38.95675990889556],[-95.25620445030644,38.956749118747766],[-95.25620980259646,38.9567343689232],[-95.25621544114118,38.95673561626975],[-95.25621608085764,38.95673385509825],[-95.25613854544424,38.956716703029784],[-95.25614621395368,38.95669556968601],[-95.25619499129317,38.95670635988563],[-95.25619562985672,38.956704598686954],[-95.25618999131483,38.956703351339414],[-95.25619318640413,38.956694546301144],[-95.25623688827531,38.95670421331094],[-95.2562475126675,38.9566749352647],[-95.25623905431529,38.95667306333306],[-95.25624224939713,38.95666425829336],[-95.25624506924352,38.95666488197956],[-95.25624570780543,38.95666312078061],[-95.25624288795912,38.95666249709443],[-95.25624608422811,38.95665369118154],[-95.25625454261319,38.956655562212276],[-95.25626516699074,38.9566262841643],[-95.25622146519882,38.95661661626466],[-95.25622466031524,38.95660781032504],[-95.25623029885014,38.956609057670875],[-95.25623093856514,38.95660729649927],[-95.25618216128849,38.95659650631468],[-95.25618751353667,38.9565817573914],[-95.25620386725485,38.95658537438499],[-95.25622184084898,38.95653584314165],[-95.25621958522774,38.95653534365747],[-95.25621798765349,38.95653974707748],[-95.25619909680816,38.95653556806337],[-95.25621291633848,38.9564974831804],[-95.25621066068359,38.95649698459648],[-95.2562090631446,38.95650138711595],[-95.25619778609294,38.95649889242192],[-95.25621016711612,38.95646477042045],[-95.25617266929056,38.95645647497916],[-95.25617027296232,38.95646307920777],[-95.25615899476499,38.9564605844827],[-95.25615979355307,38.956458382773135],[-95.25615753789977,38.95645788418814],[-95.25615673911162,38.95646008589771],[-95.25614546095018,38.956457590270944],[-95.2561478572805,38.956450986042796],[-95.25611035946956,38.95644269058134],[-95.25609797724886,38.95647681254491],[-95.25608669905188,38.956474317812855],[-95.25608829659785,38.956469915295024],[-95.25608604097965,38.956469415808236],[-95.25607222138646,38.956507500676196],[-95.25605333171151,38.95650332166567],[-95.25605916235293,38.95648725116079],[-95.25599572527717,38.95647321742161],[-95.25599508671074,38.95647497861923],[-95.25600072523098,38.956476225976225],[-95.25599537295182,38.95649097489102],[-95.25594659694454,38.95648018463457],[-95.25594595722366,38.95648194580462],[-95.25595159689676,38.95648319319128],[-95.2559484005988,38.95649199909621],[-95.25590470008636,38.9564823311044],[-95.255894074393,38.95651160999283],[-95.25590253275175,38.956513481049235],[-95.25589933759946,38.95652228698005],[-95.25589651891498,38.95652166331276],[-95.25589587922738,38.95652342358217],[-95.25589869903018,38.956524048177116],[-95.25589550391193,38.95653285320744],[-95.25588704555102,38.95653098215056],[-95.25587642099623,38.9565602610645],[-95.255920121553,38.956569929066895],[-95.2559169264353,38.956578734097725],[-95.25591128790832,38.956577486736705],[-95.25591064818568,38.95657924790655],[-95.25595942540897,38.95659003820533],[-95.25595407307765,38.956604788018495],[-95.25594843454792,38.95660354065919],[-95.25594779482597,38.95660530182926],[-95.25602533007098,38.956622454025435],[-95.25601766153333,38.956643587361334],[-95.2559688842642,38.956632797087124],[-95.25596824569566,38.95663455828456],[-95.25597388422817,38.95663580564282],[-95.25597068907923,38.95664461157555],[-95.25592698731623,38.956634943564936],[-95.25591636276235,38.95666422248233],[-95.25592482113996,38.9566660935371],[-95.25592162601849,38.956674898568025],[-95.25591880617452,38.95667427487405],[-95.25591816760436,38.95667603607119],[-95.25592098629518,38.956676659737916],[-95.25591779113783,38.956685465669125],[-95.25590933275814,38.95668359461389],[-95.25589870822456,38.95671287262913],[-95.2559424100319,38.95672254065027],[-95.25593921487514,38.956731346582025],[-95.25593357518242,38.95673009919479],[-95.25593293661213,38.95673186039203],[-95.25598171279093,38.956742650654],[-95.25597636045265,38.956757400467986],[-95.25596000789444,38.956753782569244],[-95.25594203406146,38.956803313771104],[-95.25594428968931,38.9568038132607],[-95.25594588728663,38.95679940984454],[-95.25596477818748,38.95680358889982],[-95.25595095731043,38.95684167372494],[-95.25595321297452,38.95684217231393],[-95.2559548105371,38.9568377697981],[-95.25596608878747,38.95684026454295],[-95.25595370642752,38.95687438649001],[-95.2559912056022,38.956882682029146],[-95.2559936019614,38.95687607780443],[-95.25600488021924,38.95687857254549],[-95.25600408142152,38.95688077425396],[-95.25600633708723,38.9568812728419],[-95.25600713588484,38.956879071133415],[-95.2560184129555,38.956881566746254]]]},"properties":{"SDE.FloorAll.FLOORLOCATION":"6"}},{"type":"Feature","geometry":{"type":"Polygon","coordinates":[[[-95.25601825391591,38.956882006384056],[-95.25601601659844,38.95688817097149],[-95.25605351578773,38.95689646649046],[-95.25606573787601,38.95686278504371],[-95.25607701613428,38.956865279777794],[-95.25607557765275,38.956869241757055],[-95.25607783328363,38.956869741244],[-95.25609149387066,38.95683209691481],[-95.25611038363569,38.956836275919],[-95.25610471205106,38.9568519058877],[-95.2561681506414,38.956865939594124],[-95.25616878920705,38.95686417839562],[-95.25616371484028,38.95686305615006],[-95.25616906599427,38.95684830630027],[-95.25621727922022,38.956858972287556],[-95.2562179189378,38.956857211116066],[-95.25621284341754,38.95685608884536],[-95.25621603854587,38.95684728290613],[-95.25625917629216,38.95685682570486],[-95.256269800733,38.956827546756536],[-95.25626190651421,38.95682580082974],[-95.25626893643602,38.95680642867706],[-95.25627683065281,38.956808174603395],[-95.256287455079,38.95677889565334],[-95.25624431737646,38.95676935286509],[-95.25624751246198,38.95676054782533],[-95.25625258797592,38.956761670094544],[-95.25625322653853,38.95675990889556],[-95.25620501452788,38.956749242950394],[-95.25621036678291,38.95673449402624],[-95.25621544114118,38.95673561626975],[-95.25621608085764,38.95673385509825],[-95.25613910963044,38.956716828133146],[-95.25614677813965,38.95669569478931],[-95.25619499129317,38.95670635988563],[-95.25619562985672,38.956704598686954],[-95.25619055434777,38.95670347641524],[-95.25619375062514,38.95669467050382],[-95.25623688827531,38.95670421331094],[-95.2562475126675,38.9566749352647],[-95.25623961734809,38.956673188408665],[-95.25624664726081,38.956653816257095],[-95.25625454261319,38.956655562212276],[-95.25626516699074,38.9566262841643],[-95.2562220294193,38.956616740467204],[-95.25622522450071,38.95660793542797],[-95.25623029885014,38.956609057670875],[-95.25623093856514,38.95660729649927],[-95.25618272547374,38.95659663141782],[-95.2561880777568,38.95658188159415],[-95.25620386725485,38.95658537438499],[-95.25622184084898,38.95653584314165],[-95.25621958522774,38.95653534365747],[-95.25621814672601,38.95653930653904],[-95.25619925703396,38.95653512755225],[-95.25621291633848,38.9564974831804],[-95.25621066068359,38.95649698459648],[-95.2562092233353,38.95650094750519],[-95.25619794516551,38.956498451883554],[-95.25621016711612,38.95646477042045],[-95.25617266929056,38.95645647497916],[-95.25617043200002,38.956462639569814],[-95.25614562114119,38.95645715066025],[-95.2561478572805,38.956450986042796],[-95.25611035946956,38.95644269058134],[-95.25609813747515,38.95647637203394],[-95.25608685927824,38.95647387730184],[-95.25608829659785,38.956469915295024],[-95.25608604097965,38.956469415808236],[-95.25607238161298,38.95650706016526],[-95.25605349078499,38.95650288112745],[-95.25605916235293,38.95648725116079],[-95.25599572527717,38.95647321742161],[-95.25599508671074,38.95647497861923],[-95.25600016104701,38.95647610087217],[-95.25599480873275,38.956490850687366],[-95.25594659694454,38.95648018463457],[-95.25594595722366,38.95648194580462],[-95.2559510326779,38.9564830689874],[-95.25594783756793,38.956491874019164],[-95.25590470008636,38.9564823311044],[-95.255894074393,38.95651160999283],[-95.25590196972082,38.95651335597202],[-95.25589493969268,38.95653272900332],[-95.25588704555102,38.95653098215056],[-95.25587642099623,38.9565602610645],[-95.25591955852153,38.95656980398974],[-95.25591636221566,38.95657860989369],[-95.25591128790832,38.956577486736705],[-95.25591064818568,38.95657924790655],[-95.25595886118917,38.95658991400147],[-95.25595350889267,38.956604662914245],[-95.25594843454792,38.95660354065919],[-95.25594811409287,38.9566044216808],[-95.25594303405224,38.9566032974883],[-95.25593887991162,38.95661474473862],[-95.25593472692283,38.95662619201606],[-95.25593121134898,38.95663587806882],[-95.25592698731623,38.956634943564936],[-95.25591636276235,38.95666422248233],[-95.25592425695456,38.9566659684327],[-95.25591722695235,38.9566853405647],[-95.25590933275814,38.95668359461389],[-95.25589870822456,38.95671287262913],[-95.25594184581107,38.95672241644634],[-95.25593865068919,38.956731221477725],[-95.25593357518242,38.95673009919479],[-95.25593293661213,38.95673186039203],[-95.25598114975801,38.956742525577184],[-95.25597579741965,38.95675727539115],[-95.25596000789444,38.956753782569244],[-95.25594203406146,38.956803313771104],[-95.25594428968931,38.9568038132607],[-95.25594572705864,38.956799850355345],[-95.25596461795956,38.95680402941062],[-95.25595095731043,38.95684167372494],[-95.25595321297452,38.95684217231393],[-95.25595465146229,38.95683821033619],[-95.25596592855953,38.956840705053786],[-95.25595370642752,38.95687438649001],[-95.2559912056022,38.956882682029146],[-95.25599344288673,38.956876518342554],[-95.25601825391591,38.956882006384056]]]},"properties":{"SDE.FloorAll.FLOORLOCATION":"ROOF"}}]}
