{"type":"FeatureCollection","features":[{"type":"Feature","geometry":{"type":"Polygon","coordinates":[[[-95.25538017173776,38.95675957503226],[-95.25555115645541,38.956795293234215],[-95.25555744264177,38.956776947131765],[-95.25553054983669,38.956771329504036],[-95.25557099391807,38.95665329835658],[-95.25559675429304,38.956658680087486],[-95.25563416900073,38.956549490311055],[-95.25561407045596,38.95654529162709],[-95.25563027844262,38.956497990656956],[-95.25562574900381,38.956497044406774],[-95.25562393056238,38.95650234922192],[-95.25561487283764,38.956500456748195],[-95.25562691522802,38.9564653129109],[-95.2555869998444,38.95645697447471],[-95.25558442382993,38.95646448918072],[-95.25557536607613,38.956462597604286],[-95.25557642579558,38.956459502654006],[-95.25557189635994,38.95645855640173],[-95.25557083664029,38.956461651351965],[-95.25556177776903,38.956459758846805],[-95.25556435263258,38.95645224411399],[-95.25552443726377,38.956443905656194],[-95.25551239482611,38.9564790494829],[-95.25550333595419,38.95647715697316],[-95.25550515440399,38.956471852159886],[-95.25550062496852,38.95647090590479],[-95.25548721836974,38.95651002878206],[-95.25547051693161,38.9565065395398],[-95.25547233423147,38.95650123469978],[-95.25546780475962,38.95650028934381],[-95.2554501581843,38.95655178928523],[-95.25546770921012,38.95655545545388],[-95.25546324032244,38.95656849671189],[-95.25541313478695,38.956558029840714],[-95.25541192286543,38.95656156639099],[-95.2554187170431,38.956562985328496],[-95.25541629320031,38.95657005842919],[-95.25537128272647,38.95656065572923],[-95.25536060315827,38.9565918213612],[-95.25537022765776,38.9565938318133],[-95.25536788048257,38.95660068412584],[-95.25536780496226,38.95660090494021],[-95.25536384113711,38.95660007661109],[-95.2553626292124,38.956603613160866],[-95.25536659303773,38.95660444149004],[-95.25536416918831,38.95661151458961],[-95.25535454353334,38.9566095041097],[-95.25534386513853,38.956640668866925],[-95.25538887565966,38.95665007157744],[-95.25538645181088,38.95665714467745],[-95.25537965762481,38.956655725738045],[-95.25537844569993,38.956659262287964],[-95.25544836821558,38.95667386895207],[-95.25544140110532,38.956694204152065],[-95.25543205824573,38.95669225264406],[-95.25543192810356,38.956692631681996],[-95.25540730008204,38.95668748670431],[-95.2554077334936,38.95668622353571],[-95.25540546878712,38.95668574995609],[-95.25538017173776,38.95675957503226]]]},"properties":{"SDE.FloorAll.FLOORLOCATION":"-1"}},{"type":"Feature","geometry":{"type":"Polygon","coordinates":[[[-95.25544157733972,38.95688490802965],[-95.25543930575206,38.956891537728275],[-95.25547695542667,38.956899404410294],[-95.25548869587259,38.95686514384637],[-95.25550001950675,38.95686750993498],[-95.25549850431538,38.95687193061702],[-95.25550076906342,38.956872403294426],[-95.25551387133656,38.95683416362007],[-95.25553283871957,38.95683812646046],[-95.25553132349586,38.95684254804338],[-95.25553358824318,38.9568430207201],[-95.25555062944771,38.95679328905671],[-95.25553421081874,38.9567898569881],[-95.25553928498533,38.9567750501393],[-95.25558825949099,38.95678528019511],[-95.2555888648727,38.95678351190543],[-95.25558320306074,38.95678232886561],[-95.25558623342897,38.95677348749918],[-95.25563011167638,38.95678265422832],[-95.2556401846563,38.9567532559343],[-95.25563169248241,38.95675148229223],[-95.25563472165514,38.95674264179762],[-95.25563755205326,38.9567432315019],[-95.25563815858655,38.95674146323923],[-95.2556353270353,38.95674087350769],[-95.25563835739523,38.956732032139875],[-95.25564684960189,38.95673380488107],[-95.25565692249799,38.95670440838629],[-95.2556130442607,38.956695242567584],[-95.25561607346825,38.956686401173044],[-95.25562173527307,38.95668758421128],[-95.25562234180624,38.956685815948696],[-95.25556289333834,38.95667339674846],[-95.25557016367873,38.95665217740991],[-95.25565848680114,38.95667062882107],[-95.2556590933333,38.95666886055829],[-95.25565343156435,38.956667676621514],[-95.2556585057321,38.956652868866954],[-95.25570748017044,38.95666309887253],[-95.25570808554805,38.95666133058222],[-95.255702423709,38.95666014844858],[-95.25570545405708,38.95665130707895],[-95.25574933227908,38.9566604728627],[-95.25575940515706,38.956631075458425],[-95.25575091299488,38.956629301825046],[-95.25575394218241,38.95662046042686],[-95.2557567737298,38.95662105015551],[-95.25575737910584,38.9566192818649],[-95.25575454871169,38.956618692163566],[-95.25575757789832,38.95660985076524],[-95.25576607005834,38.95661162439813],[-95.25577614295732,38.95658222609188],[-95.25573226474545,38.95657306121863],[-95.25573529393293,38.956564219820876],[-95.2557409557299,38.95656540285331],[-95.25574156225909,38.95656363459009],[-95.2556925879547,38.956553402798036],[-95.25569766210604,38.95653859504165],[-95.25570332390039,38.95653977807592],[-95.25570393043026,38.9565380098129],[-95.25564023540484,38.95652470427005],[-95.25563470690285,38.95654083868479],[-95.25561573962884,38.95653687496057],[-95.25562884279095,38.956498638901046],[-95.25562657812395,38.95649816442536],[-95.2556250629134,38.95650258600961],[-95.25561373936844,38.95650021903273],[-95.25562547957696,38.95646596115496],[-95.25558782896351,38.95645809449355],[-95.25558555614523,38.95646472686917],[-95.25557423260766,38.95646235988843],[-95.25557499014424,38.95646015089742],[-95.25557272540891,38.956459678221506],[-95.25557196783733,38.95646188811287],[-95.25556064538397,38.95645952295886],[-95.2555629170512,38.95645289055645],[-95.25552526634674,38.95644502657589],[-95.25551352724635,38.95647928447088],[-95.25550220356902,38.956476921084686],[-95.25550371878671,38.95647249950203],[-95.25550145401651,38.956472027725084],[-95.25548835075543,38.956510264670705],[-95.25546938454609,38.95650630365104],[-95.2554708985783,38.95650188294189],[-95.25546863384231,38.95650141026393],[-95.25545159272043,38.956551140115664],[-95.25546801244315,38.956554572223354],[-95.2554629370194,38.9565693817432],[-95.25541396386954,38.95655915076117],[-95.2554133573322,38.956560919022664],[-95.2554190191236,38.956562102070826],[-95.25541598989669,38.95657094346034],[-95.25537211180843,38.95656177665003],[-95.25536203766107,38.956591173093116],[-95.25537053089216,38.956592948583065],[-95.25536750165786,38.956601789971266],[-95.25536467025437,38.95660119663153],[-95.25536406486859,38.95660296492006],[-95.25536689515398,38.956603557332144],[-95.2553638659188,38.956612398720246],[-95.25535537265057,38.95661062413022],[-95.25534529957255,38.95664002239984],[-95.25538917774084,38.95664918831986],[-95.25538614850653,38.956658029708535],[-95.25538048670799,38.95665684665879],[-95.2553798813222,38.95665861494739],[-95.25542885575912,38.95666884417022],[-95.25542158422147,38.956690063472536],[-95.25534373512038,38.95667380196086],[-95.25534312973352,38.956675570249296],[-95.25534879153292,38.956676753300854],[-95.25534371618033,38.956691560114166],[-95.25529474285815,38.95668133178309],[-95.25529413631683,38.956683100043946],[-95.25529979811596,38.95668428309791],[-95.25529676890392,38.95669312358385],[-95.25525289072029,38.95668395762886],[-95.255242816471,38.95671335496175],[-95.25525130974874,38.956715129559974],[-95.25524827937609,38.956723970017315],[-95.25524544905194,38.956723378502744],[-95.25524484366218,38.95672514679061],[-95.25524767398642,38.9567257383052],[-95.25524464473106,38.956734579690135],[-95.25523615141617,38.95673280599178],[-95.25522607834115,38.956762202449966],[-95.25526995653486,38.956771369315405],[-95.25526692728035,38.95678021070084],[-95.25526126547408,38.9567790276453],[-95.25526066008422,38.95678079593325],[-95.25530963343532,38.95679102517902],[-95.2553045590797,38.95680583561934],[-95.25529889723575,38.95680465346599],[-95.25529829188162,38.956806420853766],[-95.2553619859433,38.95681972655678],[-95.25536751571745,38.95680359128231],[-95.25538648196586,38.95680755321896],[-95.25537337973364,38.956845790177816],[-95.25537564441007,38.956846264658445],[-95.25537715842044,38.95684184485108],[-95.25538848208211,38.95684421005017],[-95.2553767428142,38.956878468830574],[-95.255414393663,38.956886334659806],[-95.25541666528778,38.95687970406131],[-95.25542798895684,38.956882069256544],[-95.25542723134122,38.95688428004734],[-95.25542949608918,38.95688475272606],[-95.25543025366976,38.9568825428357],[-95.25544157733972,38.95688490802965]]]},"properties":{"SDE.FloorAll.FLOORLOCATION":"1"}},{"type":"Feature","geometry":{"type":"Polygon","coordinates":[[[-95.25544157733972,38.95688490802965],[-95.25543930575206,38.956891537728275],[-95.25547695542667,38.956899404410294],[-95.25548869587259,38.95686514384637],[-95.25550001950675,38.95686750993498],[-95.25549850431538,38.95687193061702],[-95.25550076906342,38.956872403294426],[-95.25551387133656,38.95683416362007],[-95.25553283871957,38.95683812646046],[-95.25553132349586,38.95684254804338],[-95.25553358824318,38.9568430207201],[-95.25555062944771,38.95679328905671],[-95.25553421081874,38.9567898569881],[-95.25553928498533,38.9567750501393],[-95.25558825949099,38.95678528019511],[-95.2555888648727,38.95678351190543],[-95.25558320306074,38.95678232886561],[-95.25558623342897,38.95677348749918],[-95.25563011167638,38.95678265422832],[-95.2556401846563,38.9567532559343],[-95.25563169248241,38.95675148229223],[-95.25563457065081,38.95674308252635],[-95.25563472165514,38.95674264179762],[-95.25563755205326,38.9567432315019],[-95.25563815858655,38.95674146323923],[-95.2556353270353,38.95674087350769],[-95.25563835739523,38.956732032139875],[-95.25564684960189,38.95673380488107],[-95.25565692249799,38.95670440838629],[-95.2556130442607,38.956695242567584],[-95.25561607346825,38.956686401173044],[-95.25562173527307,38.95668758421128],[-95.25562234180624,38.956685815948696],[-95.2555733673995,38.95667558500682],[-95.2555806388552,38.95665436659534],[-95.25565848680114,38.95667062882107],[-95.2556590933333,38.95666886055829],[-95.25565343156435,38.956667676621514],[-95.2556585057321,38.956652868866954],[-95.25570748017044,38.95666309887253],[-95.25570808554805,38.95666133058222],[-95.255702423709,38.95666014844858],[-95.25570530190022,38.95665174778048],[-95.25570545405708,38.95665130707895],[-95.25574933227908,38.9566604728627],[-95.25575940515706,38.956631075458425],[-95.25575091299488,38.956629301825046],[-95.25575394218241,38.95662046042686],[-95.2557567737298,38.95662105015551],[-95.25575737910584,38.9566192818649],[-95.25575454871169,38.956618692163566],[-95.25575757789832,38.95660985076524],[-95.25576607005834,38.95661162439813],[-95.25577614295732,38.95658222609188],[-95.25573226474545,38.95657306121863],[-95.25573514289464,38.956564661450095],[-95.25573529393293,38.956564219820876],[-95.2557409557299,38.95656540285331],[-95.25574156225909,38.95656363459009],[-95.2556925879547,38.956553402798036],[-95.25569751110254,38.95653903577046],[-95.25569766210604,38.95653859504165],[-95.25570332390039,38.95653977807592],[-95.25570393043026,38.9565380098129],[-95.25564023540484,38.95652470427005],[-95.25563470690285,38.95654083868479],[-95.25561573962884,38.95653687496057],[-95.25562884279095,38.956498638901046],[-95.25562657812395,38.95649816442536],[-95.2556250629134,38.95650258600961],[-95.25561373936844,38.95650021903273],[-95.25562547957696,38.95646596115496],[-95.25558782896351,38.95645809449355],[-95.25558555614523,38.95646472686917],[-95.25557423260766,38.95646235988843],[-95.25557499014424,38.95646015089742],[-95.25557272540891,38.956459678221506],[-95.25557196783733,38.95646188811287],[-95.25556064538397,38.95645952295886],[-95.2555629170512,38.95645289055645],[-95.25552526634674,38.95644502657589],[-95.25551352724635,38.95647928447088],[-95.25550220356902,38.956476921084686],[-95.25550371878671,38.95647249950203],[-95.25550145401651,38.956472027725084],[-95.25548835075543,38.956510264670705],[-95.2554699501273,38.95650642248218],[-95.25546938454609,38.95650630365104],[-95.2554708985783,38.95650188294189],[-95.25546863384231,38.95650141026393],[-95.25545159272043,38.956551140115664],[-95.25546801244315,38.956554572223354],[-95.2554629370194,38.9565693817432],[-95.25541396386954,38.95655915076117],[-95.2554133573322,38.956560919022664],[-95.2554190191236,38.956562102070826],[-95.25541598989669,38.95657094346034],[-95.25537211180843,38.95656177665003],[-95.25536203766107,38.956591173093116],[-95.25537053089216,38.956592948583065],[-95.25536750165786,38.956601789971266],[-95.25536467025437,38.95660119663153],[-95.25536406486859,38.95660296492006],[-95.25536689515398,38.956603557332144],[-95.2553638659188,38.956612398720246],[-95.25535537265057,38.95661062413022],[-95.25534529957255,38.95664002239984],[-95.25538917774084,38.95664918831986],[-95.25538614850653,38.956658029708535],[-95.25538048670799,38.95665684665879],[-95.2553798813222,38.95665861494739],[-95.25542885575912,38.95666884417022],[-95.25542158422147,38.956690063472536],[-95.25534373512038,38.95667380196086],[-95.25534312973352,38.956675570249296],[-95.25534879153292,38.956676753300854],[-95.25534371618033,38.956691560114166],[-95.25529474285815,38.95668133178309],[-95.25529413631683,38.956683100043946],[-95.25529979811596,38.95668428309791],[-95.25529676890392,38.95669312358385],[-95.25525289072029,38.95668395762886],[-95.255242816471,38.95671335496175],[-95.25525130974874,38.956715129559974],[-95.25524827937609,38.956723970017315],[-95.25524544905194,38.956723378502744],[-95.25524484366218,38.95672514679061],[-95.25524767398642,38.9567257383052],[-95.25524464473106,38.956734579690135],[-95.25523615141617,38.95673280599178],[-95.25522607834115,38.956762202449966],[-95.25526995653486,38.956771369315405],[-95.25526692728035,38.95678021070084],[-95.25526126547408,38.9567790276453],[-95.25526066008422,38.95678079593325],[-95.25530963343532,38.95679102517902],[-95.2553045590797,38.95680583561934],[-95.25529889723575,38.95680465346599],[-95.25529829188162,38.956806420853766],[-95.2553619859433,38.95681972655678],[-95.25536751571745,38.95680359128231],[-95.25538648196586,38.95680755321896],[-95.25537337973364,38.956845790177816],[-95.25537564441007,38.956846264658445],[-95.25537715842044,38.95684184485108],[-95.25538848208211,38.95684421005017],[-95.2553767428142,38.956878468830574],[-95.255414393663,38.956886334659806],[-95.25541621097683,38.95688102982083],[-95.25541666528778,38.95687970406131],[-95.25542798895684,38.956882069256544],[-95.25542723134122,38.95688428004734],[-95.25542949608918,38.95688475272606],[-95.25543025366976,38.9568825428357],[-95.25544157733972,38.95688490802965]]]},"properties":{"SDE.FloorAll.FLOORLOCATION":"2"}},{"type":"Feature","geometry":{"type":"Polygon","coordinates":[[[-95.25544157733972,38.95688490802965],[-95.25543930575206,38.956891537728275],[-95.25547695542667,38.956899404410294],[-95.25548869587259,38.95686514384637],[-95.25550001950675,38.95686750993498],[-95.25549850431538,38.95687193061702],[-95.25550076906342,38.956872403294426],[-95.25551387133656,38.95683416362007],[-95.25553283871957,38.95683812646046],[-95.25553132349586,38.95684254804338],[-95.25553358824318,38.9568430207201],[-95.25555062944771,38.95679328905671],[-95.25553421081874,38.9567898569881],[-95.25553928498533,38.9567750501393],[-95.25558825949099,38.95678528019511],[-95.2555888648727,38.95678351190543],[-95.25558320306074,38.95678232886561],[-95.25558623342897,38.95677348749918],[-95.25563011167638,38.95678265422832],[-95.2556401846563,38.9567532559343],[-95.25563169248241,38.95675148229223],[-95.25563457065081,38.95674308252635],[-95.25563472165514,38.95674264179762],[-95.25563755205326,38.9567432315019],[-95.25563815858655,38.95674146323923],[-95.2556353270353,38.95674087350769],[-95.25563835739523,38.956732032139875],[-95.25564684960189,38.95673380488107],[-95.25565692249799,38.95670440838629],[-95.2556130442607,38.956695242567584],[-95.25561607346825,38.956686401173044],[-95.25562173527307,38.95668758421128],[-95.25562234180624,38.956685815948696],[-95.2555733673995,38.95667558500682],[-95.2555806388552,38.95665436659534],[-95.25565848680114,38.95667062882107],[-95.2556590933333,38.95666886055829],[-95.25565343156435,38.956667676621514],[-95.2556585057321,38.956652868866954],[-95.25570748017044,38.95666309887253],[-95.25570808554805,38.95666133058222],[-95.255702423709,38.95666014844858],[-95.25570530190022,38.95665174778048],[-95.25570545405708,38.95665130707895],[-95.25574933227908,38.9566604728627],[-95.25575940515706,38.956631075458425],[-95.25575091299488,38.956629301825046],[-95.25575394218241,38.95662046042686],[-95.2557567737298,38.95662105015551],[-95.25575737910584,38.9566192818649],[-95.25575454871169,38.956618692163566],[-95.25575757789832,38.95660985076524],[-95.25576607005834,38.95661162439813],[-95.25577614295732,38.95658222609188],[-95.25573226474545,38.95657306121863],[-95.25573514289464,38.956564661450095],[-95.25573529393293,38.956564219820876],[-95.2557409557299,38.95656540285331],[-95.25574156225909,38.95656363459009],[-95.2556925879547,38.956553402798036],[-95.25569751110254,38.95653903577046],[-95.25569766210604,38.95653859504165],[-95.25570332390039,38.95653977807592],[-95.25570393043026,38.9565380098129],[-95.25564023540484,38.95652470427005],[-95.25563470690285,38.95654083868479],[-95.25561573962884,38.95653687496057],[-95.25562884279095,38.956498638901046],[-95.25562657812395,38.95649816442536],[-95.2556250629134,38.95650258600961],[-95.25561373936844,38.95650021903273],[-95.25562547957696,38.95646596115496],[-95.25558782896351,38.95645809449355],[-95.25558555614523,38.95646472686917],[-95.25557423260766,38.95646235988843],[-95.25557499014424,38.95646015089742],[-95.25557272540891,38.956459678221506],[-95.25557196783733,38.95646188811287],[-95.25556064538397,38.95645952295886],[-95.2555629170512,38.95645289055645],[-95.25552526634674,38.95644502657589],[-95.25551352724635,38.95647928447088],[-95.25550220356902,38.956476921084686],[-95.25550371878671,38.95647249950203],[-95.25550145401651,38.956472027725084],[-95.25548835075543,38.956510264670705],[-95.2554699501273,38.95650642248218],[-95.25546938454609,38.95650630365104],[-95.2554708985783,38.95650188294189],[-95.25546863384231,38.95650141026393],[-95.25545159272043,38.956551140115664],[-95.25546801244315,38.956554572223354],[-95.2554629370194,38.9565693817432],[-95.25541396386954,38.95655915076117],[-95.2554133573322,38.956560919022664],[-95.2554190191236,38.956562102070826],[-95.25541598989669,38.95657094346034],[-95.25537211180843,38.95656177665003],[-95.25536203766107,38.956591173093116],[-95.25537053089216,38.956592948583065],[-95.25536750165786,38.956601789971266],[-95.25536467025437,38.95660119663153],[-95.25536406486859,38.95660296492006],[-95.25536689515398,38.956603557332144],[-95.2553638659188,38.956612398720246],[-95.25535537265057,38.95661062413022],[-95.25534529957255,38.95664002239984],[-95.25538917774084,38.95664918831986],[-95.25538614850653,38.956658029708535],[-95.25538048670799,38.95665684665879],[-95.2553798813222,38.95665861494739],[-95.25542885575912,38.95666884417022],[-95.25542158422147,38.956690063472536],[-95.25534373512038,38.95667380196086],[-95.25534312973352,38.956675570249296],[-95.25534879153292,38.956676753300854],[-95.25534371618033,38.956691560114166],[-95.25529474285815,38.95668133178309],[-95.25529413631683,38.956683100043946],[-95.25529979811596,38.95668428309791],[-95.25529676890392,38.95669312358385],[-95.25525289072029,38.95668395762886],[-95.255242816471,38.95671335496175],[-95.25525130974874,38.956715129559974],[-95.25524827937609,38.956723970017315],[-95.25524544905194,38.956723378502744],[-95.25524484366218,38.95672514679061],[-95.25524767398642,38.9567257383052],[-95.25524464473106,38.956734579690135],[-95.25523615141617,38.95673280599178],[-95.25522607834115,38.956762202449966],[-95.25526995653486,38.956771369315405],[-95.25526692728035,38.95678021070084],[-95.25526126547408,38.9567790276453],[-95.25526066008422,38.95678079593325],[-95.25530963343532,38.95679102517902],[-95.2553045590797,38.95680583561934],[-95.25529889723575,38.95680465346599],[-95.25529829188162,38.956806420853766],[-95.2553619859433,38.95681972655678],[-95.25536751571745,38.95680359128231],[-95.25538648196586,38.95680755321896],[-95.25537337973364,38.956845790177816],[-95.25537564441007,38.956846264658445],[-95.25537715842044,38.95684184485108],[-95.25538848208211,38.95684421005017],[-95.2553767428142,38.956878468830574],[-95.255414393663,38.956886334659806],[-95.25541621097683,38.95688102982083],[-95.25541666528778,38.95687970406131],[-95.25542798895684,38.956882069256544],[-95.25542723134122,38.95688428004734],[-95.25542949608918,38.95688475272606],[-95.25543025366976,38.9568825428357],[-95.25544157733972,38.95688490802965]]]},"properties":{"SDE.FloorAll.FLOORLOCATION":"3"}},{"type":"Feature","geometry":{"type":"Polygon","coordinates":[[[-95.25544157733972,38.95688490802965],[-95.25543930575206,38.956891537728275],[-95.25547695542667,38.956899404410294],[-95.25548869587259,38.95686514384637],[-95.25550001950675,38.95686750993498],[-95.25549850431538,38.95687193061702],[-95.25550076906342,38.956872403294426],[-95.25551387133656,38.95683416362007],[-95.25553283871957,38.95683812646046],[-95.25553132349586,38.95684254804338],[-95.25553358824318,38.9568430207201],[-95.25555062944771,38.95679328905671],[-95.25553421081874,38.9567898569881],[-95.25553928498533,38.9567750501393],[-95.25558825949099,38.95678528019511],[-95.2555888648727,38.95678351190543],[-95.25558320306074,38.95678232886561],[-95.25558623342897,38.95677348749918],[-95.25563011167638,38.95678265422832],[-95.2556401846563,38.9567532559343],[-95.25563169248241,38.95675148229223],[-95.25563457065081,38.95674308252635],[-95.25563472165514,38.95674264179762],[-95.25563755205326,38.9567432315019],[-95.25563815858655,38.95674146323923],[-95.2556353270353,38.95674087350769],[-95.25563835739523,38.956732032139875],[-95.25564684960189,38.95673380488107],[-95.25565692249799,38.95670440838629],[-95.2556130442607,38.956695242567584],[-95.25561607346825,38.956686401173044],[-95.25562173527307,38.95668758421128],[-95.25562234180624,38.956685815948696],[-95.2555733673995,38.95667558500682],[-95.2555806388552,38.95665436659534],[-95.25565848680114,38.95667062882107],[-95.2556590933333,38.95666886055829],[-95.25565343156435,38.956667676621514],[-95.2556585057321,38.956652868866954],[-95.25570748017044,38.95666309887253],[-95.25570808554805,38.95666133058222],[-95.255702423709,38.95666014844858],[-95.25570530190022,38.95665174778048],[-95.25570545405708,38.95665130707895],[-95.25574933227908,38.9566604728627],[-95.25575940515706,38.956631075458425],[-95.25575091299488,38.956629301825046],[-95.25575394218241,38.95662046042686],[-95.2557567737298,38.95662105015551],[-95.25575737910584,38.9566192818649],[-95.25575454871169,38.956618692163566],[-95.25575757789832,38.95660985076524],[-95.25576607005834,38.95661162439813],[-95.25577614295732,38.95658222609188],[-95.25573226474545,38.95657306121863],[-95.25573514289464,38.956564661450095],[-95.25573529393293,38.956564219820876],[-95.2557409557299,38.95656540285331],[-95.25574156225909,38.95656363459009],[-95.2556925879547,38.956553402798036],[-95.25569751110254,38.95653903577046],[-95.25569766210604,38.95653859504165],[-95.25570332390039,38.95653977807592],[-95.25570393043026,38.9565380098129],[-95.25564023540484,38.95652470427005],[-95.25563470690285,38.95654083868479],[-95.25561573962884,38.95653687496057],[-95.25562884279095,38.956498638901046],[-95.25562657812395,38.95649816442536],[-95.2556250629134,38.95650258600961],[-95.25561373936844,38.95650021903273],[-95.25562547957696,38.95646596115496],[-95.25558782896351,38.95645809449355],[-95.25558555614523,38.95646472686917],[-95.25557423260766,38.95646235988843],[-95.25557499014424,38.95646015089742],[-95.25557272540891,38.956459678221506],[-95.25557196783733,38.95646188811287],[-95.25556064538397,38.95645952295886],[-95.2555629170512,38.95645289055645],[-95.25552526634674,38.95644502657589],[-95.25551352724635,38.95647928447088],[-95.25550220356902,38.956476921084686],[-95.25550371878671,38.95647249950203],[-95.25550145401651,38.956472027725084],[-95.25548835075543,38.956510264670705],[-95.2554699501273,38.95650642248218],[-95.25546938454609,38.95650630365104],[-95.2554708985783,38.95650188294189],[-95.25546863384231,38.95650141026393],[-95.25545159272043,38.956551140115664],[-95.25546801244315,38.956554572223354],[-95.2554629370194,38.9565693817432],[-95.25541396386954,38.95655915076117],[-95.2554133573322,38.956560919022664],[-95.2554190191236,38.956562102070826],[-95.25541598989669,38.95657094346034],[-95.25537211180843,38.95656177665003],[-95.25536203766107,38.956591173093116],[-95.25537053089216,38.956592948583065],[-95.25536750165786,38.956601789971266],[-95.25536467025437,38.95660119663153],[-95.25536406486859,38.95660296492006],[-95.25536689515398,38.956603557332144],[-95.2553638659188,38.956612398720246],[-95.25535537265057,38.95661062413022],[-95.25534529957255,38.95664002239984],[-95.25538917774084,38.95664918831986],[-95.25538614850653,38.956658029708535],[-95.25538048670799,38.95665684665879],[-95.2553798813222,38.95665861494739],[-95.25542885575912,38.95666884417022],[-95.25542158422147,38.956690063472536],[-95.25534373512038,38.95667380196086],[-95.25534312973352,38.956675570249296],[-95.25534879153292,38.956676753300854],[-95.25534371618033,38.956691560114166],[-95.25529474285815,38.95668133178309],[-95.25529413631683,38.956683100043946],[-95.25529979811596,38.95668428309791],[-95.25529676890392,38.95669312358385],[-95.25525289072029,38.95668395762886],[-95.255242816471,38.95671335496175],[-95.25525130974874,38.956715129559974],[-95.25524827937609,38.956723970017315],[-95.25524544905194,38.956723378502744],[-95.25524484366218,38.95672514679061],[-95.25524767398642,38.9567257383052],[-95.25524464473106,38.956734579690135],[-95.25523615141617,38.95673280599178],[-95.25522607834115,38.956762202449966],[-95.25526995653486,38.956771369315405],[-95.25526692728035,38.95678021070084],[-95.25526126547408,38.9567790276453],[-95.25526066008422,38.95678079593325],[-95.25530963343532,38.95679102517902],[-95.2553045590797,38.95680583561934],[-95.25529889723575,38.95680465346599],[-95.25529829188162,38.956806420853766],[-95.2553619859433,38.95681972655678],[-95.25536751571745,38.95680359128231],[-95.25538648196586,38.95680755321896],[-95.25537337973364,38.956845790177816],[-95.25537564441007,38.956846264658445],[-95.25537715842044,38.95684184485108],[-95.25538848208211,38.95684421005017],[-95.2553767428142,38.956878468830574],[-95.255414393663,38.956886334659806],[-95.25541621097683,38.95688102982083],[-95.25541666528778,38.95687970406131],[-95.25542798895684,38.956882069256544],[-95.25542723134122,38.95688428004734],[-95.25542949608918,38.95688475272606],[-95.25543025366976,38.9568825428357],[-95.25544157733972,38.95688490802965]]]},"properties":{"SDE.FloorAll.FLOORLOCATION":"4"}},{"type":"Feature","geometry":{"type":"Polygon","coordinates":[[[-95.25544157733972,38.95688490802965],[-95.25543930575206,38.956891537728275],[-95.25547695542667,38.956899404410294],[-95.25548869587259,38.95686514384637],[-95.25550001950675,38.95686750993498],[-95.25549850431538,38.95687193061702],[-95.25550076906342,38.956872403294426],[-95.25551387133656,38.95683416362007],[-95.25553283871957,38.95683812646046],[-95.25553132349586,38.95684254804338],[-95.25553358824318,38.9568430207201],[-95.25555062944771,38.95679328905671],[-95.25553421081874,38.9567898569881],[-95.25553928498533,38.9567750501393],[-95.25558825949099,38.95678528019511],[-95.2555888648727,38.95678351190543],[-95.25558320306074,38.95678232886561],[-95.25558623342897,38.95677348749918],[-95.25563011167638,38.95678265422832],[-95.2556401846563,38.9567532559343],[-95.25563169248241,38.95675148229223],[-95.25563457065081,38.95674308252635],[-95.25563472165514,38.95674264179762],[-95.25563755205326,38.9567432315019],[-95.25563815858655,38.95674146323923],[-95.2556353270353,38.95674087350769],[-95.25563835739523,38.956732032139875],[-95.25564684960189,38.95673380488107],[-95.25565692249799,38.95670440838629],[-95.2556130442607,38.956695242567584],[-95.25561607346825,38.956686401173044],[-95.25562173527307,38.95668758421128],[-95.25562234180624,38.956685815948696],[-95.2555733673995,38.95667558500682],[-95.2555806388552,38.95665436659534],[-95.25565848680114,38.95667062882107],[-95.2556590933333,38.95666886055829],[-95.25565343156435,38.956667676621514],[-95.2556585057321,38.956652868866954],[-95.25570748017044,38.95666309887253],[-95.25570808554805,38.95666133058222],[-95.255702423709,38.95666014844858],[-95.25570530190022,38.95665174778048],[-95.25570545405708,38.95665130707895],[-95.25574933227908,38.9566604728627],[-95.25575940515706,38.956631075458425],[-95.25575091299488,38.956629301825046],[-95.25575394218241,38.95662046042686],[-95.2557567737298,38.95662105015551],[-95.25575737910584,38.9566192818649],[-95.25575454871169,38.956618692163566],[-95.25575757789832,38.95660985076524],[-95.25576607005834,38.95661162439813],[-95.25577614295732,38.95658222609188],[-95.25573226474545,38.95657306121863],[-95.25573514289464,38.956564661450095],[-95.25573529393293,38.956564219820876],[-95.2557409557299,38.95656540285331],[-95.25574156225909,38.95656363459009],[-95.2556925879547,38.956553402798036],[-95.25569751110254,38.95653903577046],[-95.25569766210604,38.95653859504165],[-95.25570332390039,38.95653977807592],[-95.25570393043026,38.9565380098129],[-95.25564023540484,38.95652470427005],[-95.25563470690285,38.95654083868479],[-95.25561573962884,38.95653687496057],[-95.25562884279095,38.956498638901046],[-95.25562657812395,38.95649816442536],[-95.2556250629134,38.95650258600961],[-95.25561373936844,38.95650021903273],[-95.25562547957696,38.95646596115496],[-95.25558782896351,38.95645809449355],[-95.25558555614523,38.95646472686917],[-95.25557423260766,38.95646235988843],[-95.25557499014424,38.95646015089742],[-95.25557272540891,38.956459678221506],[-95.25557196783733,38.95646188811287],[-95.25556064538397,38.95645952295886],[-95.2555629170512,38.95645289055645],[-95.25552526634674,38.95644502657589],[-95.25551352724635,38.95647928447088],[-95.25550220356902,38.956476921084686],[-95.25550371878671,38.95647249950203],[-95.25550145401651,38.956472027725084],[-95.25548835075543,38.956510264670705],[-95.2554699501273,38.95650642248218],[-95.25546938454609,38.95650630365104],[-95.2554708985783,38.95650188294189],[-95.25546863384231,38.95650141026393],[-95.25545159272043,38.956551140115664],[-95.25546801244315,38.956554572223354],[-95.2554629370194,38.9565693817432],[-95.25541396386954,38.95655915076117],[-95.2554133573322,38.956560919022664],[-95.2554190191236,38.956562102070826],[-95.25541598989669,38.95657094346034],[-95.25537211180843,38.95656177665003],[-95.25536203766107,38.956591173093116],[-95.25537053089216,38.956592948583065],[-95.25536750165786,38.956601789971266],[-95.25536467025437,38.95660119663153],[-95.25536406486859,38.95660296492006],[-95.25536689515398,38.956603557332144],[-95.2553638659188,38.956612398720246],[-95.25535537265057,38.95661062413022],[-95.25534529957255,38.95664002239984],[-95.25538917774084,38.95664918831986],[-95.25538614850653,38.956658029708535],[-95.25538048670799,38.95665684665879],[-95.2553798813222,38.95665861494739],[-95.25542885575912,38.95666884417022],[-95.25542158422147,38.956690063472536],[-95.25534373512038,38.95667380196086],[-95.25534312973352,38.956675570249296],[-95.25534879153292,38.956676753300854],[-95.25534371618033,38.956691560114166],[-95.25529474285815,38.95668133178309],[-95.25529413631683,38.956683100043946],[-95.25529979811596,38.95668428309791],[-95.25529676890392,38.95669312358385],[-95.25525289072029,38.95668395762886],[-95.255242816471,38.95671335496175],[-95.25525130974874,38.956715129559974],[-95.25524827937609,38.956723970017315],[-95.25524544905194,38.956723378502744],[-95.25524484366218,38.95672514679061],[-95.25524767398642,38.9567257383052],[-95.25524464473106,38.956734579690135],[-95.25523615141617,38.95673280599178],[-95.25522607834115,38.956762202449966],[-95.25526995653486,38.956771369315405],[-95.25526692728035,38.95678021070084],[-95.25526126547408,38.9567790276453],[-95.25526066008422,38.95678079593325],[-95.25530963343532,38.95679102517902],[-95.2553045590797,38.95680583561934],[-95.25529889723575,38.95680465346599],[-95.25529829188162,38.956806420853766],[-95.2553619859433,38.95681972655678],[-95.25536751571745,38.95680359128231],[-95.25538648196586,38.95680755321896],[-95.25537337973364,38.956845790177816],[-95.25537564441007,38.956846264658445],[-95.25537715842044,38.95684184485108],[-95.25538848208211,38.95684421005017],[-95.2553767428142,38.956878468830574],[-95.255414393663,38.956886334659806],[-95.25541621097683,38.95688102982083],[-95.25541666528778,38.95687970406131],[-95.25542798895684,38.956882069256544],[-95.25542723134122,38.95688428004734],[-95.25542949608918,38.95688475272606],[-95.25543025366976,38.9568825428357],[-95.25544157733972,38.95688490802965]]]},"properties":{"SDE.FloorAll.FLOORLOCATION":"5"}},{"type":"Feature","geometry":{"type":"Polygon","coordinates":[[[-95.25544157733972,38.95688490802965],[-95.25543930575206,38.956891537728275],[-95.25547695542667,38.956899404410294],[-95.25548869587259,38.95686514384637],[-95.25550001950675,38.95686750993498],[-95.25549850431538,38.95687193061702],[-95.25550076906342,38.956872403294426],[-95.25551387133656,38.95683416362007],[-95.25553283871957,38.95683812646046],[-95.25553132349586,38.95684254804338],[-95.25553358824318,38.9568430207201],[-95.25555062944771,38.95679328905671],[-95.25553421081874,38.9567898569881],[-95.25553928498533,38.9567750501393],[-95.25558825949099,38.95678528019511],[-95.2555888648727,38.95678351190543],[-95.25558320306074,38.95678232886561],[-95.25558623342897,38.95677348749918],[-95.25563011167638,38.95678265422832],[-95.2556401846563,38.9567532559343],[-95.25563169248241,38.95675148229223],[-95.25563457065081,38.95674308252635],[-95.25563472165514,38.95674264179762],[-95.25563755205326,38.9567432315019],[-95.25563815858655,38.95674146323923],[-95.2556353270353,38.95674087350769],[-95.25563835739523,38.956732032139875],[-95.25564684960189,38.95673380488107],[-95.25565692249799,38.95670440838629],[-95.2556130442607,38.956695242567584],[-95.25561607346825,38.956686401173044],[-95.25562173527307,38.95668758421128],[-95.25562234180624,38.956685815948696],[-95.2555733673995,38.95667558500682],[-95.2555806388552,38.95665436659534],[-95.25565848680114,38.95667062882107],[-95.2556590933333,38.95666886055829],[-95.25565343156435,38.956667676621514],[-95.2556585057321,38.956652868866954],[-95.25570748017044,38.95666309887253],[-95.25570808554805,38.95666133058222],[-95.255702423709,38.95666014844858],[-95.25570530190022,38.95665174778048],[-95.25570545405708,38.95665130707895],[-95.25574933227908,38.9566604728627],[-95.25575940515706,38.956631075458425],[-95.25575091299488,38.956629301825046],[-95.25575394218241,38.95662046042686],[-95.2557567737298,38.95662105015551],[-95.25575737910584,38.9566192818649],[-95.25575454871169,38.956618692163566],[-95.25575757789832,38.95660985076524],[-95.25576607005834,38.95661162439813],[-95.25577614295732,38.95658222609188],[-95.25573226474545,38.95657306121863],[-95.25573514289464,38.956564661450095],[-95.25573529393293,38.956564219820876],[-95.2557409557299,38.95656540285331],[-95.25574156225909,38.95656363459009],[-95.2556925879547,38.956553402798036],[-95.25569751110254,38.95653903577046],[-95.25569766210604,38.95653859504165],[-95.25570332390039,38.95653977807592],[-95.25570393043026,38.9565380098129],[-95.25564023540484,38.95652470427005],[-95.25563470690285,38.95654083868479],[-95.25561573962884,38.95653687496057],[-95.25562884279095,38.956498638901046],[-95.25562657812395,38.95649816442536],[-95.2556250629134,38.95650258600961],[-95.25561373936844,38.95650021903273],[-95.25562547957696,38.95646596115496],[-95.25558782896351,38.95645809449355],[-95.25558555614523,38.95646472686917],[-95.25557423260766,38.95646235988843],[-95.25557499014424,38.95646015089742],[-95.25557272540891,38.956459678221506],[-95.25557196783733,38.95646188811287],[-95.25556064538397,38.95645952295886],[-95.2555629170512,38.95645289055645],[-95.25552526634674,38.95644502657589],[-95.25551352724635,38.95647928447088],[-95.25550220356902,38.956476921084686],[-95.25550371878671,38.95647249950203],[-95.25550145401651,38.956472027725084],[-95.25548835075543,38.956510264670705],[-95.2554699501273,38.95650642248218],[-95.25546938454609,38.95650630365104],[-95.2554708985783,38.95650188294189],[-95.25546863384231,38.95650141026393],[-95.25545159272043,38.956551140115664],[-95.25546801244315,38.956554572223354],[-95.2554629370194,38.9565693817432],[-95.25541396386954,38.95655915076117],[-95.2554133573322,38.956560919022664],[-95.2554190191236,38.956562102070826],[-95.25541598989669,38.95657094346034],[-95.25537211180843,38.95656177665003],[-95.25536203766107,38.956591173093116],[-95.25537053089216,38.956592948583065],[-95.25536750165786,38.956601789971266],[-95.25536467025437,38.95660119663153],[-95.25536406486859,38.95660296492006],[-95.25536689515398,38.956603557332144],[-95.2553638659188,38.956612398720246],[-95.25535537265057,38.95661062413022],[-95.25534529957255,38.95664002239984],[-95.25538917774084,38.95664918831986],[-95.25538614850653,38.956658029708535],[-95.25538048670799,38.95665684665879],[-95.2553798813222,38.95665861494739],[-95.25542885575912,38.95666884417022],[-95.25542158422147,38.956690063472536],[-95.25534373512038,38.95667380196086],[-95.25534312973352,38.956675570249296],[-95.25534879153292,38.956676753300854],[-95.25534371618033,38.956691560114166],[-95.25529474285815,38.95668133178309],[-95.25529413631683,38.956683100043946],[-95.25529979811596,38.95668428309791],[-95.25529676890392,38.95669312358385],[-95.25525289072029,38.95668395762886],[-95.255242816471,38.95671335496175],[-95.25525130974874,38.956715129559974],[-95.25524827937609,38.956723970017315],[-95.25524544905194,38.956723378502744],[-95.25524484366218,38.95672514679061],[-95.25524767398642,38.9567257383052],[-95.25524464473106,38.956734579690135],[-95.25523615141617,38.95673280599178],[-95.25522607834115,38.956762202449966],[-95.25526995653486,38.956771369315405],[-95.25526692728035,38.95678021070084],[-95.25526126547408,38.9567790276453],[-95.25526066008422,38.95678079593325],[-95.25530963343532,38.95679102517902],[-95.2553045590797,38.95680583561934],[-95.25529889723575,38.95680465346599],[-95.25529829188162,38.956806420853766],[-95.2553619859433,38.95681972655678],[-95.25536751571745,38.95680359128231],[-95.25538648196586,38.95680755321896],[-95.25537337973364,38.956845790177816],[-95.25537564441007,38.956846264658445],[-95.25537715842044,38.95684184485108],[-95.25538848208211,38.95684421005017],[-95.2553767428142,38.956878468830574],[-95.255414393663,38.956886334659806],[-95.25541621097683,38.95688102982083],[-95.25541666528778,38.95687970406131],[-95.25542798895684,38.956882069256544],[-95.25542723134122,38.95688428004734],[-95.25542949608918,38.95688475272606],[-95.25543025366976,38.9568825428357],[-95.25544157733972,38.95688490802965]]]},"properties":{"SDE.FloorAll.FLOORLOCATION":"6"}},{"type":"Feature","geometry":{"type":"Polygon","coordinates":[[[-95.25544142626396,38.956885350558885],[-95.25543930575206,38.956891537728275],[-95.25547695542667,38.956899404410294],[-95.255488543644,38.95686558634836],[-95.25549986731319,38.956867951536616],[-95.25549850431538,38.95687193061702],[-95.25550076906342,38.956872403294426],[-95.25551372022642,38.95683460704982],[-95.2555326876795,38.95683856808942],[-95.25553132349586,38.95684254804338],[-95.25553358824318,38.9568430207201],[-95.25555062944771,38.95679328905671],[-95.25553477636737,38.95678997671931],[-95.25553985175692,38.956775168097025],[-95.25558825949099,38.95678528019511],[-95.2555888648727,38.95678351190543],[-95.25558376979754,38.95678244772347],[-95.25558679901252,38.95677360632974],[-95.25563011167638,38.95678265422832],[-95.2556401846563,38.9567532559343],[-95.25563225806587,38.956751601122576],[-95.25563892301349,38.95673215006982],[-95.25564684960189,38.95673380488107],[-95.25565692249799,38.95670440838629],[-95.2556526816205,38.95670352123856],[-95.2556560140198,38.956693797512386],[-95.25565995305526,38.95668230282213],[-95.25566389086634,38.956670809905255],[-95.25565879006723,38.95666974468972],[-95.2556590933333,38.95666886055829],[-95.25565399718212,38.95666779455135],[-95.25565907250298,38.95665298682408],[-95.25570748017044,38.95666309887253],[-95.25570808554805,38.95666133058222],[-95.25570299047996,38.956660266405486],[-95.25570601967482,38.956651425008545],[-95.25574933227908,38.9566604728627],[-95.25575940515706,38.956631075458425],[-95.25575147861251,38.95662941975442],[-95.25575814351579,38.9566099686946],[-95.25576607005834,38.95661162439813],[-95.25577614295732,38.95658222609188],[-95.25573283148087,38.956573180075786],[-95.25573586066821,38.956564338678014],[-95.2557409557299,38.95656540285331],[-95.25574156225909,38.95656363459009],[-95.25569315465486,38.956553522555765],[-95.25569822887607,38.95653871299857],[-95.25570332390039,38.95653977807592],[-95.25570393043026,38.9565380098129],[-95.25564023540484,38.95652470427005],[-95.2556348579417,38.956540397055676],[-95.255615891786,38.95653643425918],[-95.25562884279095,38.956498638901046],[-95.25562657812395,38.95649816442536],[-95.25562521510537,38.956502144407786],[-95.2556138915256,38.95649977833134],[-95.25562547957696,38.95646596115496],[-95.25558782896351,38.95645809449355],[-95.25558570837235,38.95646428436703],[-95.255560796458,38.95645908042947],[-95.2555629170512,38.95645289055645],[-95.25552526634674,38.95644502657589],[-95.25551367825081,38.95647884374229],[-95.25550235460851,38.95647647945573],[-95.25550371878671,38.95647249950203],[-95.25550145401651,38.956472027725084],[-95.25548850291332,38.95650982396946],[-95.25546953565582,38.95650586022134],[-95.2554708985783,38.95650188294189],[-95.25546863384231,38.95650141026393],[-95.25545159272043,38.956551140115664],[-95.25546744574332,38.956554452464516],[-95.25546237143769,38.95656926291203],[-95.25541396386954,38.95655915076117],[-95.2554133573322,38.956560919022664],[-95.25541845354202,38.95656198323944],[-95.25541542316186,38.95657082460165],[-95.25537211180843,38.95656177665003],[-95.25536203766107,38.956591173093116],[-95.25536996415721,38.95659282972414],[-95.25536329914874,38.956612280761675],[-95.25535537265057,38.95661062413022],[-95.25534529957255,38.95664002239984],[-95.25538861212367,38.95664907038872],[-95.25538558295919,38.95665790997656],[-95.25538048670799,38.95665684665879],[-95.2553798813222,38.95665861494739],[-95.25542828895357,38.956668727112316],[-95.2554210185689,38.956689946441934],[-95.25534373512038,38.95667380196086],[-95.25534312973352,38.956675570249296],[-95.25534822479732,38.956676634441834],[-95.25534315049296,38.95669144398359],[-95.25529474285815,38.95668133178309],[-95.25529413631683,38.956683100043946],[-95.25529923253362,38.95668416426595],[-95.25529620213332,38.95669300562495],[-95.25525289072029,38.95668395762886],[-95.255242816471,38.95671335496175],[-95.25525074301305,38.95671501070047],[-95.25524407796027,38.956734461730974],[-95.25523615141617,38.95673280599178],[-95.25522607834115,38.956762202449966],[-95.2552693909169,38.956771251383664],[-95.25526636169728,38.95678009186872],[-95.25526126547408,38.9567790276453],[-95.25526066008422,38.95678079593325],[-95.25530906785211,38.95679090634711],[-95.25530399346142,38.956805717687764],[-95.25529889723575,38.95680465346599],[-95.25529829188162,38.956806420853766],[-95.2553619859433,38.95681972655678],[-95.25536736348826,38.956804033784195],[-95.25538633088993,38.95680799574812],[-95.25537337973364,38.956845790177816],[-95.25537564441007,38.956846264658445],[-95.2553770073794,38.956842286479834],[-95.25538833100616,38.95684465257937],[-95.2553767428142,38.956878468830574],[-95.255414393663,38.956886334659806],[-95.2554165142119,38.9568801465905],[-95.25544142626396,38.956885350558885]]]},"properties":{"SDE.FloorAll.FLOORLOCATION":"ROOF"}}]}
