{"type":"FeatureCollection","features":[{"type":"Feature","geometry":{"type":"Polygon","coordinates":[[[-95.24362436579754,38.959958967030886],[-95.24362397178818,38.959959835458875],[-95.2436517558943,38.959967530021494],[-95.24367003824511,38.95992729138132],[-95.24367976209346,38.95992998468652],[-95.24367724931993,38.95993551616173],[-95.24367947160061,38.95993613135484],[-95.24367907759206,38.95993699978301],[-95.24368129987282,38.95993761497608],[-95.24368090589932,38.9599384825039],[-95.24369424178612,38.95994217641751],[-95.24369463691265,38.9599413089171],[-95.24369690371333,38.95994193688413],[-95.24369729768662,38.95994106935627],[-95.24369836430755,38.959941364178405],[-95.24369915340728,38.959939629150064],[-95.24370026454781,38.95993993674644],[-95.24370499575586,38.95992952469337],[-95.24370388461554,38.95992921709704],[-95.24370467259689,38.959927481140866],[-95.24370356145654,38.9599271735446],[-95.24370434940276,38.959925438488824],[-95.24369726465633,38.95992347573054],[-95.24371668081663,38.95988074240492],[-95.24372404420919,38.95988278208162],[-95.24372483218953,38.959881046125304],[-95.24373261240392,38.95988320115343],[-95.24373340034897,38.959881466097485],[-95.24373451148873,38.95988177369352],[-95.24373924268784,38.95987136163903],[-95.24373813158336,38.95987105314265],[-95.2437389195281,38.959869318086625],[-95.24373780838856,38.95986901049066],[-95.24373859752164,38.959867274561645],[-95.24373123294195,38.95986523575885],[-95.24374522841163,38.95983443288152],[-95.24375173368568,38.95982011562715],[-95.24375909707294,38.95982215530162],[-95.24375988616991,38.959820420272855],[-95.24376099730877,38.95982072786864],[-95.24376178528753,38.959818991912066],[-95.24376289754453,38.95981930043564],[-95.2437676276172,38.95980888745213],[-95.24376651647847,38.9598085798564],[-95.24376730557506,38.95980684482763],[-95.24375952536803,38.959804689801786],[-95.24376031446475,38.959802954773046],[-95.24375295478497,38.95980090887816],[-95.24377236961935,38.959758178216546],[-95.2437794543513,38.95976014097029],[-95.24378024232892,38.95975840501357],[-95.24378135458505,38.95975871353695],[-95.24378214256262,38.959756977580234],[-95.24378325366553,38.959757286076204],[-95.24378798488432,38.95974687311918],[-95.24378687374643,38.95974656552369],[-95.2437876616886,38.959744830467294],[-95.24378655055075,38.95974452287181],[-95.24378694455699,38.959743654443244],[-95.24378472228135,38.95974303925218],[-95.24378511625247,38.95974217172402],[-95.24377178039867,38.95973847782078],[-95.24377138642741,38.95973934534893],[-95.24376916299889,38.95973873013012],[-95.2437687690276,38.95973959765824],[-95.24376654678741,38.959738981566474],[-95.24376403287417,38.95974451301625],[-95.24373624999667,38.959736818507785],[-95.24373876901629,38.95973127456283],[-95.24373654562336,38.95973065844299],[-95.24373694074822,38.95972979094242],[-95.24373471732024,38.95972917572299],[-95.24373511248022,38.959728307322024],[-95.24372177544335,38.95972461428598],[-95.24372138147154,38.95972548181395],[-95.24371915923221,38.95972486572125],[-95.24372062901358,38.95972163010969],[-95.2437228524412,38.959722245329395],[-95.24372640052808,38.95971443673211],[-95.24371931580218,38.95971247397512],[-95.24373666236241,38.959674295815034],[-95.24374374708499,38.95967625857096],[-95.24374729520237,38.95966844907263],[-95.24374062726571,38.95966660256923],[-95.24374417538296,38.95965879307101],[-95.24376507002923,38.95961280540806],[-95.24375840209736,38.95961095890571],[-95.24376195020983,38.959603149406895],[-95.24375486318766,38.95960118659721],[-95.24377220970136,38.95956300843145],[-95.24377929441377,38.95956497118524],[-95.24378293971176,38.95955694860292],[-95.24378307788282,38.95955698703525],[-95.24378293013966,38.95955731247084],[-95.24378522432535,38.95955794829727],[-95.2437854717406,38.95955740533168],[-95.24378560991165,38.95955744376402],[-95.24378548733974,38.95955771572437],[-95.24381693839844,38.95956641937306],[-95.24381818538389,38.95955747099764],[-95.24381905362458,38.959548496495806],[-95.24381954165138,38.95953950394375],[-95.24381965023153,38.95953050327309],[-95.24381937894383,38.959521505288635],[-95.24381872859048,38.95951251902168],[-95.24382174675772,38.959513355907205],[-95.2438236546542,38.95950915648311],[-95.24381714775542,38.95950735436695],[-95.24381972224238,38.959501690073374],[-95.24382380132813,38.95950281984199],[-95.2438316867238,38.959485463109665],[-95.24373833491012,38.95945960666475],[-95.24375647178422,38.9594196898981],[-95.24377427216386,38.95941338448024],[-95.24378334051723,38.95939342789519],[-95.24377460744955,38.959379774001384],[-95.24380022056148,38.95932340101209],[-95.24380817659272,38.95932560437611],[-95.24383013672427,38.95927727270694],[-95.24383730251598,38.959279257212174],[-95.24387902319326,38.95918743343226],[-95.24387109784043,38.95918302279737],[-95.24386755905395,38.95917721408845],[-95.24386840597688,38.95916991085449],[-95.24381540896931,38.959155231814584],[-95.24381234571429,38.95916197497343],[-95.24368543455023,38.9591268239672],[-95.24370716997886,38.95907898625779],[-95.24359874381628,38.95904895464398],[-95.24361433897131,38.95901463086853],[-95.24356328343048,38.95900048993289],[-95.24354768825384,38.95903481370157],[-95.24350361916866,38.95902260793855],[-95.24349562260433,38.95904020984431],[-95.24344152607316,38.95902522601045],[-95.24335116663362,38.959224099036206],[-95.24369347480291,38.95931890964464],[-95.2436953283028,38.95931483239747],[-95.24378473103724,38.95933959464661],[-95.24369750491073,38.959531571419426],[-95.24358803891111,38.959501251034936],[-95.24356990317953,38.959541165101236],[-95.24358879580792,38.95954639704241],[-95.24353734802183,38.95965963063609],[-95.24323506406527,38.95957590641435],[-95.24319011994756,38.9596748217],[-95.24318900881342,38.95967451409875],[-95.24318279893117,38.95968818045205],[-95.24318391121872,38.95968848808078],[-95.24317513930413,38.95970779377622],[-95.24317402701632,38.95970748614743],[-95.24316752278882,38.95972180339696],[-95.24316863392357,38.95972211099838],[-95.24312250649263,38.95982362970781],[-95.24317807327125,38.95983902084009],[-95.24319581532183,38.95979997436225],[-95.24334445674221,38.95984114450201],[-95.24351643672334,38.959888777725],[-95.24359911768386,38.9598885533156],[-95.24359234722922,38.95990345366024],[-95.24358790155327,38.9599022223428],[-95.24358514254382,38.95990829590819],[-95.24358958706691,38.95990952719829],[-95.2435852509709,38.959919071746576],[-95.2435808052941,38.959917840428915],[-95.24357804628346,38.959923913994096],[-95.24358110217095,38.959924760794486],[-95.24357173820249,38.95994536823352],[-95.24359952226212,38.95995306370905],[-95.2435999162718,38.95995219528112],[-95.24362436579754,38.959958967030886]]]},"properties":{"SDE.FloorAll.FLOORLOCATION":"1"}},{"type":"Feature","geometry":{"type":"Polygon","coordinates":[[[-95.2430700412061,38.960004798615735],[-95.24308235185947,38.960008231200455],[-95.24306295911107,38.96005061981624],[-95.24304893751957,38.960050685664996],[-95.24304629890861,38.96005645296071],[-95.24338196006495,38.96005464987991],[-95.24342187234416,38.959966809030455],[-95.24340164011213,38.959961205454185],[-95.24340617439474,38.95995122672658],[-95.24339598079472,38.95994838434257],[-95.24342036735506,38.95989506085698],[-95.2434304407776,38.95989784720951],[-95.24343477689314,38.95988830266699],[-95.24343005372458,38.959886994450656],[-95.243430611843,38.959885765829306],[-95.24343283523808,38.95988638195494],[-95.24343322924943,38.959885513527574],[-95.24343545149132,38.9598861296258],[-95.24344097072209,38.95987398162912],[-95.24343874844536,38.9598733664314],[-95.24343914242145,38.95987249890443],[-95.2434369201799,38.959871882806326],[-95.24343898973385,38.9598673276418],[-95.24344447686333,38.95986884778383],[-95.24344575846483,38.95986602767319],[-95.24352917793578,38.95988913199501],[-95.24352789749048,38.959891952133994],[-95.2435323420115,38.959893183426296],[-95.24353027246288,38.95989773859252],[-95.24352805018468,38.95989712339651],[-95.24352765620955,38.959897990923814],[-95.24352543850917,38.959897376737835],[-95.2435199181379,38.959909524711094],[-95.2435221358386,38.959910138897165],[-95.24352174186336,38.959911006424456],[-95.24352396529515,38.95991162164795],[-95.24352357013161,38.959912490048204],[-95.24353690719359,38.95991618310693],[-95.24353730116866,38.95991531557961],[-95.24353952341245,38.959915931675766],[-95.24353991742261,38.95991506324805],[-95.2435421408196,38.95991567937163],[-95.24354766003432,38.959903531369896],[-95.24354543775577,38.959902916174265],[-95.24354583173071,38.95990204864689],[-95.24354360833411,38.95990143252344],[-95.24354567903522,38.95989687738444],[-95.24358006019452,38.95990640057198],[-95.24357759667397,38.959911823266474],[-95.24357537442998,38.95991120717102],[-95.24356985406627,38.95992335514665],[-95.24357207749887,38.959923970369225],[-95.24357168348904,38.95992483879706],[-95.24357390576849,38.95992545399217],[-95.24357351179381,38.95992632151962],[-95.24357920678251,38.959927898867655],[-95.24357132253407,38.959945252908426],[-95.24365189403099,38.959967569354355],[-95.24367017757012,38.95992732984118],[-95.24367976324675,38.95992998471393],[-95.24367724931993,38.95993551616173],[-95.24367947271872,38.95993613228265],[-95.24367907759206,38.95993699978301],[-95.24368130102603,38.959937615003504],[-95.2436809058642,38.95993848340429],[-95.24369424293937,38.95994217644493],[-95.24369463691265,38.9599413089171],[-95.24369690371333,38.95994193688413],[-95.24369729768662,38.95994106935627],[-95.24369836542564,38.9599413651062],[-95.24369915340728,38.959939629150064],[-95.24370026454781,38.95993993674644],[-95.24370499575586,38.95992952469337],[-95.24370388461554,38.95992921709704],[-95.24370467256178,38.9599274820413],[-95.24370356145654,38.9599271735446],[-95.24370435055599,38.95992543851621],[-95.24369726577444,38.959923476658325],[-95.24371668196986,38.959880742432325],[-95.24372376671256,38.95988270518941],[-95.24372455465779,38.95988097013353],[-95.24373233490729,38.95988312426128],[-95.24373312285233,38.95988138920532],[-95.2437342339921,38.959881696801354],[-95.24373896519126,38.959871284746846],[-95.24373785405162,38.95987097715088],[-95.24373864203152,38.95986924119449],[-95.24373753089198,38.95986893359849],[-95.24373831883673,38.95986719854249],[-95.24373123409515,38.95986523578626],[-95.24375173480381,38.95982011655494],[-95.24375881957651,38.9598220784095],[-95.24375960867349,38.959820343380784],[-95.24376071981234,38.95982065097656],[-95.24376150775599,38.959818915920394],[-95.24376262004812,38.959819223543555],[-95.24376735008575,38.95980881146047],[-95.24376623898209,38.95980850296435],[-95.2437670280787,38.95980676793553],[-95.24375924783658,38.959804613810086],[-95.2437600369684,38.959802877880975],[-95.24375295219758,38.959800916026445],[-95.24377236958424,38.959758179116896],[-95.2437794543513,38.95976014097029],[-95.24378024344709,38.95975840594134],[-95.24378135458505,38.95975871353695],[-95.24378214252752,38.959756978480634],[-95.24378325481875,38.9597572861036],[-95.2437879848492,38.95974687401961],[-95.24378687374643,38.95974656552369],[-95.24378766284181,38.95974483049471],[-95.24378655055075,38.95974452287181],[-95.24378694567508,38.95974365537103],[-95.24378472228135,38.95974303925218],[-95.24378511625247,38.95974217172402],[-95.24377178039867,38.95973847782078],[-95.24377138642741,38.95973934534893],[-95.2437691641521,38.959738730157525],[-95.2437687690276,38.95973959765824],[-95.2437665467523,38.95973898246684],[-95.24376403399228,38.959744513944024],[-95.24373624999667,38.959736818507785],[-95.24373876901629,38.95973127456283],[-95.24373654674152,38.95973065937083],[-95.24373694074822,38.95972979094242],[-95.2437347184735,38.95972917575041],[-95.24373511244512,38.95972830822241],[-95.24372177659657,38.959724614313394],[-95.24372138147154,38.95972548181395],[-95.24371917177727,38.95972486962437],[-95.24372064404068,38.95972162956567],[-95.24372286627992,38.95972224565834],[-95.24372641440196,38.959714436160695],[-95.24371932964094,38.9597124743041],[-95.24373667620114,38.95967429614401],[-95.2437437609588,38.95967625799954],[-95.24374730907624,38.959668448501205],[-95.24377064979309,38.9596749099781],[-95.24377394925828,38.95967036872372],[-95.24377704433708,38.959665740599235],[-95.24377992908781,38.95966102996941],[-95.2437826009231,38.95965624398268],[-95.24378505501946,38.95965138793168],[-95.24378729116624,38.959646467218754],[-95.24378930446973,38.959641488937514],[-95.24379109356602,38.95963645846283],[-95.24379265474968,38.95963138201521],[-95.24379398777498,38.95962626589741],[-95.24379509124303,38.959621116384795],[-95.24375841597114,38.95961095833429],[-95.24376196404857,38.95960314973585],[-95.24375487817957,38.959601186953606],[-95.24377222469332,38.95956300878783],[-95.24377930944082,38.95956497064119],[-95.2437828058424,38.95955727346713],[-95.2437852393524,38.95955794775322],[-95.24378536304245,38.959557676720635],[-95.24381694972006,38.9595664250495],[-95.24381820020028,38.95955747585596],[-95.24381907081762,38.95954849960817],[-95.24381956003278,38.959539506183106],[-95.24381966983637,38.95953050373914],[-95.24381939743057,38.95952150482687],[-95.24381874368777,38.95951251667686],[-95.24382176304331,38.95951335268944],[-95.24382368349028,38.9595091274281],[-95.24381717543828,38.95950732528451],[-95.24381973611625,38.959501689501934],[-95.24382380265688,38.95950281536743],[-95.2438316866887,38.95948546401004],[-95.24373834871368,38.95945960789415],[-95.2437566687515,38.95941925658424],[-95.24377447028422,38.959412951193784],[-95.24378353748422,38.959392994581265],[-95.24377480560493,38.959379339814525],[-95.24380200717636,38.95931946997457],[-95.24381423185648,38.95932285537875],[-95.24381777991321,38.959315046778464],[-95.24380543023022,38.9593091836354],[-95.24382080561648,38.959275343975705],[-95.243835127476,38.95927686862976],[-95.24383867556328,38.95926905912834],[-95.24383422992294,38.95926782782031],[-95.24387247076159,38.95918366195768],[-95.2438717768361,38.95918345981014],[-95.24387109290879,38.9591832380732],[-95.24387041894458,38.95918299764738],[-95.24386975606154,38.95918273946042],[-95.24386910429483,38.95918246261192],[-95.24386846703379,38.95918216898493],[-95.24386784197213,38.95918185852465],[-95.2438672314513,38.95918153038548],[-95.24386663658943,38.95918118549521],[-95.24386605731631,38.95918082565464],[-95.24386549366706,38.95918044996337],[-95.2438649479481,38.95918005847622],[-95.24386442008921,38.95917965299403],[-95.24386391009038,38.959179233516764],[-95.24386341910485,38.95917880007181],[-95.24386294825075,38.95917835358698],[-95.24386249752808,38.9591778940623],[-95.24386206801975,38.95917742332591],[-95.24386165976098,38.9591769404775],[-95.24386127268154,38.959176447317844],[-95.24386090793458,38.959175943874264],[-95.24386056667333,38.95917543017431],[-95.24386024767442,38.959174907991226],[-95.24385995324423,38.95917437737993],[-95.24385968104126,38.95917383918592],[-95.24385943452508,38.95917329349143],[-95.24385921247234,38.959172742069946],[-95.2438590149181,38.95917218402094],[-95.24385884175709,38.95917162204564],[-95.24385869533077,38.959171055298505],[-95.2438585732976,38.959170484625055],[-95.24385847677577,38.959169910953136],[-95.24385840573012,38.959169335183105],[-95.2438583613139,38.959168757342404],[-95.24385834230357,38.95916817920441],[-95.24385834869926,38.959167600769064],[-95.24385838161902,38.959167022964245],[-95.24385843987447,38.95916644666289],[-95.2438585246189,38.95916587189242],[-95.24385863466398,38.959165299525814],[-95.2438587699394,38.95916473136383],[-95.24385893048037,38.9591641665061],[-95.24385911621665,38.95916360675347],[-95.24385932714823,38.95916305210581],[-95.24385956323998,38.95916250346362],[-95.2438159428129,38.95915042204199],[-95.24381259173039,38.95915779732841],[-95.24375119106105,38.95914079160041],[-95.24370118146314,38.95912693965151],[-95.24370512349118,38.95911826352658],[-95.24370526281454,38.959118301986365],[-95.24370555829977,38.95911765111529],[-95.24372250606315,38.95912234473451],[-95.2437221120947,38.95912321226252],[-95.24373003039584,38.959125405723334],[-95.24373190294244,38.95912128386712],[-95.24373079181466,38.959120976271016],[-95.24373946502143,38.959101887189455],[-95.24374057614895,38.95910219478547],[-95.2437421531744,38.95909872470061],[-95.24374104208206,38.95909841620425],[-95.2437497152833,38.95907932712195],[-95.24375082637542,38.95907963561821],[-95.24375358537338,38.9590735611481],[-95.24375247424624,38.959073253552226],[-95.2437611474413,38.95905416446902],[-95.2437622585682,38.9590544720648],[-95.2437650186823,38.95904839852222],[-95.24376390755555,38.95904809092646],[-95.24377258074445,38.959029001842346],[-95.24377369187098,38.95902930943799],[-95.24377526892826,38.95902583845229],[-95.24377415780177,38.95902553085664],[-95.24378283098518,38.95900644177171],[-95.24378394211135,38.959006749367305],[-95.2437870961887,38.95899980829593],[-95.24377709381777,38.95899703808002],[-95.24377669985074,38.95899790560824],[-95.24377225422852,38.95899667429782],[-95.2437726481956,38.958995806769636],[-95.24373583623462,38.95898561030652],[-95.2436974968571,38.95906999278233],[-95.24359317027992,38.95904109773248],[-95.24360972880531,38.95900465464434],[-95.2435586070181,38.95899049590956],[-95.24354204965799,38.9590269381174],[-95.24349801139957,38.959014741196036],[-95.24349111217745,38.959029925964394],[-95.24343513026871,38.95901442055576],[-95.24332848861954,38.95924912856383],[-95.24332404298933,38.95924789723627],[-95.24330028948066,38.959300175909505],[-95.24330473511375,38.95930140723802],[-95.24325427204315,38.95941247054147],[-95.24329955865528,38.95942501356068],[-95.2432794517484,38.95946926518703],[-95.24330862421527,38.95947734522622],[-95.24326062571214,38.95958298586926],[-95.24323506406527,38.95957590641435],[-95.24319071205021,38.95967352088838],[-95.24318960091612,38.95967321328712],[-95.24318329254832,38.95968709629692],[-95.2431844036826,38.9596874038982],[-95.24317573025415,38.95970649293728],[-95.24317461911954,38.95970618533587],[-95.24316693180339,38.95972310513625],[-95.24316755647388,38.95972327770332],[-95.2431340950481,38.959796922521434],[-95.24318959216355,38.959812293967815],[-95.2431774728299,38.95983896690988],[-95.24316175919932,38.95983450172893],[-95.24315143539633,38.959857223123635],[-95.24314602172966,38.959855713726505],[-95.24314245183575,38.95986351728297],[-95.24314786550296,38.95986502668026],[-95.24313517344387,38.95989276927533],[-95.24312975977476,38.959891259877416],[-95.24312618987729,38.95989906343339],[-95.24313160354691,38.95990057283143],[-95.24311891528592,38.95992830650298],[-95.24311349780358,38.959926806026026],[-95.24310992793762,38.95993460868105],[-95.24311534157447,38.959936118980266],[-95.24310219383806,38.959964860111334],[-95.24308995996051,38.95996147171176],[-95.2430863900902,38.95996927436606],[-95.24309510607725,38.959971704931704],[-95.24308241387294,38.9599994502219],[-95.24307361111516,38.95999699506159],[-95.2430700412061,38.960004798615735]]]},"properties":{"SDE.FloorAll.FLOORLOCATION":"2"}},{"type":"Feature","geometry":{"type":"Polygon","coordinates":[[[-95.24306484368911,38.96005057089861],[-95.24304891581883,38.96005067974165],[-95.24304629894371,38.960056452060336],[-95.24312620620263,38.960055905182585],[-95.24313057219467,38.96004627664542],[-95.24314824405846,38.960051173213046],[-95.24314829622712,38.96005575448673],[-95.2433855124913,38.960054130514955],[-95.2434252751981,38.95996645463784],[-95.24340129181843,38.95995980658132],[-95.24340177812843,38.95995873216506],[-95.24340400156073,38.959959347390864],[-95.24340800577477,38.959950469977116],[-95.2433978181109,38.95994765296875],[-95.2434221500911,38.95989410107615],[-95.24343231608259,38.9598969112587],[-95.24343627650897,38.959888179703036],[-95.24351927117928,38.95991116668619],[-95.24351887605074,38.95991203418606],[-95.24353665759988,38.95991695943786],[-95.24353705272823,38.95991609193793],[-95.24356483561937,38.95992378739436],[-95.24356444164454,38.959924654921764],[-95.2435722207407,38.959926809032844],[-95.24356394136248,38.95994503057314],[-95.24359172542118,38.95995272605052],[-95.24359211939579,38.959951858523034],[-95.24361712506754,38.959958784086744],[-95.24361673109316,38.959959651614305],[-95.24364585928126,38.95996771879401],[-95.2436598547733,38.95993691682762],[-95.24367207955336,38.95994030224663],[-95.2436716855798,38.95994116977444],[-95.24368946599368,38.95994609497535],[-95.24368986112033,38.959945227474925],[-95.24369097226086,38.95994553507135],[-95.2436972793988,38.95993165200686],[-95.24369616825842,38.95993134441053],[-95.24371824608785,38.95988275420088],[-95.24372602518409,38.95988490830167],[-95.24373233346296,38.95987102526261],[-95.24373122232339,38.95987071766659],[-95.24375330010979,38.95982212745006],[-95.2437544112487,38.95982243504591],[-95.24376071836316,38.95980855197784],[-95.24375293927426,38.959806397879404],[-95.24377501706078,38.959757806758084],[-95.24377612816367,38.9597581152541],[-95.24378204129701,38.959745099712976],[-95.24371758424428,38.95972724717287],[-95.24371719027245,38.95972811470084],[-95.2437152884388,38.95972759995219],[-95.24371716222568,38.959723476323],[-95.24371938450011,38.959724091515376],[-95.24372293262256,38.95971628201784],[-95.24372071034841,38.95971566682552],[-95.24373805690863,38.959677488665236],[-95.24374027918181,38.959678103857186],[-95.24374382726454,38.959670295259386],[-95.24373715936291,38.95966844785539],[-95.24374070744553,38.95966063925761],[-95.24373848520807,38.95966002316531],[-95.24375583174503,38.95962184500212],[-95.2437580539815,38.959622461094156],[-95.2437616020946,38.95961465159538],[-95.24375493416264,38.95961280509275],[-95.2437584822756,38.95960499559404],[-95.24375625773325,38.959604379447235],[-95.24377360424702,38.95956620128126],[-95.24377586306913,38.959566826353694],[-95.24377936058926,38.95955913010753],[-95.2437819322704,38.95955984282602],[-95.24378205599561,38.959559570893035],[-95.24380259299971,38.95956526005658],[-95.24380643717697,38.959552640539194],[-95.24380981354,38.95953994050695],[-95.24381271093758,38.95952717952168],[-95.24381529134284,38.959514377655815],[-95.243818314123,38.95951521465107],[-95.24382018534602,38.95951109726813],[-95.24381367844715,38.95950929515176],[-95.24381628960826,38.95950354881722],[-95.24382032071495,38.95950466572947],[-95.24382820478291,38.95948731347196],[-95.24373208385458,38.959460686439],[-95.24375097832609,38.959419102388985],[-95.24376600004655,38.9594137808484],[-95.24377409496407,38.95939596496873],[-95.24376726025875,38.959385134681845],[-95.24379651488708,38.95932074713264],[-95.24381354262317,38.95932546336633],[-95.2438170907153,38.95931765386564],[-95.24380473984353,38.95931179159554],[-95.24382090435519,38.95927621600633],[-95.24383522506167,38.95927774063291],[-95.24383759121038,38.959272534617064],[-95.2438461342,38.95927490063341],[-95.24389203806206,38.9591738693213],[-95.24381514788264,38.959152573298965],[-95.24381142685027,38.95916076261102],[-95.24372529946412,38.95913690736606],[-95.24378640580434,38.95900241625603],[-95.24371027983166,38.958981331187296],[-95.24369017446121,38.959025582913966],[-95.24366239072107,38.95901788835996],[-95.24366515087748,38.95901181391935],[-95.24365959413059,38.95901027500789],[-95.24363860111023,38.95905647931094],[-95.24360026004138,38.959045859828144],[-95.24360499120434,38.959035447778405],[-95.24359387770967,38.95903236994945],[-95.2435891465453,38.95904278199877],[-95.24354469375908,38.95903046979747],[-95.24354942377599,38.95902005772254],[-95.24353831147455,38.95901697901529],[-95.24353358026784,38.95902739196275],[-95.24349690649477,38.95901723385643],[-95.24349099336982,38.95903024938389],[-95.2434918258489,38.959030480062104],[-95.24348709582283,38.95904089213467],[-95.2434862621904,38.959040661429015],[-95.24347502575154,38.95906539071403],[-95.24346224618102,38.959061850587965],[-95.24346264015232,38.95906098306089],[-95.243419853488,38.959049132196014],[-95.24332779821584,38.95925173652112],[-95.24332335258549,38.95925050519353],[-95.24329960026382,38.95930278299366],[-95.2433040447438,38.95930401429474],[-95.24325358163513,38.959415078498296],[-95.24329886824881,38.959427621517726],[-95.24327876249397,38.95947187317143],[-95.24330821245644,38.959480030103926],[-95.2432610019042,38.95958393569398],[-95.24323544144524,38.95957685536619],[-95.24318980666875,38.95967728992082],[-95.24318869553464,38.95967698231955],[-95.24318238716633,38.959690865329236],[-95.2431834994539,38.95969117295799],[-95.24317482602473,38.95971026199701],[-95.2431737148901,38.95970995439559],[-95.24316740651588,38.95972383740446],[-95.24332324069205,38.95976724420444],[-95.24329592636589,38.959827474457164],[-95.24312684270446,38.95978073168353],[-95.24310863254235,38.95982088814741],[-95.24316240627336,38.959835757201795],[-95.2431492679419,38.95986467249792],[-95.2431438504638,38.95986317202234],[-95.24314020425096,38.95987094943104],[-95.24314562043585,38.95987245348095],[-95.2431330073857,38.959900212373974],[-95.24312761038242,38.95989871959433],[-95.24312406788093,38.959906531011434],[-95.2431294866205,38.959908028814176],[-95.24311689274114,38.95993579897625],[-95.24311147399965,38.959934301172886],[-95.2431079315297,38.959942111689124],[-95.24311335027173,38.95994360949259],[-95.24310311795763,38.95996617444294],[-95.24309088156265,38.95996279139096],[-95.24308733905389,38.95997060280687],[-95.24309606385128,38.959973014656185],[-95.24308344817624,38.96000078069187],[-95.24307465830877,38.95999835017125],[-95.24307111010054,38.96000615964877],[-95.24308343788279,38.96000956740628],[-95.24306484368911,38.96005057089861]]]},"properties":{"SDE.FloorAll.FLOORLOCATION":"3"}},{"type":"Feature","geometry":{"type":"Polygon","coordinates":[[[-95.24361867257154,38.959956722819555],[-95.24361827982068,38.95995758857377],[-95.24364735985871,38.95996561765817],[-95.24366128873207,38.959934866379065],[-95.24367349335058,38.95993823599783],[-95.24367310175371,38.95993910177967],[-95.24369085306095,38.95994400375781],[-95.24369124584594,38.95994313710294],[-95.24369235586835,38.95994344377156],[-95.24369863326207,38.95992958343181],[-95.24369752320476,38.959929277663676],[-95.243719496353,38.95988076697698],[-95.24372726311461,38.95988291177221],[-95.24373354049611,38.95986905143051],[-95.24373243159278,38.95986874569008],[-95.24375440469824,38.959820234996585],[-95.24375551356577,38.959820541637164],[-95.24376179208942,38.959806681321304],[-95.24375402529998,38.95980453742878],[-95.2437759983707,38.95975602673093],[-95.24377710723729,38.959756333371324],[-95.24378338575099,38.95974247305418],[-95.24376715902181,38.95973799305503],[-95.24376632541976,38.95973983337057],[-95.24373331697464,38.959730719580875],[-95.24373415057745,38.959728879265555],[-95.2437190339087,38.95972470502746],[-95.24371864112524,38.95972557168246],[-95.2437157610162,38.95972477592783],[-95.24371723492453,38.95972152329113],[-95.24371934988382,38.959722107994395],[-95.24372288133428,38.959714311618946],[-95.24371691665533,38.95971266478079],[-95.24373418111607,38.959674549557654],[-95.24374014463893,38.95967619636754],[-95.2437436760849,38.95966839999136],[-95.24373701936457,38.959666561865454],[-95.24374055081034,38.95965876548939],[-95.24373458728891,38.95965711867953],[-95.24375185172657,38.95961900345365],[-95.24375781524517,38.95962065026258],[-95.24376134668641,38.9596128538859],[-95.24375468881763,38.95961101573351],[-95.24375822022357,38.95960322025728],[-95.24375225558826,38.95960157252053],[-95.24376951881449,38.95956345816483],[-95.24377658934247,38.95956539985338],[-95.24378007022572,38.95955771582888],[-95.24378249926328,38.959558386403806],[-95.24378261928298,38.959558120691334],[-95.24378346970508,38.95955658899496],[-95.24378504097244,38.959553118772575],[-95.24378476463023,38.959553041907974],[-95.24380879265026,38.95949999191009],[-95.24382091497607,38.95950333883067],[-95.24382876227551,38.95948601183462],[-95.24373556266603,38.959460277967466],[-95.24375380465618,38.95942000411055],[-95.24377156236683,38.959413697678826],[-95.24378058675256,38.95939377339416],[-95.2437718546576,38.9593801537699],[-95.2437989289045,38.95932038184128],[-95.2438005927885,38.95932084136504],[-95.24380412421,38.95931304498684],[-95.24380510436026,38.95931088010826],[-95.24382040718855,38.95927709550114],[-95.24382374279247,38.95926973246372],[-95.24383261834942,38.95927218389192],[-95.24383379549974,38.95926958479875],[-95.2438789170925,38.95916996604378],[-95.24381539826395,38.95915242784475],[-95.2438120638179,38.95915979090942],[-95.24364258869639,38.9591129962909],[-95.24366505170408,38.95906340317264],[-95.24360070050962,38.95904563507926],[-95.24360540905913,38.95903524051643],[-95.2435943146425,38.95903217665946],[-95.24358960605645,38.95904257212221],[-95.2435452260173,38.95903031842784],[-95.24353413160405,38.95902725456507],[-95.24351138657102,38.959020974824384],[-95.24350722630682,38.95901982599077],[-95.24349751827874,38.95901714475982],[-95.2434916325558,38.95903013840807],[-95.24349246507002,38.959030368185886],[-95.24348775646912,38.959040763644545],[-95.24348692395485,38.95904053386668],[-95.24347574221467,38.959065222094516],[-95.24346298277003,38.959061698669096],[-95.24346337436461,38.95906083288794],[-95.24345117106076,38.95905746327422],[-95.24340408623969,38.95916141336007],[-95.24340796901707,38.95916248530445],[-95.24338060138811,38.95922290626693],[-95.24335286466987,38.959215247905725],[-95.24335668928273,38.95920680151649],[-95.24335003261592,38.95920496336824],[-95.24332894229188,38.95925152489669],[-95.24332367316036,38.95925006941177],[-95.24330017927508,38.9593019360885],[-95.24330447887608,38.95930312338986],[-95.24328873497248,38.95933788158747],[-95.24326640671396,38.959331716252024],[-95.24326562117541,38.95933344865858],[-95.24326007451002,38.959331917177906],[-95.24325575748867,38.959341445946],[-95.24329126208919,38.95935124918226],[-95.24329606807133,38.95934063704793],[-95.24333281285666,38.959350783384096],[-95.24330171667425,38.95941943310345],[-95.24329923624259,38.95941874867915],[-95.24329649029899,38.95942481263521],[-95.24329870920599,38.95942542505224],[-95.24327869747124,38.95946960413948],[-95.2433075442947,38.959477569190575],[-95.24325972385469,38.95958314286988],[-95.24323697982041,38.95957686310309],[-95.2431918562947,38.95967611658986],[-95.24319074743188,38.95967580994388],[-95.24318446880785,38.95968967022898],[-95.24318557885925,38.959689976002075],[-95.24317694590484,38.95970903355941],[-95.24317583700646,38.959708727813656],[-95.24316955841171,38.95972258719753],[-95.24318731078293,38.9597274892803],[-95.2431877035729,38.9597266226271],[-95.24321266653179,38.9597335157225],[-95.2432122748953,38.95973438240317],[-95.24323002615428,38.95973928355154],[-95.24323041890868,38.95973841779863],[-95.24326536871382,38.95974806725581],[-95.24326497592466,38.959748933909225],[-95.24328383720865,38.959754141722065],[-95.2432842299976,38.959753275068586],[-95.2433141858021,38.959761546762934],[-95.24331379416668,38.95976241344395],[-95.24333265545783,38.95976762124882],[-95.2433330482463,38.959766754595194],[-95.24336300406223,38.95977502627695],[-95.24336261246246,38.95977589205773],[-95.24338147372566,38.959781100755016],[-95.24338196384561,38.95978001741722],[-95.24341053327636,38.95978790644987],[-95.24341004319187,38.959788988887446],[-95.24341364962604,38.95978998486647],[-95.24341129531224,38.95979518214373],[-95.24341240421299,38.95979548788718],[-95.24340534123466,38.95981108061898],[-95.24340423233367,38.95981077487541],[-95.24339991645572,38.959820303675926],[-95.24339880643655,38.95981999700453],[-95.24339409780438,38.95983039155828],[-95.24339520782378,38.959830698229716],[-95.24339089194339,38.95984022702987],[-95.24339200080968,38.959840533674],[-95.24338493785744,38.959856125504075],[-95.24338382895584,38.95985581976032],[-95.2433830434143,38.9598575521676],[-95.24338193454781,38.95985724552341],[-95.24337722587565,38.95986764097687],[-95.2433783359306,38.959867946748105],[-95.2433775503888,38.959869679155304],[-95.2433797692754,38.95987029247112],[-95.24337937767531,38.95987115825198],[-95.24339712894509,38.9598760602751],[-95.24339752173337,38.959875193621244],[-95.24341887947942,38.95988109072003],[-95.24341848784462,38.95988195740141],[-95.24343623915496,38.95988685851816],[-95.24343663190767,38.95988599276457],[-95.24352095403643,38.959909275364936],[-95.24352056128457,38.959910141118854],[-95.24353831372721,38.95991504314777],[-95.24353870651393,38.95991417649341],[-95.24356644349139,38.959921835710155],[-95.2435660518933,38.95992270149163],[-95.24357381750167,38.95992484626968],[-95.24356557856305,38.9599430372285],[-95.24359331558986,38.95995069553836],[-95.243593708341,38.95994982978422],[-95.24361867257154,38.959956722819555]]]},"properties":{"SDE.FloorAll.FLOORLOCATION":"4"}},{"type":"Feature","geometry":{"type":"Polygon","coordinates":[[[-95.24361712510267,38.959958783186316],[-95.24361673109316,38.959959651614305],[-95.24364585928126,38.95996771879401],[-95.24365985480841,38.959936915927216],[-95.24367207955336,38.95994030224663],[-95.2436716855798,38.95994116977444],[-95.24368946714691,38.95994609500279],[-95.24368986115545,38.95994522657455],[-95.24369097226086,38.95994553507135],[-95.24369728055203,38.95993165203428],[-95.24369616944675,38.95993134353751],[-95.24371824612295,38.959882753300505],[-95.24372602633736,38.95988490832907],[-95.24373233346296,38.95987102526261],[-95.24373122232339,38.95987071766659],[-95.24375330010979,38.95982212745006],[-95.2437544112487,38.95982243504591],[-95.24376071951643,38.959808552005235],[-95.2437529393094,38.95980639697897],[-95.24377501706078,38.959757806758084],[-95.24377612819876,38.95975811435374],[-95.2437824364565,38.95974423131181],[-95.24371797825125,38.959726378744556],[-95.2437175842794,38.95972724627251],[-95.24363622276108,38.959704711914036],[-95.24371129987583,38.959539475060076],[-95.24371498268988,38.95954049537626],[-95.24371518084608,38.95954006118954],[-95.24378048848986,38.9595581493479],[-95.24379155067159,38.959561213319766],[-95.24380238338603,38.95954580029968],[-95.24381010003312,38.95952960394178],[-95.24381546357144,38.9595135427081],[-95.24381333738758,38.95951321639156],[-95.24381345926008,38.95951275515698],[-95.2438186253816,38.95951430730516],[-95.24382049660451,38.959510189922234],[-95.24371920912269,38.959482139596204],[-95.24379298279896,38.95931976915441],[-95.2438002068465,38.95932176946627],[-95.24382346635325,38.959270575748995],[-95.24383235763405,38.959273038365716],[-95.24387887765333,38.95917065184083],[-95.24381525358137,38.959153030029626],[-95.2438119024987,38.95916040531601],[-95.24375683627505,38.95914515344896],[-95.24375037114508,38.95913455544973],[-95.24373565363516,38.95913047901947],[-95.24372251256136,38.959135646090175],[-95.24364214749802,38.95911338774953],[-95.24366471759649,38.95906371246187],[-95.24358232110774,38.959040891185204],[-95.24357673646178,38.959029086636676],[-95.24356066003286,38.95902463451036],[-95.24354679726939,38.959031051528605],[-95.24349690649477,38.95901723385643],[-95.24349099340493,38.959030248483465],[-95.2434918270021,38.959030480089496],[-95.24348709582283,38.95904089213467],[-95.2434862621904,38.959040661429015],[-95.24347502693983,38.9590653898411],[-95.24346224618102,38.959061850587965],[-95.24346264018743,38.95906098216046],[-95.24345041556938,38.95905759671913],[-95.2434031070239,38.95916171902739],[-95.24340699650993,38.959162796538635],[-95.24337949802242,38.959223317129585],[-95.24334504638982,38.95921377507469],[-95.24332779821584,38.95925173652112],[-95.24332335373869,38.959250505220936],[-95.24329960026382,38.95930278299366],[-95.24330404589705,38.959304014322164],[-95.2432882762822,38.95933872143977],[-95.24326493813219,38.959332257219316],[-95.24323339880102,38.95940167234186],[-95.24325340246233,38.95940721283888],[-95.24324867122266,38.959417624873986],[-95.24325867363238,38.95942039513533],[-95.2432602506886,38.95941692505713],[-95.24329886940201,38.95942762154514],[-95.24327876249397,38.95947187317143],[-95.24330821245644,38.959480030103926],[-95.24326100193933,38.95958393479359],[-95.24323544144524,38.95957685536619],[-95.24318980782202,38.95967728994826],[-95.24318869553464,38.95967698231955],[-95.24318238831954,38.95969086535667],[-95.2431834994539,38.95969117295799],[-95.24317482602473,38.95971026199701],[-95.2431737148901,38.95970995439559],[-95.24316740651588,38.95972383740446],[-95.24318518802833,38.959728761809835],[-95.24318558200673,38.95972789428368],[-95.24321058755942,38.959734819935164],[-95.24321019358135,38.9597356874614],[-95.2432279739114,38.95974061273317],[-95.24322836904255,38.95973974523428],[-95.24326337590686,38.95974944110997],[-95.24326298192929,38.959750308636394],[-95.24328187455575,38.95975554152781],[-95.24328226853311,38.9597546740014],[-95.24331227475835,38.959762984746526],[-95.24331188078135,38.959763852273085],[-95.24333077341498,38.95976908515655],[-95.24333116739183,38.95976821762993],[-95.24336117362857,38.959776528362426],[-95.24336077965211,38.9597773958891],[-95.24337967229303,38.95978262876467],[-95.2433800662693,38.95978176123786],[-95.24341007251759,38.95979007195767],[-95.2434096785416,38.95979093948456],[-95.24341190078036,38.959791555583195],[-95.24340953573612,38.959796761617525],[-95.24341064687314,38.95979706921666],[-95.24340355058538,38.95981268729205],[-95.24340243944815,38.95981237969281],[-95.24339810217964,38.95982192420682],[-95.24339699104232,38.95982161660756],[-95.24339225979607,38.959832028648144],[-95.24339337093357,38.95983233624746],[-95.24338903481589,38.95984188078847],[-95.24339014595347,38.95984218838783],[-95.24338304962153,38.959857807362276],[-95.24338193848372,38.95985749976287],[-95.24338114937707,38.959859234789015],[-95.24338003823925,38.95985892718963],[-95.24337530698801,38.9598693392295],[-95.24337641927924,38.95986964685634],[-95.24337563017237,38.959871381882486],[-95.24337785241332,38.95987199798175],[-95.24337745843653,38.959872865508544],[-95.24339523996593,38.959877790782045],[-95.2433956339426,38.95987692325519],[-95.24341702753895,38.959882848243474],[-95.24341663356253,38.95988371577036],[-95.24343441509747,38.95988864103783],[-95.24343480907365,38.95988777351089],[-95.24351927117928,38.95991116668619],[-95.24351887720395,38.95991203421345],[-95.2435366587531,38.95991695946529],[-95.24353705272823,38.95991609193793],[-95.24356483565448,38.95992378649399],[-95.24356444167965,38.9599246540214],[-95.2435722207407,38.959926809032844],[-95.24356394251576,38.959945030600544],[-95.24359172542118,38.95995272605052],[-95.2435921194309,38.95995185762261],[-95.24361712510267,38.959958783186316]]]},"properties":{"SDE.FloorAll.FLOORLOCATION":"5"}},{"type":"Feature","geometry":{"type":"Polygon","coordinates":[[[-95.24338084644576,38.95987022795767],[-95.24341390861521,38.95987938548202],[-95.2434330787836,38.95988469524165],[-95.2434956017537,38.959747089959656],[-95.24349226837906,38.95974616626427],[-95.24352508801621,38.95967393183477],[-95.24363233320662,38.95970363531091],[-95.24368318989781,38.95959170341743],[-95.24368707941176,38.95959278091931],[-95.24370974430487,38.95954289788965],[-95.24371566081471,38.95954453637369],[-95.24371607223532,38.959543606174684],[-95.24379251174469,38.959564777084],[-95.24379564255874,38.959560771654715],[-95.24379859079265,38.9595566825774],[-95.2438013539294,38.95955251519949],[-95.24380392714546,38.959548274813706],[-95.24380630911202,38.95954396589459],[-95.24380849497041,38.95953959463531],[-95.2438104822036,38.95953516638337],[-95.24381226944772,38.959530686513716],[-95.2438138542208,38.95952615947344],[-95.2438152339355,38.959521592410944],[-95.2438164083812,38.95951699072852],[-95.24381730596896,38.959517239174005],[-95.24381917603884,38.959513121763635],[-95.2437281868104,38.9594880406507],[-95.24372823474106,38.95948793634662],[-95.24371787716147,38.95948506756081],[-95.24379298164575,38.959319769127],[-95.24380020565819,38.959321770339244],[-95.24382346631813,38.959270576649416],[-95.24376984457659,38.95925572502527],[-95.24381301362742,38.95916071291129],[-95.24375683512186,38.959145153421545],[-95.24375036999183,38.95913455542233],[-95.24373565244684,38.95913047989242],[-95.24372207858636,38.9591355267254],[-95.2437091619036,38.959131950022396],[-95.24364214634481,38.95911338772213],[-95.24366471640818,38.959063713334835],[-95.24358231995453,38.95904089115776],[-95.24357673527345,38.95902908750964],[-95.24356066003286,38.95902463451036],[-95.24354679608108,38.9590310524016],[-95.24349690534157,38.95901723382904],[-95.2434909922166,38.95903024935646],[-95.2434918258489,38.959030480062104],[-95.24348709466962,38.95904089210725],[-95.24348626103722,38.95904066140159],[-95.24347502575154,38.95906539071403],[-95.24346224502784,38.95906185056055],[-95.24346263899906,38.959060983033474],[-95.24345430505042,38.95905867422882],[-95.24338627230271,38.959208406974454],[-95.24338933843063,38.95920925672785],[-95.24338256415092,38.959224166883196],[-95.24334504635472,38.959213775975066],[-95.24332779821584,38.95925173652112],[-95.24332335258549,38.95925050519353],[-95.24329959907544,38.9593027838666],[-95.2433040447438,38.95930401429474],[-95.24328827509387,38.959338722312744],[-95.24326493694386,38.959332258092275],[-95.24323339761268,38.9594016732148],[-95.24325340127395,38.95940721371187],[-95.24324867003433,38.95941762574697],[-95.24325867244406,38.959420396008305],[-95.24326024953534,38.959416925029714],[-95.24329886824881,38.959427621517726],[-95.24327876134076,38.95947187314401],[-95.24330821245644,38.959480030103926],[-95.24326100075095,38.95958393566656],[-95.24323544025691,38.959576856239174],[-95.24318980663365,38.9596772908212],[-95.24318869553464,38.95967698231955],[-95.24318238716633,38.959690865329236],[-95.2431834983007,38.959691172930576],[-95.24317482487146,38.9597102619696],[-95.2431737137369,38.95970995436817],[-95.2431674053627,38.95972383737704],[-95.24318518684001,38.9597287626828],[-95.24318558081836,38.95972789515664],[-95.24321058637108,38.95973482080813],[-95.24321019239301,38.95973568833436],[-95.24322797387627,38.95974061363356],[-95.2432283678893,38.959739745206875],[-95.24326337471852,38.95974944198298],[-95.24326298074097,38.95975030950934],[-95.24327576046102,38.95975384875679],[-95.24327753453005,38.95974994446502],[-95.24331907113411,38.95976144932142],[-95.24331966327026,38.959760147608755],[-95.24333022072264,38.95976307165014],[-95.24332962858665,38.95976437336286],[-95.24336797000457,38.95977499293442],[-95.24336856213996,38.9597736912215],[-95.24337911959638,38.95977661525848],[-95.24337852746122,38.959777916971404],[-95.24341561846744,38.959788189567185],[-95.24341617461249,38.959788343380424],[-95.24341676555872,38.95978704254027],[-95.24342273918192,38.95978869681635],[-95.24342076811445,38.959793035323955],[-95.24341646177301,38.95979184246014],[-95.24338084644576,38.95987022795767]]]},"properties":{"SDE.FloorAll.FLOORLOCATION":"6"}},{"type":"Feature","geometry":{"type":"Polygon","coordinates":[[[-95.24359286099308,38.959511003385124],[-95.24363849393644,38.95941056864312],[-95.24334927037263,38.95933046087066],[-95.24334769328763,38.95933393185048],[-95.243340203023,38.959350418349715],[-95.24331353035782,38.95934303041175],[-95.24330019460395,38.95933933645419],[-95.24329398477266,38.95935300281381],[-95.24333399323353,38.95936408381109],[-95.24329969378704,38.95943957248358],[-95.24354085383122,38.95950636669107],[-95.2435447959001,38.959497690571865],[-95.24359286099308,38.959511003385124]]]},"properties":{"SDE.FloorAll.FLOORLOCATION":"7"}},{"type":"Feature","geometry":{"type":"Polygon","coordinates":[[[-95.24361712391428,38.95995878405932],[-95.24361672993993,38.95995965158688],[-95.24361895333902,38.95996026770897],[-95.24364585809292,38.95996771966697],[-95.24366005174261,38.959936483513935],[-95.24369116922999,38.95994510175766],[-95.24371935722756,38.959883061797086],[-95.24372602518409,38.95988490830167],[-95.24373233342784,38.95987102616303],[-95.24373122117017,38.95987071763919],[-95.24374235912808,38.959846205888304],[-95.24375349592498,38.95982169410884],[-95.24375460821712,38.95982200173207],[-95.24376091533149,38.95980811866399],[-95.24375424738132,38.95980627216141],[-95.24378243526813,38.95974423218477],[-95.24376741385485,38.95974007193342],[-95.24376182912276,38.95972826739448],[-95.24374575252317,38.959723815294076],[-95.2437318884862,38.95973023230667],[-95.24371672205834,38.95972603165113],[-95.2437108877582,38.95972441585003],[-95.2436366166987,38.95970384528679],[-95.24368707941176,38.95959278091931],[-95.24369511000732,38.959575105909195],[-95.2437049663458,38.959553414274765],[-95.24370974545809,38.95954289791709],[-95.2437156619679,38.95954453640108],[-95.2437161228533,38.959543521761454],[-95.24380195157065,38.95956729329679],[-95.24380671299534,38.95955042196769],[-95.24381078267382,38.95953344046747],[-95.24381415529137,38.95951636669432],[-95.24381730596896,38.959517239174005],[-95.24381917719207,38.95951312179103],[-95.2438167356809,38.95951244551299],[-95.24382719434192,38.95948942626073],[-95.24372833368463,38.959462044661045],[-95.2437297035773,38.95945903198156],[-95.24373192811484,38.95945964812887],[-95.24374986431987,38.959420170897545],[-95.24374764320795,38.959419555733156],[-95.24376544474157,38.95941325034407],[-95.24377451194415,38.959393293732276],[-95.24376578003145,38.959379639865276],[-95.24376800229544,38.95938025505669],[-95.24378495477904,38.95934294441646],[-95.24378273251602,38.95934232922532],[-95.2437843095799,38.95933885823956],[-95.24379298279896,38.95931976915441],[-95.24380234227164,38.95932236186462],[-95.24382501080746,38.95927246988964],[-95.2438316787092,38.95927431638828],[-95.2438778047635,38.95917279739218],[-95.24381445818375,38.95915525247238],[-95.24381209319051,38.95916045851518],[-95.24375683512186,38.959145153421545],[-95.24375036995671,38.959134556322745],[-95.24373565244684,38.95913047989242],[-95.24372670861165,38.95913380549717],[-95.24378640580434,38.95900241625603],[-95.24377640343313,38.958999646040056],[-95.24377600946605,38.95900051356826],[-95.24377156384368,38.95899928225782],[-95.24377195896402,38.95899841475702],[-95.24372472666505,38.95898533269396],[-95.2437243326974,38.95898620022195],[-95.24371988704172,38.958984969809904],[-95.24372028219773,38.958984101408916],[-95.24371027983166,38.958981331187296],[-95.2436901732729,38.959025583786975],[-95.24366239072107,38.95901788835996],[-95.24366514968911,38.959011814792305],[-95.2436595929774,38.959010274980464],[-95.24363859995704,38.959056479283525],[-95.24358231995453,38.95904089115776],[-95.24357673527345,38.95902908750964],[-95.24356065999775,38.95902463541072],[-95.24354679608108,38.9590310524016],[-95.24354080312503,38.95902939226342],[-95.24349690649477,38.95901723385643],[-95.2434909922166,38.95903024935646],[-95.2434918258489,38.959030480062104],[-95.24348709466962,38.95904089210725],[-95.24348626103722,38.95904066140159],[-95.2434815310096,38.95905107347391],[-95.24347502575154,38.95906539071403],[-95.24346224502784,38.95906185056055],[-95.24346264015232,38.95906098306089],[-95.24345465445886,38.959058771757135],[-95.24345357102888,38.959061157681724],[-95.24338098397456,38.95904105325128],[-95.24335181167943,38.95903297323006],[-95.24334146281294,38.959055749919095],[-95.24331623197298,38.95911128204674],[-95.24330588308356,38.959134058732445],[-95.2432806522229,38.959189589951635],[-95.24327030331048,38.95921236663399],[-95.2432450712056,38.95926789871802],[-95.24323472227027,38.95929067539708],[-95.24326389465834,38.959298755447584],[-95.24330167967284,38.9593092212275],[-95.24328827509387,38.959338722312744],[-95.24326493694386,38.959332258092275],[-95.24326414899346,38.959333993145144],[-95.24325859222999,38.95933245421454],[-95.24322886372276,38.95932421944815],[-95.24322775259398,38.95932391184731],[-95.24322893567395,38.95932130929581],[-95.24322560113451,38.959320386465684],[-95.24322599511014,38.959319518939346],[-95.24322155063051,38.95931828763529],[-95.24322115550162,38.959319155134175],[-95.24321782215075,38.95931823143088],[-95.2432166390704,38.959320833982254],[-95.24321552794176,38.95932052638124],[-95.24321119183139,38.959330070916074],[-95.24320143382266,38.95935154675287],[-95.24319965975943,38.9593554510436],[-95.2431899017788,38.95937692597902],[-95.24318556566158,38.9593864705128],[-95.24318667679113,38.95938677811411],[-95.24318549367342,38.95938938156555],[-95.24318882818042,38.95939030529721],[-95.24318843420394,38.95939117282337],[-95.2431928786876,38.959392404128714],[-95.24319327381723,38.959391536629944],[-95.24319660720636,38.95939245943356],[-95.24319779032375,38.959389855981954],[-95.24319890145347,38.95939016358315],[-95.2432286299849,38.95939839835711],[-95.24323418675293,38.95939993728919],[-95.24323339761268,38.9594016732148],[-95.24325340127395,38.95940721371187],[-95.24325024712608,38.95941415476853],[-95.24332831819511,38.95943577844511],[-95.2432610019042,38.95958393569398],[-95.24323544025691,38.959576856239174],[-95.24319020064682,38.959676422394644],[-95.24318992315159,38.95967634550123],[-95.24316863413385,38.959723200586346],[-95.24312250670225,38.95982471929571],[-95.24317446145774,38.959839109802616],[-95.2431511028079,38.95989052004371],[-95.2432116703072,38.9599072962811],[-95.24323584228405,38.95991399121939],[-95.24325920091513,38.959862580060985],[-95.24332754861797,38.959881511297226],[-95.24334499395182,38.95984311563927],[-95.24338472404867,38.959854119698086],[-95.24338304846832,38.95985780733486],[-95.24338193733045,38.95985749973546],[-95.24338114934197,38.95985923568944],[-95.24338003823925,38.95985892718963],[-95.24337530698801,38.9598693392295],[-95.2433764180909,38.959869647729356],[-95.24337563013727,38.959871382782886],[-95.24337785237819,38.959871998882186],[-95.24337745840141,38.95987286640894],[-95.24339523996593,38.959877790782045],[-95.2433956339426,38.95987692325519],[-95.24341285932853,38.95988169471262],[-95.24341702750384,38.95988284914385],[-95.2434166323742,38.95988371664337],[-95.2434344139442,38.9598886410104],[-95.24343480907365,38.95988777351089],[-95.2435192699909,38.95991116755921],[-95.24351887601563,38.95991203508644],[-95.24353665759988,38.95991695943786],[-95.24353705157502,38.95991609191052],[-95.24356483561937,38.95992378739436],[-95.24356444164454,38.959924654921764],[-95.24357222070557,38.959926809933265],[-95.24356394136248,38.95994503057314],[-95.24358950198744,38.95995211082831],[-95.24359172542118,38.95995272605052],[-95.24359211939579,38.959951858523034],[-95.24361712391428,38.95995878405932]]]},"properties":{"SDE.FloorAll.FLOORLOCATION":"ROOF"}}]}
