{"type":"FeatureCollection","features":[{"type":"Feature","geometry":{"type":"Polygon","coordinates":[[[-95.24085734293422,38.95986048942263],[-95.24093002120412,38.95986049031768],[-95.24093002095559,38.95984721974058],[-95.24102379980488,38.95984722159492],[-95.24102380200631,38.9597355641008],[-95.24093588481234,38.959735562935954],[-95.24093588511928,38.959721834548525],[-95.24094291827682,38.959721834278525],[-95.24094292122828,38.95963946488148],[-95.24093588696084,38.95963946422364],[-95.24093588842098,38.95962573586357],[-95.2409933273856,38.95962573728878],[-95.24099332963516,38.959514079792626],[-95.2409335463823,38.95951407845731],[-95.24093354649939,38.95949760492685],[-95.24088255552684,38.95949760369863],[-95.24088255529925,38.95949394290798],[-95.24086262754223,38.95949394274742],[-95.24086262776885,38.959497603538004],[-95.24084211364548,38.959497602939],[-95.2408421134719,38.959514077369846],[-95.24078584617571,38.959514076712956],[-95.24078584453268,38.95956349817718],[-95.2407940504063,38.9595634987869],[-95.24079405051776,38.95956532918222],[-95.24079522213154,38.95956532912492],[-95.24079522153636,38.95959370064757],[-95.24079404992219,38.959593700704815],[-95.24079404836121,38.959625733890974],[-95.24085031574626,38.95962573454388],[-95.2408503154227,38.9596394629314],[-95.24084328227332,38.95963946319582],[-95.24084327920582,38.95972183259285],[-95.2408503123282,38.959721833228855],[-95.2408503120047,38.95973556161626],[-95.24081280074078,38.959735561193206],[-95.24081280034805,38.959769427502835],[-95.240805766368,38.959774918923365],[-95.24080576632024,38.95980785968077],[-95.24081279863397,38.95981335147744],[-95.24081279824125,38.95984721778689],[-95.24085734269933,38.95984721884552],[-95.24085734293422,38.95986048942263]]]},"properties":{"SDE.FloorAll.FLOORLOCATION":"1"}},{"type":"Feature","geometry":{"type":"Polygon","coordinates":[[[-95.24085734293422,38.95986048942263],[-95.24093002120412,38.95986049031768],[-95.24093002095559,38.95984721974058],[-95.24102379980488,38.95984722159492],[-95.24102380200631,38.9597355641008],[-95.24092885168855,38.959735562305134],[-95.24092885199684,38.959721833917676],[-95.24094291827682,38.959721834278525],[-95.24094292122828,38.95963946488148],[-95.24092885381145,38.959639464493236],[-95.24092885411974,38.9596257361057],[-95.2409933273856,38.95962573728878],[-95.24099332963516,38.959514079792626],[-95.2409335463823,38.95951407845731],[-95.24093354649939,38.95949760492685],[-95.24088255552684,38.95949760369863],[-95.24088255529925,38.95949394290798],[-95.24086262754223,38.95949394274742],[-95.24086262776885,38.959497603538004],[-95.24084211364548,38.959497602939],[-95.2408421134719,38.959514077369846],[-95.24078584617571,38.959514076712956],[-95.24078584453268,38.95956349817718],[-95.2407940504063,38.9595634987869],[-95.24079404836121,38.959625733890974],[-95.24085734889428,38.95962573427909],[-95.2408573485721,38.95963946266661],[-95.24084328227332,38.95963946319582],[-95.24084327920582,38.95972183259285],[-95.24085734663899,38.95972183299148],[-95.24085734631686,38.959735561378885],[-95.24081280074078,38.959735561193206],[-95.24081280034805,38.959769427502835],[-95.240805766368,38.959774918923365],[-95.24080576632024,38.95980785968077],[-95.24081279863397,38.95981335147744],[-95.24081279824125,38.95984721778689],[-95.24085734269933,38.95984721884552],[-95.24085734293422,38.95986048942263]]]},"properties":{"SDE.FloorAll.FLOORLOCATION":"2"}},{"type":"Feature","geometry":{"type":"Polygon","coordinates":[[[-95.24086261726076,38.95985637105261],[-95.24093177951758,38.959856372092915],[-95.24093177926869,38.95984310151586],[-95.24102555811254,38.95984310336874],[-95.24102556046986,38.959734191917725],[-95.24093061015395,38.95973419012347],[-95.2409306103069,38.95971771569294],[-95.24094467773932,38.959717716080924],[-95.24094467972618,38.959638091799214],[-95.24093061230961,38.959638091411136],[-95.24093061242742,38.95962161788084],[-95.24099508568952,38.959621619062965],[-95.24099508812895,38.95951270670957],[-95.24093530484208,38.95951270627555],[-95.24093530499394,38.95949623184469],[-95.2408860720003,38.95949623099388],[-95.24088607225491,38.95949119764556],[-95.24087434924579,38.959491197161796],[-95.24087434895519,38.959496231410455],[-95.24084738809759,38.959496230612714],[-95.24084738792524,38.9595127050436],[-95.24079112181849,38.95951270351636],[-95.24079111999448,38.9595593798378],[-95.24079932586756,38.95955938044709],[-95.24079932382716,38.95962161555123],[-95.24086262432137,38.9596216168368],[-95.24086262303449,38.95963809033968],[-95.24084855677114,38.9596380899691],[-95.24084855464089,38.95971771515125],[-95.24086262095523,38.959717714621384],[-95.24086262078643,38.959734189051986],[-95.24081807639958,38.95973418799534],[-95.24081807368752,38.9598431003467],[-95.24086261817807,38.95984310050298],[-95.24086261726076,38.95985637105261]]]},"properties":{"SDE.FloorAll.FLOORLOCATION":"3"}},{"type":"Feature","geometry":{"type":"Polygon","coordinates":[[[-95.24085082847404,38.959864381814235],[-95.24085229444772,38.95986438155119],[-95.24089566614462,38.95986438262552],[-95.24093903902995,38.95986438281066],[-95.24094050381522,38.959864383419415],[-95.24094050393828,38.9598522565086],[-95.24103281685596,38.959852257719454],[-95.24103281648095,38.95985111405315],[-95.24103281839223,38.959789793697674],[-95.2410328202684,38.959728474242254],[-95.24103281992849,38.95972732967562],[-95.24102725274125,38.95972732968578],[-95.24102725307162,38.959714516946185],[-95.24096981403488,38.95971451553775],[-95.24096981594175,38.95964358629524],[-95.2409967768907,38.95964358616411],[-95.24099677722658,38.95963077342444],[-95.24100234440627,38.95963077341575],[-95.24100234403177,38.9596296297495],[-95.2410023459695,38.959568309392864],[-95.24100234790718,38.95950698903591],[-95.24100234753269,38.959505845369605],[-95.24094403021779,38.95950584467509],[-95.24094403070612,38.95949051481089],[-95.2409425647402,38.95949051507516],[-95.2409369976067,38.959490514180565],[-95.24093699728162,38.95947632885564],[-95.2407415290217,38.9594763250134],[-95.24074152684356,38.95955686494409],[-95.24073830405007,38.95955686485434],[-95.24073830442032,38.95955800852064],[-95.24073830299182,38.95957791479578],[-95.24073830156325,38.95959782107085],[-95.24073830193356,38.959598964737154],[-95.24074152588217,38.9595989648543],[-95.24074152482252,38.959625277963184],[-95.24078899992489,38.959625278497214],[-95.24078899988794,38.959629626016834],[-95.24078900025904,38.959630769683145],[-95.24085083479265,38.95963077123746],[-95.24085083460758,38.959632372713905],[-95.24083823316103,38.959632372051566],[-95.24083676834542,38.959632372341964],[-95.24083676591084,38.95972572501118],[-95.24083823072839,38.959725724720805],[-95.24085083215644,38.959725726283544],[-95.2408508320065,38.9597273268596],[-95.24080775355972,38.95972732643631],[-95.24080775277787,38.95972847007516],[-95.24080775182463,38.95978979045838],[-95.2408077497181,38.95985111081389],[-95.24080775008946,38.95985225448013],[-95.24085082861244,38.95985225490341],[-95.24085082847404,38.959864381814235]]]},"properties":{"SDE.FloorAll.FLOORLOCATION":"ROOF"}}]}
