{"type":"FeatureCollection","features":[{"type":"Feature","geometry":{"type":"Polygon","coordinates":[[[-95.25423637414805,38.95839995766624],[-95.25455228253587,38.95839942017456],[-95.25455187972018,38.95825550150747],[-95.25453781401087,38.9582555253343],[-95.2545371037418,38.95800131038538],[-95.25453976450353,38.95800130579738],[-95.25453975430815,38.95799764568825],[-95.25453709358153,38.9579976493759],[-95.25453698889721,38.95796013798467],[-95.25453962544005,38.957960132823196],[-95.25453961527971,38.95795647181369],[-95.25453697873697,38.95795647697517],[-95.25453687884654,38.95792101147417],[-95.25455094564253,38.957920987674704],[-95.25455082373898,38.95787729258288],[-95.25447580314487,38.957877420448284],[-95.25447591160399,38.957916081890886],[-95.25444015934737,38.957916142825276],[-95.25444005090786,38.95787748138263],[-95.25434686217199,38.957877639471846],[-95.25434696937238,38.95791630178761],[-95.25426726095797,38.95791643747055],[-95.25426725878039,38.9579157506868],[-95.2542625698487,38.95791575860864],[-95.25426257202629,38.95791644539245],[-95.25418286245838,38.95791658099003],[-95.25418286028162,38.95791589420626],[-95.2541781725031,38.95791590215201],[-95.25417817352663,38.95791658890846],[-95.25409846511162,38.957916724475396],[-95.25409846293563,38.95791603769163],[-95.25409377400396,38.95791604560666],[-95.25409377617986,38.95791673239043],[-95.25401406661136,38.95791686787203],[-95.25401406558937,38.9579161811156],[-95.25400937665769,38.95791618902717],[-95.25400937767957,38.957916875783695],[-95.25390798383673,38.957917047378764],[-95.25390798162763,38.957916361495386],[-95.25390329269588,38.95791636940271],[-95.2539033028233,38.957920030412296],[-95.2539044756329,38.95792002844913],[-95.25390457949189,38.957957552446594],[-95.25390340783488,38.95795755443701],[-95.25390341796226,38.95796121544659],[-95.25390458961938,38.95796121345611],[-95.25390469463166,38.95799873748074],[-95.25390352182079,38.9579987394439],[-95.25390353198317,38.95800239955311],[-95.25390470479415,38.958002397589915],[-95.25390480831308,38.958039692668294],[-95.25389689643896,38.958039706253764],[-95.25389690150251,38.95804153675853],[-95.25385138987058,38.958041597081234],[-95.25385141637058,38.95805074873199],[-95.25381545856483,38.958050810014356],[-95.25381544417402,38.958045565454086],[-95.25380987680437,38.958045574181384],[-95.25380988128205,38.95804715232974],[-95.25373017156596,38.95804728761623],[-95.25373016709007,38.95804570946786],[-95.25372547814972,38.958045717368],[-95.25372548262548,38.95804729551635],[-95.25364577406226,38.958047430772154],[-95.25364576958823,38.9580458526238],[-95.2536410806479,38.95804586052054],[-95.25364108512179,38.95804743866892],[-95.25356137540498,38.95804757383941],[-95.25356137093289,38.958045995691016],[-95.25355170097619,38.95804601267],[-95.25355198970398,38.95814989003017],[-95.25356165963991,38.95814987395158],[-95.25356165712998,38.958148958249026],[-95.25364136696106,38.95814882307832],[-95.25364136947204,38.95814973878088],[-95.2536460584193,38.95814973088418],[-95.25364605590826,38.95814881518157],[-95.25372576458578,38.95814867992559],[-95.25372576709786,38.95814959562819],[-95.2537304560451,38.95814958772801],[-95.25373045353298,38.95814867202544],[-95.25381016336341,38.95814853673877],[-95.25381016587653,38.95814945244131],[-95.25381133753676,38.958149450451785],[-95.25381142514267,38.95818079617791],[-95.25381025348196,38.95818079816747],[-95.2538102610564,38.95818354437476],[-95.25385304571975,38.958183471749656],[-95.25385305333089,38.95818621705656],[-95.2538565706197,38.95818621114128],[-95.25385646780629,38.958149373900945],[-95.25385881227989,38.958149369948224],[-95.2538588097661,38.95814845424566],[-95.25389924993455,38.9581483855562],[-95.25389925244887,38.958149301258786],[-95.25390394139608,38.95814929335159],[-95.25390385089455,38.95811680300408],[-95.2542244493061,38.958116257652186],[-95.25422485145614,38.958257175248434],[-95.25418958613605,38.9582572359251],[-95.25418969739484,38.9582972772097],[-95.25418861344615,38.958297279477804],[-95.25418877746012,38.958356108012254],[-95.25423625118839,38.95835602732693],[-95.25423637414805,38.95839995766624]]]},"properties":{"SDE.FloorAll.FLOORLOCATION":"-1"}},{"type":"Feature","geometry":{"type":"Polygon","coordinates":[[[-95.25421614823365,38.958443922517084],[-95.2545746777418,38.958443311913214],[-95.25457455457186,38.95839938157436],[-95.2545710384257,38.95839938753875],[-95.25457102963344,38.95839664220462],[-95.25456399734135,38.95839665413307],[-95.25456400092654,38.95839825569162],[-95.25456341568852,38.95839825625365],[-95.25455286609694,38.95839827411816],[-95.25455227967066,38.95839827555319],[-95.25455188087338,38.95825550153476],[-95.25453784864214,38.95825552525309],[-95.2545371037418,38.95800131038538],[-95.25453976450353,38.95800130579738],[-95.25453975434313,38.95799764478788],[-95.25453709358153,38.9579976493759],[-95.25453698893219,38.95796013708426],[-95.25453962659329,38.957960132850516],[-95.25453961643291,38.957956471840994],[-95.25453697877194,38.95795647607478],[-95.25453687342409,38.95791895205056],[-95.25453951108368,38.957918947816836],[-95.25453950092337,38.95791528680729],[-95.25453481199173,38.95791529474014],[-95.25453481417193,38.95791598152395],[-95.25443605683797,38.95791614931967],[-95.25443605462371,38.95791546343629],[-95.25443136569211,38.95791547136499],[-95.25443136790628,38.95791615724835],[-95.25435165833902,38.957916292961954],[-95.25435165727882,38.95791560710589],[-95.25434696834716,38.95791561503118],[-95.25434697056053,38.95791630091456],[-95.25426726099295,38.95791643657015],[-95.25426725878039,38.9579157506868],[-95.2542625698487,38.95791575860864],[-95.25426257206126,38.957916444492],[-95.25422768785319,38.957916504288],[-95.25422768650698,38.95791603381757],[-95.25422299872848,38.957916041765095],[-95.25422300007465,38.957916512235606],[-95.25418286249335,38.9579165800896],[-95.25418286143481,38.95791589423355],[-95.2541781725031,38.95791590215201],[-95.25417817471485,38.957916588035395],[-95.2540984651466,38.95791672357498],[-95.25409846293563,38.95791603769163],[-95.25409377400396,38.95791604560666],[-95.25409377621484,38.95791673149005],[-95.25401406664633,38.957916866971665],[-95.25401406558937,38.9579161811156],[-95.25400937665769,38.95791618902717],[-95.25400937886774,38.95791687491058],[-95.25390798383673,38.957917047378764],[-95.25390798166262,38.95791636059498],[-95.25390330285829,38.95792002951187],[-95.25390447566787,38.95792002754876],[-95.25390469466664,38.95799873658037],[-95.25390352300896,38.957998738570836],[-95.25390353313638,38.95800239958039],[-95.25390470479415,38.958002397589915],[-95.25390480831308,38.958039692668294],[-95.25389806809736,38.95803970426335],[-95.25389807316094,38.95804153476812],[-95.25385293369965,38.95804161201703],[-95.25381572694032,38.95804167435986],[-95.25380986634183,38.95804168425302],[-95.25380988128205,38.95804715232974],[-95.25373017156596,38.95804728761623],[-95.25373016709007,38.95804570946786],[-95.25372547930291,38.95804571739531],[-95.25372548262548,38.95804729551635],[-95.25364577406226,38.958047430772154],[-95.25364576958823,38.9580458526238],[-95.2536410806479,38.95804586052054],[-95.25364108512179,38.95804743866892],[-95.25356137540498,38.95804757383941],[-95.25356137093289,38.958045995691016],[-95.25355170097619,38.95804601267],[-95.25355170548306,38.95804758991795],[-95.25347199576592,38.958047725027065],[-95.25347199129581,38.95804614687866],[-95.25346730232042,38.95804615566875],[-95.2534673068254,38.95804773291674],[-95.25338759826118,38.9580478679951],[-95.25338759379298,38.95804628984671],[-95.25338290481756,38.95804629863341],[-95.25338290932065,38.95804787588143],[-95.25334132522755,38.9580479470313],[-95.25329851066238,38.95804801875732],[-95.25321880209752,38.95804815371971],[-95.25321879763302,38.95804657557128],[-95.2532141086576,38.958046584351166],[-95.25321411315694,38.958048161599194],[-95.25313440343852,38.95804829647623],[-95.25313439897596,38.95804671832783],[-95.25312472901905,38.9580467352712],[-95.2531247334814,38.95804831341959],[-95.25304502376264,38.95804844823521],[-95.25304501930206,38.95804687008682],[-95.25304033036156,38.958046877959276],[-95.25304033482203,38.95804845610763],[-95.252960625103,38.95804859086523],[-95.25296062179748,38.95804701274421],[-95.25295593285696,38.95804702061323],[-95.25295593731555,38.95804859876162],[-95.25287622759619,38.95804873346124],[-95.25287622313941,38.95804715531281],[-95.25287153419883,38.958047163178456],[-95.25287153865553,38.95804874132688],[-95.25279168349198,38.95804887612722],[-95.25279167653707,38.95804638227621],[-95.25278493632048,38.95804639380659],[-95.25278498987628,38.958066071494564],[-95.25275113991545,38.95806612831693],[-95.25275112522036,38.95806086392047],[-95.2527417507971,38.95806087972343],[-95.25274165134392,38.95802495098113],[-95.25275102576249,38.95802493517825],[-95.25275100971761,38.95801943823409],[-95.25274163645304,38.95801945406433],[-95.25274163339377,38.958018552768024],[-95.25273577279704,38.958018562606895],[-95.25273576019583,38.95801398679504],[-95.25272755513029,38.95801400056348],[-95.25272757237762,38.958020446524856],[-95.25266661844478,38.95802054964006],[-95.25266656229464,38.95800037531535],[-95.25265718557293,38.95800039105675],[-95.25265720070223,38.95800588167088],[-95.25250071221531,38.958006146155164],[-95.2525007499383,38.95801987449122],[-95.25243921077062,38.95801997803851],[-95.25243919454006,38.958014486496666],[-95.2524309894744,38.958014500244154],[-95.25243100202086,38.958019076956425],[-95.25242514142406,38.9580190867796],[-95.25242515903057,38.95802549309634],[-95.25243219243931,38.95802548132488],[-95.25243230992291,38.958068039000146],[-95.25241121083721,38.958068074340524],[-95.25241131774038,38.958106865550576],[-95.25242772789309,38.95810683805783],[-95.2524277610942,38.958118841344465],[-95.25241135090369,38.95811886973757],[-95.25241135912972,38.958122072882226],[-95.25242777047414,38.95812204451643],[-95.25242783078035,38.958144010574266],[-95.25241142061898,38.95814403806698],[-95.25241142884505,38.95814724121164],[-95.25241707820562,38.95814723179058],[-95.2524172082609,38.95819436527728],[-95.25241155889661,38.95819437469834],[-95.25241156756996,38.9581971209331],[-95.25243266669419,38.95819708559267],[-95.25243278417834,38.95823964326731],[-95.25242575074829,38.95823965503877],[-95.25242576835494,38.95824606135538],[-95.2524316301238,38.95824605155951],[-95.25243164270533,38.958250627371335],[-95.25243984779837,38.95825061362382],[-95.25243983272087,38.958245122109425],[-95.25250137323772,38.958245018589075],[-95.25250141848458,38.95826149313223],[-95.252666699021,38.9582612143584],[-95.25266665258245,38.95824473978797],[-95.25272819309858,38.958244636147306],[-95.2527282081985,38.95825012766167],[-95.25273641444463,38.95825011392047],[-95.25273640187838,38.95824553720833],[-95.2527432875582,38.95824552552206],[-95.2527430565768,38.95816178284042],[-95.25278525480374,38.9581617120351],[-95.252785412105,38.958218455910206],[-95.25279215233792,38.958218444379824],[-95.25279214946627,38.95821730065883],[-95.25329927219212,38.95821644305008],[-95.25329928767468,38.95822216348316],[-95.25330485509329,38.95822215388001],[-95.25330485258667,38.958221238177444],[-95.25334470752573,38.95822117113738],[-95.25334471006786,38.95822208593958],[-95.25335027863966,38.95822207636157],[-95.25335026196475,38.95821635680153],[-95.25381269415762,38.9582155729055],[-95.25381280234976,38.95825446956922],[-95.2538113374928,38.95825447182419],[-95.2538117445424,38.95840067883625],[-95.25421602643966,38.95839999220518],[-95.25421614823365,38.958443922517084]]]},"properties":{"SDE.FloorAll.FLOORLOCATION":"1"}},{"type":"Feature","geometry":{"type":"MultiPolygon","coordinates":[[[[-95.2538117470556,38.9584015945388],[-95.25455229662576,38.95840033524974],[-95.25455188292926,38.95825229863603],[-95.25401383274176,38.95825321333242],[-95.25401312101047,38.95799786636438],[-95.25390366739691,38.957998052554615],[-95.25390378321681,38.95803969542629],[-95.25389806806238,38.95803970516373],[-95.25389807427915,38.95804153569579],[-95.25380986630685,38.958041685153404],[-95.25380988128205,38.95804715232974],[-95.25373017156596,38.95804728761623],[-95.25373016705511,38.95804571036827],[-95.25372547926793,38.958045718295715],[-95.2537254837787,38.9580472955437],[-95.25364577406226,38.958047430772154],[-95.25364576955324,38.95804585352422],[-95.25364108061291,38.95804586142091],[-95.25364108512179,38.95804743866892],[-95.25356137540498,38.95804757383941],[-95.2535613708979,38.958045996591416],[-95.25355170097619,38.95804601267],[-95.25355170544807,38.95804759081838],[-95.25347199573093,38.95804772592744],[-95.25347199126084,38.95804614777906],[-95.25346730232042,38.95804615566875],[-95.25346730679043,38.95804773381712],[-95.2533875982262,38.95804786889547],[-95.25338759375798,38.958046290747085],[-95.25338290481756,38.95804629863341],[-95.25338290928566,38.95804787678182],[-95.25334132638079,38.958047947058574],[-95.2533313794094,38.95804796376553],[-95.25333137927234,38.95804790788642],[-95.25333412544309,38.95804790354684],[-95.253334112042,38.9580431691017],[-95.25330627274799,38.958043216166786],[-95.25330628614725,38.958047950611935],[-95.2533090311998,38.958047945345236],[-95.25330903130185,38.95804800212475],[-95.25329851062739,38.95804801965777],[-95.25321880206253,38.95804815462012],[-95.25321879759804,38.95804657647172],[-95.2532141086576,38.958046584351166],[-95.25321411312196,38.95804816249957],[-95.25313440340355,38.95804829737659],[-95.25313439894097,38.958046719228214],[-95.25312472901905,38.9580467352712],[-95.2531247334814,38.95804831341959],[-95.25304502376264,38.95804844823521],[-95.25304501930206,38.95804687008682],[-95.25304033036156,38.958046877959276],[-95.25304033482203,38.95804845610763],[-95.2529606262562,38.95804859089259],[-95.25296062179748,38.95804701274421],[-95.25295593285696,38.95804702061323],[-95.25295593731555,38.95804859876162],[-95.25287622759619,38.95804873346124],[-95.25287622313941,38.95804715531281],[-95.25287153419883,38.958047163178456],[-95.25287153865553,38.95804874132688],[-95.25279168349198,38.95804887612722],[-95.2527916765021,38.958046383176615],[-95.2527830316415,38.958046397343324],[-95.25278292829432,38.95800911306868],[-95.25274307361423,38.95800917631411],[-95.2527431024584,38.95801945185017],[-95.25274163645304,38.95801945406433],[-95.25274163454695,38.95801855279532],[-95.25273577279704,38.958018562606895],[-95.25273576019583,38.95801398679504],[-95.25272755513029,38.95801400056348],[-95.25272757234262,38.95802044742523],[-95.25266661844478,38.95802054964006],[-95.25266656344787,38.95800037534266],[-95.25265718557293,38.95800039105675],[-95.25265720066724,38.95800588257124],[-95.25250071221531,38.958006146155164],[-95.2525007499383,38.95801987449122],[-95.25243921077062,38.95801997803851],[-95.25243919450504,38.95801448739709],[-95.2524309894394,38.95801450114453],[-95.25243100202086,38.958019076956425],[-95.25242514142406,38.9580190867796],[-95.25242515903057,38.95802549309634],[-95.25243219243931,38.95802548132488],[-95.25243230992291,38.958068039000146],[-95.25241135739941,38.958068075109935],[-95.25241171416737,38.9581971208021],[-95.25243266669419,38.95819708559267],[-95.25243278417834,38.95823964326731],[-95.25242575074829,38.95823965503877],[-95.25242576835494,38.95824606135538],[-95.2524316301238,38.95824605155951],[-95.25243164267033,38.9582506282717],[-95.25243984776337,38.95825061452421],[-95.25243983268587,38.9582451230098],[-95.25250137320272,38.95824501948946],[-95.25250141848458,38.95826149313223],[-95.252666699021,38.9582612143584],[-95.25266665254746,38.95824474068836],[-95.25272819309858,38.958244636147306],[-95.2527282081985,38.95825012766167],[-95.25273641444463,38.95825011392047],[-95.25273640184336,38.9582455381087],[-95.25274328867638,38.95824552644977],[-95.25274305654182,38.958161783740834],[-95.25274525441851,38.958161779941996],[-95.2527452220183,38.95815011102986],[-95.2527852235501,38.958150043150276],[-95.252785412105,38.958218455910206],[-95.25279215233792,38.958218444379824],[-95.25279214946627,38.95821730065883],[-95.25329927219212,38.95821644305008],[-95.25329928767468,38.95822216348316],[-95.25330485509329,38.95822215388001],[-95.25330485187501,38.95822078124022],[-95.25334470684876,38.95822071329977],[-95.25334471003288,38.95822208683998],[-95.25335027860466,38.95822207726194],[-95.25335026196475,38.95821635680153],[-95.2538112292665,38.95821557606087],[-95.25381133745782,38.958254472724626],[-95.25380928617574,38.95825447641092],[-95.25380929633329,38.958258136519945],[-95.25381134758048,38.958258133734056],[-95.2538117470556,38.9584015945388]]],[[[-95.25321586635137,38.95801575998214],[-95.253215946988,38.95801612057946],[-95.25321604272126,38.95801647883074],[-95.25321615473938,38.95801683386295],[-95.25321628300732,38.95801718657641],[-95.2532164264419,38.958017535143085],[-95.25321658507804,38.95801787866254],[-95.2532167588459,38.958018218935536],[-95.25321694781529,38.958018554161384],[-95.25321715086811,38.958018883412244],[-95.25321736912255,38.95801920761593],[-95.25321760149541,38.95801952494425],[-95.25321784676345,38.95801983717079],[-95.25321810733803,38.95802014164884],[-95.25321837972464,38.95802043919701],[-95.25321866626459,38.95802072896942],[-95.25321896465155,38.95802101091152],[-95.25321927607364,38.95802128415013],[-95.25321959818955,38.95802154953109],[-95.25321993337555,38.958021805308235],[-95.25322027925539,38.95802205322768],[-95.2532206359339,38.95802229058826],[-95.25322100222296,38.958022518263064],[-95.25322137812259,38.95802273625211],[-95.25322176482092,38.95802294368229],[-95.25322216001157,38.95802314049894],[-95.25322256369459,38.95802332670211],[-95.2532229747167,38.95802350226444],[-95.25322339311292,38.95802366628556],[-95.25322382003644,38.958023818792824],[-95.25322425202769,38.958023959704185],[-95.25322469023982,38.958024089047015],[-95.25322513470789,38.95802420592093],[-95.25322558309036,38.95802431117169],[-95.25322603654058,38.958024404826524],[-95.25322649397526,38.95802448505746],[-95.25322695417127,38.95802455363787],[-95.25322741716354,38.95802460966741],[-95.25322788295206,38.95802465314605],[-95.25322834923041,38.95802468401917],[-95.2532288183051,38.95802470234139],[-95.25322928671645,38.95802470803076],[-95.25323163122094,38.95802470319036],[-95.25325097221196,38.958024671113094],[-95.25325094748514,38.95801586196735],[-95.25323080075445,38.95801589568464],[-95.25323079083095,38.95801234913444],[-95.2532767255674,38.95801227204223],[-95.25329899748213,38.95801223368695],[-95.25329897386754,38.95800342546891],[-95.25327670199057,38.95800346292375],[-95.25322836306785,38.95800356597298],[-95.25322789671665,38.95800359638128],[-95.25322743102879,38.95800363942249],[-95.25322696715753,38.95800369512392],[-95.25322650740918,38.95800376354007],[-95.25322604951236,38.958003843716014],[-95.25322559689168,38.958003936634086],[-95.25322514727576,38.95800404133922],[-95.25322470297101,38.958004157886094],[-95.25322426509564,38.95800428720244],[-95.25322383256636,38.95800442746009],[-95.25322340531324,38.95800458045987],[-95.25322298690088,38.95800474358257],[-95.25322257495289,38.958004918574275],[-95.25322217065745,38.958005104561956],[-95.25322177632098,38.95800530160029],[-95.25322138967198,38.95800550873421],[-95.25322101301701,38.9580057260183],[-95.25322064635594,38.95800595345264],[-95.2532202885356,38.95800619100988],[-95.25321994305065,38.95800643787152],[-95.25321960874786,38.95800669401036],[-95.25321928450893,38.95800695849863],[-95.25321897375859,38.95800723231866],[-95.25321867426037,38.95800751361505],[-95.25321838828573,38.95800780334284],[-95.25321811471639,38.958008100574304],[-95.25321785470557,38.95800840533675],[-95.25321760828827,38.95800871672981],[-95.25321737549955,38.95800903385305],[-95.25321715745754,38.95800935763424],[-95.25321695304402,38.958009687145605],[-95.25321676341221,38.95801002241449],[-95.25321658978538,38.95801036166745],[-95.25321643097519,38.95801070577753],[-95.25321628698174,38.958011054744745],[-95.25321615906317,38.95801140589523],[-95.2532160459613,38.958011761902824],[-95.25321594896937,38.958012119193334],[-95.25321586801726,38.95801247956744],[-95.2532158031401,38.95801284212485],[-95.2532157543728,38.95801320596515],[-95.25321572171538,38.95801357108831],[-95.25321570516788,38.95801393749431],[-95.25321570595342,38.95801430340971],[-95.25321572176563,38.9580146687799],[-95.2532157537577,38.95801503363216],[-95.2532158019296,38.95801539796652],[-95.25321586635137,38.95801575998214]]],[[[-95.253306269868,38.95804207244575],[-95.25333410916154,38.95804202538066],[-95.25333408471285,38.95803303058968],[-95.25333835346574,38.958033023566166],[-95.2533382408679,38.957992345972826],[-95.25333472474188,38.95799235189973],[-95.25333471277742,38.957988263665904],[-95.25330468258788,38.95798831380412],[-95.25330469336103,38.957992432651395],[-95.25330040843076,38.957992440191596],[-95.25330081423733,38.95803308688006],[-95.2533062442347,38.95803307852783],[-95.253306269868,38.95804207244575]]]]},"properties":{"SDE.FloorAll.FLOORLOCATION":"2"}},{"type":"Feature","geometry":{"type":"Polygon","coordinates":[[[-95.25250141848458,38.95826149313223],[-95.252666699021,38.9582612143584],[-95.25266665370064,38.958244740715685],[-95.25272819421683,38.95824463707498],[-95.25272820935169,38.958250127688984],[-95.25273641444463,38.95825011392047],[-95.25273640184336,38.9582455381087],[-95.2527422624589,38.95824552826981],[-95.25274217972252,38.95821555430983],[-95.25278525760118,38.95821548181585],[-95.25278527203217,38.95822051549258],[-95.25279201226535,38.958220503962195],[-95.25279200011373,38.95821594618565],[-95.25287185546605,38.958215811385045],[-95.25287186877597,38.95822036918892],[-95.25287655657482,38.95822036129598],[-95.25287654441779,38.95821580351941],[-95.25295625432548,38.95821566881956],[-95.25295626648764,38.95822022659612],[-95.25296095543968,38.9582202187271],[-95.25296094212402,38.95821566092322],[-95.25304065203139,38.958215526165404],[-95.253040664199,38.95822008394193],[-95.253045353151,38.95822007606946],[-95.25304534052817,38.95821552999807],[-95.25312505043532,38.95821539518226],[-95.25312506306325,38.958219941253624],[-95.25313473416206,38.95821992523796],[-95.25313472062676,38.95821534309616],[-95.25321443053346,38.95821520821884],[-95.25321444292076,38.958219790333374],[-95.25321913187273,38.958219782453874],[-95.25321911966006,38.958215195837404],[-95.25329912160815,38.95821506061067],[-95.2532991410772,38.958222163615275],[-95.25335013200723,38.95822207739408],[-95.25335011253298,38.9582149743895],[-95.25338322727097,38.958214917998696],[-95.25338323949423,38.9582195046151],[-95.25338792844613,38.9582194967288],[-95.25338791622261,38.95821491011237],[-95.25346762497512,38.95821477503376],[-95.2534676383571,38.95821936167753],[-95.25347232730893,38.95821935378778],[-95.25347231392672,38.95821476714404],[-95.25355202383211,38.95821463203479],[-95.25355203606635,38.95821921865118],[-95.25356170716496,38.958219202599935],[-95.25356169377694,38.95821461595616],[-95.253641403682,38.95821448078548],[-95.25364141592205,38.95821906740191],[-95.25364610487387,38.958219059505154],[-95.25364609263357,38.95821447288872],[-95.25372580138512,38.95821433763271],[-95.25372581478383,38.95821892427643],[-95.25373050373567,38.95821891637627],[-95.25373049110503,38.958214339664224],[-95.25380844177026,38.958214207770986],[-95.25380845513935,38.958218795315126],[-95.25381138485184,38.95821879080513],[-95.25381148405533,38.958254472591854],[-95.25381033779895,38.95825447428193],[-95.25381034792157,38.958258135291395],[-95.2539040981797,38.95825797650104],[-95.253903481729,38.95803649254741],[-95.25389754033658,38.95803650233387],[-95.25389754735237,38.95803932242821],[-95.25380971337134,38.958039471731134],[-95.25380973166554,38.95804580416058],[-95.25373002195091,38.95804593944699],[-95.2537300064946,38.95804042539549],[-95.25372531755465,38.95804043329566],[-95.2537253328706,38.958045950948716],[-95.2536456243089,38.95804608620442],[-95.25364559631387,38.958040568250865],[-95.25364090737384,38.95804057614758],[-95.25364092268458,38.95804606406037],[-95.25356122568955,38.95804619863083],[-95.25356119843319,38.95804072124963],[-95.25355152732395,38.95804073820127],[-95.25355154304759,38.95804621530926],[-95.25347184605224,38.9580463498183],[-95.25347181835068,38.95804082466152],[-95.25346712937568,38.95804083345162],[-95.25346715707687,38.958046358608414],[-95.25338744739595,38.95804649275899],[-95.25338743322317,38.958041005773914],[-95.25338274428309,38.958041013660186],[-95.25338274489698,38.95804649311428],[-95.25330303633396,38.95804662813453],[-95.2533030345731,38.958041148653116],[-95.25329834563298,38.958041156535984],[-95.25329834732356,38.95804663781819],[-95.25321863764202,38.958046771852736],[-95.25321863707582,38.95804129149826],[-95.25321394813575,38.9580412993777],[-95.25321395139287,38.9580467698825],[-95.25313424167601,38.95804690475942],[-95.25313423842506,38.95804143425466],[-95.25312456735062,38.95804145027027],[-95.2531245760185,38.9580469001753],[-95.2530448674545,38.958047035018126],[-95.25304485879285,38.95804158511308],[-95.25304016985268,38.95804159298556],[-95.2530401706865,38.958047036396515],[-95.25296046212227,38.95804717118138],[-95.25296046014138,38.958041727743066],[-95.25295577120121,38.958041735612056],[-95.25295577317856,38.958047238531094],[-95.25287607729918,38.95804737355847],[-95.2528760626428,38.95804187033887],[-95.25287137370259,38.95804187820449],[-95.25287138926684,38.958047387754185],[-95.2527914914012,38.95804752244383],[-95.25279151735852,38.95804201387781],[-95.2527847783306,38.95804202453514],[-95.25278484439735,38.958066072553706],[-95.25274498954518,38.958066139401396],[-95.25274498451144,38.958064308896574],[-95.25274176157603,38.95806431454272],[-95.25274163451196,38.95801855369574],[-95.25273577391523,38.958018563534615],[-95.25273576019583,38.95801398679504],[-95.25272755513029,38.95801400056348],[-95.25272757023014,38.958019492077966],[-95.25266602990992,38.958019595718255],[-95.25266598458988,38.958003122075205],[-95.25250070580995,38.95800340087545],[-95.25250075109149,38.95801987451855],[-95.25243921073562,38.95801997893889],[-95.25243919565824,38.958014487424435],[-95.2524309905926,38.95801450117188],[-95.25243100317404,38.958019076983746],[-95.25242514142406,38.9580190867796],[-95.25242515899556,38.95802549399671],[-95.25243219240433,38.95802548222524],[-95.25243230988791,38.95806803990055],[-95.25241121080221,38.95806807524094],[-95.25241156756996,38.9581971209331],[-95.25243266669419,38.95819708559267],[-95.25243278417834,38.95823964326731],[-95.25242575190154,38.95823965506608],[-95.25242576947318,38.95824606228307],[-95.2524316300888,38.958246052459906],[-95.25243164267033,38.9582506282717],[-95.25243984776337,38.95825061452421],[-95.25243983268587,38.9582451230098],[-95.25250137320272,38.95824501948946],[-95.25250141848458,38.95826149313223]]]},"properties":{"SDE.FloorAll.FLOORLOCATION":"3"}},{"type":"Feature","geometry":{"type":"Polygon","coordinates":[[[-95.25250141963777,38.95826149315958],[-95.252666699021,38.9582612143584],[-95.25266665370064,38.958244740715685],[-95.25272819421683,38.95824463707498],[-95.25272820935169,38.958250127688984],[-95.25273641444463,38.95825011392047],[-95.25273640184336,38.9582455381087],[-95.2527422624589,38.95824552826981],[-95.25274217972252,38.95821555430983],[-95.2527848189621,38.95821548223749],[-95.25278483283141,38.95822056006091],[-95.25279303795588,38.95822054538797],[-95.25279303224916,38.958218227305196],[-95.25287186254016,38.95821809435241],[-95.25287186877597,38.95822036918892],[-95.25287655772802,38.95822036132331],[-95.25287655033881,38.95821808645945],[-95.25295626024912,38.95821795175965],[-95.25295626648764,38.95822022659612],[-95.25296095543968,38.9582202187271],[-95.25296094885101,38.958217952894515],[-95.25304065876102,38.958217818136674],[-95.25304066535224,38.95822008396924],[-95.25304535430419,38.95822007609677],[-95.25304534795782,38.95821780396145],[-95.25312505671427,38.958217669118305],[-95.25312506306325,38.958219941253624],[-95.25313473416206,38.95821992523796],[-95.25313472767284,38.958217656704235],[-95.25321443758214,38.95821752182695],[-95.25321444292076,38.958219790333374],[-95.25321913187273,38.958219782453874],[-95.25321912569567,38.95821750581664],[-95.25329912879957,38.95821737061715],[-95.2532991410772,38.958222163615275],[-95.25335013200723,38.95822207739408],[-95.25335011857287,38.9582172843687],[-95.25338323331194,38.95821722797784],[-95.25338323949423,38.9582195046151],[-95.25338792844613,38.9582194967288],[-95.25338792226364,38.958217220091555],[-95.25346763217202,38.95821708504028],[-95.2534676383571,38.95821936167753],[-95.25347232730893,38.95821935378778],[-95.25347232112378,38.95821707715054],[-95.25355202987859,38.95821694201395],[-95.25355203606635,38.95821921865118],[-95.25356170716496,38.958219202599935],[-95.25356170097693,38.95821692596267],[-95.25364140973139,38.95821679076463],[-95.25364141707524,38.95821906742923],[-95.25364610487387,38.958219059505154],[-95.25364609896559,38.958216716184076],[-95.25372580771969,38.958216580928],[-95.25372581478383,38.95821892427643],[-95.25373050373567,38.95821891637627],[-95.25373049684376,38.958216628006575],[-95.25380844866471,38.95821649614066],[-95.25380845444094,38.95821878358266],[-95.25381138530663,38.9582187791],[-95.25381148520852,38.95825447261918],[-95.25380914073142,38.958254476570914],[-95.25380915085401,38.95825813758041],[-95.2539040981797,38.95825797650104],[-95.253903481729,38.95803649254741],[-95.25389754033658,38.95803650233387],[-95.25389754808457,38.95803936300063],[-95.25381117899103,38.958039509148165],[-95.2538111810556,38.95804028785415],[-95.25380971620302,38.958040290109125],[-95.2538097236486,38.958042772254956],[-95.2537300139374,38.958042907541326],[-95.2537300064946,38.95804042539549],[-95.2537253302749,38.95804043269574],[-95.25372532499726,38.958042915441446],[-95.25364565452973,38.958043050698166],[-95.25364564698496,38.95804057125352],[-95.25364095804497,38.95804057915027],[-95.25364096558955,38.95804305859492],[-95.25356122701257,38.95804319398279],[-95.25356122062402,38.95804071456546],[-95.25355154954977,38.958040730616716],[-95.25355155688132,38.95804321546372],[-95.2534718379435,38.95804335035416],[-95.25347183072243,38.95804080332524],[-95.25346714178242,38.95804081121494],[-95.25346714900326,38.958043358243856],[-95.25338743929079,38.95804349329479],[-95.25338743322595,38.958040946293224],[-95.25338282046742,38.95804095418171],[-95.25338282674205,38.95804349578091],[-95.2533030420009,38.958043630798976],[-95.25330303446813,38.958041151354294],[-95.25329834552802,38.9580411592372],[-95.2532983530606,38.95804363868187],[-95.25321864334745,38.95804377361681],[-95.25321863651749,38.958041276164245],[-95.25321394757735,38.95804128404366],[-95.25321395479206,38.958043771591925],[-95.25313424507866,38.958043906468866],[-95.25313423825011,38.95804143875663],[-95.2531245683289,38.958041454799606],[-95.25312457515706,38.95804392251179],[-95.2530448654433,38.9580440573273],[-95.25304485861787,38.9580415896151],[-95.25304016967772,38.95804159748749],[-95.25304017657295,38.958044063398944],[-95.25296046801208,38.95804419818377],[-95.25296046111961,38.95804173227232],[-95.25295577217942,38.958041740141375],[-95.25295577907174,38.95804420605283],[-95.25287606935728,38.958044340752316],[-95.2528760624678,38.95804187484089],[-95.25287137352761,38.95804188270647],[-95.25287138076693,38.958044339614],[-95.25279152442008,38.95804447528731],[-95.25279151583682,38.95804110270452],[-95.25278477562073,38.958041114234874],[-95.25278484443236,38.958066071653306],[-95.25274498954518,38.958066139401396],[-95.25274498451144,38.958064308896574],[-95.25274176157603,38.95806431454272],[-95.25274163451196,38.95801855369574],[-95.25273577391523,38.958018563534615],[-95.25273576134906,38.958013986822365],[-95.25272755513029,38.95801400056348],[-95.25272757023014,38.958019492077966],[-95.25266603106311,38.95801959574557],[-95.25266598458988,38.958003122075205],[-95.25250070580995,38.95800340087545],[-95.25250075109149,38.95801987451855],[-95.25243921073562,38.95801997893889],[-95.25243919565824,38.958014487424435],[-95.2524309905926,38.95801450117188],[-95.25243100317404,38.958019076983746],[-95.25242514142406,38.9580190867796],[-95.25242516014882,38.95802549402404],[-95.25243219243931,38.95802548132488],[-95.25243231373922,38.95806906918949],[-95.25241121350003,38.95806910450254],[-95.25241156756996,38.9581971209331],[-95.25243266669419,38.95819708559267],[-95.25243278533154,38.958239643294654],[-95.25242575190154,38.95823965506608],[-95.25242576947318,38.95824606228307],[-95.2524316300888,38.958246052459906],[-95.25243164267033,38.9582506282717],[-95.25243984891661,38.958250614551545],[-95.25243983268587,38.9582451230098],[-95.25250137320272,38.95824501948946],[-95.25250141963777,38.95826149315958]]]},"properties":{"SDE.FloorAll.FLOORLOCATION":"4"}},{"type":"Feature","geometry":{"type":"MultiPolygon","coordinates":[[[[-95.25250141848458,38.95826149313223],[-95.252666699021,38.9582612143584],[-95.2526666612657,38.95824748602265],[-95.25272820178422,38.958247382382005],[-95.25272820935169,38.958250127688984],[-95.25274227506054,38.958250104081614],[-95.25274203147868,38.95816178558817],[-95.25274525441851,38.958161779941996],[-95.25274523356381,38.95815420916799],[-95.25279279141226,38.95815412926735],[-95.25279275792244,38.95814180513986],[-95.25279254345266,38.958064229023336],[-95.25278483939758,38.95806424114849],[-95.25278484443236,38.958066071653306],[-95.25274498954518,38.958066139401396],[-95.25274498451144,38.958064308896574],[-95.25274176157603,38.95806431454272],[-95.25274172198003,38.958050128341824],[-95.25273849789201,38.9580501339606],[-95.25273842770228,38.958024499689984],[-95.25274165063587,38.95802449404389],[-95.2527416219454,38.9580139769835],[-95.25272755513029,38.95801400056348],[-95.25272756266273,38.958016746770895],[-95.25266602234491,38.95801685041126],[-95.25266598458988,38.958003122075205],[-95.25250070580995,38.95800340087545],[-95.25250074353289,38.95801712921148],[-95.25243920321446,38.95801723273146],[-95.25243919565824,38.958014487424435],[-95.25242512884297,38.958014510967715],[-95.25242515955017,38.95802556881143],[-95.25242867581791,38.95802555931055],[-95.25242879375804,38.95806804579997],[-95.25241121080221,38.95806807524094],[-95.25241156756996,38.9581971209331],[-95.25242915055789,38.95819709149208],[-95.25242926803995,38.95823964916672],[-95.25242575190154,38.95823965506608],[-95.25242578205433,38.95825063809489],[-95.25243984776337,38.95825061452421],[-95.25243984024215,38.958247868316796],[-95.25250138076132,38.958247764796525],[-95.25250141848458,38.95826149313223]]],[[[-95.25321877504037,38.958091205434144],[-95.2532189132165,38.958141084227094],[-95.25321905755709,38.95819279445239],[-95.25358361030692,38.95819217732666],[-95.25358332845458,38.95809058743622],[-95.25321877504037,38.958091205434144]]]]},"properties":{"SDE.FloorAll.FLOORLOCATION":"5"}},{"type":"Feature","geometry":{"type":"MultiPolygon","coordinates":[[[[-95.25382419896181,38.95824278116337],[-95.25382431696707,38.958286238249954],[-95.25382427765174,38.95828626976284],[-95.25382424979856,38.9582863033496],[-95.2538242264883,38.95828633884645],[-95.25382420660263,38.95828637532564],[-95.25382419125982,38.95828641371488],[-95.25382417937672,38.95828645218605],[-95.25382417322459,38.958286491694146],[-95.25382417049717,38.95828653218458],[-95.25382417241757,38.958286571883896],[-95.25382417895078,38.95828661169251],[-95.2538241901318,38.95828665070991],[-95.2538242059607,38.958286688936184],[-95.25382422531914,38.958286725443635],[-95.25382424817225,38.95828676113264],[-95.2538242757431,38.95828679422971],[-95.25382431718745,38.958286826754126],[-95.25382444979405,38.95833382959948],[-95.2538244104787,38.95833386111236],[-95.25382438262551,38.95833389469912],[-95.25382435816198,38.95833393016864],[-95.25382433942956,38.95833396667512],[-95.25382432293353,38.95833400503703],[-95.25382431216856,38.958334044435865],[-95.25382430601651,38.958334083943996],[-95.25382430332405,38.95833412353408],[-95.25382430524445,38.95833416323339],[-95.25382431177768,38.95833420304196],[-95.2538243229587,38.9583342420594],[-95.25382433763436,38.95833428025839],[-95.25382435699288,38.958334316765814],[-95.25382438099913,38.958334352482105],[-95.25382440853507,38.95833438647956],[-95.25382445001443,38.9583344181036],[-95.25382458432506,38.95838247632175],[-95.2538245450097,38.958382507834635],[-95.25382451830966,38.95838254144878],[-95.25382449384614,38.95838257691823],[-95.25382447396049,38.95838261339745],[-95.25382445861766,38.95838265178668],[-95.25382444785274,38.958382691185534],[-95.25382444054743,38.958382730666344],[-95.25382443900817,38.9583827702837],[-95.25382444092855,38.958382809983014],[-95.2538244474618,38.958382849791604],[-95.25382445864284,38.95838288880905],[-95.25382447331856,38.95838292700799],[-95.25382449267703,38.95838296351543],[-95.25382451668337,38.95838299923175],[-95.25382454421926,38.9583830332292],[-95.25382458454547,38.95838306482593],[-95.25382459306114,38.958384182544684],[-95.25455253000662,38.958382945365095],[-95.25455213124388,38.95824017044603],[-95.25455112989594,38.95788186182447],[-95.2539146288109,38.95788294384896],[-95.25391501109227,38.95802022726018],[-95.25390797883749,38.95802023914882],[-95.25390798645074,38.95802298445578],[-95.25382007169571,38.9580231336554],[-95.25382007927053,38.95802587986278],[-95.25278620351989,38.958027629710536],[-95.25278620040206,38.95802839297323],[-95.25278613634582,38.95802840767754],[-95.25278608843449,38.958028422764336],[-95.25278604268956,38.958028441507416],[-95.25278600029925,38.958028463033585],[-95.2527859589572,38.95802848728831],[-95.25278592215798,38.95802851345312],[-95.25278588752514,38.958028543274125],[-95.25278585628195,38.9580285749779],[-95.25278582842837,38.95802860856444],[-95.25278580396443,38.95802864403376],[-95.25278578523154,38.958028680540046],[-95.25278576988823,38.958028718929135],[-95.25278575800455,38.958028757400186],[-95.2527857518519,38.958028796908245],[-95.2527857491239,38.9580288373987],[-95.2527857510437,38.95802887709805],[-95.2527857575763,38.95802891690665],[-95.25278576875672,38.95802895592419],[-95.25278578346676,38.95802899322288],[-95.25278580278966,38.95802903063092],[-95.2527858267953,38.958029066347414],[-95.25278585436561,38.95802909944475],[-95.25278588543048,38.95802913172363],[-95.25278592006002,38.95802916138329],[-95.25278595710091,38.95802918839643],[-95.25278599770637,38.958029212790365],[-95.25278604075828,38.958029233637326],[-95.25278608618657,38.958029252738186],[-95.25278613294303,38.9580292673644],[-95.25278618207592,38.95802928024447],[-95.25278621761528,38.958029286493854],[-95.25278626393732,38.95804959576835],[-95.25274406462412,38.95804966654669],[-95.25274405709106,38.9580469203393],[-95.25274054096228,38.958046926248166],[-95.2527404491342,38.95801397893491],[-95.25266542958003,38.95801410475623],[-95.25266538493264,38.957998088950845],[-95.2525001050113,38.957998367722844],[-95.25250014962118,38.95801438352834],[-95.25242512887799,38.95801451006731],[-95.25242525355391,38.95805997075535],[-95.25242520130962,38.958059978529555],[-95.25242515235,38.95805999088767],[-95.25242510559177,38.9580600060017],[-95.25242505984671,38.95806002474459],[-95.2524250163381,38.958060045342975],[-95.25242497614909,38.958060069624864],[-95.25242493816148,38.9580600966626],[-95.25242490352852,38.958060126483545],[-95.25242487228515,38.958060158187195],[-95.2524248444314,38.95806019177368],[-95.25242482115543,38.9580602263698],[-95.25242480123411,38.95806026374917],[-95.25242478592565,38.95806030123781],[-95.25242477515997,38.95806034063655],[-95.25242476785395,38.95806038011724],[-95.25242476516071,38.958060419707294],[-95.2524247681985,38.95806046033435],[-95.2524247747659,38.95806049924261],[-95.25242478479295,38.95806053823281],[-95.25242480062099,38.95806057645931],[-95.25242481994368,38.95806061386738],[-95.25242484398416,38.95806064868359],[-95.25242487151931,38.95806068268139],[-95.25242490146584,38.958060714032634],[-95.25242493609518,38.958060743692435],[-95.25242497428916,38.95806077073298],[-95.25242501489456,38.95806079512704],[-95.25242505791138,38.95806081687456],[-95.2524251033746,38.95806083507515],[-95.25242515009602,38.95806085060186],[-95.25242519926385,38.95806086258171],[-95.25242525314951,38.95806087196966],[-95.25242527650992,38.9580680507716],[-95.25241091764295,38.95806807460245],[-95.25241127437516,38.95819712119499],[-95.25242563326837,38.958197097364106],[-95.2524256447826,38.95820140368468],[-95.25242559253826,38.95820141145888],[-95.2524255435785,38.95820142381705],[-95.2524254968202,38.958201438931034],[-95.25242545107508,38.958201457673965],[-95.25242540756638,38.958201478272315],[-95.25242536737724,38.9582015025542],[-95.2524253293896,38.95820152959197],[-95.25242529475655,38.95820155941285],[-95.2524252635131,38.958201591116584],[-95.25242523565929,38.958201624703],[-95.25242521234834,38.95820166019956],[-95.25242519246197,38.958201696678486],[-95.25242517711844,38.95820173506754],[-95.25242516638777,38.95820177356586],[-95.25242515908167,38.958201813046564],[-95.25242515638845,38.95820185263664],[-95.25242515827304,38.958201893236335],[-95.25242516484047,38.958201932144604],[-95.25242517602072,38.95820197116219],[-95.25242519184886,38.95820200938864],[-95.25242521117154,38.95820204679676],[-95.25242523405892,38.958202081585604],[-95.25242526159407,38.95820211558337],[-95.2524252926589,38.95820214786237],[-95.25242532732334,38.95820217662175],[-95.25242536551737,38.95820220366234],[-95.25242540496966,38.95820222802904],[-95.25242544913971,38.95820224980386],[-95.25242549344982,38.95820226797715],[-95.25242554132458,38.95820228353123],[-95.25242558933927,38.9582022954837],[-95.25242564668466,38.95820230495363],[-95.2524257748842,38.95824844704973],[-95.25242572260483,38.95824845572431],[-95.25242567364502,38.95824846808247],[-95.25242562688665,38.95824848319649],[-95.25242558117647,38.95824850103901],[-95.25242553763275,38.95824852253775],[-95.25242549744365,38.95824854681963],[-95.25242545945598,38.958248573857375],[-95.2524254248579,38.95824860277789],[-95.25242539361443,38.958248634481606],[-95.2524253657606,38.95824866806804],[-95.25242534244963,38.95824870356458],[-95.25242532252825,38.95824874094395],[-95.2524253072197,38.958248778432576],[-95.25242529530078,38.95824881780398],[-95.25242528914794,38.958248857312036],[-95.25242528645471,38.958248896902056],[-95.25242528837431,38.958248936601386],[-95.25242529490674,38.95824897641001],[-95.25242530608699,38.958249015427576],[-95.25242532191513,38.95824905365409],[-95.25242534127281,38.958249090161765],[-95.25242536412517,38.95824912585103],[-95.2524253916604,38.95824915984881],[-95.2524254227602,38.958249191227395],[-95.25242545738969,38.95824922088718],[-95.25242549558376,38.958249247927746],[-95.25242553503602,38.958249272294466],[-95.25242557805298,38.95824929404196],[-95.2524256235163,38.95824931224261],[-95.25242567139104,38.95824932779662],[-95.2524257194058,38.95824933974916],[-95.25242577559804,38.95824934919175],[-95.25242578208932,38.958250637194496],[-95.25250080308314,38.958250510655134],[-95.25250083324762,38.95826149368389],[-95.25266611263088,38.9582612148835],[-95.2526660824407,38.95825023185476],[-95.25274110339865,38.958250106060326],[-95.25274109995637,38.958248561281174],[-95.2527411233022,38.95824852488419],[-95.25274113864559,38.95824848649512],[-95.25274114937609,38.958248447996745],[-95.252741156682,38.958248408516],[-95.25274115825685,38.95824836799822],[-95.25274115633708,38.95824832829891],[-95.25274114976948,38.95824828939065],[-95.25274113858899,38.958248250373124],[-95.25274112391394,38.95824821217402],[-95.25274109997818,38.958248174656696],[-95.252740969645,38.95820151791653],[-95.25274099302581,38.9582014806191],[-95.25274100833417,38.95820144313045],[-95.25274101909966,38.958201403731636],[-95.25274102640557,38.95820136425092],[-95.25274102794543,38.958201324633556],[-95.25274102602565,38.95820128493425],[-95.25274101949304,38.958201245125615],[-95.25274100831264,38.95820120610808],[-95.25274099363753,38.95820116790896],[-95.25274096970185,38.95820113039164],[-95.25274079893465,38.958140279319615],[-95.25274226378932,38.95814027707815],[-95.25274242795092,38.95819930842276],[-95.2527430201416,38.95819930713348],[-95.25276411350025,38.958199271596136],[-95.25278579904953,38.95819923476544],[-95.25278581415387,38.958204726279824],[-95.2533045113812,38.95820384999693],[-95.25330451897105,38.958206595303864],[-95.25335726797559,38.9582065056664],[-95.25335726038378,38.95820376035946],[-95.25340638621117,38.95820366868413],[-95.25340638397334,38.95820369656905],[-95.2534063858935,38.95820373626841],[-95.25340639242647,38.958203776077006],[-95.25340640360726,38.958203815094464],[-95.25340641943592,38.958203853320796],[-95.25340643875913,38.958203890728726],[-95.25340646164693,38.958203925517395],[-95.25340648918261,38.95820395951497],[-95.25340652028284,38.95820399089325],[-95.25340655491273,38.95820402055276],[-95.25340659310713,38.95820404759302],[-95.25340663255972,38.958204071959386],[-95.25340667557694,38.95820409370652],[-95.25340672104049,38.958204111906774],[-95.2534067689154,38.958204127460434],[-95.25340681693031,38.95820413941249],[-95.25340686735657,38.95820414871806],[-95.25340691795779,38.9582041535216],[-95.25340696866395,38.958204155623974],[-95.25340701951014,38.95820415412481],[-95.25340707049621,38.95820414902398],[-95.25340712046905,38.9582041402943],[-95.25340716942858,38.95820412793575],[-95.25340721733996,38.95820411284867],[-95.25340726189661,38.95820409497846],[-95.25340730544002,38.95820407347938],[-95.25340734562876,38.958204049197114],[-95.25340738361608,38.958204022159045],[-95.25340741824873,38.95820399233785],[-95.2534074494567,38.95820396153427],[-95.25340747731003,38.958203927947594],[-95.25340750062053,38.95820389245083],[-95.25340752054137,38.95820385507134],[-95.25340753584936,38.958203817582586],[-95.25340754776774,38.95820377821104],[-95.25340755392003,38.958203738702935],[-95.25340755661274,38.95820369911289],[-95.25340755549591,38.95820366844486],[-95.25347531911449,38.95820355230799],[-95.25347531802987,38.95820358022023],[-95.25347531995006,38.958203619919566],[-95.25347532648307,38.95820365972814],[-95.2534753376639,38.958203698745606],[-95.25347535233935,38.9582037369446],[-95.25347537169762,38.958203773452105],[-95.25347539570367,38.958203809168516],[-95.25347542327438,38.958203842265675],[-95.25347545433965,38.958203874544324],[-95.25347548896954,38.95820390420382],[-95.2534755260108,38.958203931216744],[-95.2534755666166,38.95820395561037],[-95.25347560966883,38.95820397645713],[-95.25347565509742,38.95820399555772],[-95.25347570181916,38.95820401108406],[-95.25347575098726,38.958204023063416],[-95.25347580144853,38.95820403146853],[-95.25347585201474,38.95820403717244],[-95.25347590275591,38.9582040383744],[-95.25347595360208,38.95820403687516],[-95.25347600458815,38.95820403177435],[-95.25347605456098,38.95820402304465],[-95.25347610348553,38.95820401158647],[-95.25347615024363,38.95820399647201],[-95.2534761959885,38.9582039777287],[-95.2534762395319,38.95820395622958],[-95.25347627972059,38.958203931947295],[-95.25347631767292,38.958203905809604],[-95.25347635230554,38.95820387598839],[-95.25347638354845,38.958203844284405],[-95.25347641140176,38.95820381069772],[-95.25347643471224,38.95820377520097],[-95.25347645459806,38.95820373872183],[-95.25347646994098,38.95820370033262],[-95.25347648067113,38.958203661834204],[-95.25347648797657,38.95820362235341],[-95.253476489551,38.95820358183567],[-95.2534764883992,38.95820355206801],[-95.25354425201755,38.95820343589082],[-95.25354425096795,38.958203462902695],[-95.25354425400639,38.95820350352975],[-95.25354426057443,38.958203542437936],[-95.25354427060209,38.95820358142808],[-95.25354428643078,38.958203619654384],[-95.25354430575409,38.958203657062256],[-95.25354432979519,38.95820369187826],[-95.25354435617773,38.958203725848435],[-95.25354438727801,38.95820375722671],[-95.2535444219079,38.958203786886195],[-95.25354446010242,38.95820381392637],[-95.25354450070823,38.95820383832003],[-95.2535445437255,38.958203860067144],[-95.25354458918909,38.95820387826733],[-95.25354463591084,38.95820389379361],[-95.25354468507895,38.95820390577292],[-95.25354473435206,38.95820391505112],[-95.25354478495326,38.958203919854604],[-95.25354483681265,38.958203921984214],[-95.25354488765882,38.958203920484955],[-95.25354493749168,38.95820391535682],[-95.25354498746445,38.95820390662708],[-95.25354503642403,38.95820389426848],[-95.25354508433531,38.95820387918132],[-95.25354513004517,38.958203861338376],[-95.25354517243535,38.95820383981187],[-95.25354521377723,38.95820381555691],[-95.25354525061131,38.95820378849151],[-95.25354528520887,38.958203759570644],[-95.25354531645179,38.958203727866625],[-95.25354534430507,38.958203694279945],[-95.25354536876871,38.958203658810476],[-95.25354538753625,38.95820362140362],[-95.25354540284421,38.958203583914816],[-95.25354541476248,38.958203544543295],[-95.25354542091469,38.95820350503519],[-95.25354542360729,38.95820346544515],[-95.25354542245546,38.95820343567748],[-95.25361318726178,38.958203318586975],[-95.25361318502401,38.958203346471905],[-95.25361318694428,38.95820338617125],[-95.25361319347738,38.95820342597983],[-95.25361320465827,38.9582034649973],[-95.25361322048698,38.95820350322359],[-95.25361323984534,38.95820353973107],[-95.25361326269827,38.9582035754201],[-95.25361329023406,38.958203609417616],[-95.25361332133436,38.95820364079585],[-95.25361335596428,38.9582036704553],[-95.25361339300557,38.95820369746812],[-95.25361343361148,38.95820372186179],[-95.2536134766287,38.95820374360885],[-95.25361352209231,38.958203761809024],[-95.25361356996731,38.9582037773626],[-95.25361361798227,38.95820378931457],[-95.25361366844353,38.95820379771965],[-95.25361371900978,38.9582038034235],[-95.25361376975094,38.95820380462538],[-95.25361382059708,38.95820380312609],[-95.25361387158318,38.958203798025224],[-95.25361392155594,38.958203789295474],[-95.2536139704805,38.95820377783721],[-95.2536140172386,38.95820376272271],[-95.25361406298342,38.958203743979375],[-95.25361410652675,38.95820372248016],[-95.25361414671542,38.95820369819785],[-95.25361418466768,38.95820367206012],[-95.2536142193002,38.95820364223885],[-95.25361425054311,38.958203610534845],[-95.25361427839636,38.95820357694809],[-95.25361430170676,38.95820354145128],[-95.25361432159244,38.95820350497215],[-95.25361433693536,38.95820346658294],[-95.25361434766538,38.9582034280845],[-95.25361435497082,38.95820338860372],[-95.25361435769834,38.95820334811327],[-95.25361435654646,38.958203318345625],[-95.25368212016437,38.95820320208793],[-95.25368211911483,38.95820322909976],[-95.25368212100015,38.95820326969949],[-95.25368212756827,38.95820330860771],[-95.25368213874921,38.958203347625094],[-95.25368215342476,38.95820338582409],[-95.25368217274819,38.95820342323196],[-95.25368219678931,38.958203458047905],[-95.25368222432513,38.95820349204541],[-95.25368225539049,38.95820352432402],[-95.2536822900554,38.958203553083074],[-95.25368232709674,38.95820358009587],[-95.25368236770265,38.958203604489505],[-95.25368241071989,38.95820362623655],[-95.25368245618353,38.958203644436665],[-95.25368250290536,38.958203659962884],[-95.25368255207354,38.95820367194218],[-95.25368260134658,38.95820368122029],[-95.25368265194787,38.95820368602371],[-95.25368270380723,38.958203688153304],[-95.25368275465334,38.95820368665398],[-95.25368280563946,38.95820368155305],[-95.2536828556122,38.95820367282329],[-95.25368290453677,38.958203661365],[-95.25368295132981,38.95820364535009],[-95.25368299703963,38.95820362750709],[-95.25368303942977,38.95820360598054],[-95.25368308077161,38.95820358172553],[-95.25368311875881,38.95820355468738],[-95.25368315335633,38.95820352576648],[-95.2536831845992,38.95820349406245],[-95.25368321129923,38.95820346044839],[-95.2536832357628,38.95820342497889],[-95.25368325568343,38.95820338759934],[-95.2536832709913,38.95820335011052],[-95.25368328175628,38.95820331071168],[-95.25368328906167,38.95820327123089],[-95.25368329060097,38.95820323161351],[-95.25368328944903,38.95820320184586],[-95.25375105425493,38.95820308467481],[-95.2537510520172,38.95820311255972],[-95.25375105393753,38.95820315225904],[-95.25375106162396,38.95820319209493],[-95.25375107165172,38.95820323108508],[-95.25375108748052,38.95820326931135],[-95.25375110683896,38.95820330581883],[-95.25375112969195,38.958203341507826],[-95.25375115722774,38.958203375505306],[-95.25375118832817,38.958203406883506],[-95.25375122295813,38.95820343654291],[-95.25375126115269,38.95820346358303],[-95.25375130175863,38.95820348797663],[-95.25375134477589,38.95820350972365],[-95.25375138908633,38.95820352789641],[-95.2537514369614,38.958203543449976],[-95.2537514849763,38.958203555401866],[-95.2537515354376,38.95820356380689],[-95.25375158600392,38.958203569510665],[-95.25375163671009,38.9582035716129],[-95.25375168874439,38.95820356924046],[-95.25375173857724,38.958203564112225],[-95.25375178851505,38.9582035562828],[-95.25375183747458,38.9582035439241],[-95.25375188538581,38.95820352883685],[-95.25375192997737,38.95820351006613],[-95.25375197348575,38.95820348946727],[-95.25375201367437,38.95820346518491],[-95.2537520516615,38.958203438146725],[-95.25375208629403,38.95820340832544],[-95.25375211753685,38.95820337662138],[-95.25375214539004,38.95820334303459],[-95.25375216870032,38.95820330753777],[-95.25375218858599,38.95820327105861],[-95.25375220392881,38.95820323266939],[-95.25375221581196,38.95820319419824],[-95.25375222196412,38.958203154690125],[-95.2537522246566,38.95820311510009],[-95.25375222343465,38.958203087133235],[-95.25382408825014,38.95820296879706],[-95.25382419896181,38.95824278116337]]],[[[-95.25391382244423,38.9579336762488],[-95.25391377261158,38.95793368137712],[-95.253913722639,38.95793369010703],[-95.25391367367968,38.9579337024658],[-95.25391362576866,38.95793371755313],[-95.2539135812123,38.95793373542351],[-95.25391353766922,38.95793375692279],[-95.25391349748075,38.95793378120525],[-95.25391345949382,38.957933808243446],[-95.2539134248965,38.95793383716442],[-95.25391339365385,38.95793386886854],[-95.25391336580084,38.95793390245532],[-95.25391334249073,38.957933937952184],[-95.25391332257023,38.9579339753318],[-95.25391330726254,38.957934012820594],[-95.25391329534456,38.957934052192144],[-95.2539132891925,38.95793409170029],[-95.25391328650012,38.957934131290365],[-95.25391328842056,38.95793417098967],[-95.25391329495379,38.95793421079823],[-95.25391330613482,38.957934249815644],[-95.25391332196368,38.95793428804196],[-95.25391334132208,38.95793432454938],[-95.25391336417512,38.957934360238355],[-95.25391339171087,38.95793439423575],[-95.2539134228112,38.95793442561396],[-95.25391345744116,38.957934455273296],[-95.25391349448243,38.957934482286085],[-95.25391353508823,38.9579345066796],[-95.25391357810544,38.95793452842658],[-95.25391362356896,38.95793454662655],[-95.25391367144381,38.95793456218],[-95.25391371945862,38.957934574131926],[-95.25391376991975,38.95793458253683],[-95.2539138204858,38.957934588240576],[-95.25391387119186,38.957934590342724],[-95.25391392203777,38.95793458884329],[-95.25391397302361,38.95793458374228],[-95.2539140229962,38.95793457501242],[-95.25391407195546,38.95793456265361],[-95.25391411871331,38.957934547539004],[-95.25391416442291,38.957934529695905],[-95.25391420796598,38.9579345081966],[-95.25391424815439,38.95793448391421],[-95.25391428614138,38.95793445687596],[-95.25391432077369,38.95793442705458],[-95.25391435198136,38.95793439625093],[-95.25391437986929,38.957934361763726],[-95.25391440314445,38.957934327167216],[-95.25391442306496,38.95793428978767],[-95.25391443837265,38.95793425229882],[-95.25391444913745,38.957934212899936],[-95.25391445644264,38.95793417341913],[-95.25391445913506,38.95793413382904],[-95.25391445609644,38.95793409320205],[-95.25391444952817,38.957934054293865],[-95.25391443950032,38.95793401530374],[-95.25391442367152,38.9579339770775],[-95.25391440434811,38.95793393966965],[-95.25391438146008,38.957933904881074],[-95.25391435392432,38.95793387088366],[-95.25391432282395,38.957933839505486],[-95.25391428819404,38.95793380984612],[-95.25391424999957,38.957933782806016],[-95.25391420939373,38.95793375841253],[-95.25391416637656,38.95793373666554],[-95.25391412206623,38.957933718492846],[-95.25391407419134,38.95793370293939],[-95.25391402617657,38.95793369098753],[-95.25391397575042,38.9579336816822],[-95.25391392514933,38.95793367687887],[-95.25391387444336,38.957933674776676],[-95.25391382244423,38.9579336762488]]],[[[-95.25273987199053,38.95801302888836],[-95.25273982215774,38.958013034016155],[-95.25273977218495,38.95801304274552],[-95.25273972322537,38.95801305510379],[-95.25273967531403,38.95801307019062],[-95.25273963075736,38.95801308806057],[-95.25273958721385,38.95801310955943],[-95.25273954702494,38.95801313384146],[-95.25273950903751,38.958013160879275],[-95.25273947443966,38.95801318979989],[-95.25273944319645,38.95801322150368],[-95.25273941534286,38.9580132550902],[-95.25273939203215,38.95801329058682],[-95.25273937211101,38.95801332796622],[-95.25273935680266,38.95801336545492],[-95.252739344884,38.958013404826346],[-95.2527393387313,38.958013444334405],[-95.25273933603826,38.95801348392443],[-95.25273933795803,38.95801352362375],[-95.25273934449062,38.958013563432395],[-95.252739355671,38.958013602449924],[-95.25273937149925,38.95801364067638],[-95.25273939085707,38.958013677184006],[-95.25273941370953,38.958013712873225],[-95.25273944124477,38.958013746870925],[-95.2527394723446,38.95801377824943],[-95.25273950697411,38.95801380790911],[-95.25273954401497,38.95801383492224],[-95.25273958462041,38.958013859316196],[-95.25273962763731,38.958013881063614],[-95.25273967310058,38.958013899264074],[-95.25273972097521,38.958013914818],[-95.25273976898988,38.95801392677036],[-95.25273981945092,38.95801393517578],[-95.25273987001697,38.95801394088005],[-95.25273992072303,38.95801394298271],[-95.25273997156901,38.95801394148379],[-95.25274002259002,38.95801393548294],[-95.25274007252781,38.958013927653944],[-95.25274012148732,38.95801391529564],[-95.25274016824547,38.958013900181506],[-95.2527402139554,38.9580138823389],[-95.25274025749889,38.95801386084002],[-95.25274029768777,38.95801383655803],[-95.25274033567523,38.95801380952018],[-95.25274037030808,38.95801377969915],[-95.25274040155128,38.958013747995416],[-95.25274042940482,38.958013714408835],[-95.25274045268061,38.9580136798126],[-95.25274047260174,38.958013642433265],[-95.25274048791003,38.95801360494457],[-95.25274049867555,38.95801356554579],[-95.25274050598141,38.958013526065066],[-95.25274050867449,38.958013486475046],[-95.25274050563647,38.95801344584797],[-95.25274049906888,38.958013406939735],[-95.25274048904167,38.958013367949505],[-95.25274047321349,38.95801332972308],[-95.25274045389068,38.95801329231508],[-95.25274042985002,38.95801325749894],[-95.25274040346798,38.958013223528525],[-95.2527403723681,38.95801319215005],[-95.25274033773864,38.95801316249035],[-95.25274029954457,38.95801313544989],[-95.2527402589391,38.958013111055955],[-95.25274021592223,38.958013089308544],[-95.25274017161216,38.95801307113537],[-95.25274012373747,38.95801305558143],[-95.25274007572284,38.95801304362909],[-95.2527400252968,38.958013034323244],[-95.25273997469573,38.9580130295194],[-95.25273992398972,38.958013027416754],[-95.25273987199053,38.95801302888836]]],[[[-95.25242517391098,38.958013559442044],[-95.25242512292492,38.95801356454237],[-95.25242507295214,38.95801357327161],[-95.25242502399252,38.95801358562982],[-95.2524249772343,38.95801360074376],[-95.25242493152429,38.95801361858626],[-95.2524248879807,38.958013640085035],[-95.25242484779173,38.958013664366945],[-95.25242480980413,38.95801369140466],[-95.2524247751712,38.95801372122562],[-95.25242474396283,38.95801375202887],[-95.2524247160741,38.95801378651574],[-95.25242469279819,38.958013821111884],[-95.25242467287693,38.95801385849122],[-95.2524246575684,38.95801389597988],[-95.25242464680277,38.95801393537859],[-95.25242463949671,38.95801397485931],[-95.25242463795666,38.95801401447667],[-95.25242463984127,38.958014055076426],[-95.25242464640867,38.958014093984666],[-95.2524246575889,38.95801413300224],[-95.2524246722638,38.9580141712014],[-95.25242469158643,38.95801420860944],[-95.25242471562694,38.95801424342568],[-95.252424743162,38.95801427742344],[-95.25242477426171,38.95801430880202],[-95.25242480773785,38.9580143384345],[-95.25242484593183,38.958014365475044],[-95.25242488653716,38.9580143898691],[-95.25242492955395,38.95801441161662],[-95.25242497501715,38.95801442981724],[-95.25242502173853,38.95801444534399],[-95.25242507090634,38.95801445732378],[-95.25242512017915,38.958014466602435],[-95.25242517078016,38.958014471406415],[-95.2524252226394,38.958014473536544],[-95.25242527348541,38.95801447203777],[-95.25242532447142,38.95801446693744],[-95.25242537444424,38.958014458208176],[-95.25242542225065,38.95801444582272],[-95.25242547016204,38.95801443073601],[-95.25242551587205,38.95801441289352],[-95.25242555826243,38.95801439136741],[-95.25242559960462,38.958014367112845],[-95.25242563759222,38.958014340075124],[-95.25242567219018,38.9580143111546],[-95.25242570343347,38.9580142794509],[-95.25242573013404,38.95801424583716],[-95.25242575459816,38.95801421036792],[-95.25242577336627,38.95801417296124],[-95.25242578982792,38.95801413549991],[-95.25242580059361,38.958014096101195],[-95.25242580674644,38.95801405659315],[-95.25242580943966,38.95801401700313],[-95.25242580752005,38.958013977303786],[-95.25242580098765,38.958013937495096],[-95.25242578980743,38.95801389847757],[-95.2524257751326,38.95801386027842],[-95.25242575577491,38.958013823770706],[-95.25242573176943,38.958013788054124],[-95.25242570423431,38.958013754056346],[-95.25242567313461,38.95801372267777],[-95.2524256385053,38.95801369301796],[-95.25242560146455,38.958013666004746],[-95.25242556085918,38.95801364161069],[-95.25242551784243,38.95801361986317],[-95.25242547237923,38.958013601662564],[-95.25242542565779,38.958013586135856],[-95.25242537649,38.958013574156006],[-95.25242532718224,38.95801356577777],[-95.252425275463,38.95801356004604],[-95.25242522475699,38.958013557943254],[-95.25242517391098,38.958013559442044]]],[[[-95.252413480163,38.95806712325245],[-95.25241342931696,38.95806712475121],[-95.2524133783309,38.95806712985155],[-95.25241332835803,38.95806713858079],[-95.25241327943336,38.95806715003859],[-95.25241323267512,38.95806716515257],[-95.2524131869301,38.958067183895466],[-95.25241314338649,38.9580672053942],[-95.25241310319745,38.95806722967608],[-95.25241306524485,38.95806725581343],[-95.25241303061185,38.95806728563438],[-95.25241299936846,38.95806731733803],[-95.25241297151469,38.95806735092449],[-95.25241294820378,38.95806738642105],[-95.25241292831745,38.958067422899965],[-95.25241291297394,38.95806746128899],[-95.2524129022433,38.95806749978735],[-95.2524128949372,38.95806753926806],[-95.25241289220897,38.958067579758506],[-95.25241289528176,38.95806761948517],[-95.25241290181415,38.95806765929384],[-95.25241291184119,38.958067698284054],[-95.25241292770427,38.95806773561013],[-95.25241294702693,38.95806777301819],[-95.25241297103246,38.95806780873482],[-95.25241299744935,38.9580678418049],[-95.25241302851411,38.95806787408385],[-95.25241306317845,38.95806790284324],[-95.25241310133742,38.958067930784246],[-95.25241314197783,38.95806795427785],[-95.2524131849946,38.95806797602538],[-95.25241323042282,38.95806799512639],[-95.25241327717923,38.95806800975278],[-95.25241332631208,38.958068022632965],[-95.25241337561994,38.95806803101124],[-95.25241342622097,38.95806803581522],[-95.25241347808026,38.95806803794532],[-95.2524135289263,38.9580680364466],[-95.25241357875916,38.95806803131888],[-95.25241362873203,38.95806802258964],[-95.2524136776567,38.958068011131914],[-95.25241372556813,38.95806799604526],[-95.25241377131314,38.958067977302335],[-95.25241381370357,38.95806795577624],[-95.25241385504582,38.958067931521704],[-95.25241389188022,38.95806790445665],[-95.25241392647821,38.95806787553611],[-95.25241395772159,38.95806784383244],[-95.25241398557532,38.958067810246],[-95.25241401003944,38.95806777477675],[-95.2524140287726,38.95806773827048],[-95.25241404411612,38.95806769988143],[-95.25241405599998,38.95806766141046],[-95.25241406218781,38.958067621002],[-95.25241406488108,38.95806758141198],[-95.25241406296149,38.958067541712666],[-95.25241405642909,38.95806750190401],[-95.25241404524881,38.95806746288645],[-95.25241403057397,38.958067424687265],[-95.25241401006313,38.95806738815225],[-95.25241398721079,38.958067352462976],[-95.2524139596757,38.9580673184652],[-95.25241392857595,38.95806728708661],[-95.2524138939466,38.95806725742682],[-95.25241385690582,38.9580672304136],[-95.25241381630043,38.958067206019514],[-95.25241377328365,38.958067184272004],[-95.25241372782043,38.95806716607137],[-95.25241368109901,38.95806715054466],[-95.25241363193118,38.958067138564836],[-95.25241358147012,38.95806713015927],[-95.25241353090402,38.958067124454864],[-95.252413480163,38.95806712325245]]]]},"properties":{"SDE.FloorAll.FLOORLOCATION":"ROOF"}}]}
