{"type":"FeatureCollection","features":[{"type":"Feature","geometry":{"type":"Polygon","coordinates":[[[-95.25381298890609,38.957896371937],[-95.25421036241003,38.957896119278665],[-95.25421034258315,38.95787690022072],[-95.25435077156267,38.9578768100967],[-95.25435077352007,38.957878869438375],[-95.25435546223945,38.95787886691532],[-95.2543554602819,38.95787680757365],[-95.25454901902795,38.95787668388129],[-95.25454902099118,38.957878743222935],[-95.25455370974545,38.95787873979149],[-95.25455370778214,38.95787668044983],[-95.25466232212425,38.95787661076451],[-95.25479057903067,38.957876529303014],[-95.25479044282213,38.957746566988384],[-95.25475176022594,38.95774659198109],[-95.25475169618757,38.957686187780745],[-95.25471301365936,38.95768621186018],[-95.25471298279247,38.95765601023742],[-95.25463561773408,38.95765605925789],[-95.25463539818205,38.95744738842814],[-95.25459473847029,38.957447414314956],[-95.2545947141769,38.95742453348282],[-95.25459669260862,38.957424532564346],[-95.25459668496731,38.95741721084535],[-95.25450759837832,38.95741726791292],[-95.25450759965587,38.957418869417],[-95.25447096957987,38.95741889244553],[-95.25447099903167,38.95744749346529],[-95.25436345076318,38.95744756206559],[-95.25436345974747,38.957455799459865],[-95.25418763085239,38.9574559110097],[-95.25418765467286,38.957478562923036],[-95.25418926603973,38.95747856233087],[-95.25418927640355,38.957487714500026],[-95.2541305197767,38.9574877514488],[-95.25413049402351,38.9574630401937],[-95.25413254633085,38.95746303923026],[-95.2541324145177,38.957336738656586],[-95.25415468527476,38.95733672444767],[-95.25415465123547,38.95730423363555],[-95.25413238048866,38.95730424784445],[-95.25413234977478,38.957274732049385],[-95.2539767420368,38.95727483098948],[-95.25397671439094,38.95724806039215],[-95.25390022931607,38.957248109024825],[-95.25390021933003,38.95723918577431],[-95.25389113513194,38.95723919141814],[-95.25389113639547,38.95724079292227],[-95.25386652129502,38.95724080923269],[-95.2538665189139,38.95723920680086],[-95.25385831425335,38.95723921254572],[-95.25385802106251,38.95723921281131],[-95.25385626310567,38.95723921353168],[-95.25385628361046,38.95725915539032],[-95.25385804156775,38.957259154669956],[-95.25385805749093,38.957274906631895],[-95.25375138905733,38.95727497386793],[-95.25375139661105,38.957282295587],[-95.25375111264563,38.95728229607085],[-95.25375111274803,38.95728235285038],[-95.25374641480768,38.95728235603086],[-95.25374641531738,38.957282699409106],[-95.25375111325776,38.95728269622861],[-95.25375112727474,38.95729585262206],[-95.2537464293335,38.957295855802556],[-95.25374642987816,38.957296198280424],[-95.25375112663127,38.95729619597304],[-95.25375114098803,38.95730958128532],[-95.25374644308087,38.957309583565454],[-95.25374644359057,38.957309926943694],[-95.25375114153273,38.95730992376316],[-95.25375115473639,38.95732330904817],[-95.25374645794649,38.95732331225598],[-95.25374645845613,38.95732365563424],[-95.25375115524602,38.95732365242639],[-95.25375116987523,38.95733720897759],[-95.25375145380595,38.95733720939416],[-95.25375145975953,38.957342700690326],[-95.25375117582884,38.95734270027374],[-95.25375117589626,38.95734275795364],[-95.25374647798688,38.95734276023374],[-95.25374647849657,38.95734310361197],[-95.25375117525279,38.95734310130455],[-95.2537511893048,38.95735625679761],[-95.25374649135954,38.95735625997811],[-95.25374649186917,38.95735660335634],[-95.2537511898145,38.95735660017585],[-95.2537512041713,38.95736998548808],[-95.25374650622513,38.95736998866857],[-95.25374650673481,38.95737033204685],[-95.25375120352783,38.95737032883904],[-95.25375121788467,38.95738371415122],[-95.25374651993755,38.957383717331716],[-95.25374652048224,38.957384059809584],[-95.25375121839436,38.95738405752946],[-95.25375123187033,38.95739761405331],[-95.25375151698944,38.95739761359681],[-95.2537515217899,38.95740310486556],[-95.25375123782393,38.957403105349414],[-95.25375123792638,38.957403162128905],[-95.25374653997801,38.95740316530944],[-95.25374654048768,38.957403508687655],[-95.25375123843611,38.95740350550716],[-95.25375125245314,38.9574166619005],[-95.25374655450389,38.957416665081006],[-95.25374655501352,38.957417008459295],[-95.25375125296286,38.95741700527874],[-95.2537512661665,38.9574303905636],[-95.2537465682513,38.95743039284373],[-95.25374656876097,38.95743073622197],[-95.25375126667622,38.957430733941855],[-95.25375128106808,38.95744411835363],[-95.25374658311692,38.95744412153417],[-95.25374658362662,38.95744446491237],[-95.25375128157773,38.95744446173186],[-95.25375129381712,38.957456683514245],[-95.25375157774825,38.957456683930815],[-95.25375158653874,38.9574653403912],[-95.25378235633318,38.95746532117883],[-95.25378241038527,38.957516573238934],[-95.25375164056854,38.95751659245131],[-95.253751712058,38.957586378586754],[-95.25376870896247,38.957586367508476],[-95.25376872690865,38.957603403761915],[-95.25376143527558,38.957604715370096],[-95.25375420125962,38.957606207686034],[-95.2537505062319,38.95760704572305],[-95.25375727101896,38.95762669130595],[-95.253748462745,38.957628952027996],[-95.25374613405091,38.957629738613825],[-95.25372754941255,38.95763576650173],[-95.25371550692542,38.95764067050852],[-95.2536964035409,38.95765018645681],[-95.2536879491427,38.95765516283183],[-95.25365190186288,38.957621675694845],[-95.25364383450709,38.95762696945288],[-95.25364965433049,38.95763243443749],[-95.25364922252868,38.95763279371124],[-95.25363762267385,38.957641277941],[-95.25363707726098,38.95764170932517],[-95.2536226101667,38.9576540567752],[-95.25362210717586,38.957654525213044],[-95.25360907419751,38.95766780965719],[-95.25360862537057,38.95766831001959],[-95.25359724733076,38.95768249252905],[-95.25359667147406,38.957683053869296],[-95.25358685246226,38.95769781043585],[-95.25358652160863,38.95769836406115],[-95.25357833601869,38.95771382982848],[-95.2535766420939,38.95771408350299],[-95.25356997608672,38.957730752349036],[-95.25356519848017,38.95774780658836],[-95.25356252461674,38.95776353629371],[-95.25356145527122,38.95777938241221],[-95.25355908666263,38.957779383984466],[-95.25355909260136,38.9577848752804],[-95.25373785194,38.95778476197611],[-95.25373790912474,38.95783967578099],[-95.25377659177221,38.957839651126406],[-95.25377661845643,38.957865048236904],[-95.25381295557035,38.957865025693124],[-95.25381298890609,38.957896371937]]]},"properties":{"SDE.FloorAll.FLOORLOCATION":"-1"}},{"type":"Feature","geometry":{"type":"Polygon","coordinates":[[[-95.25377004782852,38.957603837895604],[-95.25375215748629,38.95760759312433],[-95.25377147560198,38.95766370123946],[-95.25390593760204,38.95766361633083],[-95.25390585686198,38.9575862804313],[-95.25397677399091,38.95758623600086],[-95.2539766391472,38.95745696041127],[-95.25389927545928,38.95745700896788],[-95.25389908730142,38.957276939153594],[-95.25375402971613,38.95727703082193],[-95.25375427824197,38.957515904207426],[-95.25375076112643,38.95751590651803],[-95.25375083516238,38.95758660745572],[-95.25375142039374,38.9575866068978],[-95.25375142005389,38.95758637797896],[-95.25377002948092,38.95758636634171],[-95.25377004782852,38.957603837895604]]]},"properties":{"SDE.FloorAll.FLOORLOCATION":"-2"}},{"type":"Feature","geometry":{"type":"Polygon","coordinates":[[[-95.25330807809934,38.958050669696476],[-95.2533385549894,38.95805064996565],[-95.25333854257211,38.95803852370762],[-95.25334557570204,38.95803851908395],[-95.25334552907651,38.95799275744862],[-95.2533853833955,38.95799273274051],[-95.25338538474998,38.957993648415766],[-95.25339007351198,38.957993645031344],[-95.25339007212246,38.95799273025647],[-95.25346978208434,38.957992765542215],[-95.25346978218586,38.95799359467033],[-95.25348033241569,38.95799358863679],[-95.25348033105999,38.957992672961474],[-95.25355652374665,38.95799262487052],[-95.25355652510335,38.957993540545814],[-95.25356121386532,38.957993537154486],[-95.25356121240604,38.957991792351066],[-95.25364092107773,38.95799174187244],[-95.25364092369217,38.95799348670315],[-95.25364561241918,38.95799348420881],[-95.25364561106139,38.95799256853352],[-95.25372532098822,38.95799260454402],[-95.25372532109272,38.957993433672165],[-95.25373235421817,38.957993429025045],[-95.25373235225265,38.95799116240135],[-95.25381258842798,38.957991111681984],[-95.25381264170336,38.95804140391791],[-95.25390231431442,38.95804134682546],[-95.25390218679775,38.95791922442162],[-95.25390453115875,38.95791922316925],[-95.25390450676255,38.95789575653482],[-95.25421044986382,38.95789556169005],[-95.2542104300719,38.95787634173167],[-95.25422528813145,38.95787633220434],[-95.25422533217038,38.9579184609336],[-95.254265332867,38.957918499772454],[-95.25426533492583,38.9579175850795],[-95.25426791132564,38.95791758300613],[-95.25426786768597,38.95787630504179],[-95.25435085901533,38.95787625250795],[-95.25435086097274,38.95787831184961],[-95.25435555088022,38.9578783084535],[-95.25435554773452,38.95787624998491],[-95.25454910647905,38.95787612629238],[-95.25454910844228,38.95787818563405],[-95.25455379719654,38.95787818220258],[-95.25455379523319,38.95787612286091],[-95.25463359264043,38.957876072001916],[-95.25463358106391,38.95786463159988],[-95.25466171347928,38.95786461368893],[-95.25466172506027,38.95787605409091],[-95.25479066651482,38.957875970813554],[-95.25479056391654,38.95777804237235],[-95.25478997753041,38.95777804290821],[-95.25478877320745,38.957747383619335],[-95.25475184861524,38.95774740697721],[-95.25475178367176,38.95768562929129],[-95.25471310110892,38.95768565427113],[-95.25471307027696,38.957655451747954],[-95.25463570518423,38.9576555016689],[-95.25463548563192,38.957446830839146],[-95.25459629072579,38.95744685536148],[-95.25459629098766,38.95744628399211],[-95.25459511825592,38.957446284161485],[-95.25459509567501,38.957424547923495],[-95.25459626728819,38.9574245468264],[-95.25459626755008,38.957423975457054],[-95.25459678005878,38.95742397497537],[-95.25459677241746,38.95741665325639],[-95.25450768582918,38.95741671032402],[-95.25450768654866,38.95741716726127],[-95.25450695356976,38.95741716792933],[-95.25450695493869,38.95741808360463],[-95.25447076349734,38.95741810620494],[-95.25447079358904,38.95744636387379],[-95.2544696208223,38.95744636494229],[-95.25446962171257,38.95744693633897],[-95.2543635382152,38.95744700447681],[-95.2543635471995,38.95745524187107],[-95.25413262653251,38.95745538884149],[-95.25413254803993,38.957274174381375],[-95.25397682949166,38.95727427340098],[-95.25397680184577,38.957247502803604],[-95.25390031677149,38.95724755143639],[-95.25390030678544,38.95723862818584],[-95.25385810851826,38.95723865522285],[-95.25385812952297,38.95725834655323],[-95.2538581290585,38.95725859618118],[-95.25385814613495,38.95727434817037],[-95.25375119258351,38.957274415863],[-95.2537513813364,38.95745630256724],[-95.25373994350421,38.95745631013046],[-95.25374003081465,38.95754006740859],[-95.25375175262688,38.95754005936152],[-95.25375177664753,38.95756294019367],[-95.25374005486648,38.957562947340314],[-95.25374007647007,38.95758422664102],[-95.25376879515858,38.957584208416066],[-95.25376879869962,38.95758809818069],[-95.25376938508421,38.957588097649996],[-95.25376938593385,38.95758866994708],[-95.25377055870295,38.95758866888565],[-95.25377056887895,38.957598507783956],[-95.25376939614466,38.95759850794494],[-95.2537693969943,38.95759908024203],[-95.25376881060961,38.95759908077274],[-95.25376881436556,38.957602846173586],[-95.25375905678628,38.95760464461436],[-95.25375052383237,38.95760650360338],[-95.2537504136025,38.95760678577914],[-95.25373754434389,38.9576101237057],[-95.25371876345366,38.95761621183186],[-95.2537007196457,38.957623560200936],[-95.25368357475449,38.957632103252436],[-95.2536714640259,38.95763920912989],[-95.25365198932077,38.9576211181066],[-95.2536439136827,38.95762641707577],[-95.2536438565695,38.95762669870716],[-95.25363110816856,38.95763583795729],[-95.25363090103963,38.957635999777466],[-95.25361554224335,38.95764910566339],[-95.25361537816755,38.95764925858984],[-95.2536015218012,38.95766338509935],[-95.25360139627077,38.957663526321674],[-95.25358916982161,38.95767854129153],[-95.25358907843363,38.957678665298126],[-95.2535785832157,38.95769442693292],[-95.25357848029303,38.95769461014705],[-95.25356978337155,38.95771102630852],[-95.25356968837995,38.957711243055776],[-95.25356285584239,38.95772821707643],[-95.25356279974737,38.957728383375304],[-95.25355788849322,38.95774575798793],[-95.25355785077937,38.957745926524616],[-95.25355489708934,38.95776357010887],[-95.2535548743995,38.957763797580974],[-95.25355395269781,38.95777729950931],[-95.25355389810579,38.95777745683153],[-95.25355390703074,38.95778569332524],[-95.25359947615699,38.9577856642254],[-95.25359947585208,38.957786236495146],[-95.25360064858945,38.957786236335835],[-95.2536006955846,38.95783211153084],[-95.25355717878149,38.95783213877747],[-95.25355720317296,38.957856256098076],[-95.2535563836293,38.957856256512166],[-95.25355638841458,38.95786174778077],[-95.25347667988937,38.957861798201286],[-95.25347667395707,38.95785630690538],[-95.25346964084525,38.95785631153701],[-95.25346964677705,38.95786180283292],[-95.25338993709849,38.95786185316653],[-95.25338993117289,38.9578563618706],[-95.25338524245498,38.95785636435463],[-95.2533852483802,38.95786185565055],[-95.2533055387016,38.95786190592613],[-95.25330553393573,38.95785641465755],[-95.25330084518284,38.95785641803855],[-95.25330084994832,38.957861909307105],[-95.25322114145774,38.95786195865165],[-95.25322113554527,38.95785646735571],[-95.25321644679235,38.9578564707333],[-95.25321645270445,38.95786196202924],[-95.25313674302559,38.95786201218883],[-95.25313673711968,38.95785652089288],[-95.25313204840174,38.9578565233667],[-95.25313205430732,38.957862014662616],[-95.25305234462827,38.957862064764235],[-95.25305233988215,38.95785657349559],[-95.25304530677025,38.957856578101485],[-95.25304531425094,38.95786389982026],[-95.25304868363392,38.95786389763548],[-95.25304870900914,38.95788860888998],[-95.25306028428247,38.95788860104463],[-95.25306031849426,38.9579215496931],[-95.25304537271155,38.957921558795576],[-95.25304538019228,38.95792888051431],[-95.25306017937969,38.95792887154363],[-95.25306036022332,38.95796181915981],[-95.25304878493799,38.95796182700524],[-95.25304881034826,38.95798653735913],[-95.2530454398062,38.95798653951661],[-95.25304544728694,38.9579938612353],[-95.25305248037749,38.957993857529836],[-95.25305247902733,38.95799294185454],[-95.25313218885391,38.95799289175288],[-95.25313219020505,38.95799380742814],[-95.25313687896708,38.95799380405395],[-95.25313687758089,38.95799288927907],[-95.25313687636508,38.95799205922326],[-95.25321658615556,38.95799200996396],[-95.25321658764133,38.95799375386694],[-95.25322127636836,38.95799375138977],[-95.25322127491748,38.95799200658638],[-95.25330098474286,38.95799195636867],[-95.25330098619573,38.95799370117208],[-95.25330204815891,38.95799370019396],[-95.25330209455613,38.95803854618133],[-95.25330806572222,38.958038542538056],[-95.25330807809934,38.958050669696476]]]},"properties":{"SDE.FloorAll.FLOORLOCATION":"1"}},{"type":"Feature","geometry":{"type":"MultiPolygon","coordinates":[[[[-95.25330211320765,38.95804881877019],[-95.25334665747712,38.958048790721605],[-95.25334659911216,38.957992756661355],[-95.25338645356686,38.9579928175723],[-95.25338645478561,38.95799364762813],[-95.25339114354762,38.95799364424365],[-95.25339114215808,38.95799272946878],[-95.25347011876258,38.95799250765651],[-95.25347011903425,38.95799267889544],[-95.2534708519842,38.95799267913432],[-95.25347085337471,38.957993593909194],[-95.25348140245134,38.95799358784826],[-95.25348140224887,38.95799267220031],[-95.25348213408054,38.95799267151144],[-95.25348213380886,38.95799250027252],[-95.25349942400496,38.95799248896911],[-95.25349942424167,38.95799266110842],[-95.25355759493553,38.9579926241086],[-95.25355759513897,38.95799353975657],[-95.25356228390098,38.95799353636518],[-95.25356228366242,38.957992621617635],[-95.25364199233508,38.95799257113828],[-95.25364199372783,38.95799348591316],[-95.25364668245481,38.957993483418726],[-95.25364668109697,38.95799256774348],[-95.25372639092271,38.95799251723343],[-95.25372639228159,38.95799343290868],[-95.25373342540699,38.95799342826148],[-95.25373342228825,38.9579911616105],[-95.25381365961677,38.957991110917696],[-95.25381371173972,38.958041403126295],[-95.25390301843467,38.95804134637881],[-95.25390653442317,38.95804134403628],[-95.25390649119193,38.95799949650366],[-95.25390568548511,38.95799949724801],[-95.25390557794991,38.95789575576974],[-95.25421152105115,38.95789556092211],[-95.25421150010575,38.95787634093642],[-95.25479173654867,38.95787597001294],[-95.2547916339489,38.95777804157172],[-95.25479104756275,38.95777804210759],[-95.25479104670484,38.957777469810566],[-95.25478987508582,38.957777470909605],[-95.25478984323937,38.95774738281878],[-95.25475365162953,38.95774740550738],[-95.25475365137555,38.95774649075979],[-95.25475291839324,38.9577464914294],[-95.25475285485594,38.95768562851834],[-95.25471417229313,38.95768565349852],[-95.25471414030748,38.95765545094804],[-95.25463677521473,38.95765550086973],[-95.25463655681246,38.95744683006728],[-95.25459736190632,38.95744685458997],[-95.25459736101502,38.957446283193306],[-95.25459618828327,38.957446283362714],[-95.25459616570198,38.95742454712466],[-95.2545973384684,38.957424546054874],[-95.25459733757708,38.957423974658205],[-95.25459785008577,38.957423974176535],[-95.25459784244434,38.957416652457596],[-95.254588465032,38.95741665842347],[-95.25458846571705,38.957417116261155],[-95.25458143268392,38.95741712005975],[-95.25458143196397,38.957416663122494],[-95.2545087558561,38.957416709526015],[-95.25450875657556,38.95741716646325],[-95.25450802359669,38.95741716713132],[-95.25450802496563,38.95741808280664],[-95.2544718335242,38.957418105407314],[-95.25447186361637,38.9574463630761],[-95.25447069084966,38.95744636414463],[-95.25447069173995,38.95744693554129],[-95.25436460939575,38.95744700370744],[-95.2543646194586,38.957457471655076],[-95.25436464769608,38.957484527950186],[-95.2543646825505,38.95751747569901],[-95.2543648269954,38.95765567451038],[-95.25416086638919,38.957655804786256],[-95.2541608672892,38.95765699982985],[-95.25405654263172,38.957657066088835],[-95.2540565405803,38.957655871017955],[-95.25397294928588,38.957655923545175],[-95.2539728779909,38.95758719635763],[-95.25421211456663,38.95758704475691],[-95.25421197898518,38.95745756908871],[-95.2541354209625,38.957457617956834],[-95.25413109836114,38.95745850693255],[-95.25396025249545,38.95745861538452],[-95.25396019312356,38.957401614296664],[-95.25389652852837,38.9574016547474],[-95.25389658784897,38.957458655835275],[-95.2538922292515,38.95745865894811],[-95.2538922947073,38.957522038139786],[-95.25389193889082,38.95758467375755],[-95.25377092894303,38.95758466540787],[-95.25377093183944,38.957588096434456],[-95.25377045626693,38.957588096886155],[-95.25377045596336,38.95758866915589],[-95.25377162873247,38.95758866809448],[-95.2537716389086,38.957598506992724],[-95.25377046617427,38.95759850715377],[-95.25377046702393,38.95759907945084],[-95.2537698806393,38.95759907998154],[-95.25376988439528,38.957602845382375],[-95.25375152397052,38.95760651918138],[-95.25375779732893,38.957625117618605],[-95.25375710232592,38.957625299426134],[-95.25375747375963,38.957626167089785],[-95.25374776377646,38.957628701154256],[-95.25374705297718,38.95762890331576],[-95.25373265608968,38.95763350282068],[-95.25373198893571,38.957633740262345],[-95.25371320028388,38.957641394530405],[-95.25371256912129,38.95764168599664],[-95.25369953774396,38.957648245558296],[-95.25369893747151,38.957648573805066],[-95.2536895545151,38.95765406892036],[-95.25368885116411,38.95765333668909],[-95.2536882020685,38.95765376291395],[-95.25365305938573,38.957621116416114],[-95.25364498371273,38.95762641628578],[-95.25364492659955,38.957626697917135],[-95.2536320904157,38.95763583869303],[-95.25363199504346,38.95763597612357],[-95.25361661342698,38.95764910490096],[-95.253616448198,38.95764925780012],[-95.25360259298502,38.95766338433702],[-95.2536025085526,38.95766347786678],[-95.2535902410057,38.957678540529315],[-95.25359016789533,38.95767863973458],[-95.25357962693043,38.95769447959355],[-95.2535795651771,38.95769458357392],[-95.2535708339358,38.95771108093392],[-95.25357078360949,38.95771118788866],[-95.25356392702722,38.9577282163145],[-95.25356388924611,38.95772832717128],[-95.25355896537565,38.95774572942303],[-95.25355891504529,38.957745925598786],[-95.2535559671215,38.95776356931969],[-95.25355595124857,38.9577637401762],[-95.25355521074233,38.957777183310924],[-95.25355496813816,38.957777456042315],[-95.25355497706325,38.957785692536014],[-95.2535584203174,38.95778569028388],[-95.25355849382211,38.95785616230126],[-95.25304637680381,38.95785657731695],[-95.25304651732259,38.95799386045081],[-95.25305355041314,38.95799385674528],[-95.25305355021617,38.9579929410973],[-95.25313325888955,38.95799289096754],[-95.2531332602407,38.95799380664285],[-95.25313794900273,38.95799380326862],[-95.25313794761648,38.95799288849373],[-95.25321765757847,38.957992923952766],[-95.25321765883022,38.9579937531082],[-95.25322234755721,38.95799375063096],[-95.25322234620491,38.957992834955675],[-95.25330205603119,38.95799278473723],[-95.25330206651141,38.958003653742615],[-95.25323142978554,38.95800371883276],[-95.25323091122667,38.95800372637498],[-95.25323039329619,38.95800374745041],[-95.25322987707723,38.9580037838872],[-95.25322936382805,38.95800383301149],[-95.2532288511373,38.95800389746978],[-95.25322834256944,38.9580039746429],[-95.25322783805451,38.95800406633156],[-95.25322733762765,38.958004171635466],[-95.25322684244189,38.95800429058191],[-95.25322635253228,38.95800442227039],[-95.25322586901709,38.95800456762878],[-95.25322539304946,38.95800472668429],[-95.25322492354618,38.958004897608866],[-95.25322446159049,38.9580050822306],[-95.25322400840554,38.95800527877602],[-95.25322356514457,38.958005487272445],[-95.25322313065435,38.95800570769253],[-95.25322270608811,38.95800594006364],[-95.25322229259909,38.958006184413115],[-95.25322189025717,38.95800643894003],[-95.25322150014561,38.95800670547267],[-95.25322112121621,38.95800698128245],[-95.2532207557054,38.95800726822479],[-95.25322040252996,38.95800756447163],[-95.25322006284301,38.95800787005017],[-95.25321973783285,38.958008184087454],[-95.25321942631128,38.95800850745656],[-95.25321912946642,38.95800883928433],[-95.2532188472983,38.95800917957081],[-95.25321858103011,38.95800952654255],[-95.25321833066191,38.95800988019948],[-95.25321809615863,38.958010241442096],[-95.2532178776252,38.95801060756915],[-95.25321767499182,38.95801098038138],[-95.25321749063471,38.95801135813278],[-95.25321732224752,38.9580117407686],[-95.25321717098343,38.95801212831616],[-95.2532170380657,38.95801251900208],[-95.25321692230605,38.958012913699335],[-95.2532168237745,38.95801331060721],[-95.25321674358923,38.95801371065334],[-95.25321668066712,38.9580141120097],[-95.25321663616124,38.95801451470353],[-95.25321661007172,38.9580149187349],[-95.25321660124524,38.958015324076456],[-95.25321661094002,38.958015728054306],[-95.25321663793287,38.95801613244196],[-95.25321668460019,38.95801653549328],[-95.25321674748243,38.95801693712628],[-95.25321683007405,38.958017336522516],[-95.25321692891556,38.9580177336001],[-95.2532170463483,38.958018127513185],[-95.2532171812191,38.95801851823447],[-95.25321733356294,38.95801890486358],[-95.25321750222662,38.9580192873732],[-95.2532176883983,38.95801966489023],[-95.25321789207796,38.95802003741469],[-95.25321811099428,38.9580204039916],[-95.2532183474886,38.95802076377511],[-95.25321859921952,38.95802111761096],[-95.25321886625701,38.95802146369845],[-95.25321914856613,38.958021802937964],[-95.25321944618177,38.95802213442908],[-95.25321975913907,38.958022457271376],[-95.2532200851315,38.95802277141024],[-95.25322042650046,38.958023075999904],[-95.25322077975143,38.95802337185882],[-95.25322114726072,38.95802365724087],[-95.253221526687,38.958023932991765],[-95.2532219180652,38.958024198211106],[-95.2532223202771,38.958024451971184],[-95.25322273444097,38.958024695199754],[-95.25322315943858,38.95802492696907],[-95.25322359526987,38.95802514727906],[-95.25322403966354,38.958025355174804],[-95.25322449261942,38.958025550656245],[-95.25322495529086,38.958025733750745],[-95.25322542421823,38.958025904376306],[-95.25322590170788,38.95802606258757],[-95.2532263855234,38.95802620652908],[-95.25322687559476,38.9580263380017],[-95.25322737195705,38.95802645610499],[-95.25322787233881,38.958026559883905],[-95.25322837782329,38.958026651166556],[-95.25322888620894,38.95802672719717],[-95.25322939854414,38.95802679070418],[-95.25322991262733,38.95802683893181],[-95.25323042838859,38.95802687368089],[-95.25323094582795,38.95802689495129],[-95.25323146501533,38.95802690094235],[-95.25325403068571,38.958026907406094],[-95.2532540190247,38.958016039273865],[-95.25323519131882,38.95801605106726],[-95.25323518908604,38.958014563995285],[-95.25330207817976,38.958014521874865],[-95.25330211320765,38.95804881877019]]],[[[-95.2538605002532,38.957240969435915],[-95.2538605741633,38.95731230032481],[-95.25390306566557,38.95731227302122],[-95.25390299167759,38.95724094303275],[-95.2538605002532,38.957240969435915]]],[[[-95.25376023011795,38.95747664639255],[-95.25376027660424,38.95752212143092],[-95.25385331503809,38.9575216907984],[-95.25385326907092,38.95747658707786],[-95.25376023011795,38.95747664639255]]]]},"properties":{"SDE.FloorAll.FLOORLOCATION":"2"}},{"type":"Feature","geometry":{"type":"Polygon","coordinates":[[[-95.25436471758573,38.95774623855672],[-95.25427680331873,38.95774629527993],[-95.25427693840533,38.957875341046886],[-95.25471299442096,38.95787506273252],[-95.25471285857344,38.957746016065656],[-95.25463549453482,38.95774606601377],[-95.25463576594365,38.95744633008772],[-95.25459657103778,38.95744635461015],[-95.25459657014648,38.95744578321349],[-95.25459539741469,38.95744578338283],[-95.25459537483371,38.95742404714483],[-95.2545965476001,38.95742404607503],[-95.25459654670881,38.95742347467837],[-95.2545970592175,38.957423474196716],[-95.25459705157614,38.957416152477784],[-95.25458767416382,38.957416158443586],[-95.2545079649885,38.957416209545556],[-95.25450799760546,38.95744686903398],[-95.2543644044426,38.95744696100267],[-95.25436471758573,38.95774623855672]]]},"properties":{"SDE.FloorAll.FLOORLOCATION":"3"}},{"type":"Feature","geometry":{"type":"MultiPolygon","coordinates":[[[[-95.25330888214954,38.95804881059389],[-95.25331550244586,38.9580441918407],[-95.2533420062201,38.9580441753205],[-95.25334863610124,38.958048785322426],[-95.25334857997422,38.957994149113105],[-95.25334195041316,38.957990986483765],[-95.25355666885082,38.957990851094785],[-95.25356135757765,38.957990848603814],[-95.25364106740152,38.957990798152416],[-95.25364575616325,38.95799079475766],[-95.253725465987,38.957990744248235],[-95.25372890925108,38.95799074199105],[-95.25373257496254,38.95799360007865],[-95.25372546911517,38.95799360480578],[-95.25364575928825,38.957993655315185],[-95.25364107056124,38.95799365780953],[-95.2535613607342,38.957993708260965],[-95.25355667197219,38.95799371165229],[-95.25355667224407,38.957993882891216],[-95.25356136100609,38.95799387949986],[-95.25364107079832,38.95799382994887],[-95.25364575956034,38.95799382655411],[-95.25372546823425,38.95799377601738],[-95.25373279451873,38.95799377200539],[-95.25373279221341,38.95799127646289],[-95.25381273634812,38.95799122603598],[-95.2538180064259,38.957987104293096],[-95.25376261989088,38.95798713977594],[-95.25380938354078,38.95796884675038],[-95.25380942823344,38.95796891449947],[-95.25380950972246,38.95796901556414],[-95.25380960298841,38.957969110599166],[-95.25380970572489,38.95796919954996],[-95.25380981915505,38.95796928064303],[-95.25380993981928,38.95796935379638],[-95.25381006890584,38.957969418137],[-95.25381020522636,38.95796947453794],[-95.25381034657958,38.95796952024341],[-95.2538104928954,38.95796955705419],[-95.25381064193745,38.95796958311488],[-95.25381079367074,38.95796959932581],[-95.25381094697694,38.95796960475938],[-95.25381110066802,38.95796960028854],[-95.25381125247253,38.95796958495836],[-95.25381140235534,38.95796955966918],[-95.25381154919839,38.957969523493354],[-95.25381169062523,38.95796947817699],[-95.25381182778908,38.957969423747414],[-95.25381195726531,38.957969359222325],[-95.25381207894898,38.95796928730288],[-95.25381219291005,38.95796920618825],[-95.25381229673715,38.95796911852506],[-95.25381239046523,38.95796902341291],[-95.25381247287123,38.95796892262523],[-95.25381252550255,38.95796884546536],[-95.25389890419699,38.95800249722843],[-95.25389890109794,38.95799960603019],[-95.25389948748597,38.95799960549884],[-95.25390452815081,38.95799960592205],[-95.25390476246137,38.95799960606423],[-95.25390465471763,38.95789586998829],[-95.25421059778446,38.95789567604353],[-95.25421059617241,38.957893845620674],[-95.25421057683924,38.957876456057875],[-95.25422543489884,38.95787644653044],[-95.25422544849228,38.95788925954504],[-95.25422545010468,38.957891089967895],[-95.25423072521195,38.95789108691686],[-95.254230731383,38.957896425009004],[-95.25425592502623,38.95789640789699],[-95.25423511274124,38.95791268409619],[-95.25423074719656,38.95791268705789],[-95.25422547714845,38.957916808819554],[-95.25426805672733,38.957916781656955],[-95.25426277767349,38.95791266692674],[-95.2542627607343,38.95789640395012],[-95.25426275452588,38.9578910667584],[-95.25426803082128,38.95789106283258],[-95.25426803201645,38.957891864048484],[-95.25426803235788,38.95789209296727],[-95.25427066879334,38.95789209051311],[-95.25427066403645,38.957888201621714],[-95.25426802648295,38.957888203148144],[-95.25426801445343,38.95787641936788],[-95.25428911375977,38.95787640622691],[-95.25462994872093,38.95787618849612],[-95.25479081328318,38.957876085139],[-95.25479068204409,38.95775092826414],[-95.25479067738239,38.957746352643554],[-95.25475199482128,38.95774637673592],[-95.25475199410022,38.95774591979867],[-95.25475193043962,38.9576857436168],[-95.25471324902992,38.957685768623975],[-95.2547132170447,38.957655566073505],[-95.25463585198678,38.95765561509418],[-95.25463563358727,38.95744694429171],[-95.25463328924192,38.95744694555896],[-95.25459695115498,38.95744696923281],[-95.25459691921951,38.957416766681696],[-95.2545078326311,38.95741682374944],[-95.25450775760339,38.95741682377526],[-95.25446915021521,38.957416848647924],[-95.25446907518752,38.9574168486737],[-95.25446910672626,38.957446822306046],[-95.25436339260166,38.95744689017812],[-95.25436340179179,38.957455241131406],[-95.25436340255334,38.95745649925725],[-95.25436347175634,38.95752285346569],[-95.25436244558435,38.957522854399684],[-95.25435980804447,38.95752285592821],[-95.25435979719586,38.9575118733635],[-95.2543597419987,38.957459362277405],[-95.2542097021215,38.957459458206074],[-95.25420969774427,38.95745579733293],[-95.25418786558409,38.95745581112549],[-95.2541878649017,38.957455353287784],[-95.254187864765,38.95745526766837],[-95.25413302812797,38.957455301921364],[-95.25413297193192,38.957401275850714],[-95.25413284715941,38.95728115242865],[-95.25413283994108,38.95727408846834],[-95.25412494580037,38.957274093475064],[-95.25397741573715,38.957274187249716],[-95.25397738686907,38.957247388685516],[-95.25397518912574,38.95724738980647],[-95.2539751889555,38.957247275347065],[-95.25396960337258,38.95724727914306],[-95.25390060846891,38.957247322224575],[-95.25390059997626,38.957238627920134],[-95.25389107599202,38.9572386339625],[-95.25389107459608,38.95723771918758],[-95.25389034280713,38.95723771897865],[-95.25386836411886,38.957237732843915],[-95.2538676311418,38.95723773350791],[-95.25386763250248,38.95723864918321],[-95.25385810851826,38.95723865522285],[-95.25385814609996,38.957274349070794],[-95.25375147651397,38.95727441627959],[-95.25375148025388,38.9572785385647],[-95.25375166552124,38.957456088498574],[-95.25373965056619,38.95745609591054],[-95.25373973757021,38.95753965310981],[-95.25374195380878,38.95753965152996],[-95.2537419533515,38.95753972271575],[-95.25375175208222,38.957539716883694],[-95.2537518006682,38.95758582102573],[-95.25376249631509,38.957585813906164],[-95.25376249416995,38.95758364100538],[-95.25382110431549,38.95758360347543],[-95.25385275258496,38.957583583420615],[-95.25388953049578,38.957583560481844],[-95.2538896770919,38.95758356034898],[-95.25388967818263,38.95758424530466],[-95.25388953158651,38.9575842454375],[-95.25388953027749,38.95758377406665],[-95.25388806550443,38.95758377452179],[-95.2538880659654,38.95758447568464],[-95.2538656485691,38.957584489074726],[-95.25386564737732,38.95758371759917],[-95.25386429222803,38.957583718848035],[-95.25386429226661,38.957584490296256],[-95.25376864910723,38.957584551026564],[-95.25376866575773,38.95760081850567],[-95.25376866483828,38.957602743497354],[-95.25376866350396,38.95760289667374],[-95.25376866192471,38.9576030561529],[-95.25376865928739,38.95760594631432],[-95.25376865890135,38.95760598595899],[-95.25375022662504,38.95760972654893],[-95.25373130623434,38.957614978642376],[-95.25371879130702,38.95761944608163],[-95.25371304534733,38.95762149725207],[-95.25370493442203,38.957625090274625],[-95.2537317887516,38.957625078367535],[-95.25373179321939,38.9576252010397],[-95.25373181285373,38.957625319565075],[-95.25373184524318,38.95762543659006],[-95.25373189157598,38.95762555124167],[-95.25373190971104,38.95762558952263],[-95.25373194961576,38.95762566166443],[-95.25373201932737,38.95762576875877],[-95.25373210196908,38.9576258698508],[-95.25373219408131,38.95762596485859],[-95.25373229797039,38.957626053836776],[-95.25373241024671,38.95762613490257],[-95.25373253206345,38.95762620808333],[-95.2537326611493,38.957626272424086],[-95.25373279631592,38.957626328797815],[-95.25373293766837,38.957626374503384],[-95.25373308398348,38.95762641131428],[-95.25373323417794,38.95762643740234],[-95.2537333859105,38.95762645361336],[-95.25373353921596,38.95762645904701],[-95.2537336929063,38.957626454576285],[-95.25373384471007,38.9576264392462],[-95.25373399459218,38.95762641395714],[-95.25373414143456,38.957626377781395],[-95.25373428286076,38.95762633246513],[-95.25373441887083,38.957626278008384],[-95.2537345483465,38.95762621348332],[-95.25373467118283,38.957626141591284],[-95.25373478399027,38.95762606044945],[-95.25373488781693,38.957625972786346],[-95.25373498269794,38.95762587770149],[-95.25373506265723,38.957625780460816],[-95.25377779390043,38.95764243331473],[-95.25377780958827,38.957657537291325],[-95.25378055689707,38.9576575329685],[-95.25378055883785,38.95765959231022],[-95.25379833206523,38.957666516505256],[-95.2538160913314,38.957659569635794],[-95.2538160762104,38.95764492619806],[-95.25381605744755,38.95762707882445],[-95.25381605550575,38.95762501948276],[-95.2538664977077,38.957624993047176],[-95.2538665021758,38.95762511571939],[-95.25386652181032,38.957625234244695],[-95.25386655419999,38.957625351269684],[-95.25386660053304,38.95762546592121],[-95.25386665853799,38.957625577244315],[-95.2538666871219,38.957625613970244],[-95.25386672828482,38.957625683438195],[-95.25386681092671,38.95762578453014],[-95.2538669030391,38.95762587953779],[-95.25386700692837,38.95762596851584],[-95.25386711920484,38.9576260495815],[-95.25386724102177,38.95762612276217],[-95.25386737007271,38.957626188003104],[-95.25386750527443,38.95762624347631],[-95.25386764662701,38.95762628918171],[-95.25386779294216,38.95762632599241],[-95.25386794313667,38.957626352080325],[-95.25386809486923,38.95762636829121],[-95.25386824817475,38.95762637372464],[-95.25386840186509,38.95762636925376],[-95.25386855366878,38.95762635392349],[-95.2538687035509,38.957626328634255],[-95.253868849205,38.95762629333144],[-95.25386899181933,38.957626247141896],[-95.25386912782923,38.95762619268495],[-95.25386925730479,38.9576261281598],[-95.25386938014104,38.9576260562676],[-95.25386949294825,38.95762597512563],[-95.25386959677478,38.95762588746237],[-95.25386969050234,38.95762579235018],[-95.25386977406103,38.95762569158974],[-95.25386982214921,38.957625612519806],[-95.25396112726942,38.957661184275814],[-95.25394954916095,38.95767023862433],[-95.25360243237671,38.95767045874264],[-95.25359455279296,38.95768003955963],[-95.25358828312261,38.95768936020535],[-95.25358407397367,38.95769561683248],[-95.25357537384664,38.95771184816764],[-95.25357376554868,38.95771577996133],[-95.25356851839558,38.95772860985831],[-95.2535635610591,38.95774577429571],[-95.2535624261194,38.957752317331924],[-95.25365439546538,38.95771634160402],[-95.25365443666318,38.95771641017161],[-95.25365451815168,38.957716511236384],[-95.2536546113821,38.95771660717194],[-95.25365471415301,38.95771669522249],[-95.25365482639442,38.95771677718876],[-95.25365494821126,38.957716850369586],[-95.25365507729715,38.95771691471042],[-95.2536552136521,38.957716970211166],[-95.25365535496968,38.95771701681724],[-95.25365550131994,38.957717052727766],[-95.2536556503264,38.95771707968906],[-95.25365580205906,38.957717095900186],[-95.25365595536475,38.95771710133396],[-95.2536561090903,38.95771709596294],[-95.25365626085926,38.95771708153333],[-95.25365641077663,38.95771705534398],[-95.25365655758424,38.95771702006871],[-95.25365669901068,38.95771697475257],[-95.25365683505596,38.9577169193955],[-95.25365696565007,38.957716855798246],[-95.25365708736844,38.957716782978565],[-95.2536572012943,38.95771670276452],[-95.2536573051562,38.95771661420105],[-95.25365739884916,38.95771651998939],[-95.25365748125509,38.9577164192018],[-95.2536575293785,38.957716339231574],[-95.25373335809132,38.95774588219579],[-95.25380912463206,38.95771624299238],[-95.25380916579503,38.95771631246029],[-95.25380924728375,38.95771641352494],[-95.2538093405144,38.95771650946043],[-95.2538094432855,38.95771659751079],[-95.25380955671525,38.95771667860384],[-95.25380967737905,38.95771675175725],[-95.2538098064301,38.95771681699826],[-95.25380994278518,38.95771687249885],[-95.25381008410287,38.957716919104676],[-95.2538102304532,38.95771695501507],[-95.25381037945972,38.957716981976155],[-95.2538105312274,38.95771699728668],[-95.25381068449815,38.95771700362061],[-95.25381083822366,38.957716998249374],[-95.25381099002755,38.9577169829192],[-95.25381113990989,38.95771695763007],[-95.25381128671744,38.95771692235462],[-95.25381142814376,38.95771687703823],[-95.2538115653421,38.95771682170829],[-95.2538116947829,38.95771675808359],[-95.2538118165011,38.957716685263755],[-95.25381193042679,38.95771660504953],[-95.25381203428849,38.957716516485924],[-95.25381212798128,38.95771642227415],[-95.25381221038697,38.957716321486444],[-95.25381225851021,38.95771624151615],[-95.25388808732254,38.957745783478785],[-95.25396385376334,38.9577161450747],[-95.25396389492646,38.95771621454261],[-95.2539639764154,38.95771631560715],[-95.25396406968122,38.95771641064204],[-95.25396417241754,38.957716499592685],[-95.25396428584749,38.95771658068562],[-95.25396440651144,38.95771665383881],[-95.25396453556264,38.957716719079684],[-95.25396467191784,38.95771677458006],[-95.25396481327061,38.95771682028533],[-95.25396495958601,38.957716857095924],[-95.2539651086276,38.9577168831564],[-95.25396526151356,38.95771689939447],[-95.25396541481925,38.957716904827784],[-95.25396556735659,38.957716900329466],[-95.25396572031369,38.957716885026336],[-95.2539658701959,38.95771685973701],[-95.2539660158502,38.95771682443405],[-95.2539661584296,38.95771677914481],[-95.25396629447464,38.95771672378736],[-95.25396642391529,38.95771666016247],[-95.25396654563335,38.95771658734247],[-95.25396665955884,38.95771650712808],[-95.25396676342035,38.957716418564374],[-95.25396685711293,38.95771632435247],[-95.2539669406716,38.95771622359199],[-95.25396698879473,38.95771614362162],[-95.25404281651831,38.9577456854558],[-95.25404398860856,38.957745226553975],[-95.25404401798382,38.95777314174431],[-95.25365304803123,38.957773389582876],[-95.25364250788779,38.957781633053536],[-95.2535593238744,38.95778168592104],[-95.25355405379692,38.95778580765226],[-95.25355412681417,38.95785614357344],[-95.25355653005641,38.95785614192035],[-95.25355653032825,38.95785631315929],[-95.25304596598066,38.95785663427439],[-95.2530461066324,38.95799403276807],[-95.25304976726791,38.95799116978946],[-95.25330729964118,38.95799100827498],[-95.25331095184534,38.95799100557256],[-95.25330432915172,38.95799399305381],[-95.25330437917192,38.95804198349621],[-95.25330887514187,38.95804198095519],[-95.25330888214954,38.95804881059389]]],[[[-95.25376309948165,38.957583955450055],[-95.2537630997228,38.95758487019762],[-95.25376310094592,38.957585700253475],[-95.25376778968085,38.9575856968538],[-95.25376778842265,38.95758486769839],[-95.25376778821646,38.957583952050356],[-95.25376309948165,38.957583955450055]]],[[[-95.2538681135931,38.95762912467609],[-95.25386796063616,38.95762913997906],[-95.25386781075403,38.95762916526827],[-95.25386766509992,38.957629200571134],[-95.25386752252057,38.95762924586023],[-95.25386738647563,38.95762930121758],[-95.25386725703505,38.957629364842354],[-95.2538671353171,38.95762943766224],[-95.25386702139163,38.957629517876555],[-95.25386691753012,38.95762960644015],[-95.25386682383747,38.95762970065198],[-95.25386674027882,38.957629801412374],[-95.2538666691954,38.957629907875614],[-95.25386661065727,38.95763001824092],[-95.25386656351121,38.957630132480844],[-95.25386653013359,38.95763024884939],[-95.25386650933616,38.95763036821952],[-95.25386650237719,38.95763048791744],[-95.25386650813839,38.957630607015346],[-95.25386652777291,38.957630725540675],[-95.25386656016256,38.957630842565656],[-95.25386660534241,38.9576309571899],[-95.25386666334734,38.95763106851302],[-95.25386673424742,38.95763117473415],[-95.25386681573615,38.957631275798775],[-95.25386690900172,38.95763137083379],[-95.25386701289099,38.95763145981184],[-95.25386712516749,38.95763154087752],[-95.25386724583119,38.95763161403082],[-95.25386737488213,38.95763167927179],[-95.25386751123709,38.957631734772264],[-95.25386765258968,38.95763178047772],[-95.25386779890484,38.95763181728844],[-95.25386794794618,38.957631843349],[-95.25386810083194,38.95763185958717],[-95.25386825413749,38.95763186502064],[-95.2538684066746,38.95763186052242],[-95.25386855963154,38.95763184521948],[-95.25386870951368,38.957631819930214],[-95.25386885516777,38.9576317846274],[-95.2538689977821,38.9576317384379],[-95.25386913379202,38.957631683980956],[-95.25386926323262,38.95763162035619],[-95.25386938495063,38.95763154753626],[-95.25386949891106,38.95763146642162],[-95.2538696027376,38.95763137875839],[-95.25386969646516,38.95763128364612],[-95.25386978002386,38.95763118288572],[-95.25386985107231,38.95763107732287],[-95.25386990961043,38.95763096695763],[-95.25386995675647,38.957630852717664],[-95.25386999016905,38.957630735448774],[-95.25387001093148,38.95763061697901],[-95.25387001789048,38.95763049728109],[-95.2538700121293,38.957630378183126],[-95.25386999252974,38.957630258757426],[-95.25386996014002,38.957630141732466],[-95.25386991492523,38.95763002800864],[-95.25386985692025,38.95762991668552],[-95.25386978602022,38.95762981046436],[-95.25386970453152,38.95762970939972],[-95.25386961130086,38.957629613464334],[-95.25386950852983,38.95762952541401],[-95.25386939510017,38.957629444321036],[-95.25386927443645,38.95762937116768],[-95.25386914538547,38.95762930592675],[-95.25386900903054,38.9576292504262],[-95.25386886771295,38.95762920382045],[-95.25386872136284,38.95762916791015],[-95.25386857232148,38.95762914184959],[-95.25386841943573,38.957629125611355],[-95.25386826616518,38.957629119277485],[-95.2538681135931,38.95762912467609]]],[[[-95.25373340462906,38.9576292099983],[-95.25373325167214,38.957629225301126],[-95.25373310178996,38.95762925059016],[-95.25373295613579,38.95762928589283],[-95.25373281355635,38.95762933118176],[-95.2537326775113,38.957629386538954],[-95.25373254807062,38.95762945016357],[-95.25373242635247,38.957629522983325],[-95.25373231242688,38.957629603197496],[-95.25373220856514,38.957629691761],[-95.25373211487239,38.95762978597272],[-95.25373203131348,38.95762988673303],[-95.25373196022991,38.95762999319618],[-95.25373190169158,38.95763010356134],[-95.2537318545453,38.95763021780126],[-95.2537318211674,38.95763033416974],[-95.25373180036979,38.95763045353987],[-95.2537317934106,38.95763057323775],[-95.2537317991715,38.95763069233571],[-95.25373181880585,38.95763081086106],[-95.25373185119531,38.95763092788607],[-95.25373189637492,38.95763104251037],[-95.25373195437966,38.957631153833496],[-95.25373202527952,38.957631260054775],[-95.25373210676806,38.95763136111951],[-95.25373220003345,38.95763145615459],[-95.25373230392253,38.95763154513278],[-95.25373241619887,38.95763162619859],[-95.25373253801564,38.957631699379355],[-95.25373266706644,38.95763176462047],[-95.25373280226813,38.957631820093795],[-95.25373294362058,38.957631865799364],[-95.25373308993571,38.95763190261023],[-95.2537332401302,38.95763192869833],[-95.25373339186274,38.95763194490937],[-95.2537335451682,38.95763195034302],[-95.25373369770537,38.95763194584498],[-95.25373385066234,38.95763193054223],[-95.25373400054448,38.95763190525314],[-95.25373414619871,38.95763186995048],[-95.25373428881309,38.95763182376112],[-95.25373442482315,38.957631769304385],[-95.25373455429883,38.957631704779345],[-95.253734675982,38.95763163285995],[-95.25373478994263,38.957631551745436],[-95.25373489376932,38.9576314640823],[-95.25373498749705,38.9576313689702],[-95.25373507105596,38.95763126820987],[-95.25373514210455,38.95763116264709],[-95.25373520179612,38.957631052309246],[-95.25373524778914,38.95763093804204],[-95.253735281202,38.95763082077314],[-95.25373530196464,38.95763070230343],[-95.25373531007708,38.95763058263287],[-95.25373530316291,38.95763046350757],[-95.2537352835636,38.957630344081835],[-95.25373525117409,38.95763022705682],[-95.25373520595947,38.95763011333295],[-95.25373514795474,38.95763000200977],[-95.25373507705491,38.95762989578851],[-95.25373499556635,38.95762979472379],[-95.25373490233594,38.95762969878829],[-95.25373479956508,38.95762961073787],[-95.25373468613552,38.95762952964472],[-95.25373456547194,38.95762945649126],[-95.25373443642113,38.95762939125013],[-95.25373430006627,38.95762933574948],[-95.25373415874881,38.95762928914357],[-95.25373401239874,38.95762925323305],[-95.25373386339244,38.95762922627189],[-95.25373371047174,38.95762921093392],[-95.2537335572012,38.9576292045999],[-95.25373340462906,38.9576292099983]]],[[[-95.25365212203062,38.95762141595017],[-95.2536514809904,38.95762704152434],[-95.25368496451864,38.957658423059385],[-95.2536872156646,38.95765695872025],[-95.25368901795815,38.95765578746175],[-95.25365460680516,38.95762353410185],[-95.25365225346421,38.95762133074348],[-95.25365214321582,38.95762122719501],[-95.25365212203062,38.95762141595017]]],[[[-95.2538108123924,38.957972355710695],[-95.25381066058796,38.95797237104085],[-95.25381051070508,38.957972396330035],[-95.25381036389705,38.957972431605505],[-95.25381022247016,38.957972476921825],[-95.25381008642451,38.95797253227908],[-95.25380995583006,38.95797259587648],[-95.25380983411141,38.95797266869636],[-95.25380972018536,38.957972748910535],[-95.25380961632322,38.95797283747411],[-95.2538095226301,38.957972931685916],[-95.25380944022415,38.9579730324736],[-95.2538093691403,38.957973138936794],[-95.25380930944861,38.95797324927468],[-95.25380926230223,38.957973363514604],[-95.2538092289243,38.95797347988312],[-95.25380920816171,38.95797359835285],[-95.25380920120261,38.957973718050766],[-95.25380920692871,38.95797383804912],[-95.25380922656329,38.957973956574435],[-95.253809258953,38.9579740735994],[-95.25380930528615,38.95797418825095],[-95.25380936332628,38.95797429867371],[-95.25380943303844,38.95797440576801],[-95.25380951568064,38.95797450685998],[-95.25380960894661,38.95797460189497],[-95.25380971168312,38.957974690845774],[-95.25380982396007,38.957974771911495],[-95.25380994577752,38.95797484509222],[-95.25381007486402,38.95797490943283],[-95.2538102100314,38.95797496580649],[-95.25381035253784,38.957975011539276],[-95.25381049770048,38.957975048322744],[-95.25381064789572,38.9579750744107],[-95.25381079962902,38.95797509062167],[-95.25381095293525,38.95797509605518],[-95.25381110662634,38.95797509158438],[-95.25381125843084,38.95797507625417],[-95.2538114083137,38.95797505096502],[-95.25381155515674,38.957975014789156],[-95.25381169658361,38.957974969472794],[-95.25381183259427,38.95797491501593],[-95.2538119632237,38.95797485051817],[-95.25381208490738,38.957974778598704],[-95.25381219771526,38.95797469745679],[-95.25381230269555,38.95797460982093],[-95.25381239642364,38.95797451470872],[-95.25381247882966,38.957974413921036],[-95.25381254987846,38.957974308358274],[-95.2538126095702,38.95797419802031],[-95.25381265671659,38.95797408378041],[-95.25381269012942,38.95797396651152],[-95.25381271089202,38.957973848041775],[-95.25381271785116,38.95797372834388],[-95.25381271212503,38.95797360834556],[-95.2538126924905,38.95797348982021],[-95.25381265894752,38.95797337276793],[-95.25381261373255,38.95797325904403],[-95.25381255572742,38.95797314772094],[-95.25381248482715,38.957973041499734],[-95.25381240333807,38.95797294043508],[-95.2538123101071,38.95797284449965],[-95.25381220733566,38.95797275644926],[-95.2538120950587,38.957972675383516],[-95.25381197327617,38.95797260130243],[-95.2538118441897,38.957972536961805],[-95.25381170783412,38.95797248146125],[-95.2538115665159,38.95797243485537],[-95.2538114201651,38.95797239894497],[-95.25381127115804,38.95797237198394],[-95.25381111938978,38.95797235667341],[-95.25381096611848,38.957972350339475],[-95.2538108123924,38.957972355710695]]]]},"properties":{"SDE.FloorAll.FLOORLOCATION":"ROOF"}}]}
