{"type":"FeatureCollection","features":[{"type":"Feature","geometry":{"type":"MultiPolygon","coordinates":[[[[-95.25794442527759,38.95565108010688],[-95.25802094925098,38.95567152356519],[-95.25803299711905,38.95564402921248],[-95.25806640739216,38.955652954677184],[-95.25821600447125,38.95531155678531],[-95.25823586249632,38.9553168623453],[-95.25823804434874,38.95531188331819],[-95.2582354191769,38.95531118137074],[-95.25827241460222,38.95522675192668],[-95.25829372116134,38.955232444109456],[-95.25831563346073,38.95518243614628],[-95.25829432806805,38.9551767439948],[-95.25832534760562,38.95510595291149],[-95.25832020916758,38.955104580505484],[-95.25831945060244,38.95510631274135],[-95.25827450023239,38.95509430443784],[-95.2582754487109,38.95509213960039],[-95.25827156691082,38.95509110242299],[-95.25827061843228,38.955093267260395],[-95.25825180002859,38.95508823953308],[-95.25825274850767,38.955086074695764],[-95.25824886667337,38.955085038418],[-95.25824791819416,38.955087203255246],[-95.2582328422344,38.95508317516107],[-95.25822553812881,38.95509984447755],[-95.25824439196728,38.95510488115804],[-95.25823775142076,38.955120035891404],[-95.2582341472182,38.955119072869024],[-95.25823386233175,38.955119722221944],[-95.25818877260942,38.95510767634323],[-95.25818896252235,38.95510724374149],[-95.25818093044535,38.955105098143704],[-95.25817960325608,38.955108129111466],[-95.25823272393892,38.95512231966085],[-95.25823243905243,38.95512296901376],[-95.25823604325517,38.95512393203619],[-95.25822276334026,38.955154240628325],[-95.25821888153753,38.95515320344918],[-95.25821745825685,38.95515645024081],[-95.25820003807178,38.95515179713379],[-95.25819615626953,38.95515075995383],[-95.25817265523288,38.95514448143156],[-95.25817398357634,38.95514145049113],[-95.25816593433824,38.955139300881626],[-95.25816460602942,38.95514233092158],[-95.25815365402833,38.95513940520565],[-95.2581486721073,38.95513807434474],[-95.2581315020894,38.955177258995725],[-95.25812762482956,38.95517622372336],[-95.25812629770654,38.955179252889735],[-95.25812787534299,38.95517967411971],[-95.25810721106677,38.95522687361565],[-95.25810362856107,38.9552259165098],[-95.25810249016172,38.955228513947404],[-95.25811302633542,38.955231328897085],[-95.25809353261617,38.95527581545608],[-95.25809048360551,38.95527500074253],[-95.2579399363837,38.955618562380494],[-95.25795671116943,38.955623044348805],[-95.25794442527759,38.95565108010688]]],[[[-95.25799522546264,38.954903619839946],[-95.25799484675373,38.95490448597051],[-95.2579976193031,38.95490522655698],[-95.25802588735665,38.95484071418004],[-95.2580269966271,38.95484100987959],[-95.25802832497108,38.954837978940745],[-95.25802721570068,38.95483768324126],[-95.25805548488829,38.954773169983575],[-95.25805659296972,38.95477346655598],[-95.25805792131119,38.95477043561681],[-95.25805777588334,38.954769066825456],[-95.2580451343565,38.954765690183784],[-95.25802997469381,38.954762363936375],[-95.25801772901885,38.95475916698446],[-95.258000534146,38.95475573041631],[-95.25798607133265,38.95475386980937],[-95.25796675823089,38.95475279030488],[-95.25795898307695,38.95475280018242],[-95.25794874461936,38.95475320241239],[-95.25793931966517,38.954753967247036],[-95.25793224001615,38.95475479295624],[-95.257931135337,38.954757265018614],[-95.25787868685757,38.954876958711914],[-95.25796019302771,38.95489873311136],[-95.25796194806131,38.95489472993209],[-95.25799522546264,38.954903619839946]]]]},"properties":{"SDE.FloorAll.FLOORLOCATION":"-1"}},{"type":"Feature","geometry":{"type":"Polygon","coordinates":[[[-95.25794456829983,38.95565075544446],[-95.25802109227284,38.95567119890264],[-95.2580330451657,38.95564392130086],[-95.25806631607948,38.955652809223366],[-95.25821572321048,38.95531184483377],[-95.25823596398287,38.95531725136965],[-95.25823814583535,38.9553122723425],[-95.25823495742777,38.95531142099119],[-95.25823531324853,38.955310609293235],[-95.25823517388979,38.95531057175126],[-95.2582715057213,38.95522765779167],[-95.25827164507992,38.955227695333626],[-95.25827199974663,38.95522688360828],[-95.25829362618762,38.95523266086061],[-95.25831544470152,38.95518286877548],[-95.25833318932634,38.955187608844355],[-95.2583316710417,38.955191073289],[-95.25833610692763,38.95519225784883],[-95.2583521750316,38.95515559036281],[-95.258388080079,38.95516518215712],[-95.25838643139251,38.95516894362586],[-95.25839156068103,38.95517031400996],[-95.25840408196319,38.95514173763494],[-95.25844331477194,38.95515221830067],[-95.25844179649341,38.95515568274673],[-95.2584466481832,38.9551569789726],[-95.25845082193688,38.95514745351244],[-95.2584641307111,38.95515100810546],[-95.25848462071556,38.95510424783236],[-95.25847131198401,38.95510069234131],[-95.258475485731,38.95509116688018],[-95.2584706340452,38.95508987065548],[-95.25846911580427,38.95509333420151],[-95.25842988417752,38.95508285357176],[-95.25845682473201,38.9550213720614],[-95.25845169545302,38.95502000168016],[-95.25844999988084,38.95502387108888],[-95.25837042629414,38.95500261407956],[-95.25844393130929,38.95483486473839],[-95.25841066076785,38.95482597602323],[-95.25842261333263,38.95479869927978],[-95.25834609018781,38.95477825608505],[-95.25833413756203,38.95480553372102],[-95.25831459036279,38.954800312128526],[-95.25833019501968,38.954764699833],[-95.25832506576177,38.95476332944608],[-95.25831899506818,38.95477718457781],[-95.25829903204126,38.95477185221236],[-95.25830344378393,38.95476178534312],[-95.25815039765241,38.95472089964618],[-95.25815196282853,38.95471732726483],[-95.25814711117432,38.95471603102656],[-95.258115853636,38.95478736347816],[-95.25803991206392,38.95476707532456],[-95.25802487158275,38.95476305705265],[-95.25801871545846,38.95476131990235],[-95.25801248585019,38.95475975134481],[-95.258006189607,38.95475835334452],[-95.2579998359191,38.95475712702005],[-95.2579934304824,38.95475607430849],[-95.25798698248711,38.954755196328456],[-95.25798049881723,38.95475449414397],[-95.25797398866301,38.95475396887355],[-95.25796745779014,38.9547536206536],[-95.25796091654202,38.954753450629944],[-95.25795437068443,38.954753458938946],[-95.25794782947744,38.95475364489842],[-95.25794130099308,38.95475400869925],[-95.25793479218514,38.954754549604665],[-95.25792831227882,38.95475526783287],[-95.25792186714463,38.95475616081902],[-95.25791546597281,38.95475722968176],[-95.25790911697513,38.954758471010365],[-95.2579028270705,38.95475988496852],[-95.25789660328249,38.95476146901866],[-95.25789045490623,38.95476322157816],[-95.2578843878122,38.95476514008231],[-95.25787841017728,38.95476722202074],[-95.25787252899018,38.9547694657564],[-95.2578667524627,38.95477186787855],[-95.25786108531213,38.95477442579515],[-95.25785553575035,38.95477713609555],[-95.25785011083593,38.95477999534181],[-95.25784481759257,38.95478300099639],[-95.25783966080756,38.95478614866648],[-95.25783464757441,38.9547894340137],[-95.25782978376368,38.95479285447323],[-95.2578250753507,38.95479640477916],[-95.25782052824103,38.95480008146624],[-95.25781614841,38.9548038792685],[-95.2578119406449,38.95480779379303],[-95.2578079097329,38.95481182064706],[-95.25780406049635,38.954815954537196],[-95.25780039887566,38.954820191097916],[-95.25779692857475,38.954824524108325],[-95.25779365326275,38.9548289482478],[-95.25779057653885,38.95483345999665],[-95.25778770329521,38.95483805226083],[-95.25778503720085,38.9548427197197],[-95.25778258077165,38.9548474570256],[-95.25778033771172,38.95485225795744],[-95.25773470817707,38.95495638744118],[-95.25776091540709,38.95496338885538],[-95.25781335449399,38.95517279350742],[-95.25783827778004,38.955179451810494],[-95.25786109814237,38.955184978003494],[-95.25782579412113,38.95526554503849],[-95.25783057728117,38.95526682254617],[-95.25783448139886,38.9552579125724],[-95.25800395597963,38.95530318681763],[-95.25800017470505,38.95531181671801],[-95.25800516463788,38.95531314957694],[-95.25802778996525,38.95526151830125],[-95.25808934150778,38.95527796128519],[-95.25808787013737,38.95528131688726],[-95.25808849501462,38.955281483971646],[-95.25807597246194,38.95531005938457],[-95.25807534870276,38.95530989322781],[-95.25793988575717,38.95561903432491],[-95.25795652118384,38.95562347875093],[-95.25794456829983,38.95565075544446]]]},"properties":{"SDE.FloorAll.FLOORLOCATION":"1"}},{"type":"Feature","geometry":{"type":"Polygon","coordinates":[[[-95.25794442527759,38.95565108010688],[-95.25802094925098,38.95567152356519],[-95.25803299711905,38.95564402921248],[-95.25806640739216,38.955652954677184],[-95.25821600447125,38.95531155678531],[-95.25823582825068,38.955316852523254],[-95.25823801010311,38.95531187349615],[-95.2582363467791,38.95531142951332],[-95.25827334220341,38.95522700006898],[-95.25829372116134,38.955232444109456],[-95.25831596527443,38.95518167795374],[-95.25829461644598,38.95517597486173],[-95.25844421141409,38.954834576662115],[-95.25841080148001,38.954825651305605],[-95.25842284901742,38.95479815781091],[-95.25834632587313,38.95477771461632],[-95.25833427942763,38.95480520903082],[-95.25831750477708,38.95480072801718],[-95.25816790930372,38.95514212515394],[-95.25814808557843,38.95513682940436],[-95.25814590372502,38.95514180842984],[-95.2581475670096,38.95514225331436],[-95.25811057147938,38.95522668271918],[-95.25810266962915,38.955224571738725],[-95.25808042419636,38.95527533782608],[-95.25808929593559,38.955277707865164],[-95.25793969946946,38.955619105621814],[-95.25795647313709,38.955623586662526],[-95.25794442527759,38.95565108010688]]]},"properties":{"SDE.FloorAll.FLOORLOCATION":"2"}},{"type":"Feature","geometry":{"type":"Polygon","coordinates":[[[-95.25794442527759,38.95565108010688],[-95.25802094925098,38.95567152356519],[-95.25803299711905,38.95564402921248],[-95.25806640739216,38.955652954677184],[-95.25821600447125,38.95531155678531],[-95.25823582825068,38.955316852523254],[-95.25823801010311,38.95531187349615],[-95.2582363467791,38.95531142951332],[-95.25827334220341,38.95522700006898],[-95.25829372116134,38.955232444109456],[-95.25831596527443,38.95518167795374],[-95.25829461644598,38.95517597486173],[-95.25844421141409,38.954834576662115],[-95.25841080148001,38.954825651305605],[-95.25842284901742,38.95479815781091],[-95.25834632587313,38.95477771461632],[-95.25833427942763,38.95480520903082],[-95.25831750477708,38.95480072801718],[-95.25816790930372,38.95514212515394],[-95.25814808557843,38.95513682940436],[-95.25814590372502,38.95514180842984],[-95.2581475670096,38.95514225331436],[-95.25811057147938,38.95522668271918],[-95.25810266962915,38.955224571738725],[-95.25808042419636,38.95527533782608],[-95.25808929593559,38.955277707865164],[-95.25793969946946,38.955619105621814],[-95.25795647313709,38.955623586662526],[-95.25794442527759,38.95565108010688]]]},"properties":{"SDE.FloorAll.FLOORLOCATION":"3"}},{"type":"Feature","geometry":{"type":"Polygon","coordinates":[[[-95.25794442527759,38.95565108010688],[-95.25802094925098,38.95567152356519],[-95.25803299711905,38.95564402921248],[-95.25806640739216,38.955652954677184],[-95.25821600447125,38.95531155678531],[-95.25823582825068,38.955316852523254],[-95.25823801010311,38.95531187349615],[-95.2582363467791,38.95531142951332],[-95.25827334220341,38.95522700006898],[-95.25829372116134,38.955232444109456],[-95.25831596527443,38.95518167795374],[-95.25829461644598,38.95517597486173],[-95.25844421141409,38.954834576662115],[-95.25841080148001,38.954825651305605],[-95.25842284901742,38.95479815781091],[-95.25834632587313,38.95477771461632],[-95.25833427942763,38.95480520903082],[-95.25831750477708,38.95480072801718],[-95.25816790930372,38.95514212515394],[-95.25814808557843,38.95513682940436],[-95.25814590372502,38.95514180842984],[-95.2581475670096,38.95514225331436],[-95.25811057147938,38.95522668271918],[-95.25810266962915,38.955224571738725],[-95.25808042419636,38.95527533782608],[-95.25808929593559,38.955277707865164],[-95.25793969946946,38.955619105621814],[-95.25795647313709,38.955623586662526],[-95.25794442527759,38.95565108010688]]]},"properties":{"SDE.FloorAll.FLOORLOCATION":"4"}},{"type":"Feature","geometry":{"type":"Polygon","coordinates":[[[-95.25794442527759,38.95565108010688],[-95.25802094925098,38.95567152356519],[-95.25803299711905,38.95564402921248],[-95.25806640739216,38.955652954677184],[-95.25821600447125,38.95531155678531],[-95.25823582825068,38.955316852523254],[-95.25823801010311,38.95531187349615],[-95.2582363467791,38.95531142951332],[-95.25827334220341,38.95522700006898],[-95.25829372116134,38.955232444109456],[-95.25831596527443,38.95518167795374],[-95.25829461644598,38.95517597486173],[-95.25844421141409,38.954834576662115],[-95.25841080148001,38.954825651305605],[-95.25842284901742,38.95479815781091],[-95.25834632587313,38.95477771461632],[-95.25833427942763,38.95480520903082],[-95.25831750477708,38.95480072801718],[-95.25816790930372,38.95514212515394],[-95.25814808557843,38.95513682940436],[-95.25814590372502,38.95514180842984],[-95.2581475670096,38.95514225331436],[-95.25811057147938,38.95522668271918],[-95.25810266962915,38.955224571738725],[-95.25808042419636,38.95527533782608],[-95.25808929593559,38.955277707865164],[-95.25793969946946,38.955619105621814],[-95.25795647313709,38.955623586662526],[-95.25794442527759,38.95565108010688]]]},"properties":{"SDE.FloorAll.FLOORLOCATION":"5"}},{"type":"Feature","geometry":{"type":"Polygon","coordinates":[[[-95.25794442527759,38.95565108010688],[-95.25802094925098,38.95567152356519],[-95.25803299711905,38.95564402921248],[-95.25806640739216,38.955652954677184],[-95.25821600447125,38.95531155678531],[-95.25823582825068,38.955316852523254],[-95.25823801010311,38.95531187349615],[-95.2582363467791,38.95531142951332],[-95.25827334220341,38.95522700006898],[-95.25829372116134,38.955232444109456],[-95.25831596527443,38.95518167795374],[-95.25829461644598,38.95517597486173],[-95.25844421141409,38.954834576662115],[-95.25841080148001,38.954825651305605],[-95.25842284901742,38.95479815781091],[-95.25834632587313,38.95477771461632],[-95.25833427942763,38.95480520903082],[-95.25831750477708,38.95480072801718],[-95.25816790930372,38.95514212515394],[-95.25814808557843,38.95513682940436],[-95.25814595061802,38.95514170049089],[-95.25814761505572,38.95514214540268],[-95.25811057147938,38.95522668271918],[-95.25810266962915,38.955224571738725],[-95.25808042419636,38.95527533782608],[-95.25808929593559,38.955277707865164],[-95.25793969946946,38.955619105621814],[-95.25795647313709,38.955623586662526],[-95.25794442527759,38.95565108010688]]]},"properties":{"SDE.FloorAll.FLOORLOCATION":"6"}},{"type":"Feature","geometry":{"type":"Polygon","coordinates":[[[-95.25794442527759,38.95565108010688],[-95.25802094925098,38.95567152356519],[-95.25803299711905,38.95564402921248],[-95.25806640739216,38.955652954677184],[-95.25821600447125,38.95531155678531],[-95.25823582825068,38.955316852523254],[-95.25823801010311,38.95531187349615],[-95.2582363467791,38.95531142951332],[-95.25827334220341,38.95522700006898],[-95.25829372116134,38.955232444109456],[-95.25831596527443,38.95518167795374],[-95.25829461644598,38.95517597486173],[-95.25844421141409,38.954834576662115],[-95.25841080148001,38.954825651305605],[-95.25842284901742,38.95479815781091],[-95.25834632587313,38.95477771461632],[-95.25833427942763,38.95480520903082],[-95.25831750477708,38.95480072801718],[-95.25816790930372,38.95514212515394],[-95.25814808557843,38.95513682940436],[-95.25814590372502,38.95514180842984],[-95.2581475670096,38.95514225331436],[-95.25811057147938,38.95522668271918],[-95.25810266962915,38.955224571738725],[-95.25808042419636,38.95527533782608],[-95.25808929593559,38.955277707865164],[-95.25793969946946,38.955619105621814],[-95.25795647313709,38.955623586662526],[-95.25794442527759,38.95565108010688]]]},"properties":{"SDE.FloorAll.FLOORLOCATION":"7"}},{"type":"Feature","geometry":{"type":"MultiPolygon","coordinates":[[[[-95.25808037730317,38.95527544576502],[-95.25813652194356,38.95529044506971],[-95.25814766811023,38.95526500760158],[-95.2581588142339,38.95523957103273],[-95.25810266962915,38.955224571738725],[-95.25808037730317,38.95527544576502]]],[[[-95.2582599613164,38.95519507146681],[-95.25824883924166,38.955220454539784],[-95.25829372116134,38.955232444109456],[-95.25831596527443,38.95518167795374],[-95.25827108453633,38.955169688419964],[-95.2582599613164,38.95519507146681]]]]},"properties":{"SDE.FloorAll.FLOORLOCATION":"8"}},{"type":"Feature","geometry":{"type":"Polygon","coordinates":[[[-95.25794465961225,38.95565090089838],[-95.25800679295361,38.95566749916965],[-95.25800790108379,38.955667794842014],[-95.25802118362041,38.95567134345608],[-95.25803313532515,38.95564406672749],[-95.25806640739216,38.955652954677184],[-95.25811416697074,38.95554396107727],[-95.2581262667059,38.95551634807998],[-95.25812664656964,38.95551548197636],[-95.25817698288463,38.955400608432484],[-95.25821581452303,38.9553119902875],[-95.25823605414232,38.95531739679604],[-95.25827518452449,38.95522809626299],[-95.25827527946338,38.95522788041229],[-95.25829371753514,38.95523280541386],[-95.25831553486094,38.955183014201864],[-95.25833369532496,38.955187865041026],[-95.2583321781935,38.95519132951287],[-95.25833661407944,38.955192514072685],[-95.25835255059002,38.95515614448307],[-95.25838803979863,38.95516562550723],[-95.25838652155207,38.95516908905215],[-95.25839095855581,38.95517027453758],[-95.25840347983815,38.9551416981626],[-95.2584434049316,38.95515236372694],[-95.25844188668798,38.955155827272606],[-95.25844632369183,38.95515701275589],[-95.25847516123989,38.955091200663546],[-95.25847072420478,38.95509001608174],[-95.25846920711703,38.955093479655055],[-95.25842928205303,38.95508281409957],[-95.25845622264289,38.955021331688975],[-95.25845178561248,38.95502014710641],[-95.25845026852534,38.95502361067949],[-95.25837069497383,38.95500235276994],[-95.25839534742485,38.95494609111971],[-95.25841289461641,38.954906044771725],[-95.25841327447336,38.95490517866711],[-95.25844402150345,38.954835009264244],[-95.25841075092703,38.954826121449514],[-95.25842284539189,38.95479851911533],[-95.25840825727094,38.95479462153961],[-95.25840714915277,38.954794325871006],[-95.25834632221222,38.954778076821185],[-95.25833422772104,38.954805679147405],[-95.25831468170985,38.954800456681795],[-95.25833028633176,38.95476484528659],[-95.25832515707383,38.954763474899735],[-95.2583190852271,38.954777330004184],[-95.25829912338821,38.954771996765594],[-95.25830353397772,38.954761929869115],[-95.25815048781087,38.95472104507265],[-95.25815205298703,38.95471747269135],[-95.258146923736,38.95471610229655],[-95.25811840768105,38.95478118020988],[-95.25803877509694,38.95475990624776],[-95.2580387973362,38.95476260593492],[-95.25803881298994,38.95476443398423],[-95.25803898016254,38.95476634312208],[-95.25801844830283,38.954760857565574],[-95.258002776323,38.95475725964626],[-95.25798676240149,38.95475474051214],[-95.25797052919152,38.95475332198953],[-95.2579541987171,38.954753012371626],[-95.25793789544824,38.954753816404555],[-95.25792174434399,38.95475572622913],[-95.25790586714831,38.954758727601536],[-95.25789038588485,38.95476279907484],[-95.25787541841866,38.954767907388025],[-95.25786107814204,38.95477401556931],[-95.25784747421915,38.95478107663364],[-95.2578347091746,38.95478903622905],[-95.25782288231822,38.95479783361915],[-95.25781208160328,38.95480740329271],[-95.25780239071977,38.954817670625545],[-95.25779388304922,38.954828558947234],[-95.25778662299267,38.95483998506619],[-95.25778066471267,38.95485186194396],[-95.25773503633195,38.95495599145506],[-95.25776068267113,38.95496284261721],[-95.25781571556216,38.955181284792744],[-95.25783771564271,38.955177905535834],[-95.25785388944837,38.95518222640856],[-95.25785030939586,38.955185788082254],[-95.25784714168887,38.95518958030777],[-95.25784440827192,38.95519357296268],[-95.25784213105472,38.95519773682486],[-95.25784032743894,38.95520203986182],[-95.257839011402,38.95520644905903],[-95.25783819230847,38.9552109312927],[-95.25783787609845,38.95521545245686],[-95.25783806644061,38.95521997749065],[-95.25783876004976,38.95522447206989],[-95.25783995360581,38.9552289027708],[-95.25784163690452,38.9552332351056],[-95.2578428655149,38.95523575063664],[-95.25783888049777,38.955237582298345],[-95.25783511489969,38.955239678701574],[-95.25783159709515,38.955242022493024],[-95.25782835542368,38.95524459721964],[-95.25782541371699,38.955247383618236],[-95.25782279364017,38.95525035876949],[-95.25782051451715,38.95525350059991],[-95.25781859685986,38.95525678616285],[-95.25781705205982,38.955260189592266],[-95.2578162952712,38.955262470711695],[-95.25781589266164,38.955263685049495],[-95.25781568506977,38.955264484030124],[-95.25802632768522,38.95532075621594],[-95.25802738223531,38.955318862453154],[-95.25802824442324,38.95531731561776],[-95.25802976866429,38.9553137575905],[-95.25803089128844,38.95531010895512],[-95.2580316019529,38.95530639830613],[-95.25803189615019,38.955302652573664],[-95.25803177038674,38.9552989023166],[-95.25803122710903,38.955295173728295],[-95.25803026974229,38.955291497531306],[-95.25802898753854,38.95528810204313],[-95.25802890538078,38.95528789912756],[-95.2580275188789,38.95528507975757],[-95.25803210569951,38.955282968523335],[-95.25803644004168,38.955280552112036],[-95.25804048766022,38.95527785044201],[-95.25804421776967,38.955274883513255],[-95.25804760293911,38.95527167410894],[-95.25805061682104,38.95526824684021],[-95.25805094368215,38.955267824687205],[-95.25808943166689,38.955278106711745],[-95.2580893847737,38.955278214650676],[-95.2580741116991,38.9553130687205],[-95.25807373183582,38.95531393482397],[-95.25805055180734,38.95536683362668],[-95.25804400875518,38.955381764448965],[-95.25802847493642,38.95537763628042],[-95.25800487114014,38.95543178766571],[-95.25800709092242,38.95543237729162],[-95.25800822363254,38.955429777917814],[-95.25800829331202,38.95542979668894],[-95.25800835397568,38.95542980983952],[-95.25800841705046,38.955429820343454],[-95.25800848033484,38.955429825445016],[-95.25800854491203,38.95542982697224],[-95.25800860854571,38.95542982306981],[-95.25800867116588,38.95542981553853],[-95.25800873392576,38.955429804405675],[-95.25800879458892,38.9554297878159],[-95.25800885308543,38.955429767569974],[-95.25800890826217,38.95542974364066],[-95.25800896242548,38.95542971608251],[-95.25800901211578,38.95542968481367],[-95.25800905845144,38.9554296507618],[-95.25800910031414,38.95542961299928],[-95.258009137634,38.95542957332689],[-95.25800917163407,38.955429529971084],[-95.25800919990327,38.95542948557851],[-95.25800922247656,38.95542943924879],[-95.25801011949649,38.95542738134301],[-95.25802190954111,38.95543051434521],[-95.25802101252143,38.955432572251105],[-95.25802099452594,38.95543261959031],[-95.25802098222645,38.955432668866656],[-95.2580209756927,38.95543271827938],[-95.25802097373673,38.95543276870157],[-95.25802097758155,38.95543281835974],[-95.25802098722708,38.955432867253855],[-95.25802100263842,38.955432916284316],[-95.25802102273232,38.955432963623124],[-95.25802104866187,38.95543300929746],[-95.2580210793089,38.95543305237972],[-95.2580211146384,38.95543309377026],[-95.25802115465044,38.9554331334691],[-95.25802119941486,38.9554331696754],[-95.25802124777847,38.95543320236199],[-95.25802129858809,38.95543323150149],[-95.25802135296207,38.95543325802163],[-95.25802142351519,38.9554332840232],[-95.25798773454885,38.95551018527574],[-95.2579485375702,38.95559964186092],[-95.25794815770381,38.95560050796398],[-95.25793997591639,38.95561917975155],[-95.25795661137802,38.95562362327717],[-95.25794465961225,38.95565090089838]]]},"properties":{"SDE.FloorAll.FLOORLOCATION":"ROOF"}}]}
