{"type":"FeatureCollection","features":[{"type":"Feature","geometry":{"type":"Polygon","coordinates":[[[-95.2513748085154,38.95865631531907],[-95.25138006120852,38.958656326284576],[-95.25138010690488,38.95864265489594],[-95.25141395926518,38.95864272199175],[-95.25141391472859,38.95865639340775],[-95.25141916742177,38.95865640437146],[-95.25141921195731,38.95864273295548],[-95.25145948504358,38.95864281345606],[-95.25145944051583,38.95865648487207],[-95.25146469320899,38.95865649583376],[-95.25146473888896,38.95864282444509],[-95.25150501082209,38.958642904902526],[-95.25150496630316,38.95865657631854],[-95.25151021903132,38.958656586377785],[-95.2515102647025,38.95864291498911],[-95.25155053775397,38.95864299635844],[-95.25155049212559,38.958656666846736],[-95.25155574597203,38.95865667783163],[-95.25155579048115,38.95864300641559],[-95.25158964280678,38.958643074360566],[-95.25158959830418,38.9586567457766],[-95.2515948510324,38.958656755831996],[-95.25159489668722,38.958643084443295],[-95.25161970248244,38.95864313440686],[-95.25161975118368,38.95862834557255],[-95.25166994566247,38.958628445782],[-95.25166990117543,38.95864211719813],[-95.25167515386755,38.95864212815027],[-95.25167519950682,38.958628456761524],[-95.25179309977679,38.95862869275531],[-95.25179311578299,38.95862367962533],[-95.25174058639374,38.95862357459381],[-95.25174077164971,38.95856706682861],[-95.25177404107616,38.95856713352139],[-95.25177405397945,38.9585630314553],[-95.25174078567314,38.95856296569023],[-95.251740801683,38.95855795256024],[-95.25173729989238,38.95855794526079],[-95.25173736501606,38.95853789456883],[-95.25174086799382,38.9585379009952],[-95.2517408839687,38.95853288876557],[-95.25177415337903,38.958532955458296],[-95.25177416628232,38.958528853392245],[-95.25174089687388,38.9585287866995],[-95.25174109925736,38.958467266731475],[-95.25167164272797,38.95846712724207],[-95.251671718792,38.95844388647561],[-95.25149428485246,38.958443530577696],[-95.25149474328151,38.958303834577094],[-95.2514369614634,38.95830371844775],[-95.25143728328159,38.95820574047728],[-95.25146880046293,38.95820580447638],[-95.25146881453706,38.95820170243756],[-95.25143729616934,38.958201639311504],[-95.25143738638606,38.95817429650582],[-95.25146890355339,38.958174360504906],[-95.2514689176275,38.95817025846607],[-95.2514373992738,38.95817019534002],[-95.25143740706264,38.958167917229936],[-95.25126172470247,38.95816756463052],[-95.25126174385701,38.95816164043645],[-95.2512045449802,38.95816152629242],[-95.2512045227093,38.958168361550456],[-95.25122553456,38.958168403668495],[-95.25122550678518,38.95817683486414],[-95.251237763056,38.95817685866498],[-95.25123769307189,38.9581982773038],[-95.25122543567912,38.9581982525752],[-95.25122540790427,38.95820668377085],[-95.25120439604217,38.95820664165279],[-95.25120437377124,38.95821347691079],[-95.2512376430308,38.95821354375744],[-95.25123751131248,38.95825364601491],[-95.25122000121186,38.95825361121419],[-95.25121998715831,38.958257712352555],[-95.2512374972599,38.95825774715327],[-95.25123736475487,38.958298077401714],[-95.2512198546433,38.958298042600966],[-95.25121984174294,38.95830214376668],[-95.25123735182049,38.95830217946779],[-95.25123723300122,38.95833818055929],[-95.25121972291475,38.9583381448581],[-95.25121971001433,38.95834224602383],[-95.25123721894867,38.958342281697675],[-95.25123710128246,38.9583782828163],[-95.25121959118603,38.95837824711517],[-95.25121957709742,38.95838234915389],[-95.25123708722987,38.95838238395468],[-95.25123696956354,38.95841838507327],[-95.25121945942217,38.95841835027244],[-95.25121944536849,38.95842245141079],[-95.25123695551093,38.958422486211575],[-95.25123685310345,38.95845370219113],[-95.25121934295335,38.95845366739032],[-95.2512193300529,38.95845776855597],[-95.25123683901582,38.95845780422985],[-95.25123678743633,38.95847352576493],[-95.25123503654314,38.958473522107624],[-95.25123496187364,38.95849630779202],[-95.25123671276734,38.958496311449295],[-95.25123668188259,38.95850565370867],[-95.25121917175457,38.958505618007436],[-95.25121911427999,38.95852339058912],[-95.25123020369733,38.95852341286187],[-95.25123016675511,38.958534691708465],[-95.25121907618272,38.958534669408415],[-95.25121905076676,38.95854241663055],[-95.2512301413403,38.95854243893064],[-95.25123010419722,38.9585536042182],[-95.25121901477507,38.95855358194544],[-95.25121898935912,38.9585613291676],[-95.25123007881743,38.95856135053995],[-95.25123004187515,38.95857262938652],[-95.2512189512618,38.95857260798682],[-95.25121889378705,38.958590380568445],[-95.25123640281782,38.95859041534195],[-95.25123627735542,38.95862869456992],[-95.25135009293173,38.958628923398905],[-95.25135004722961,38.95864259478756],[-95.25137485305952,38.95864264390306],[-95.2513748085154,38.95865631531907]]]},"properties":{"SDE.FloorAll.FLOORLOCATION":"-1"}},{"type":"Feature","geometry":{"type":"Polygon","coordinates":[[[-95.2513500483828,38.9586425948149],[-95.25161970248244,38.95864313440686],[-95.25161975114867,38.95862834647292],[-95.25174057038387,38.95862858772381],[-95.25174079566906,38.958559977468134],[-95.25173962878988,38.95855997504416],[-95.25173963189455,38.95855906398021],[-95.25173846386222,38.95855906152884],[-95.25173846700189,38.95855814956453],[-95.25173730012276,38.95855814714045],[-95.25173736214168,38.95853900751245],[-95.25173853017368,38.958539009963815],[-95.25173853327838,38.95853809889986],[-95.25173970015716,38.958538101323896],[-95.25173970329686,38.958537189359554],[-95.25174087017564,38.95853719178358],[-95.25174110041056,38.958467266758824],[-95.2514942098483,38.95846677227184],[-95.25149474443471,38.95830383460447],[-95.2514369614634,38.95830371844775],[-95.25143729417901,38.95820255130322],[-95.25143612730577,38.95820254887613],[-95.25143611116502,38.95820109391764],[-95.25143580625097,38.95820032695751],[-95.2514352628308,38.95819957867653],[-95.25143444469776,38.95819888967264],[-95.2514338472207,38.958198551969595],[-95.25143276700713,38.958198161366774],[-95.2514318428789,38.95819800157248],[-95.25142680328533,38.95819797312955],[-95.25142687122168,38.95817746648232],[-95.25143264049001,38.95817737163166],[-95.25143356618756,38.958177105184106],[-95.25143426442763,38.95817678107355],[-95.25143519092443,38.95817610819283],[-95.2514360816813,38.958174840558115],[-95.25143620122147,38.95817449732179],[-95.25143631455214,38.958173542007046],[-95.2514363903605,38.958172928268006],[-95.25143739218457,38.95817293038738],[-95.25143740821588,38.95816791725727],[-95.25126172582064,38.958167565558256],[-95.25126174497524,38.95816164136417],[-95.25120454613337,38.95816152631978],[-95.25120452382748,38.95816836247819],[-95.25122553567819,38.95816840459625],[-95.25122550793837,38.95817683489148],[-95.25123776417423,38.958176859592726],[-95.25123769422508,38.958198277331135],[-95.2512254367973,38.95819825350297],[-95.25122540905745,38.958206683798174],[-95.25120439719535,38.95820664168013],[-95.25120437492444,38.958213476938134],[-95.25123764418399,38.958213543784794],[-95.25123677381805,38.95847788286123],[-95.25123042757278,38.95849138866029],[-95.25123672440225,38.958493192588094],[-95.2512366830358,38.958505653736],[-95.25121917287281,38.95850561893516],[-95.25121916350369,38.95850835302739],[-95.25119640065789,38.95850830725029],[-95.25119642408286,38.95850147201977],[-95.251181831728,38.958501442400255],[-95.25118179183193,38.95851374677022],[-95.25117828889034,38.958513739426586],[-95.25117806486165,38.958582095578876],[-95.2511815666534,38.95858210289519],[-95.25118152560401,38.958594407237726],[-95.25119611801308,38.958594435956876],[-95.25119614028493,38.958587600699076],[-95.2512189031562,38.95858764647623],[-95.25121889378705,38.958590380568445],[-95.25123640397108,38.95859041536931],[-95.25123627847364,38.95862869549766],[-95.25135009293173,38.958628923398905],[-95.2513500483828,38.9586425948149]]]},"properties":{"SDE.FloorAll.FLOORLOCATION":"1"}},{"type":"Feature","geometry":{"type":"Polygon","coordinates":[[[-95.2513500483828,38.9586425948149],[-95.25161970248244,38.95864313440686],[-95.25161975114867,38.95862834647292],[-95.25174057038387,38.95862858772381],[-95.25174079566906,38.958559977468134],[-95.2517395676346,38.958559974495834],[-95.25173957073922,38.95855906343189],[-95.25173840270688,38.9585590609805],[-95.25173840581154,38.958558149916556],[-95.2517372389324,38.95855814749252],[-95.25173730210456,38.958539007891815],[-95.25173846898342,38.95853901031589],[-95.25173847212307,38.95853809835152],[-95.25173963900187,38.95853810077555],[-95.25173964210653,38.95853718971162],[-95.25174087017564,38.95853719178358],[-95.25174109925736,38.958467266731475],[-95.25149420869512,38.95846677224449],[-95.25149474443471,38.95830383460447],[-95.2514369614634,38.95830371844775],[-95.25143740706264,38.958167917229936],[-95.25126172466747,38.95816756553093],[-95.251261743822,38.95816164133684],[-95.2512045449802,38.95816152629242],[-95.25120452267429,38.95816836245085],[-95.25122553452499,38.958168404568916],[-95.25122550678518,38.95817683486414],[-95.25123776417423,38.958176859592726],[-95.25123769307189,38.9581982773038],[-95.2512254367973,38.95819825350297],[-95.25122540905745,38.958206683798174],[-95.25120439719535,38.95820664168013],[-95.25120437377124,38.95821347691079],[-95.2512376430308,38.95821354375744],[-95.25123668188259,38.95850565370867],[-95.25121917287281,38.95850561893516],[-95.25121911673301,38.95852240741165],[-95.2512226092961,38.958522414507996],[-95.25122514255249,38.95852340372675],[-95.25123000628787,38.95852341358921],[-95.25122996861255,38.95853468160374],[-95.25122480130125,38.958534671754144],[-95.25122408744623,38.95853486301339],[-95.25122325759301,38.95853521734792],[-95.25122276119804,38.958535515600865],[-95.251221700371,38.958536525958195],[-95.25122111632767,38.95853777202362],[-95.25122103606076,38.95853861907391],[-95.25122117896153,38.95853942635371],[-95.2512214359766,38.958540029958506],[-95.25122187858665,38.958540669506064],[-95.25122259597421,38.958541337197275],[-95.25122435424635,38.95854218998291],[-95.25122539907846,38.95854239229417],[-95.25122994428327,38.95854240091367],[-95.25122990714938,38.958553447239886],[-95.25122509995437,38.95855343781663],[-95.251223894751,38.95855373819145],[-95.25122260582313,38.95855441058941],[-95.25122157036428,38.95855545128854],[-95.2512209742754,38.95855745229426],[-95.25122109488697,38.958558179737906],[-95.25122163653363,38.95855927044304],[-95.25122208740059,38.958559786718666],[-95.25122264209648,38.958560245073734],[-95.25122352769222,38.958560742816424],[-95.25122533746935,38.95856122101257],[-95.25122988148716,38.95856123050512],[-95.25122984525207,38.95857240212278],[-95.25122498151329,38.958572392260315],[-95.25122244212592,38.95857337116995],[-95.25121894956034,38.95857336407364],[-95.25121889378705,38.958590380568445],[-95.25123640397108,38.95859041536931],[-95.25123627732039,38.9586286954703],[-95.25135009293173,38.958628923398905],[-95.2513500483828,38.9586425948149]]]},"properties":{"SDE.FloorAll.FLOORLOCATION":"2"}},{"type":"Feature","geometry":{"type":"Polygon","coordinates":[[[-95.25135004722961,38.95864259478756],[-95.25161970248244,38.95864313440686],[-95.25161974999547,38.95862834644559],[-95.25174056923068,38.95862858769647],[-95.25174079451583,38.95855997744082],[-95.2517396876388,38.958559975537796],[-95.25173969077845,38.95855906357347],[-95.2517385238993,38.958559061149415],[-95.251738527004,38.95855815008548],[-95.2517373589717,38.95855814763413],[-95.2517374221438,38.95853900803341],[-95.25173858902261,38.958539010457464],[-95.25173859216225,38.95853809849314],[-95.25173976019431,38.958538100944494],[-95.25173976214573,38.95853718985322],[-95.25174087017564,38.95853719178358],[-95.25174109568498,38.95846836794266],[-95.2514942051189,38.95846787345563],[-95.25149474328151,38.958303834577094],[-95.25143696031022,38.95830371842041],[-95.25143740706264,38.958167917229936],[-95.25126172466747,38.95816756553093],[-95.251261743822,38.95816164133684],[-95.25122555682889,38.95816156841045],[-95.25122550678518,38.95817683486414],[-95.251237763021,38.9581768595654],[-95.25123769307189,38.9581982773038],[-95.25122543564412,38.95819825347564],[-95.25122538563537,38.95821351902887],[-95.2512376430308,38.95821354375744],[-95.25123668188259,38.95850565370867],[-95.25121917171955,38.95850561890783],[-95.25121911673301,38.95852240741165],[-95.2512226092961,38.958522414507996],[-95.25122514255249,38.95852340372675],[-95.25123000628787,38.95852341358921],[-95.25122996889961,38.958534585179564],[-95.25122542373036,38.958534575659634],[-95.25122526951266,38.95853459363293],[-95.25122494203053,38.958534644448825],[-95.25122405585424,38.958534873980355],[-95.25122257359787,38.95853564994192],[-95.25122227667839,38.958535894344344],[-95.25122151898059,38.95853679743256],[-95.25122107948096,38.95853794779001],[-95.25122106357459,38.95853892073508],[-95.25122138548731,38.95853993323177],[-95.25122190619138,38.958540701703384],[-95.25122261501855,38.958541352068394],[-95.25122329922662,38.958541774741185],[-95.25122445932645,38.95854221860955],[-95.25122539907846,38.95854239229417],[-95.25122994313008,38.958542400886344],[-95.2512299069066,38.95855342380229],[-95.25122527398682,38.958553414905744],[-95.25122487926811,38.95855347313989],[-95.25122359466116,38.95855385634732],[-95.25122306157569,38.95855411858272],[-95.25122261774045,38.958554400958434],[-95.25122193188002,38.95855500023473],[-95.25122121103361,38.958556113280615],[-95.25122105059252,38.95855661776744],[-95.25122097086468,38.95855727286982],[-95.25122118055404,38.95855844042019],[-95.25122149669588,38.958559067056086],[-95.25122225009716,38.9585599365741],[-95.25122293590684,38.958560436790165],[-95.25122334737766,38.95856066013516],[-95.25122379348227,38.95856085365959],[-95.25122533631617,38.95856122098522],[-95.25122988148716,38.95856123050512],[-95.25122984409886,38.95857240209544],[-95.25122498151329,38.958572392260315],[-95.25122244097274,38.9585733711426],[-95.25121894956034,38.95857336407364],[-95.25121889263384,38.95859038054111],[-95.25123640281782,38.95859041534195],[-95.25123627732039,38.9586286954703],[-95.25135009293173,38.958628923398905],[-95.25135004722961,38.95864259478756]]]},"properties":{"SDE.FloorAll.FLOORLOCATION":"3"}},{"type":"Feature","geometry":{"type":"Polygon","coordinates":[[[-95.25135004722961,38.95864259478756],[-95.25161970248244,38.95864313440686],[-95.25161974999547,38.95862834644559],[-95.25174056923068,38.95862858769647],[-95.25174079451583,38.95855997744082],[-95.25173962763668,38.958559975016804],[-95.25173963074135,38.95855906395288],[-95.25173846270899,38.95855906150148],[-95.25173846584867,38.95855814953718],[-95.25173729896956,38.95855814711311],[-95.25173736214168,38.95853900751245],[-95.2517385290205,38.958539009936466],[-95.25173853212519,38.95853809887253],[-95.25173969900398,38.95853810129657],[-95.25173970214361,38.958537189332205],[-95.25174087017564,38.95853719178358],[-95.25174109925736,38.958467266731475],[-95.25149420869512,38.95846677224449],[-95.25149474328151,38.958303834577094],[-95.25143696031022,38.95830371842041],[-95.25143740706264,38.958167917229936],[-95.25126172466747,38.95816756553093],[-95.251261743822,38.95816164133684],[-95.25122555682889,38.95816156841045],[-95.25122550678518,38.95817683486414],[-95.251237763021,38.9581768595654],[-95.25123769307189,38.9581982773038],[-95.25122543564412,38.95819825347564],[-95.25122538563537,38.95821351902887],[-95.2512376430308,38.95821354375744],[-95.25123668188259,38.95850565370867],[-95.25121917171955,38.95850561890783],[-95.25121911673301,38.95852240741165],[-95.2512226092961,38.958522414507996],[-95.25122514255249,38.95852340372675],[-95.25123000628787,38.95852341358921],[-95.25123000317669,38.95852432465314],[-95.25123262894174,38.95852433012553],[-95.2512325980914,38.958533671484474],[-95.25122997229099,38.95853366691246],[-95.25122996889961,38.958534585179564],[-95.25122585768855,38.95853457693536],[-95.25122504662508,38.95853462620031],[-95.25122429897907,38.95853479593032],[-95.25122373490161,38.95853499434529],[-95.2512224080839,38.958535780300465],[-95.25122192474552,38.958536247391876],[-95.25122145093177,38.9585369147809],[-95.251221226471,38.958537403330425],[-95.2512210473125,38.95853818134568],[-95.25122107181754,38.95853897590516],[-95.25122122661685,38.958539566272044],[-95.25122165872901,38.9585403867168],[-95.25122214789234,38.958540957072564],[-95.25122251860851,38.95854127858605],[-95.25122309123736,38.95854166166343],[-95.25122423557278,38.958542154725414],[-95.25122539907846,38.95854239229417],[-95.25122994313008,38.958542400886344],[-95.2512299397387,38.95854331915341],[-95.25123256665766,38.95854332465314],[-95.2512325364492,38.95855250110327],[-95.2512299106831,38.958552495630876],[-95.2512299064864,38.95855343460698],[-95.25122519165349,38.958553424669766],[-95.25122466053817,38.95855351752173],[-95.25122383736819,38.958553759361656],[-95.25122317714674,38.958554055533206],[-95.25122254410527,38.95855445418748],[-95.25122184985489,38.958555091116246],[-95.25122154467608,38.958555488531],[-95.25122127566017,38.958555965209506],[-95.2512210177657,38.95855677920958],[-95.25122098607376,38.958557623806556],[-95.25122109890454,38.95855819515398],[-95.25122142618407,38.95855895092898],[-95.25122225900769,38.95855994489632],[-95.25122307250429,38.95856051573136],[-95.25122350043524,38.95856073135553],[-95.25122533631617,38.95856122098522],[-95.25122988148716,38.95856123050512],[-95.2512298780958,38.95856214877217],[-95.25123250505052,38.958562153371524],[-95.25123247416514,38.95857149563082],[-95.25122984724513,38.9585714901311],[-95.25122984409886,38.95857240209544],[-95.25122498151329,38.958572392260315],[-95.25122244097274,38.9585733711426],[-95.25121894956034,38.95857336407364],[-95.25121889263384,38.95859038054111],[-95.25123640281782,38.95859041534195],[-95.25123627732039,38.9586286954703],[-95.25135009293173,38.958628923398905],[-95.25135004722961,38.95864259478756]]]},"properties":{"SDE.FloorAll.FLOORLOCATION":"4"}},{"type":"Feature","geometry":{"type":"Polygon","coordinates":[[[-95.25146187011704,38.958627666343304],[-95.25156838894274,38.95862787970138],[-95.25156855767534,38.9585765202349],[-95.25165289757254,38.95857668903351],[-95.2516529530142,38.958559915863574],[-95.251719490742,38.95856004836225],[-95.2517195340177,38.958547060946614],[-95.25170870081986,38.9585470393866],[-95.25170876907896,38.95852625517237],[-95.25170973758469,38.95852604561312],[-95.25171069553863,38.958525810569476],[-95.25171164297564,38.958525549141],[-95.25171257870761,38.95852526220089],[-95.25171350042812,38.9585249496943],[-95.25171440691385,38.95852461339478],[-95.2517152993881,38.95852425152891],[-95.25171617428613,38.958523866715794],[-95.25171703164307,38.95852345805506],[-95.25171787030558,38.95852302551942],[-95.25171868901548,38.95852257178261],[-95.25171948668957,38.958522095016676],[-95.25172026325787,38.958521597022255],[-95.25172101753208,38.95852107867244],[-95.2517217472058,38.95852053991262],[-95.25172245339726,38.95851998167049],[-95.25172313376503,38.95851940479181],[-95.25172378827406,38.95851881017689],[-95.2517244158061,38.958518196898055],[-95.25172501622127,38.95851756855686],[-95.25172558728303,38.958516923297914],[-95.25172613007459,38.95851626294929],[-95.2517266434078,38.95851558838405],[-95.25172712494117,38.958514900447916],[-95.2517275769811,38.958514199195555],[-95.25172799711619,38.958513487273514],[-95.2517283853814,38.958512763781336],[-95.25172874058858,38.95851202959213],[-95.25172906378587,38.958511287434426],[-95.25172935273685,38.958510535452696],[-95.25172960845474,38.958509777275964],[-95.25172982982127,38.95850901197641],[-95.25173001791971,38.958508241382184],[-95.25173017156177,38.95850746636635],[-95.25173028955932,38.95850668780194],[-95.25173037421867,38.958505905743664],[-95.25173042312848,38.95850512283802],[-95.25173043632363,38.958504338184625],[-95.25173041604067,38.95850355363889],[-95.25173035990304,38.95850277094704],[-95.25173026909906,38.958501989235856],[-95.25173014467686,38.95850121123398],[-95.25172998432998,38.958500436886744],[-95.25172979032992,38.95849966714913],[-95.25172956145343,38.958498903794634],[-95.25172929888868,38.95849814595018],[-95.25172900368392,38.958497396344356],[-95.25172867465088,38.95849665585016],[-95.25172831182456,38.95849592356718],[-95.25172791855965,38.958495202278634],[-95.25172749139644,38.95849449190249],[-95.25172703491278,38.95849379344851],[-95.25172654561403,38.958493107735116],[-95.25172602688986,38.95849243664503],[-95.25172547877519,38.95849177927789],[-95.25172490238825,38.958491136561385],[-95.25172429647087,38.95849051116945],[-95.25172366339939,38.95848990135589],[-95.25172300422209,38.95848930984926],[-95.25172231893889,38.958488736649514],[-95.25172160754987,38.95848818175669],[-95.25172087344455,38.95848764705359],[-95.25172011431657,38.958487132485544],[-95.25171933359057,38.958486639034895],[-95.25171853126653,38.95848616670169],[-95.25171770842759,38.958485717314055],[-95.25171686629704,38.95848528909851],[-95.2517160059231,38.958484884783616],[-95.2517151273057,38.95848450436929],[-95.25171423275125,38.9584841479103],[-95.25171332225982,38.95848381540657],[-95.25171239806777,38.95848350871356],[-95.25171146024506,38.958483226030545],[-95.25171051099323,38.9584829701133],[-95.25170955034719,38.95848274006151],[-95.25170858064838,38.9584825350294],[-95.2517076017918,38.958482357718125],[-95.2517066161539,38.95848220638165],[-95.25170562485282,38.95848208194763],[-95.25170462785358,38.958481985316496],[-95.25170362753268,38.95848191474208],[-95.25170262382002,38.95848187202527],[-95.25170161905702,38.95848185632023],[-95.251700614362,38.958481868554756],[-95.25169961095801,38.95848190695534],[-95.25169860992844,38.95848197335018],[-95.2516976124964,38.95848206596577],[-95.25169661974508,38.95848218663028],[-95.25169563289776,38.95848233357019],[-95.25169465307265,38.95848250771324],[-95.25169368261112,38.9584827082138],[-95.25169272039498,38.95848293414398],[-95.2516917698139,38.95848318738673],[-95.25169082981962,38.958483465213455],[-95.25168990383686,38.958483768606534],[-95.25168899071234,38.95848409753869],[-95.25168809397573,38.95848445029109],[-95.25168721359204,38.9584848277642],[-95.25168634963126,38.95848522815713],[-95.25168550436474,38.95848565242505],[-95.25168467898085,38.95848609969477],[-95.25168387354954,38.958486568165625],[-95.25168308918897,38.95848705876529],[-95.25168232824068,38.958487570648096],[-95.25168158962134,38.95848810198581],[-95.25168087560246,38.95848865373363],[-95.25168018625405,38.95848922409064],[-95.25167952272933,38.958489813084256],[-95.25167888506323,38.958490419814076],[-95.25167827559726,38.95849104343435],[-95.25167769436645,38.95849168304465],[-95.25167714252395,38.95849233867245],[-95.25167661898661,38.958493008489484],[-95.25167612609586,38.958493691650105],[-95.25167566385164,38.95849438815428],[-95.25167523344226,38.95849509712892],[-95.2516748349377,38.958495816773315],[-95.25167446718477,38.9584965470601],[-95.25167413367808,38.958497287170886],[-95.25167383333446,38.9584980352775],[-95.25167356615394,38.958498791379974],[-95.25167333217148,38.95849955457795],[-95.25167313261036,38.95850032309792],[-95.25167296747055,38.95850109693996],[-95.2516728379753,38.958501874330565],[-95.2516727418182,38.95850265521502],[-95.25167268134064,38.95850343874769],[-95.25167265434128,38.95850422217271],[-95.25167266424472,38.9585050064724],[-95.25167270762631,38.958505790664454],[-95.25167278574433,38.95850657207494],[-95.25167289971701,38.958507351631624],[-95.25167304846109,38.95850812750643],[-95.25167323085837,38.958508898771555],[-95.25167344694395,38.958509664526645],[-95.25167369787098,38.958510424799],[-95.25167398259131,38.958511176860206],[-95.25167429995163,38.95851192068279],[-95.2516746511053,38.958512656294154],[-95.25167503500406,38.95851338096579],[-95.25167544930645,38.95851409554341],[-95.25167589642398,38.95851479738049],[-95.25167637401519,38.95851548732271],[-95.25167688326832,38.95851616449712],[-95.25167742079375,38.95851682702083],[-95.25167798777967,38.958517474020866],[-95.25167858422616,38.95851810549712],[-95.25167920786168,38.95851872049461],[-95.25167985872136,38.95851931811289],[-95.25168053565194,38.958519898324674],[-95.25168123757021,38.95852045930182],[-95.25168196447616,38.958521001044296],[-95.25168271413345,38.95852152169671],[-95.25168348762523,38.958522023087106],[-95.25168428275009,38.95852250245974],[-95.25168509835488,38.958522959787125],[-95.2516859344395,38.95852339506943],[-95.2516867887326,38.958523807351405],[-95.25168766123421,38.958524196633206],[-95.25168855086109,38.95852456108662],[-95.25168945642497,38.95852490158475],[-95.2516903756195,38.95852521807291],[-95.25169130851467,38.9585255087503],[-95.2516922539573,38.958525773589635],[-95.2516932107941,38.95852601256351],[-95.25169417787197,38.95852622564463],[-95.25169415667843,38.958532826608696],[-95.25164103526842,38.958532720114846],[-95.25164094164396,38.95856139935261],[-95.2514956503163,38.95856110871028],[-95.25149581116791,38.958512120176316],[-95.25146020685773,38.95851204852271],[-95.25146010732414,38.95854259946461],[-95.25135825729586,38.95854239574595],[-95.25135863280634,38.958428198814815],[-95.25132901179266,38.95842814008554],[-95.2513292880551,38.958343833505324],[-95.25125603897881,38.958343686769034],[-95.2512557575785,38.958429132376764],[-95.25126910574134,38.95842915862687],[-95.25126906939084,38.95844009592352],[-95.25133816465762,38.95844023430024],[-95.25133783644634,38.95854003529682],[-95.25132878996416,38.95854001640376],[-95.25132890132898,38.95850583831374],[-95.25123006494799,38.95850564013445],[-95.25122978584034,38.95859040266811],[-95.25132862349301,38.95859060087498],[-95.25132873558883,38.95855646335751],[-95.25134274393895,38.958556491730874],[-95.25134274825409,38.95855489666633],[-95.25140928712985,38.9585550293703],[-95.2514480239509,38.958578378213325],[-95.25144791328097,38.95861197593002],[-95.25146192167719,38.958612003388616],[-95.25146187011704,38.958627666343304]]]},"properties":{"SDE.FloorAll.FLOORLOCATION":"5"}},{"type":"Feature","geometry":{"type":"Polygon","coordinates":[[[-95.25134654658808,38.95864258750366],[-95.25140987457176,38.95864271438285],[-95.25141337636654,38.95864272169215],[-95.25154791198447,38.95864299089324],[-95.25155141377925,38.9586429981984],[-95.25161561663579,38.95864312677783],[-95.25161566228658,38.95862945538909],[-95.25167111061054,38.95862956658002],[-95.25167461240468,38.958629573881474],[-95.2517423182316,38.95862970881905],[-95.25174284399652,38.95846929889069],[-95.25162961265632,38.95846907257374],[-95.25162611087016,38.958469065270954],[-95.2514953705299,38.95846880410823],[-95.25149551497795,38.958424719646864],[-95.25149552433636,38.95842198555466],[-95.25149579373144,38.95833995801178],[-95.25149754462132,38.95833996166517],[-95.25149769719512,38.9583399562697],[-95.25149784784767,38.95833994091519],[-95.25149799773213,38.95833991562903],[-95.2514981433889,38.958339880329156],[-95.25149828481796,38.958339835015614],[-95.25149842086611,38.95833977966103],[-95.25149854915693,38.95833971601159],[-95.25149867084359,38.95833964409455],[-95.25149878365468,38.95833956295488],[-95.25149888748518,38.95833947529378],[-95.25149898002866,38.95833938105655],[-95.2514990624034,38.95833928117093],[-95.25149913349104,38.95833917470915],[-95.25149919199842,38.958339065245504],[-95.25149923914879,38.958338951006475],[-95.25149927253068,38.95833883463867],[-95.25149929210903,38.95833871704239],[-95.25149930022535,38.95833859737199],[-95.2514992933149,38.958338478246596],[-95.25149927364906,38.9583383606213],[-95.251499241263,38.958338243595634],[-95.25149919605153,38.95833812987087],[-95.25149913801472,38.95833801944701],[-95.2514990671175,38.958337913224376],[-95.25149898559636,38.9583378130585],[-95.25149889233302,38.95833771802161],[-95.25149878956388,38.958337629969144],[-95.25149867728899,38.95833754890118],[-95.2514985565915,38.95833747664581],[-95.25149842750645,38.95833741230263],[-95.25149829230517,38.95833735682666],[-95.25149815210601,38.95833731114573],[-95.25149800579058,38.95833727433202],[-95.2514978567486,38.9583372482684],[-95.25149770613329,38.95833723298214],[-95.25149755286142,38.9583372266452],[-95.2514958019716,38.958337222991815],[-95.2514958046416,38.95833656065533],[-95.2514958108922,38.958334737627034],[-95.25149591288104,38.958303381048765],[-95.25143871388916,38.95830326702023],[-95.25143916067324,38.95816746492931],[-95.25139480207362,38.958167375884535],[-95.25139130030242,38.95816736857467],[-95.25123779663177,38.958167061350935],[-95.2512375015242,38.95825683611666],[-95.2512374921559,38.95825957020893],[-95.25123682880766,38.958461450341076],[-95.25123681943928,38.958464184433254],[-95.25123668460888,38.95850519775385],[-95.251219174446,38.958505162952974],[-95.25121889378705,38.958590380568445],[-95.25123640397108,38.95859041536931],[-95.25123627847364,38.95862869549766],[-95.25129756353925,38.95862881816677],[-95.25130106533335,38.95862882547942],[-95.25134659113766,38.958628916087704],[-95.25134654658808,38.95864258750366]]]},"properties":{"SDE.FloorAll.FLOORLOCATION":"ROOF"}}]}
