{"type":"FeatureCollection","features":[{"type":"Feature","geometry":{"type":"MultiPolygon","coordinates":[[[[-95.24405592601114,38.958061139969175],[-95.24405487380835,38.95806166020108],[-95.24406271081122,38.9580713237779],[-95.2440750865573,38.95806520481173],[-95.24407442140858,38.95806438330532],[-95.2441330927549,38.95803537768715],[-95.2441899562258,38.95800726634604],[-95.24419814566085,38.95801736457021],[-95.24421265636761,38.958010190528924],[-95.24421172464038,38.9580090418507],[-95.24422576573835,38.958002099977364],[-95.24422669743053,38.958003249555865],[-95.24424270169912,38.957995336856186],[-95.24424155408944,38.95799392259277],[-95.2442556634011,38.9579869480906],[-95.24425681101094,38.95798836235387],[-95.24427281411955,38.957980449622674],[-95.24427188239181,38.95797930094491],[-95.24428592344279,38.957972359964636],[-95.24428685517073,38.95797350864229],[-95.24430136585949,38.95796633458986],[-95.24429317641565,38.957956236372986],[-95.24440871203261,38.95789911922269],[-95.24440937837201,38.957899939854215],[-95.24442175402301,38.957893821751384],[-95.24441391814398,38.957884158226086],[-95.24441286594644,38.957884678461255],[-95.24431310601734,38.95776166392895],[-95.2443141570255,38.95776114456769],[-95.24430632117583,38.957751481035025],[-95.24430230306977,38.957753467368704],[-95.24429261362482,38.95774152023259],[-95.24418530504026,38.9577945709068],[-95.24417041636357,38.95777621052425],[-95.24415407907632,38.95778428743196],[-95.24415110111178,38.957780615349336],[-95.24404738560871,38.95783188936809],[-95.24405036357003,38.95783556145338],[-95.24403402625535,38.95784363834416],[-95.244048916064,38.95786199877152],[-95.24394160711371,38.95791504921973],[-95.2439512953699,38.957926996357564],[-95.2439472772439,38.9579289826789],[-95.2439551142173,38.95793864626307],[-95.243956166419,38.9579381260321],[-95.24405592601114,38.958061139969175]]],[[[-95.2441960141749,38.95817349013309],[-95.24420220259287,38.95817043155717],[-95.24420157597838,38.958169657831206],[-95.24428375592235,38.958129029910566],[-95.24428438253739,38.9581298036361],[-95.24428982832188,38.95812711132776],[-95.24424280838498,38.95806913090639],[-95.24425988835328,38.95806068771425],[-95.24425111194515,38.958049864476294],[-95.24426621111962,38.95804239980029],[-95.24424991041799,38.95802229984823],[-95.24421773124723,38.95803820861099],[-95.24421710459856,38.95803743578552],[-95.24415832620211,38.95806649387577],[-95.24413865571307,38.95807621830766],[-95.2441383417949,38.958075832331204],[-95.2441279269232,38.958080980426736],[-95.24412824080623,38.95808136730361],[-95.24412329052281,38.958083814532365],[-95.2441960141749,38.95817349013309]]]]},"properties":{"SDE.FloorAll.FLOORLOCATION":"-1"}},{"type":"Feature","geometry":{"type":"Polygon","coordinates":[[[-95.24419637744846,38.95817302472231],[-95.24420256708977,38.958169964373],[-95.24420194044016,38.95816919154743],[-95.24428414037399,38.95812855418819],[-95.24428476702415,38.958129327013296],[-95.2442902139618,38.95812663473233],[-95.24421747259466,38.958036938042746],[-95.24412363615257,38.95808332797423],[-95.24419637744846,38.95817302472231]]]},"properties":{"SDE.FloorAll.FLOORLOCATION":"-1.5"}},{"type":"Feature","geometry":{"type":"Polygon","coordinates":[[[-95.2441964124546,38.95817544264346],[-95.24420263624117,38.95817236508121],[-95.24420200630746,38.95817158767144],[-95.24428467116746,38.95813071983344],[-95.24428530221982,38.95813149817058],[-95.24429077980793,38.95812878949473],[-95.2442434822859,38.95807046812131],[-95.2442606623478,38.9580619741357],[-95.24425183416105,38.958051087482524],[-95.2442670227694,38.95804357896948],[-95.24425062626726,38.95802336048241],[-95.24421825760413,38.95803936297524],[-95.24421762651818,38.95803858553813],[-95.24412325927216,38.9580852377273],[-95.2441964124546,38.95817544264346]]]},"properties":{"SDE.FloorAll.FLOORLOCATION":"-2"}},{"type":"Feature","geometry":{"type":"Polygon","coordinates":[[[-95.24419637744846,38.95817302472231],[-95.24420256708977,38.958169964373],[-95.24420194044016,38.95816919154743],[-95.24428414037399,38.95812855418819],[-95.24428476702415,38.958129327013296],[-95.2442902139618,38.95812663473233],[-95.24421747259466,38.958036938042746],[-95.24412363615257,38.95808332797423],[-95.24419637744846,38.95817302472231]]]},"properties":{"SDE.FloorAll.FLOORLOCATION":"-2.5"}},{"type":"Feature","geometry":{"type":"Polygon","coordinates":[[[-95.24419678775384,38.95817357340782],[-95.24420299270278,38.958170505311315],[-95.24420236381695,38.95816973063014],[-95.24428476435934,38.95812898087905],[-95.24428540093199,38.95812976565596],[-95.24429086087083,38.95812706557291],[-95.2442290953245,38.95805090211621],[-95.24423033586467,38.95805028812548],[-95.24422404953151,38.95804253596737],[-95.24422280783823,38.95804314993064],[-95.2442179367418,38.958037141936984],[-95.24418454060705,38.958053651723475],[-95.24415923661282,38.958022450049846],[-95.24418965860319,38.95800740977691],[-95.24419832490713,38.95801809612025],[-95.24421255546501,38.95801106141904],[-95.24421140568968,38.95800964349897],[-95.24422753941137,38.9580016671874],[-95.24422869034007,38.958003085134735],[-95.24424292092702,38.95799604952943],[-95.24424177115131,38.95799463160963],[-95.24425749998555,38.95798685565657],[-95.24425864976143,38.9579882735762],[-95.24427288034236,38.9579812379672],[-95.24427173056631,38.9579798200477],[-95.24428786427438,38.957971843727734],[-95.2442890152038,38.957973261674475],[-95.24430324574364,38.95796622696218],[-95.24429457943017,38.95795554062663],[-95.24440966903099,38.957898642687574],[-95.24441033638315,38.95789946694809],[-95.24442175402301,38.957893821751384],[-95.24441452494847,38.957884907147054],[-95.24441346925623,38.957885428200335],[-95.24438088661287,38.957845250410145],[-95.24438243784097,38.95784448338359],[-95.2443461327647,38.95779971548754],[-95.24434458153722,38.95780048251361],[-95.24431259808826,38.95776104352914],[-95.24431365262615,38.95776052244931],[-95.24430642357888,38.95775160783813],[-95.24429500483473,38.95775725209573],[-95.24429567337252,38.95775807548392],[-95.24426216436385,38.95777464208776],[-95.24426185051655,38.957774254310806],[-95.2442402558186,38.95778492978047],[-95.24424056966585,38.95778531755748],[-95.24420706063144,38.95780188414539],[-95.24420517405379,38.95779955830104],[-95.24418084995702,38.957811583812926],[-95.244177224416,38.95780711317345],[-95.24417474222514,38.957808340226045],[-95.24417018384273,38.95780271998002],[-95.2441565323513,38.95780946923159],[-95.24415811108706,38.957811430874195],[-95.24408117244697,38.95784946698466],[-95.24407957721664,38.957847513961234],[-95.24406592570786,38.957854263202115],[-95.2440704829321,38.95785988342476],[-95.24406800073757,38.95786111047505],[-95.24407162627452,38.9578655811179],[-95.24404606047543,38.95787821966268],[-95.24404794589674,38.95788054548217],[-95.24401567846454,38.957896498053245],[-95.2440153634648,38.95789611024821],[-95.24399376865732,38.95790678657231],[-95.243994083657,38.95790717437733],[-95.24395946586358,38.95792428772128],[-95.24395879732813,38.957923464331174],[-95.24394737964656,38.957929109482286],[-95.24395460866666,38.95793802411573],[-95.24395566439819,38.95793750216619],[-95.24398770387293,38.9579770110763],[-95.24398664929423,38.95797753305355],[-95.24402292121798,38.95802225972152],[-95.24402397576196,38.95802173864433],[-95.24405653519004,38.95806188714604],[-95.24405548061056,38.95806240912385],[-95.24406271081122,38.9580713237779],[-95.24407412847145,38.958065679515876],[-95.24407345996843,38.95806485522605],[-95.24413369191653,38.95803507920284],[-95.2441589947508,38.958066280854595],[-95.24413925128897,38.958076041403665],[-95.244138937441,38.95807565362636],[-95.24412851194477,38.958080807778046],[-95.24412882694595,38.95808119558276],[-95.24412386254325,38.95808364968569],[-95.24419678775384,38.95817357340782]]]},"properties":{"SDE.FloorAll.FLOORLOCATION":"1"}},{"type":"Feature","geometry":{"type":"Polygon","coordinates":[[[-95.24419637744846,38.95817302472231],[-95.24420256708977,38.958169964373],[-95.24420194044016,38.95816919154743],[-95.24428414037399,38.95812855418819],[-95.24428476702415,38.958129327013296],[-95.2442902139618,38.95812663473233],[-95.24422860371624,38.958050662421485],[-95.24422984184467,38.95805005107712],[-95.24422357091923,38.958042318210964],[-95.24422233275578,38.95804293045567],[-95.24421747259466,38.958036938042746],[-95.24413898722345,38.9580757386237],[-95.2441386733052,38.95807535264722],[-95.2441282748944,38.95808049302301],[-95.2441285876243,38.95808087987252],[-95.24412363615257,38.95808332797423],[-95.24419637744846,38.95817302472231]]]},"properties":{"SDE.FloorAll.FLOORLOCATION":"1.5"}},{"type":"Feature","geometry":{"type":"Polygon","coordinates":[[[-95.24419662212917,38.9581746536466],[-95.24420284469227,38.95817157785771],[-95.24420221475849,38.958170800447924],[-95.24428485019057,38.95812994723126],[-95.24428548127807,38.95813072466793],[-95.24429095652458,38.958128016837684],[-95.24422901915182,38.95805164201504],[-95.24423026433996,38.95805102723356],[-95.24422396039805,38.958043253027526],[-95.24422271517489,38.958043868709346],[-95.24421782971869,38.95803784415235],[-95.24418434177322,38.958054399521586],[-95.24415866002923,38.958022731947665],[-95.24419175370934,38.95800637089219],[-95.24419221628871,38.958006940647216],[-95.24420200619204,38.95800210123224],[-95.24420154361265,38.95800153147727],[-95.24428269468196,38.95796141263313],[-95.24428315726173,38.957961982387765],[-95.24429294718767,38.95795714206471],[-95.24429248460785,38.9579565723101],[-95.24441063190062,38.95789816358835],[-95.24441130148904,38.95789898970444],[-95.24442175517619,38.95789382177879],[-95.24441513626051,38.95788565887876],[-95.24441407815654,38.9578861825784],[-95.24435855163837,38.95781771343386],[-95.24435729111289,38.95781833686436],[-95.2443479926411,38.95780687126813],[-95.24434925316643,38.95780624783774],[-95.24431229618867,38.957760674962024],[-95.2443133542564,38.957760152163665],[-95.24430673417741,38.957751990130326],[-95.24429628050277,38.95775715804571],[-95.24429695008845,38.95775798416246],[-95.24420759469028,38.957802159997],[-95.24420538762723,38.957799439008035],[-95.24418099527585,38.95781149804548],[-95.24417693692418,38.95780649350629],[-95.24417270576444,38.95780858562256],[-95.2441696617304,38.95780483176091],[-95.24415945638292,38.957809876691314],[-95.24416055993127,38.957811236736056],[-95.24407990680874,38.9578511095778],[-95.24407880326126,38.9578497495323],[-95.24406859790082,38.95785479445461],[-95.24407164308484,38.9578585483463],[-95.2440674107657,38.95786064043132],[-95.24407146911281,38.957865644974255],[-95.24404583268232,38.95787831879044],[-95.24404803858857,38.95788103975505],[-95.2439588147411,38.95792514913734],[-95.24395814512268,38.95792432391903],[-95.24394769139707,38.95792949180289],[-95.24395431029805,38.95793765382918],[-95.24395536837109,38.95793713103405],[-95.24405714999445,38.95806263806147],[-95.24405609192033,38.95806316085748],[-95.24406271081122,38.9580713237779],[-95.24407316458445,38.95806615498332],[-95.24407249496335,38.95806532976569],[-95.24413304354805,38.95803539634459],[-95.2441587252852,38.95806706392413],[-95.24413892653426,38.95807685109705],[-95.24413861153303,38.958076463292365],[-95.24412815779813,38.958081631192435],[-95.2441284727642,38.958082019897525],[-95.24412349539536,38.95808448090211],[-95.24419662212917,38.9581746536466]]]},"properties":{"SDE.FloorAll.FLOORLOCATION":"2"}},{"type":"Feature","geometry":{"type":"Polygon","coordinates":[[[-95.2441404200695,38.958076113343935],[-95.24415476149758,38.958093797418734],[-95.24419558189088,38.95807361766655],[-95.2441812404918,38.9580559326964],[-95.2441404200695,38.958076113343935]]]},"properties":{"SDE.FloorAll.FLOORLOCATION":"3"}},{"type":"Feature","geometry":{"type":"Polygon","coordinates":[[[-95.24414509795506,38.95806362989139],[-95.24411006227399,38.958080950543966],[-95.24419334430173,38.95818364568137],[-95.24430383359723,38.958129023142114],[-95.24422055147333,38.9580263280836],[-95.24418724830788,38.95804279231542],[-95.24417163922625,38.95802354602969],[-95.24418961723441,38.95801465825878],[-95.24419322185899,38.958019103166],[-95.2441979233981,38.9580249007499],[-95.2443120351161,38.95796848705156],[-95.2443073335714,38.95796268947229],[-95.24430372894251,38.957958244568594],[-95.24440694897864,38.957907214494014],[-95.24440757562822,38.95790798731851],[-95.2444343089364,38.957894770818356],[-95.24441738157165,38.95787389806531],[-95.24441639172245,38.957874388239325],[-95.24441545118938,38.95787322853874],[-95.24441513730564,38.95787284166263],[-95.24432580025672,38.95776268030676],[-95.24432679125822,38.95776219016089],[-95.24430986395694,38.95774131739188],[-95.24428313068356,38.95775453386352],[-95.24428375733042,38.957755306688675],[-95.24423771614103,38.95777806876358],[-95.2442099930259,38.95779177449045],[-95.24420811196873,38.957789455085944],[-95.24418236962603,38.95780218228983],[-95.2441786075131,38.95779754347992],[-95.244174647066,38.95779950143925],[-95.24415771980074,38.95777862864813],[-95.2441530182813,38.95777283106249],[-95.24409583838454,38.95780109888399],[-95.24403865844207,38.957829366677224],[-95.24404336107395,38.957835165195256],[-95.24406028831902,38.957856038003015],[-95.24405632786535,38.95785799595829],[-95.24406008885542,38.9578626338444],[-95.24403434530626,38.95787536098794],[-95.24403622639511,38.957877679494864],[-95.24400850320183,38.95789138517344],[-95.24396246183525,38.9579141471388],[-95.24396183519052,38.9579133743119],[-95.24393510182212,38.95792658980273],[-95.2439520290571,38.95794746262613],[-95.24395301887542,38.957946973356435],[-95.24404235669444,38.95805713592559],[-95.24404266945889,38.95805752187492],[-95.2440436099883,38.95805868157845],[-95.244042620169,38.95805917084894],[-95.24405954746746,38.958080043656366],[-95.24408628087063,38.958066828137056],[-95.24408565310507,38.95806605438303],[-95.2441294900335,38.95804438362746],[-95.24414509795506,38.95806362989139]]]},"properties":{"SDE.FloorAll.FLOORLOCATION":"ROOF"}}]}
