{"type":"FeatureCollection","features":[{"type":"Feature","geometry":{"type":"MultiPolygon","coordinates":[[[[-95.24854930612703,38.95708566154369],[-95.24859556741241,38.95702223613962],[-95.24863554666179,38.957040013434955],[-95.24865976490739,38.95700680931522],[-95.24869949002088,38.95702447331193],[-95.24874807146318,38.95695786750907],[-95.24870834637497,38.95694020352888],[-95.24890180201128,38.95667497079583],[-95.24886335121437,38.95665787333066],[-95.24888597314734,38.956626857316465],[-95.2488037230849,38.95659028418798],[-95.24878109997434,38.95662130015885],[-95.24873882900059,38.956602504216335],[-95.24857263702013,38.95683035738357],[-95.24850490195638,38.956800237901575],[-95.24858321173272,38.95669287318643],[-95.2485828305374,38.956692702821094],[-95.24859675153762,38.95667361627883],[-95.2485313085015,38.9566445164118],[-95.24851738633615,38.95666360291883],[-95.2484935765806,38.95665301625716],[-95.24850749878536,38.956633928852526],[-95.24846637383729,38.9566156421614],[-95.24845245162503,38.95663472956111],[-95.24840353877507,38.956612979368636],[-95.24843544236892,38.95656923851308],[-95.24844053564277,38.95657150250004],[-95.24843676545534,38.956576672576496],[-95.24844491419135,38.95658029602492],[-95.2484486843783,38.9565751259482],[-95.24847694966478,38.95658769470789],[-95.24852538593721,38.95652128742741],[-95.24853633602609,38.956526156151504],[-95.24848369430146,38.9565983297094],[-95.24858198641225,38.956642036638776],[-95.24862737795078,38.956579804537846],[-95.24864189299272,38.95658625838888],[-95.24867916263939,38.95653516013258],[-95.2487173591483,38.95655214528296],[-95.24875158406047,38.95650522222866],[-95.24878825226124,38.95652152761529],[-95.2487746203819,38.9565402163893],[-95.24877793114302,38.95654168914579],[-95.2487927226729,38.95652140838713],[-95.24878406445443,38.95651755928352],[-95.24880393309938,38.95649031987506],[-95.24881309956376,38.956494396430024],[-95.24886168056982,38.95642778967631],[-95.24887543198935,38.956433904542806],[-95.24888034340067,38.95642716996862],[-95.24887879237933,38.95642648067872],[-95.24887835343944,38.956419223512505],[-95.24888216867183,38.95641399230689],[-95.2488584043719,38.95640342482224],[-95.24885821130465,38.95637798856989],[-95.24884802788219,38.95637803622638],[-95.24884776443352,38.9563432580068],[-95.24885853429531,38.956343208043656],[-95.24885847874484,38.95633588697521],[-95.24884946713395,38.95633592819038],[-95.2488492234624,38.956303666660475],[-95.24885764448264,38.9563031707326],[-95.24885719286978,38.956243452951654],[-95.2488270825809,38.95624359193732],[-95.24882714367725,38.95625160077226],[-95.2487714669997,38.956251857668335],[-95.24877140587459,38.95624384973375],[-95.24862521822875,38.956244524559835],[-95.24862523832161,38.9562472701686],[-95.24858608064744,38.95624745034082],[-95.24858605940297,38.95624470470469],[-95.24852017626301,38.956245008565446],[-95.24851575871367,38.956251064506475],[-95.24848773291403,38.95623860327472],[-95.24848570275209,38.95624138674526],[-95.24842178618961,38.95621296560416],[-95.24842381638832,38.956210181234326],[-95.24839836843053,38.956198866233215],[-95.2483963382662,38.95620164970223],[-95.24838462466461,38.956196441105845],[-95.24836542286488,38.95622276710781],[-95.2483600743255,38.9562203898129],[-95.24831758578165,38.95623980590351],[-95.24829871926035,38.956265672116494],[-95.24848257113563,38.956347423585775],[-95.24843453970354,38.95641327718945],[-95.24843521350891,38.95642668628831],[-95.24851899153103,38.956463938521736],[-95.2484889719383,38.95650509523464],[-95.24851927494623,38.95651857030922],[-95.24847431866097,38.956580205273006],[-95.24843281137012,38.95656174907724],[-95.24839742662768,38.95661026221671],[-95.24836167181407,38.95659436320586],[-95.24828336065721,38.95670172774492],[-95.24821562465168,38.956671608966694],[-95.24838181740954,38.95644375630802],[-95.24832223150827,38.95641726017073],[-95.24834485478992,38.956386243388394],[-95.24826260413401,38.95634966984806],[-95.24823998198121,38.956380686641786],[-95.24819032617054,38.956358606896025],[-95.24812667959691,38.95644563535934],[-95.24809255763782,38.95643046175089],[-95.24809161508651,38.95643175426718],[-95.24809428934215,38.95643294337103],[-95.24808732820475,38.95644248704892],[-95.2480101073037,38.95640814968776],[-95.24797309087866,38.9564588995684],[-95.248049229423,38.95649275524304],[-95.24796421033746,38.95660931598163],[-95.24795714401795,38.95660617421128],[-95.24790856207228,38.9566727796848],[-95.24794828681043,38.9566904439393],[-95.24792232833911,38.956726033609975],[-95.2481092364412,38.95680914514323],[-95.24809632980315,38.95682683988126],[-95.24820404491899,38.9568747370735],[-95.24823435387809,38.956833182645525],[-95.24837364532624,38.95689511946211],[-95.2483692947592,38.956901084162],[-95.24840774556891,38.95691818179059],[-95.24835017245323,38.95699711551284],[-95.24854930612703,38.95708566154369]]],[[[-95.24894032946263,38.956447334289315],[-95.24893665417073,38.956448910744626],[-95.24892992601839,38.9564581355576],[-95.24895793608377,38.956470589996464],[-95.24897055340327,38.95645329295391],[-95.24894460037673,38.95644175340399],[-95.24894032946263,38.956447334289315]]],[[[-95.2489215782727,38.956542631912946],[-95.24894933534617,38.95655497400556],[-95.24896845174045,38.95652876304341],[-95.2489680717696,38.95648849540302],[-95.24896278109081,38.95648614294163],[-95.2489215782727,38.956542631912946]]]]},"properties":{"SDE.FloorAll.FLOORLOCATION":"-1"}},{"type":"Feature","geometry":{"type":"Polygon","coordinates":[[[-95.24863509070684,38.957040844359355],[-95.24865936793728,38.957007666873686],[-95.24869906135102,38.95702537427836],[-95.24874776083315,38.95695881994281],[-95.24870806740955,38.9569411134551],[-95.24890199387494,38.95667609106503],[-95.24886295746958,38.956658677794046],[-95.24888272014492,38.95663167017623],[-95.24888548995412,38.9566278840625],[-95.24892056109236,38.95664352876314],[-95.24898714159202,38.95655253922004],[-95.24896093358488,38.95654084762631],[-95.24896894052935,38.95652990567858],[-95.248968616336,38.95649022155301],[-95.24896832757447,38.95648969289218],[-95.24896273703982,38.9564898252033],[-95.24896275065478,38.956492174118836],[-95.24895975381375,38.95649218502284],[-95.2489241857168,38.95654079309814],[-95.24890461934221,38.956532064596004],[-95.24890621761543,38.95652987919745],[-95.24890085009642,38.9565274843549],[-95.24889925066995,38.95652966972599],[-95.24885853976429,38.95651150925713],[-95.24886013919162,38.95650932388661],[-95.24885477733648,38.95650693187991],[-95.24885317790901,38.95650911725038],[-95.24881274049231,38.956491077709934],[-95.24881433876745,38.956488892312635],[-95.24880925031052,38.9564866230492],[-95.2488580955493,38.956419870259836],[-95.24884588219278,38.95641442184344],[-95.24885256889765,38.956405283470495],[-95.248854390026,38.95640454892576],[-95.2488572975314,38.95640057592168],[-95.2488590557127,38.95640056897433],[-95.24885815069152,38.95624452560652],[-95.24852113213016,38.9562457161806],[-95.24851670437754,38.95625176737341],[-95.24838235925085,38.9561918361542],[-95.24836111163859,38.95622087315485],[-95.24831855138765,38.95624029295136],[-95.24831077235731,38.9562509230339],[-95.24828481983172,38.956239345492236],[-95.24821829845365,38.956330253139356],[-95.2482632295714,38.956350296623896],[-95.24826096816568,38.95635338642644],[-95.24824069690432,38.95638109023521],[-95.24819108128618,38.956358956468975],[-95.24799715187274,38.95662397765],[-95.24795746001335,38.956606270031884],[-95.24790875887692,38.956672824010184],[-95.24794845194972,38.956690530771816],[-95.24792242995196,38.9567260918979],[-95.248113770666,38.95681144904773],[-95.24813121611368,38.9567876093334],[-95.24837344624915,38.95689566718862],[-95.24836658143164,38.95690504914599],[-95.24839284182512,38.95694042090703],[-95.24840338288647,38.95693800794897],[-95.24840658063536,38.956933637193174],[-95.24847642575588,38.95696479454788],[-95.24847351817084,38.95696876844262],[-95.24863509070684,38.957040844359355]]]},"properties":{"SDE.FloorAll.FLOORLOCATION":"1"}},{"type":"Feature","geometry":{"type":"Polygon","coordinates":[[[-95.24863509070684,38.957040844359355],[-95.24865936793728,38.957007666873686],[-95.24869906135102,38.95702537427836],[-95.24874776083315,38.95695881994281],[-95.24870806740955,38.9569411134551],[-95.24890199387494,38.95667609106503],[-95.24886295746958,38.956658677794046],[-95.24888548995412,38.9566278840625],[-95.24892056109236,38.95664352876314],[-95.24898714159202,38.95655253922004],[-95.24896093358488,38.95654084762631],[-95.24896894052935,38.95652990567858],[-95.24896868432101,38.95649197424643],[-95.24898996835806,38.956462886633574],[-95.24898386109415,38.95646016241881],[-95.24897572005624,38.9564712877393],[-95.24896350668176,38.95646583933532],[-95.24897164772096,38.956454714015614],[-95.24894724365828,38.95644382765711],[-95.24894433612111,38.95644780156386],[-95.24893439852109,38.956452327841006],[-95.24891802024337,38.956445021416975],[-95.2489240914066,38.95643666241393],[-95.24890270868143,38.956427122968876],[-95.24889660229358,38.95643546761667],[-95.24888022402372,38.95642816118731],[-95.2488801690209,38.95641872045056],[-95.24888282537344,38.9564150911618],[-95.2488553331,38.95640282743284],[-95.24885903918205,38.9563977612659],[-95.24885815069152,38.95624452560652],[-95.24852113213016,38.9562457161806],[-95.24851670437754,38.95625176737341],[-95.24838235925085,38.9561918361542],[-95.24836111163859,38.95622087315485],[-95.24831855138765,38.95624029295136],[-95.24831077235731,38.9562509230339],[-95.24828481983172,38.956239345492236],[-95.24821829845365,38.956330253139356],[-95.2482632295714,38.956350296623896],[-95.24824069575115,38.95638109020783],[-95.24819108128618,38.956358956468975],[-95.24799715187274,38.95662397765],[-95.24795746001335,38.956606270031884],[-95.24790875887692,38.956672824010184],[-95.24794845194972,38.956690530771816],[-95.24792242995196,38.9567260918979],[-95.248113770666,38.95681144904773],[-95.24813121611368,38.9567876093334],[-95.24837344624915,38.95689566718862],[-95.24836658143164,38.95690504914599],[-95.24839284182512,38.95694042090703],[-95.24840338288647,38.95693800794897],[-95.24840658063536,38.956933637193174],[-95.24847642575588,38.95696479454788],[-95.24847351817084,38.95696876844262],[-95.24863509070684,38.957040844359355]]]},"properties":{"SDE.FloorAll.FLOORLOCATION":"2"}},{"type":"Feature","geometry":{"type":"Polygon","coordinates":[[[-95.24863509070684,38.957040844359355],[-95.24865936793728,38.957007666873686],[-95.24869906135102,38.95702537427836],[-95.24874776083315,38.95695881994281],[-95.24870806740955,38.9569411134551],[-95.24890199387494,38.95667609106503],[-95.24886357355405,38.95665895196545],[-95.2488861060034,38.956628159134205],[-95.24889511660723,38.956632177910414],[-95.24890194955806,38.95662284113016],[-95.24892128679969,38.956631466863],[-95.2489144549687,38.95664080457213],[-95.24892056109236,38.95664352876314],[-95.24898714159202,38.95655253922004],[-95.24898103432048,38.956549815005154],[-95.24897420254032,38.9565591518175],[-95.24895410061467,38.95655018531047],[-95.24896890397152,38.95652995527978],[-95.24896868432101,38.95649197424643],[-95.24898996835806,38.956462886633574],[-95.24898386109415,38.95646016241881],[-95.24897630155652,38.956470493137886],[-95.24896434344197,38.95646515893767],[-95.24897190182762,38.95645482819192],[-95.24894724365828,38.95644382765711],[-95.24894433612111,38.95644780156386],[-95.24893439852109,38.956452327841006],[-95.24891802024337,38.956445021416975],[-95.2489241254412,38.95643667764111],[-95.24890270868143,38.956427122968876],[-95.24889660229358,38.95643546761667],[-95.24888022402372,38.95642816118731],[-95.2488803542566,38.95641846889796],[-95.24888282537344,38.9564150911618],[-95.24885456955792,38.95640248667661],[-95.24885040272717,38.95640818087919],[-95.24884299739506,38.956411554186346],[-95.24882614373504,38.95640403639677],[-95.24883225009343,38.95639569265303],[-95.24881083220522,38.95638613793648],[-95.24880472699837,38.95639448170642],[-95.2487878733465,38.95638696391133],[-95.24878782721746,38.95637889685183],[-95.24879123825333,38.95637423464448],[-95.24876428605697,38.95636221171857],[-95.24876087501987,38.956366873925184],[-95.24875195031278,38.956370939362785],[-95.24873509782535,38.956363421587334],[-95.24874120307281,38.95635507692063],[-95.24871927692745,38.95634529563428],[-95.24871317167823,38.95635364029985],[-95.24869627496115,38.95634610254328],[-95.24869622772442,38.95633803455596],[-95.24869963872932,38.95633337325166],[-95.24867268771725,38.9563213503318],[-95.24866927671117,38.956326011635355],[-95.2486603508508,38.956330077038594],[-95.24864349838283,38.956322559249784],[-95.24864960475574,38.956314215515604],[-95.24862818691689,38.95630466076525],[-95.24862208166047,38.95631300542606],[-95.2486046755635,38.956305240174984],[-95.2486046283022,38.95629717308807],[-95.24860803934622,38.95629251088601],[-95.24858108836531,38.95628048794483],[-95.24857767732016,38.95628515014607],[-95.24856875261285,38.956289215569626],[-95.2485513465276,38.95628145031056],[-95.24855745175465,38.95627310655385],[-95.24853603394074,38.95626355178642],[-95.24852992867697,38.956271896442395],[-95.24851362875503,38.95626462516402],[-95.24851358269241,38.956256557203936],[-95.24851699370542,38.95625189590497],[-95.24848950155886,38.95623963208914],[-95.24848684634587,38.95624326139638],[-95.24847640229858,38.95624801804507],[-95.24846002411556,38.95624071155629],[-95.24846612934984,38.956232367804326],[-95.24844471152554,38.95622281392043],[-95.24843860628957,38.95623115767124],[-95.24842222811431,38.956223851177086],[-95.24842217612424,38.956214868332424],[-95.24842508364613,38.95621089533908],[-95.24840042449377,38.956199894660415],[-95.2483928648987,38.95621022534171],[-95.24838090687219,38.95620489108121],[-95.24838846531527,38.95619456037333],[-95.24838235925085,38.9561918361542],[-95.2483610750805,38.95622092275581],[-95.24831855138765,38.95624029295136],[-95.2483040002128,38.95626017921223],[-95.24828415378525,38.95625132499323],[-95.24829098677995,38.956241988248706],[-95.2482848795621,38.95623926399709],[-95.24821829845365,38.956330253139356],[-95.24822491395696,38.95633320394954],[-95.24823174696743,38.95632386720855],[-95.24825108404549,38.956332493053345],[-95.24824425215486,38.9563418307232],[-95.2482632295714,38.956350296623896],[-95.24824069575115,38.95638109020783],[-95.24819108128618,38.956358956468975],[-95.24799715187274,38.95662397765],[-95.24795746001335,38.956606270031884],[-95.24790875887692,38.956672824010184],[-95.24794845194972,38.956690530771816],[-95.24792242995196,38.9567260918979],[-95.248113770666,38.95681144904773],[-95.24813121611368,38.9567876093334],[-95.24837344624915,38.95689566718862],[-95.24836908547861,38.956901627140184],[-95.24848364882024,38.95695273273124],[-95.2484723099009,38.956968228773874],[-95.24863509070684,38.957040844359355]]]},"properties":{"SDE.FloorAll.FLOORLOCATION":"3"}},{"type":"Feature","geometry":{"type":"Polygon","coordinates":[[[-95.24863509070684,38.957040844359355],[-95.24865936793728,38.957007666873686],[-95.24869906135102,38.95702537427836],[-95.24874776083315,38.95695881994281],[-95.24870806740955,38.9569411134551],[-95.24890199387494,38.95667609106503],[-95.24886357355405,38.95665895196545],[-95.2488861060034,38.956628159134205],[-95.24889511660723,38.956632177910414],[-95.24890194955806,38.95662284113016],[-95.24892128679969,38.956631466863],[-95.2489144549687,38.95664080457213],[-95.24892056109236,38.95664352876314],[-95.24898714159202,38.95655253922004],[-95.24898103432048,38.956549815005154],[-95.24897420254032,38.9565591518175],[-95.24895410061467,38.95655018531047],[-95.24896890397152,38.95652995527978],[-95.24896868432101,38.95649197424643],[-95.24898996835806,38.956462886633574],[-95.24898386109415,38.95646016241881],[-95.24897630155652,38.956470493137886],[-95.24896434344197,38.95646515893767],[-95.24897190182762,38.95645482819192],[-95.24894724365828,38.95644382765711],[-95.24894433612111,38.95644780156386],[-95.24893439852109,38.956452327841006],[-95.24891802024337,38.956445021416975],[-95.2489241254412,38.95643667764111],[-95.24890270868143,38.956427122968876],[-95.24889660229358,38.95643546761667],[-95.24888022402372,38.95642816118731],[-95.2488803542566,38.95641846889796],[-95.24888282537344,38.9564150911618],[-95.24885456955792,38.95640248667661],[-95.24885040272717,38.95640818087919],[-95.24884299739506,38.956411554186346],[-95.24882614373504,38.95640403639677],[-95.24883225009343,38.95639569265303],[-95.24881083220522,38.95638613793648],[-95.24880472699837,38.95639448170642],[-95.2487878733465,38.95638696391133],[-95.24878782721746,38.95637889685183],[-95.24879123825333,38.95637423464448],[-95.24876428605697,38.95636221171857],[-95.24876087501987,38.956366873925184],[-95.24875195031278,38.956370939362785],[-95.24873509782535,38.956363421587334],[-95.24874120307281,38.95635507692063],[-95.24871927692745,38.95634529563428],[-95.24871317167823,38.95635364029985],[-95.24869627496115,38.95634610254328],[-95.24869622772442,38.95633803455596],[-95.24869963872932,38.95633337325166],[-95.24867268771725,38.9563213503318],[-95.24866927671117,38.956326011635355],[-95.2486603508508,38.956330077038594],[-95.24864349838283,38.956322559249784],[-95.24864960475574,38.956314215515604],[-95.24862818691689,38.95630466076525],[-95.24862208166047,38.95631300542606],[-95.2486046755635,38.956305240174984],[-95.2486046283022,38.95629717308807],[-95.24860803934622,38.95629251088601],[-95.24858108836531,38.95628048794483],[-95.24857767732016,38.95628515014607],[-95.24856875261285,38.956289215569626],[-95.2485513465276,38.95628145031056],[-95.24855745175465,38.95627310655385],[-95.24853603394074,38.95626355178642],[-95.24852992867697,38.956271896442395],[-95.24851362875503,38.95626462516402],[-95.24851358269241,38.956256557203936],[-95.24851699370542,38.95625189590497],[-95.24848950155886,38.95623963208914],[-95.24848684634587,38.95624326139638],[-95.24847640229858,38.95624801804507],[-95.24846002411556,38.95624071155629],[-95.24846612934984,38.956232367804326],[-95.24844471152554,38.95622281392043],[-95.24843860628957,38.95623115767124],[-95.24842222811431,38.956223851177086],[-95.24842217612424,38.956214868332424],[-95.24842508364613,38.95621089533908],[-95.24840042449377,38.956199894660415],[-95.2483928648987,38.95621022534171],[-95.24838090687219,38.95620489108121],[-95.24838846531527,38.95619456037333],[-95.24838235925085,38.9561918361542],[-95.2483610750805,38.95622092275581],[-95.24831855138765,38.95624029295136],[-95.2483040002128,38.95626017921223],[-95.24828415378525,38.95625132499323],[-95.24829098677995,38.956241988248706],[-95.2482848795621,38.95623926399709],[-95.24821829845365,38.956330253139356],[-95.24822491395696,38.95633320394954],[-95.24823174696743,38.95632386720855],[-95.24825108404549,38.956332493053345],[-95.24824425215486,38.9563418307232],[-95.2482632295714,38.956350296623896],[-95.24824069575115,38.95638109020783],[-95.24819108128618,38.956358956468975],[-95.24799715187274,38.95662397765],[-95.24795746001335,38.956606270031884],[-95.24790875887692,38.956672824010184],[-95.24794845194972,38.956690530771816],[-95.24792242995196,38.9567260918979],[-95.248113770666,38.95681144904773],[-95.24813121611368,38.9567876093334],[-95.24837344624915,38.95689566718862],[-95.24836908547861,38.956901627140184],[-95.24848364882024,38.95695273273124],[-95.2484723099009,38.956968228773874],[-95.24863509070684,38.957040844359355]]]},"properties":{"SDE.FloorAll.FLOORLOCATION":"4"}},{"type":"Feature","geometry":{"type":"Polygon","coordinates":[[[-95.24863607003084,38.95704127585378],[-95.24866039238223,38.95700803635291],[-95.2487001607152,38.95702577617665],[-95.24874895159209,38.95695909783785],[-95.24870918447267,38.95694135715772],[-95.2488063295752,38.95680859661936],[-95.24890347543104,38.95667583692595],[-95.24886498249782,38.95665866546234],[-95.24888755762076,38.95662781416256],[-95.24889658520694,38.95663184145258],[-95.24890343042532,38.95662248603762],[-95.248922803938,38.956631128852884],[-95.24891595875637,38.95664048336859],[-95.24892207735476,38.956643213262886],[-95.248988782275,38.95655205183347],[-95.24898266480007,38.956549322870465],[-95.2489758196343,38.956558677389765],[-95.24895568028448,38.956549693773006],[-95.24897051051755,38.95652942562711],[-95.24897029017511,38.9564913733806],[-95.2489916144389,38.95646223084594],[-95.24898549581843,38.9564595018557],[-95.24897792282519,38.95646985208259],[-95.24896594203254,38.956464507430915],[-95.24897351502695,38.956454157204796],[-95.24894881031324,38.95644313664022],[-95.24894589672998,38.95644711761335],[-95.24893594148202,38.95645165248415],[-95.24891953140593,38.95644433268864],[-95.24892564876613,38.95643597297922],[-95.24890419115776,38.95642640021475],[-95.24889807379581,38.95643475992306],[-95.24888166488074,38.95642744014961],[-95.2488816093904,38.95641798227803],[-95.248884270636,38.95641434589551],[-95.24885596149724,38.95640171761479],[-95.24885178732708,38.95640742245797],[-95.24884436675849,38.95641080171219],[-95.2488274824884,38.95640326967812],[-95.24883359985594,38.956394909973525],[-95.24881214223747,38.95638533809237],[-95.24880602486822,38.95639369779585],[-95.24878914060632,38.95638616575621],[-95.24878909391975,38.95637808336271],[-95.24879251103678,38.95637341318854],[-95.24876550894187,38.956361367449496],[-95.24876209182358,38.95636603762289],[-95.24875314950363,38.95637011075363],[-95.24873626525297,38.956362578706276],[-95.24874238262781,38.95635421900645],[-95.24872041448093,38.95634441960038],[-95.24871429710434,38.956352779299046],[-95.24869736862412,38.956345227270525],[-95.24869732198306,38.956337143976555],[-95.24870073910424,38.95633247380508],[-95.24867373700548,38.95632042894499],[-95.24867031988316,38.95632509911569],[-95.2486613775631,38.95632917223939],[-95.24864449333201,38.95632164017866],[-95.24865061071411,38.95631328048365],[-95.2486291531802,38.9563037076682],[-95.24862303579641,38.95631206736209],[-95.24860559678326,38.9563042878117],[-95.24860555011766,38.956296205418056],[-95.24860896724286,38.95629153524925],[-95.24858196521048,38.95627948946739],[-95.24857854808408,38.956284159635395],[-95.24856960691706,38.956288232779386],[-95.24855216788056,38.956280454121305],[-95.24855828527005,38.95627209443116],[-95.24853682776117,38.95626252159859],[-95.24853071036996,38.95627088128763],[-95.2485143798032,38.95626359666496],[-95.24851433314805,38.95625551427126],[-95.24851775031243,38.956250843204764],[-95.24849020711444,38.956238556548165],[-95.24848754589034,38.95624219202129],[-95.24847708300696,38.95624695813654],[-95.24846067417909,38.95623963830345],[-95.24846679042265,38.95623127859068],[-95.24844533290349,38.95622170664154],[-95.24843921550499,38.9562300663258],[-95.24842280671997,38.9562227455869],[-95.24842275420758,38.9562137465078],[-95.2484256678107,38.956209765547776],[-95.2484009621146,38.956198744838865],[-95.24839338906366,38.95620909502781],[-95.24838140720622,38.95620375028828],[-95.2483889814115,38.95619340012753],[-95.24838286287257,38.95619067020503],[-95.2483615384398,38.95621981262837],[-95.24831893485973,38.95623921877955],[-95.24830435684318,38.95625914225488],[-95.24828447295695,38.95625027182608],[-95.24829131818436,38.95624091734735],[-95.24828520079826,38.95623818744709],[-95.24821849411386,38.95632934844682],[-95.24822512209168,38.95633230496043],[-95.2482319673699,38.95632294958483],[-95.2482513418716,38.95633159253986],[-95.24824449659513,38.95634094791657],[-95.24826350919908,38.9563494290719],[-95.24824093270449,38.95638028112396],[-95.24819122522194,38.95635810552359],[-95.24809407843026,38.95649086552425],[-95.24799693130879,38.956623624541734],[-95.24795716453168,38.95660588450365],[-95.24790837199863,38.95667256248392],[-95.24794813991915,38.95669030346644],[-95.24792206916467,38.95672593102704],[-95.24811376951277,38.95681144902036],[-95.24813124788417,38.95678756412499],[-95.24837393294577,38.95689582563881],[-95.24836956364733,38.956901797103924],[-95.24848434255486,38.95695299883393],[-95.24847298287479,38.95696852412435],[-95.24863607003084,38.95704127585378]]]},"properties":{"SDE.FloorAll.FLOORLOCATION":"5"}},{"type":"Feature","geometry":{"type":"Polygon","coordinates":[[[-95.24863545034412,38.95704100520064],[-95.24865972757445,38.9570078277149],[-95.24869906138605,38.95702537337798],[-95.24874776083315,38.95695881994281],[-95.2487084270465,38.956941274296156],[-95.24890235466421,38.9566762519328],[-95.24886393318994,38.956659112806044],[-95.24888646567419,38.956628319074305],[-95.24892056109236,38.95664352876314],[-95.24898714159202,38.95655253922004],[-95.24898103432048,38.956549815005154],[-95.24897420254032,38.9565591518175],[-95.2489543559099,38.956550298613806],[-95.24896890692646,38.95653041317218],[-95.24896868432101,38.95649197424643],[-95.24898996835806,38.956462886633574],[-95.2489833528107,38.95645993586702],[-95.24897579327303,38.956470266586074],[-95.24896434344197,38.95646515893767],[-95.24897190182762,38.95645482819192],[-95.24894724365828,38.95644382765711],[-95.24894433615614,38.95644780066345],[-95.24893439852109,38.956452327841006],[-95.24891802024337,38.956445021416975],[-95.2489241254412,38.95643667764111],[-95.24890270868143,38.956427122968876],[-95.24889609404562,38.95643524016416],[-95.24888022402372,38.95642816118731],[-95.2488803542566,38.95641846889796],[-95.24888282537344,38.9564150911618],[-95.24885456955792,38.95640248667661],[-95.24885040272717,38.95640818087919],[-95.24884299739506,38.956411554186346],[-95.24882614373504,38.95640403639677],[-95.24883225012846,38.956395691752654],[-95.24881083220522,38.95638613793648],[-95.24880472699837,38.95639448170642],[-95.2487878733465,38.95638696391133],[-95.24878782721746,38.95637889685183],[-95.24879123825333,38.95637423464448],[-95.24876428605697,38.95636221171857],[-95.24876087501987,38.956366873925184],[-95.24875195031278,38.956370939362785],[-95.24873509782535,38.956363421587334],[-95.24874120307281,38.95635507692063],[-95.24871978632737,38.95634552311495],[-95.24871367996006,38.95635386685276],[-95.24869627496115,38.95634610254328],[-95.24869622772442,38.95633803455596],[-95.24869963872932,38.95633337325166],[-95.24867268771725,38.9563213503318],[-95.24866927671117,38.956326011635355],[-95.2486603508508,38.956330077038594],[-95.24864349838283,38.956322559249784],[-95.24864960475574,38.956314215515604],[-95.24862818691689,38.95630466076525],[-95.24862208169553,38.956313004525626],[-95.2486046755635,38.956305240174984],[-95.24860462833726,38.95629717218763],[-95.24860803934622,38.95629251088601],[-95.24858108836531,38.95628048794483],[-95.24857767732016,38.95628515014607],[-95.24856875261285,38.956289215569626],[-95.2485513465276,38.95628145031056],[-95.24855745175465,38.95627310655385],[-95.24853603394074,38.95626355178642],[-95.24852992867697,38.956271896442395],[-95.24851362875503,38.95626462516402],[-95.24851358269241,38.956256557203936],[-95.24851699370542,38.95625189590497],[-95.24848950155886,38.95623963208914],[-95.24848703046439,38.95624300891658],[-95.24847640229858,38.95624801804507],[-95.24846002411556,38.95624071155629],[-95.24846612934984,38.956232367804326],[-95.24844471156058,38.95622281302005],[-95.24843860628957,38.95623115767124],[-95.24842222811431,38.956223851177086],[-95.24842217612424,38.956214868332424],[-95.24842508364613,38.95621089533908],[-95.24840042449377,38.956199894660415],[-95.2483928648987,38.95621022534171],[-95.24838090687219,38.95620489108121],[-95.24838846531527,38.95619456037333],[-95.24838235925085,38.9561918361542],[-95.2483610750805,38.95622092275581],[-95.24831855138765,38.95624029295136],[-95.24830400024784,38.956260178311844],[-95.24828415378525,38.95625132499323],[-95.24829098677995,38.956241988248706],[-95.2482848795621,38.95623926399709],[-95.24821829845365,38.956330253139356],[-95.24822491395696,38.95633320394954],[-95.24823174696743,38.95632386720855],[-95.24825108404549,38.956332493053345],[-95.24824425215486,38.9563418307232],[-95.24826358920436,38.95635045746631],[-95.24823684090241,38.95638701169302],[-95.24827577028748,38.95640437938355],[-95.24808983837566,38.95665847300551],[-95.24800129196694,38.956618972278996],[-95.24799751269468,38.9566241376202],[-95.24795746001335,38.956606270031884],[-95.24790875891196,38.95667282310978],[-95.24795542710945,38.95669364244069],[-95.24797796000038,38.95666284888555],[-95.24815556128347,38.95674207686157],[-95.24812445199362,38.956784591004585],[-95.24837380592014,38.956895827130275],[-95.2483694451146,38.95690178798229],[-95.24848400845674,38.956952893573],[-95.24847266953743,38.95696838961563],[-95.24863545034412,38.95704100520064]]]},"properties":{"SDE.FloorAll.FLOORLOCATION":"6"}},{"type":"Feature","geometry":{"type":"MultiPolygon","coordinates":[[[[-95.2487921939393,38.95658626512308],[-95.24892056109236,38.95664352876314],[-95.24898670520442,38.956553134489035],[-95.248960497162,38.95654144379559],[-95.24896890397152,38.95652995527978],[-95.24896868615785,38.95649243121113],[-95.24896232590358,38.956489593746674],[-95.2489271662378,38.95653764284083],[-95.2483317712076,38.956272039632985],[-95.24836692999278,38.95622399069093],[-95.24836056863364,38.956221153166034],[-95.24831905783476,38.956240062541305],[-95.24831065095421,38.95625155101031],[-95.24828444317045,38.956239859263455],[-95.24821829960686,38.95633025316674],[-95.24839271907611,38.95640806155142],[-95.24856713892932,38.95648586967334],[-95.24854635086787,38.95651427954558],[-95.24864303895892,38.95655741123021],[-95.24866382811233,38.95652900226846],[-95.2487921939393,38.95658626512308]]],[[[-95.24808676151419,38.95666525289368],[-95.24818039644583,38.956707023746404],[-95.24818006602094,38.95670747643015],[-95.24818617212206,38.956710200659835],[-95.24821524664955,38.95667046715506],[-95.24821269279735,38.956669327775636],[-95.24821298299352,38.95666893001297],[-95.24820457491296,38.956665178727555],[-95.24811768256664,38.956626416699926],[-95.24811727783651,38.95662696945836],[-95.2481153910855,38.9566261279937],[-95.24808676151419,38.95666525289368]]],[[[-95.24862216152694,38.95680502669212],[-95.24864811546855,38.95681660418514],[-95.24866686882974,38.95679097675909],[-95.24864842109132,38.9567827470019],[-95.24864091492951,38.95677939836983],[-95.24862216152694,38.95680502669212]]]]},"properties":{"SDE.FloorAll.FLOORLOCATION":"7"}},{"type":"Feature","geometry":{"type":"Polygon","coordinates":[[[-95.24863372559273,38.95704311820018],[-95.24865814790458,38.95700974228308],[-95.24869784250737,38.95702744881514],[-95.24874407081467,38.95696427311359],[-95.24870437742396,38.956946565724245],[-95.24874530630427,38.95689063088399],[-95.24874879534207,38.956885863282594],[-95.2489023744381,38.95667598113326],[-95.24886428198964,38.95665898860236],[-95.24888696070549,38.95662799646596],[-95.2489220738109,38.956643660186415],[-95.24898503364633,38.95655761807608],[-95.2489590809328,38.95654603978523],[-95.2489630173714,38.956540660047075],[-95.24896359887241,38.956539865445734],[-95.2489698459973,38.95649258400135],[-95.24899077896019,38.95646397562099],[-95.24885643302844,38.956404044952],[-95.24885905034228,38.95640046971216],[-95.24885815069152,38.95624452560652],[-95.24852274969048,38.956245704098905],[-95.24851751615816,38.956252855491215],[-95.2483831709937,38.95619292517328],[-95.2483622378652,38.95622153344463],[-95.24831324326844,38.95624974519533],[-95.2483126617625,38.956250539793466],[-95.24830872525554,38.95625592041002],[-95.24828277157525,38.95624434284048],[-95.24821981116418,38.95633038457182],[-95.24825492397402,38.956346048494645],[-95.24823224622473,38.95637704053555],[-95.24818637230305,38.95635657632102],[-95.2481142671735,38.9564551145423],[-95.24800383917838,38.95640585238796],[-95.24796749627222,38.956455519659634],[-95.24804281035202,38.95648911694439],[-95.24795631319857,38.9566073242814],[-95.24795020596207,38.95660460001225],[-95.24790136092676,38.95667135154522],[-95.2479410539969,38.95668905830938],[-95.24793590813468,38.95669609009292],[-95.2479324190164,38.956700858570386],[-95.24791401404883,38.956726010195226],[-95.24810637243695,38.956811821397906],[-95.24812294502439,38.95678917401689],[-95.24822229828052,38.95683349493538],[-95.24822908833528,38.95689028187393],[-95.24823955122649,38.95690034273668],[-95.24824392669123,38.95690043937216],[-95.24825299423755,38.95690109797947],[-95.24826195247209,38.956902370429766],[-95.24827073475568,38.95690424883301],[-95.2482792747997,38.956906716295045],[-95.24828750628046,38.95690975682235],[-95.24829536668422,38.95691334549943],[-95.24830279706211,38.95691745479188],[-95.24830973972334,38.95692205449124],[-95.24831614407154,38.95692711005157],[-95.24832195860257,38.95693258059674],[-95.24832713981422,38.95693842724288],[-95.2483316502508,38.95694460403991],[-95.24833545249142,38.95695106413733],[-95.2483385207524,38.95695775825716],[-95.24834082816677,38.95696463529316],[-95.24841890024376,38.956929893876406],[-95.24847386122732,38.95695441105457],[-95.24846426568283,38.9569675232724],[-95.24863372559273,38.95704311820018]]]},"properties":{"SDE.FloorAll.FLOORLOCATION":"ROOF"}}]}
