{"type":"FeatureCollection","features":[{"type":"Feature","geometry":{"type":"MultiPolygon","coordinates":[[[[-95.25002236197454,38.95801541604633],[-95.25002635257094,38.95800828828021],[-95.25003575051547,38.958011495132865],[-95.25006561147019,38.95795815061284],[-95.2501838334971,38.9579219918345],[-95.25018853606348,38.9579313652476],[-95.2501896282846,38.95793103156252],[-95.25018984141336,38.95793145748904],[-95.25019093363447,38.95793112380398],[-95.25019114676326,38.957931549730496],[-95.2502121573924,38.95792512391605],[-95.25020702629416,38.9579148976958],[-95.25028603988156,38.95789073069048],[-95.25026565009365,38.957927157686534],[-95.25039454093819,38.95797113986203],[-95.25041789533729,38.95792941815927],[-95.25041735879874,38.9579292351041],[-95.25041782773893,38.95792839637003],[-95.25041729120039,38.9579282133149],[-95.25041776014056,38.95792737458082],[-95.25040325997234,38.95792242636078],[-95.2504103020785,38.957909847342535],[-95.25042480224464,38.95791479556168],[-95.2504252711847,38.95791395682758],[-95.25042580772316,38.957914139882696],[-95.25042627781633,38.95791330117591],[-95.25042681435484,38.95791348423101],[-95.25049453035703,38.95779251270528],[-95.25040376917319,38.95776154101904],[-95.25041397947614,38.957743300839105],[-95.25038390499056,38.95773303825819],[-95.25037369468133,38.95775127843548],[-95.25036563981097,38.95774852973984],[-95.25033686213409,38.957799938956086],[-95.2502708682328,38.957777418607726],[-95.24996258470286,38.95787170929245],[-95.24991431985487,38.9579579301398],[-95.24990861979927,38.95796811306269],[-95.25000111141375,38.95799967502289],[-95.24999712081528,38.95800680278811],[-95.25002236197454,38.95801541604633]]],[[[-95.2498555873532,38.95793799256293],[-95.24986136964739,38.95793996550926],[-95.24985625390825,38.95794910335023],[-95.24989653170614,38.95796284798195],[-95.24990169703747,38.95795362209433],[-95.24990635015125,38.95794530871384],[-95.24990188646346,38.95793641229482],[-95.24990216806891,38.95793590888105],[-95.24989008921101,38.95791183545951],[-95.24986612773169,38.957919164547185],[-95.24986004690881,38.957930026070734],[-95.24986582804935,38.95793199898947],[-95.24986535910259,38.957932837721295],[-95.24985957796198,38.95793086480255],[-95.2498555873532,38.95793799256293]]]]},"properties":{"SDE.FloorAll.FLOORLOCATION":"1"}},{"type":"Feature","geometry":{"type":"Polygon","coordinates":[[[-95.25001150251052,38.95801171039778],[-95.25002412310866,38.95801601657582],[-95.25002699738678,38.958010880175024],[-95.25003894701584,38.958014957748524],[-95.25007023077575,38.95795907217426],[-95.25013600678744,38.95793895413542],[-95.25013841164706,38.95794374710632],[-95.25014012237136,38.95794715645682],[-95.2501761392934,38.95793614062854],[-95.2502121573924,38.95792512391605],[-95.25021044666515,38.957921714566645],[-95.25020804180139,38.95791692159715],[-95.25026755869847,38.95789871794572],[-95.25027677094423,38.957901861795335],[-95.25026198325297,38.957928278365564],[-95.25039597747127,38.95797400197141],[-95.25049819606883,38.95779139109113],[-95.25040488432349,38.957759549622644],[-95.25041397947614,38.957743300839105],[-95.25038390499056,38.95773303825819],[-95.25037480983232,38.95774928703939],[-95.25036420328368,38.957745667630114],[-95.25033533256688,38.9577972431685],[-95.25027061906796,38.957775159637166],[-95.24996049452541,38.95787001317939],[-95.24990495410398,38.95796923375779],[-95.25000175622864,38.95800226691781],[-95.249998881949,38.95800740331799],[-95.25001150251052,38.95801171039778]]]},"properties":{"SDE.FloorAll.FLOORLOCATION":"ROOF"}}]}
