{"type":"FeatureCollection","features":[{"type":"Feature","geometry":{"type":"MultiPolygon","coordinates":[[[[-95.25031084410301,38.95856597561411],[-95.2503043606837,38.95857757292513],[-95.25042808893684,38.95861973379236],[-95.25051728039278,38.95846017099056],[-95.25039162257477,38.958417353423684],[-95.25039081114143,38.958418806781786],[-95.25036263935816,38.95840920756428],[-95.2503634519452,38.95840775423373],[-95.25012400929337,38.958326163721544],[-95.25012345475047,38.958327155434944],[-95.25009424409954,38.95831720256485],[-95.25013615226824,38.95824222957348],[-95.24995285621598,38.95817978029102],[-95.24982231598904,38.958413314975665],[-95.24994606987583,38.95845548509038],[-95.24995255337774,38.95844388689889],[-95.25009188332731,38.958491364100006],[-95.25009063530476,38.95849359567303],[-95.25009237939838,38.958494189488434],[-95.25008570609167,38.95850612745345],[-95.25008414772942,38.95850559572133],[-95.25008298159838,38.95850768053449],[-95.2500800869478,38.95850669443509],[-95.25007717392616,38.95851190652253],[-95.25016179064517,38.95854074011095],[-95.25016470366175,38.95853552802142],[-95.25016180904387,38.958534541023624],[-95.25016297401984,38.958532456182354],[-95.25016000192947,38.958531443014095],[-95.25016667403776,38.95851950591794],[-95.25016944680266,38.9585204503718],[-95.25017069367,38.95851821877056],[-95.25031084410301,38.95856597561411]]],[[[-95.25017212092668,38.958328883711815],[-95.25027265626,38.95836314161246],[-95.25030544825802,38.95830447632031],[-95.2502049129572,38.95827021934832],[-95.25017212092668,38.958328883711815]]]]},"properties":{"SDE.FloorAll.FLOORLOCATION":"1"}},{"type":"Feature","geometry":{"type":"Polygon","coordinates":[[[-95.25030501320471,38.958564775690995],[-95.25029852978457,38.95857637300168],[-95.25042225918537,38.95861853390248],[-95.2505114494997,38.95845897107778],[-95.2505006239078,38.95845528250268],[-95.25059077720398,38.95829395082543],[-95.25059878288549,38.95827962734398],[-95.25060327268275,38.95827159395017],[-95.25060434691927,38.95827196008606],[-95.2506050962731,38.9582706188088],[-95.25060074460363,38.95826913674561],[-95.25060235001742,38.958266262958155],[-95.25050534379838,38.958233208352254],[-95.25040031729121,38.958421103228694],[-95.25038579284058,38.958416153532006],[-95.25038486358581,38.95841781678497],[-95.25035669180376,38.958408217566],[-95.25035762105905,38.95840655431328],[-95.25041417321881,38.958305382037224],[-95.25017473085518,38.958223791629045],[-95.25011762387508,38.95832595550241],[-95.25008841437864,38.95831600265818],[-95.25013032255283,38.95824102966892],[-95.24994702650879,38.95817858037723],[-95.2498164851116,38.958412115028004],[-95.24994024014609,38.95845428517628],[-95.2499467224956,38.958442686957795],[-95.25008605243892,38.958490164165894],[-95.25007377352256,38.95851145907616],[-95.25015456720816,38.95853898895002],[-95.25015762530964,38.9585335189464],[-95.25015549164996,38.9585327915239],[-95.25016486393129,38.95851701886772],[-95.25030501320471,38.958564775690995]]]},"properties":{"SDE.FloorAll.FLOORLOCATION":"2"}},{"type":"Feature","geometry":{"type":"Polygon","coordinates":[[[-95.2503050143579,38.958564775718344],[-95.25029853093781,38.95857637302903],[-95.25042225918537,38.95861853390248],[-95.2505114506529,38.95845897110513],[-95.25008896895699,38.95831501004456],[-95.2501303176247,38.95824103766304],[-95.24994702650879,38.95817858037723],[-95.2498164862648,38.95841211505537],[-95.24994024014609,38.95845428517628],[-95.24994672364883,38.95844268698513],[-95.25008567084208,38.9584900334502],[-95.25007421242556,38.958510532212145],[-95.25015238626396,38.95853716271455],[-95.25016384095736,38.958516670165686],[-95.2503050143579,38.958564775718344]]]},"properties":{"SDE.FloorAll.FLOORLOCATION":"3"}},{"type":"Feature","geometry":{"type":"Polygon","coordinates":[[[-95.2501410113387,38.95850564207785],[-95.25030949989383,38.958563054410234],[-95.25030301647456,38.95857465172118],[-95.25042674472185,38.95861681258986],[-95.2505159361771,38.958457249789035],[-95.25009345448233,38.95831328874475],[-95.25013480314433,38.958239316361656],[-95.24995151202893,38.95817685908292],[-95.24982097180293,38.958410393766144],[-95.24994472568383,38.95845256388228],[-95.24995120918568,38.958440965690876],[-95.2501410113387,38.95850564207785]]]},"properties":{"SDE.FloorAll.FLOORLOCATION":"4"}},{"type":"Feature","geometry":{"type":"Polygon","coordinates":[[[-95.25022172498018,38.95853244091548],[-95.25022817041129,38.958534637751775],[-95.25023837744291,38.95853811521578],[-95.2502437486364,38.958539945911944],[-95.25025395451635,38.95854342334724],[-95.2502604011027,38.958545620209094],[-95.25030794117319,38.95856181971761],[-95.25030125922855,38.958573772810176],[-95.25030998873117,38.958576747492266],[-95.25033093817072,38.958583886333514],[-95.25033577282673,38.958585533969874],[-95.25035819981035,38.95859317558139],[-95.25036625722316,38.958595920730495],[-95.2503877443709,38.95860324264421],[-95.25039257902957,38.95860489027819],[-95.2504135285208,38.95861202820411],[-95.2504221235999,38.958614957332244],[-95.2504570544462,38.95855246475079],[-95.250459866956,38.95854743231822],[-95.25046432197425,38.95853946299259],[-95.25046666669266,38.95853526932151],[-95.2504711205211,38.958527300868695],[-95.25047534104756,38.95851975135998],[-95.250511209685,38.958455581293165],[-95.25050261458658,38.958452653072015],[-95.25048166516855,38.958445514261705],[-95.25047683051874,38.9584438666314],[-95.25045534341024,38.95843654473411],[-95.25044728601212,38.95843379959115],[-95.25042485906941,38.95842615799678],[-95.25042002442223,38.958424510364104],[-95.25039907502092,38.95841737153886],[-95.2503903455342,38.958414396863446],[-95.25035952518361,38.95840389489443],[-95.25041573121494,38.95830334166161],[-95.25017601887404,38.95822165923725],[-95.25011981256668,38.958322212354595],[-95.25009140962979,38.95831253368673],[-95.2501313812003,38.958241025036244],[-95.250123323837,38.95823827987073],[-95.25010183682757,38.958230957907816],[-95.2500970022013,38.95822931026164],[-95.25007363556038,38.95822134800454],[-95.25006396631063,38.958218052709654],[-95.2500172318957,38.95820212814996],[-95.25000756261619,38.95819883375078],[-95.24998312176334,38.958190505334],[-95.24997828714254,38.9581888576829],[-95.24995787439495,38.95818190183493],[-95.24995169783313,38.9581797969761],[-95.24992016606582,38.95823620746087],[-95.24991735352995,38.95824123988043],[-95.24991289846885,38.958249209185205],[-95.24991055372709,38.958253402845244],[-95.24990609985271,38.95826137127669],[-95.2499032861266,38.95826640456896],[-95.24986823714451,38.95832910597913],[-95.249865423413,38.95833413927042],[-95.24986096952841,38.958342107700126],[-95.2498586247455,38.958346302259486],[-95.24985417085944,38.95835427068891],[-95.24985135831413,38.958359303106796],[-95.24982263893651,38.958410681146326],[-95.24983136724566,38.958413655837056],[-95.24985231658853,38.95842079476491],[-95.24985715122226,38.958422442421245],[-95.24987957810241,38.95843008412542],[-95.24988763659621,38.95843283023554],[-95.24990912252666,38.95844015131029],[-95.24991395716296,38.95844179896424],[-95.24993490767578,38.95844893790445],[-95.249943501597,38.958451866140315],[-95.24995018359061,38.95843991306825],[-95.2500049754958,38.9584585837292],[-95.25001142094848,38.958460779677154],[-95.25002162792374,38.958464258060644],[-95.25002699914101,38.958466087866476],[-95.25003720611781,38.95846956624857],[-95.25004365157251,38.95847176219476],[-95.25009185909359,38.9584881894123],[-95.25007821587785,38.958512598140814],[-95.25016181986265,38.95854108687411],[-95.25017546309007,38.95851667723541],[-95.25022172498018,38.95853244091548]]]},"properties":{"SDE.FloorAll.FLOORLOCATION":"ROOF"}}]}
