{"type":"FeatureCollection","features":[{"type":"Feature","geometry":{"type":"Polygon","coordinates":[[[-95.25072222160578,38.96439933850295],[-95.25091563230343,38.964397224334654],[-95.25091465159784,38.964342545460894],[-95.25089355226527,38.96434277612929],[-95.25089351462081,38.964340716841456],[-95.25087270861407,38.96434094454682],[-95.25087217684388,38.96431131682104],[-95.25063510337571,38.964313907912214],[-95.25063632392671,38.96438197115013],[-95.25072189349025,38.96438103587759],[-95.25072222160578,38.96439933850295]]]},"properties":{"SDE.FloorAll.FLOORLOCATION":"-1"}},{"type":"Feature","geometry":{"type":"Polygon","coordinates":[[[-95.25071753286905,38.96439938955507],[-95.25095226225267,38.96439682382625],[-95.25095128151881,38.964342144952745],[-95.25088534698286,38.96434286548247],[-95.25088530930358,38.964340807095034],[-95.25086772655601,38.96434099856419],[-95.25086719722471,38.96431148625285],[-95.25063510584721,38.96431402242626],[-95.25063632392671,38.96438197115013],[-95.25071720475479,38.964381086929706],[-95.25071753286905,38.96439938955507]]]},"properties":{"SDE.FloorAll.FLOORLOCATION":"1"}},{"type":"Feature","geometry":{"type":"Polygon","coordinates":[[[-95.25071753286905,38.96439938955507],[-95.25089453295452,38.96439745500322],[-95.25089355226527,38.96434277612929],[-95.25086659201646,38.96434307061654],[-95.25086655437279,38.96434101132873],[-95.25084545504052,38.96434124198837],[-95.25084549268358,38.96434330127621],[-95.2508232211673,38.96434354469612],[-95.25082265540053,38.964311972223705],[-95.25072507073428,38.964313039061196],[-95.25072543154653,38.96433317194647],[-95.25069026598409,38.96433355663444],[-95.25069016789797,38.964328065854986],[-95.25066818974635,38.96432830538596],[-95.25066828783068,38.964333796165455],[-95.25061964156771,38.96433432803659],[-95.250619666647,38.96433570119532],[-95.25062019587516,38.964365213507755],[-95.25068466607887,38.96436450887754],[-95.25068492879414,38.96437915098334],[-95.25071716332553,38.964378798641086],[-95.25071753286905,38.96439938955507]]]},"properties":{"SDE.FloorAll.FLOORLOCATION":"2"}},{"type":"Feature","geometry":{"type":"Polygon","coordinates":[[[-95.25071739568664,38.96440318315894],[-95.25078069377484,38.96440249033794],[-95.25080970508942,38.96440217330187],[-95.2508097541372,38.96440491869152],[-95.25091525089286,38.96440376538731],[-95.25091520184107,38.964401019997695],[-95.25091512766913,38.964396902349804],[-95.25092391960895,38.96439680707582],[-95.25094853554485,38.96439653720553],[-95.25095732636632,38.964396441001306],[-95.25095712899918,38.964385459415546],[-95.25095654299545,38.96435274371366],[-95.25095634562851,38.96434176212787],[-95.25094755477882,38.964341859232455],[-95.25092293893202,38.96434212730175],[-95.25091414692893,38.964342224376416],[-95.25091407282719,38.964338104927705],[-95.2508841826816,38.964338431795355],[-95.25088413359596,38.96433568730612],[-95.25088061708172,38.96433572469974],[-95.25087797939018,38.96433575318821],[-95.25087753671393,38.96431104645485],[-95.25082830500602,38.96431158345888],[-95.25077907326232,38.9643121213424],[-95.2507474242588,38.96431246775677],[-95.25074735009676,38.96430835010875],[-95.25063452709433,38.96430958189164],[-95.25063521083064,38.96434767481584],[-95.25063589344946,38.96438576681214],[-95.2507170675724,38.964384880533586],[-95.25071739568664,38.96440318315894]]]},"properties":{"SDE.FloorAll.FLOORLOCATION":"ROOF"}}]}
