{"type":"FeatureCollection","features":[{"type":"Feature","geometry":{"type":"Polygon","coordinates":[[[-95.251619054952,38.952448109318226],[-95.25163077605178,38.95244821684539],[-95.25163079596355,38.95244684385116],[-95.25165420007504,38.95244705890027],[-95.25165418019878,38.952448430994096],[-95.25166590014557,38.95244853849035],[-95.25166592117475,38.95244716642391],[-95.25178781071085,38.95244828400396],[-95.25178779080213,38.9524496569982],[-95.25179951074938,38.952449764480995],[-95.2517995318109,38.95244839151408],[-95.25182300863966,38.95244860645034],[-95.25182298757855,38.95244997941725],[-95.25183470752583,38.95245008689644],[-95.25183484517115,38.952440935520805],[-95.25183308799869,38.952440919102976],[-95.2518337930427,38.952394017166846],[-95.25183555136711,38.95239403361197],[-95.25183568789406,38.95238488130856],[-95.251833930688,38.9523848657911],[-95.25183490793023,38.95231988903976],[-95.25183666509963,38.952319905457536],[-95.25183680277944,38.95231075318139],[-95.25183504557522,38.95231073766398],[-95.25183549947853,38.9522805375755],[-95.25183401577242,38.95228052313371],[-95.25183442870741,38.952253069006325],[-95.25183591244796,38.952253082547664],[-95.25183636635053,38.95222288245899],[-95.25183812470569,38.952222898003704],[-95.25183826235006,38.95221374662787],[-95.25183650403017,38.95221373018278],[-95.2518369590524,38.95218350128136],[-95.25183578682798,38.952183490618104],[-95.25183619979674,38.95215603559008],[-95.2518373720207,38.95215604625333],[-95.25183752220104,38.9521460083697],[-95.25183634997721,38.952145997706396],[-95.25183654336432,38.95213318597662],[-95.25183771558795,38.95213319663987],[-95.25183782480185,38.952125874977064],[-95.25183958311959,38.9521258914221],[-95.2518397207986,38.95211673914583],[-95.2518379624461,38.952116723601115],[-95.25183834497567,38.95209132805067],[-95.25185006486359,38.95209143552837],[-95.25185008592405,38.95209006256143],[-95.251888762256,38.95209041697562],[-95.25188874119624,38.95209178994255],[-95.2519004622374,38.952091897442436],[-95.25190048214378,38.95209052444817],[-95.25194091679309,38.95209089528908],[-95.2519408968875,38.95209226828339],[-95.2519526167757,38.95209237575066],[-95.25195275444001,38.952083223474204],[-95.25195099608837,38.95208320793126],[-95.2519515193669,38.95204843126692],[-95.25195327768273,38.95204844771031],[-95.25195335957538,38.95204295668815],[-95.25197972990833,38.95204319782345],[-95.2519808309481,38.9519699859137],[-95.25195446067744,38.95196974387822],[-95.25195454372299,38.95196425288337],[-95.25195278537426,38.95196423734046],[-95.2519533086511,38.9519294606758],[-95.25195506581083,38.951929477091795],[-95.25195520347455,38.95192032481516],[-95.25194348361482,38.95192021734813],[-95.25194346255626,38.95192159031509],[-95.25190302800372,38.95192121947508],[-95.25190304906315,38.95191984650811],[-95.25189132920357,38.95191973903584],[-95.25189130814398,38.9519211120028],[-95.25185263190464,38.95192075758946],[-95.25185265181189,38.95191938459515],[-95.25184093195254,38.95191927711771],[-95.25184123455142,38.951899143724766],[-95.25184299286352,38.95189916016976],[-95.25184313050663,38.9518900087937],[-95.25183141065216,38.95188990131528],[-95.25183138962635,38.95189127338187],[-95.25182670190108,38.95189123075582],[-95.25182668933213,38.95189208842363],[-95.25179738852452,38.9518918201442],[-95.25179740112891,38.95189096157596],[-95.25176458481629,38.95189066132453],[-95.25176457224653,38.95189151899238],[-95.25173527143939,38.9518912506972],[-95.25173528404451,38.951890392129016],[-95.25173059631939,38.9518903494991],[-95.25173061738208,38.951888976532146],[-95.25171889752795,38.95188886904237],[-95.25171875986875,38.95189802041835],[-95.25172051702765,38.95189803683786],[-95.25172019448456,38.95191954322484],[-95.25170675205908,38.95191942013436],[-95.25170673948858,38.951920277802145],[-95.2516926751892,38.9519201489806],[-95.2516926877598,38.95191929131276],[-95.25166104368954,38.95191900079634],[-95.25166103111852,38.95191985846413],[-95.2516469668193,38.95191972963701],[-95.25164697939044,38.951918871969234],[-95.25163873925716,38.95191879649258],[-95.25163875916856,38.9519174234983],[-95.25162703930985,38.95191731599928],[-95.25162690163872,38.951926467375095],[-95.25162865995142,38.95192648382338],[-95.25162850121572,38.95193700816609],[-95.25162967343601,38.95193701883146],[-95.25162926038836,38.95196447385924],[-95.25162808816759,38.95196446319389],[-95.25162793058483,38.95197498756391],[-95.25162617227089,38.95197497111565],[-95.25162610921225,38.951979145895514],[-95.25159856668336,38.95197889401413],[-95.25159856563094,38.95197895076632],[-95.25159680843504,38.951978935245336],[-95.25159678740467,38.951980307311885],[-95.25159671472397,38.951980306490086],[-95.25159650019346,38.95199449208696],[-95.25159604092354,38.952025035416966],[-95.25158378684348,38.95202492336064],[-95.2515834723858,38.952020721606715],[-95.25157733199369,38.952020964468055],[-95.25157793835307,38.952028167010084],[-95.25157886063113,38.952035348202216],[-95.25158009561359,38.952042501659655],[-95.25158164368572,38.95204961747804],[-95.2515835028564,38.95205668749919],[-95.25158567109963,38.95206370446518],[-95.25158814534126,38.95207065838971],[-95.2515909223671,38.95207754288794],[-95.25159399906795,38.952084348873946],[-95.25159737226468,38.952091069062504],[-95.25160103881306,38.952097695268],[-95.25160662986224,38.952095729759414],[-95.25160469942239,38.95209227376229],[-95.25162616280353,38.952092470750564],[-95.25162582755864,38.95211477802516],[-95.25162406924127,38.95211476157683],[-95.25162393153428,38.95212391385288],[-95.25162568988695,38.9521239294008],[-95.25162523586002,38.95215413038932],[-95.25162640808395,38.952154141054706],[-95.25162599506876,38.952181595181614],[-95.25162482284435,38.9521815845162],[-95.25162436881669,38.952211785504545],[-95.25162261049688,38.952211769056184],[-95.2516224728246,38.95222092043177],[-95.25162423114463,38.952220936880124],[-95.25162377599837,38.952251136940625],[-95.25162494822386,38.95225114760602],[-95.25162453517252,38.952278602633086],[-95.25162336294657,38.95227859196768],[-95.25162290895265,38.952308792055376],[-95.25162115063043,38.952308775607],[-95.25162101292277,38.95231792788292],[-95.25162277128018,38.95231794343088],[-95.2516223172508,38.952348144418856],[-95.25162348947792,38.952348155084344],[-95.25162307646045,38.95237560921078],[-95.25162190423283,38.9523755985453],[-95.25162179384309,38.95238292018047],[-95.25162003667211,38.95238290375941],[-95.25161989896415,38.9523920560353],[-95.25162165617031,38.95239207155593],[-95.25162095098564,38.95243897349079],[-95.25161919262514,38.95243895794283],[-95.251619054952,38.952448109318226]]]},"properties":{"SDE.FloorAll.FLOORLOCATION":"1"}},{"type":"Feature","geometry":{"type":"Polygon","coordinates":[[[-95.251619054952,38.952448109318226],[-95.25163077489869,38.952448216818055],[-95.25163079596355,38.95244684385116],[-95.25165420007504,38.95244705890027],[-95.25165417904563,38.95244843096677],[-95.25166590014557,38.95244853849035],[-95.2516659200216,38.95244716639655],[-95.25178781071085,38.95244828400396],[-95.25178779083713,38.95244965609782],[-95.2517995107844,38.952449763580574],[-95.2517995318109,38.95244839151408],[-95.25182300748652,38.95244860642301],[-95.25182298757855,38.95244997941725],[-95.25183470752583,38.95245008689644],[-95.25183484520616,38.95244093462044],[-95.2518330868456,38.95244091907567],[-95.25183379188958,38.95239401713953],[-95.25183555024897,38.95239403268425],[-95.25183568789406,38.95238488130856],[-95.2518339295349,38.95238486576378],[-95.25183490677708,38.952319889012436],[-95.25183666509963,38.952319905457536],[-95.25183680277944,38.95231075318139],[-95.2518350444221,38.95231073763665],[-95.25183636638555,38.95222288155859],[-95.25183812355253,38.95222289797637],[-95.25183826119697,38.952213746600506],[-95.25183650403017,38.95221373018278],[-95.25183661320936,38.9522064094204],[-95.25183534985382,38.95220639749816],[-95.2518355432763,38.952193584868056],[-95.25183680663156,38.952193596790266],[-95.25183782480185,38.952125874977064],[-95.25183958315459,38.95212589052173],[-95.2518397207986,38.95211673914583],[-95.2518379624461,38.952116723601115],[-95.25183842273226,38.952086151457756],[-95.25183413767382,38.95208611206865],[-95.25183413240863,38.952086455310344],[-95.25182288788211,38.95208635188934],[-95.25182532464692,38.95192431090093],[-95.25184085419632,38.95192445371074],[-95.25184090562675,38.95192099332645],[-95.25184123455142,38.951899143724766],[-95.25184299286352,38.95189916016976],[-95.25184313054163,38.95189000789325],[-95.25183141068716,38.95188990041489],[-95.25183138962635,38.95189127338187],[-95.25182670190108,38.95189123075582],[-95.251826688179,38.95189208839627],[-95.25179738852452,38.9518918201442],[-95.25179740112891,38.95189096157596],[-95.25176458481629,38.95189066132453],[-95.25176457224653,38.95189151899238],[-95.25173527143939,38.9518912506972],[-95.25173528404451,38.951890392129016],[-95.25173059631939,38.9518903494991],[-95.25173061738208,38.951888976532146],[-95.25171889637487,38.95188886901504],[-95.25171875871563,38.95189802039103],[-95.25172051702765,38.95189803683786],[-95.25172019333142,38.95191954319749],[-95.25170675205908,38.95191942013436],[-95.25170673948858,38.951920277802145],[-95.2516926751892,38.9519201489806],[-95.2516926877948,38.9519192904124],[-95.25166104368954,38.95191900079634],[-95.25166102996542,38.951919858436796],[-95.2516469668193,38.95191972963701],[-95.25164697939044,38.951918871969234],[-95.25163873813906,38.95191879556486],[-95.25163875916856,38.9519174234983],[-95.25162703930985,38.95191731599928],[-95.25162690163872,38.951926467375095],[-95.25162865879828,38.95192648379602],[-95.25162850121572,38.95193700816609],[-95.2516301856949,38.95193702376527],[-95.25162977268243,38.95196447789267],[-95.25162808820261,38.95196446229345],[-95.25162792946675,38.951974986636195],[-95.25162617227089,38.95197497111565],[-95.25162603459952,38.95198412249139],[-95.25162779176054,38.95198413891236],[-95.25162582755864,38.95211477802516],[-95.25162406924127,38.95211476157683],[-95.25162393156933,38.95212391295252],[-95.25162568988695,38.9521239294008],[-95.25162523474192,38.95215412946156],[-95.25162692037942,38.952154145088116],[-95.25162650732942,38.952181600115395],[-95.25162482169128,38.95218158448887],[-95.25162436769861,38.95221178457678],[-95.25162260934377,38.952211769028864],[-95.2516224728246,38.95222092043177],[-95.25162422999153,38.95222093685279],[-95.25162377599837,38.952251136940625],[-95.25162546048503,38.952251152539866],[-95.2516250474339,38.95227860756694],[-95.25162336294657,38.95227859196768],[-95.25162231728581,38.95234814351848],[-95.25162400177479,38.952348159117754],[-95.25162358872251,38.95237561414459],[-95.25162190423283,38.9523755985453],[-95.25162179384309,38.95238292018047],[-95.25162003551901,38.95238290373208],[-95.25161989784607,38.95239205510757],[-95.25162165617031,38.95239207155593],[-95.25162095098564,38.95243897349079],[-95.25161919262514,38.95243895794283],[-95.251619054952,38.952448109318226]]]},"properties":{"SDE.FloorAll.FLOORLOCATION":"2"}},{"type":"Feature","geometry":{"type":"Polygon","coordinates":[[[-95.25165810726146,38.95244301400049],[-95.25179582067284,38.95244427687283],[-95.25179600220918,38.95243215610155],[-95.25179453810281,38.952432142123975],[-95.25179486799559,38.95241017899158],[-95.25179633328958,38.95241019209608],[-95.25179650155407,38.952398976740746],[-95.25178800408042,38.95239889878085],[-95.25178810602668,38.95239215012459],[-95.25180099819225,38.95239226827096],[-95.25182385312435,38.95239247747811],[-95.25182383206331,38.95239385044501],[-95.25183328256779,38.95239393657343],[-95.2518334180737,38.95238489960254],[-95.25183231852702,38.95238488976086],[-95.25183329577075,38.952319913009475],[-95.25183446799748,38.9523199236728],[-95.25183460564251,38.952310772297004],[-95.25183343341594,38.952310761633726],[-95.25183475419328,38.95222290642875],[-95.25183592641838,38.95222291709202],[-95.25183606409806,38.95221376481581],[-95.25183489187314,38.95221375415248],[-95.25183621379996,38.95212589897413],[-95.25183738602341,38.95212590963743],[-95.25183752366776,38.95211675826149],[-95.2518363514444,38.95211674759824],[-95.25183962355469,38.95189916772188],[-95.25184079577443,38.951899178385155],[-95.25184090709206,38.951891743217736],[-95.25183138400907,38.95189165536791],[-95.25183137035293,38.951892570688344],[-95.25173057704407,38.95189164680553],[-95.25173059070151,38.951890731485136],[-95.25172106873687,38.95189064455398],[-95.25172095625351,38.95189807969391],[-95.25172212847316,38.95189809035832],[-95.25172178585413,38.9519208552801],[-95.25163871998015,38.951920093799025],[-95.25163873363877,38.95191917847859],[-95.25162921055234,38.95191909061217],[-95.25162909917736,38.95192652667972],[-95.25163027139752,38.95192653734511],[-95.25162954203202,38.95197504108568],[-95.25162829713041,38.95197502959858],[-95.25162815945926,38.951984180974314],[-95.25162940436108,38.95198419246144],[-95.2516284300611,38.952048940375896],[-95.25162718515814,38.95204892888877],[-95.25162704748678,38.95205808026451],[-95.25162829238984,38.95205809175163],[-95.25162743900906,38.95211483154693],[-95.25162619410493,38.9521148200598],[-95.25162605643328,38.952123971435476],[-95.25162730133752,38.95212398292261],[-95.2516259791162,38.952211838998984],[-95.2516247353635,38.952211827539166],[-95.25162459769147,38.95222097891475],[-95.25162584259743,38.952220990401905],[-95.25162452040747,38.952308845577186],[-95.25162327665306,38.95230883411737],[-95.25162313898063,38.952317985492854],[-95.25162438273526,38.952317996952694],[-95.25162340529955,38.95238297370231],[-95.25162223307184,38.95238296303688],[-95.25162209539916,38.95239211441233],[-95.2516316185493,38.95239220227932],[-95.25163167753544,38.95239071485467],[-95.25165449553194,38.95239092412086],[-95.25166738769707,38.95239104228207],[-95.25166728570427,38.95239779183859],[-95.25165878938407,38.95239771389653],[-95.25165810726146,38.95244301400049]]]},"properties":{"SDE.FloorAll.FLOORLOCATION":"3"}},{"type":"Feature","geometry":{"type":"Polygon","coordinates":[[[-95.251619054952,38.952448109318226],[-95.25163253325938,38.9524482323659],[-95.25163255428922,38.952446860299396],[-95.25165541154472,38.95244706959439],[-95.25182476581227,38.95244862286833],[-95.25182474478622,38.95244999493482],[-95.25183822305932,38.952450118858955],[-95.25183838176497,38.95243959451638],[-95.25183662343944,38.95243957807126],[-95.2518371625375,38.9524037725837],[-95.25185005470529,38.95240389072463],[-95.25185462335091,38.95210005745078],[-95.25196699145148,38.95210108794891],[-95.25196786347863,38.95204308958885],[-95.25198324538665,38.95204323068191],[-95.25198438853845,38.95196727283813],[-95.25196900549379,38.951967131717964],[-95.25196987751764,38.95190913335725],[-95.25185751087517,38.951908102889185],[-95.25185794900615,38.95187893162444],[-95.25170793071527,38.95187755645295],[-95.25170749041784,38.95190684122153],[-95.25161607369553,38.9519060025281],[-95.2516151865673,38.95196494591957],[-95.25161325489414,38.952093382309926],[-95.25160861793783,38.95240167684367],[-95.25162151010484,38.952401795010026],[-95.25162097089753,38.952437600496594],[-95.25161921369026,38.952437584975954],[-95.251619054952,38.952448109318226]]]},"properties":{"SDE.FloorAll.FLOORLOCATION":"ROOF"}}]}
