{"type":"FeatureCollection","features":[{"type":"Feature","geometry":{"type":"Polygon","coordinates":[[[-95.24995451746919,38.956928358368486],[-95.25017898925262,38.956927910898735],[-95.25017896658068,38.956921046634015],[-95.25021999295515,38.956920965208965],[-95.2502198439651,38.956875661618255],[-95.2502629215904,38.95687557565481],[-95.25026295720767,38.95688655792179],[-95.25026999060852,38.95688654358026],[-95.25027000068026,38.95688951876164],[-95.250313956764,38.95688943108199],[-95.25031394669043,38.95688645590063],[-95.25032098005629,38.956886442456444],[-95.25032093583805,38.95687271395428],[-95.2503350014488,38.9568726861369],[-95.25033499285627,38.95686993990165],[-95.25034202506721,38.956869926428844],[-95.25034187534156,38.956824165000434],[-95.25033484310015,38.956824179373626],[-95.25033483335439,38.95682143311111],[-95.25027329442105,38.95682155621823],[-95.25027328579588,38.95681881088341],[-95.2502570211725,38.956818843318075],[-95.25025651633297,38.95666462820208],[-95.25028039952346,38.95666458088497],[-95.25028003141591,38.95655200829409],[-95.24975123570337,38.956553062909066],[-95.24975123891434,38.95655381100182],[-95.24970142133952,38.95655390992718],[-95.2497014192823,38.95655316186176],[-95.24966962431536,38.95655322505792],[-95.2496699749358,38.95666076391826],[-95.2498490239524,38.95666040669746],[-95.24984904048038,38.956665440429965],[-95.24987087240021,38.95666539771379],[-95.24987137643362,38.95681961193106],[-95.24985950751521,38.95681963592076],[-95.24985951727749,38.95682238128298],[-95.2497909449829,38.95682251755042],[-95.24979111087596,38.95687331271191],[-95.24981220988664,38.95687327064504],[-95.24981226376657,38.956889744509574],[-95.24987028661852,38.95688962926971],[-95.24987024314225,38.95687635860508],[-95.24991332076841,38.95687627277152],[-95.24991346840895,38.956921576335226],[-95.24995449481908,38.956921494103696],[-95.24995451746919,38.956928358368486]]]},"properties":{"SDE.FloorAll.FLOORLOCATION":"-1"}},{"type":"Feature","geometry":{"type":"Polygon","coordinates":[[[-95.24995686193756,38.95692835359424],[-95.25017898925262,38.956927910898735],[-95.25017896658068,38.956921046634015],[-95.25021999295515,38.956920965208965],[-95.2502198439651,38.956875661618255],[-95.25027317790664,38.95687555483545],[-95.25027313435479,38.956862284170995],[-95.25027196268077,38.956862287025174],[-95.25027195840323,38.95686091345736],[-95.25025964200981,38.956858227708054],[-95.2502595726668,38.95683737172517],[-95.2502718770888,38.956836033222686],[-95.25027187162308,38.95683466052792],[-95.25027304444978,38.9568346577011],[-95.25027299260678,38.956818811139925],[-95.25025951223175,38.956818838409525],[-95.25025897515566,38.95666055620343],[-95.24987379531466,38.956661324113696],[-95.24987418939453,38.95682189476481],[-95.24986185989972,38.95682191954601],[-95.24986190616033,38.956836008588816],[-95.24987436746761,38.95683817330533],[-95.24987443966448,38.9568601396677],[-95.249861992698,38.956862471501815],[-95.2498620815778,38.95688964553662],[-95.24987263108561,38.956889624497144],[-95.24987258760892,38.956876353832584],[-95.24991566523506,38.956876267998105],[-95.2499158128771,38.95692157156185],[-95.24995683928721,38.956921489329474],[-95.24995686193756,38.95692835359424]]]},"properties":{"SDE.FloorAll.FLOORLOCATION":"1"}},{"type":"Feature","geometry":{"type":"Polygon","coordinates":[[[-95.2499567337938,38.9569283541598],[-95.25017898809945,38.9569279108714],[-95.25017896556763,38.956921043005096],[-95.25022001504085,38.95692096122665],[-95.25021984025426,38.956867390090395],[-95.25025971690407,38.95686731022372],[-95.25025903964786,38.95666035225374],[-95.24987361393498,38.956661120640796],[-95.24987429006305,38.95686807861302],[-95.24991548610053,38.95686799681461],[-95.2499156618097,38.95692156797866],[-95.24995671128352,38.956921486293396],[-95.2499567337938,38.9569283541598]]]},"properties":{"SDE.FloorAll.FLOORLOCATION":"2"}},{"type":"Feature","geometry":{"type":"Polygon","coordinates":[[[-95.24995672640414,38.95692560705154],[-95.24995673494695,38.95692835418714],[-95.24996875624427,38.95692833019636],[-95.24998077754155,38.95692830620435],[-95.249992799992,38.95692828223844],[-95.25000482128934,38.956928258243934],[-95.2500168425866,38.956928234248196],[-95.25002886503704,38.95692821027856],[-95.25004088633429,38.95692818628034],[-95.25005290763153,38.95692816228084],[-95.250064930082,38.95692813830745],[-95.25007079411832,38.9569281268848],[-95.25008281541557,38.95692810288222],[-95.25009483671278,38.956928078878406],[-95.25010685916314,38.956928054900665],[-95.25011888046033,38.95692803089438],[-95.25013090175753,38.95692800688682],[-95.25014292420794,38.95692798290534],[-95.2501549455051,38.956927958895264],[-95.25016696680227,38.95692793488395],[-95.25017898925262,38.956927910898735],[-95.25017898070114,38.956925163763195],[-95.2501789667208,38.95692104303245],[-95.25019069482727,38.95692101927495],[-95.25020359572682,38.956920993590515],[-95.25021649777959,38.95692096793205],[-95.25022001619402,38.956920961253964],[-95.25021998809933,38.95691260443269],[-95.25021997954629,38.956909857297084],[-95.25021995503644,38.95690241710633],[-95.25021992608582,38.9568934888883],[-95.25021989713525,38.956884560670275],[-95.25021986821976,38.956875631551846],[-95.250225145873,38.95687562063417],[-95.25022690507907,38.956875617295026],[-95.25027323214412,38.9568755254801],[-95.25027304579882,38.95681874931571],[-95.25025955619829,38.95681877636652],[-95.25025953974611,38.956813739932976],[-95.25025951296426,38.956805497598424],[-95.25025948614739,38.95679725616425],[-95.25025945933051,38.95678901473007],[-95.25025943254863,38.95678077239548],[-95.25025940573177,38.95677253096129],[-95.25025937891492,38.956764289527094],[-95.25025935209806,38.95675604809286],[-95.2502593253162,38.95674780575827],[-95.25025929849936,38.95673956432402],[-95.25025927168254,38.95673132288984],[-95.25025924374752,38.95672308052784],[-95.25025921693071,38.95671483909361],[-95.25025919011388,38.9567065976594],[-95.25025916333213,38.956698355324754],[-95.25025913651528,38.956690113890495],[-95.25025910969848,38.95668187245624],[-95.2502590828817,38.956673631021964],[-95.25025905247966,38.9566644729572],[-95.25028280406717,38.956664426123425],[-95.25028243498318,38.95655178952253],[-95.25024674760569,38.956551860600115],[-95.25024674365709,38.95655071595113],[-95.2502443980481,38.95655072070386],[-95.25024440199661,38.95655186535284],[-95.25006378454377,38.956552225631235],[-95.25006378059818,38.956551080982244],[-95.25006143498918,38.95655108573127],[-95.25006143893472,38.95655223038025],[-95.24987931392047,38.95655259336777],[-95.24987930997781,38.9565514487188],[-95.24987696436877,38.9565514534641],[-95.24987696715816,38.956552598085736],[-95.24978544349943,38.95655278024765],[-95.24978543496333,38.956550033111974],[-95.24966580443075,38.95655027125375],[-95.24966583323585,38.95655890476987],[-95.24966436722563,38.95655890784551],[-95.2496643732977,38.956560739278416],[-95.24966583930788,38.95656073620278],[-95.24966613819258,38.956652310440376],[-95.24966467218047,38.95665231351605],[-95.2496646782525,38.95665414494896],[-95.24966614426464,38.95665414187327],[-95.24966617433876,38.95666336572166],[-95.24978580390948,38.956663127552176],[-95.24978579537333,38.95666038041647],[-95.24985352718853,38.956660244948075],[-95.24985354361175,38.956665281381696],[-95.2498736278975,38.95666524137163],[-95.24987365824967,38.956674399436544],[-95.24987368502153,38.95668264087087],[-95.24987371179338,38.956690882305224],[-95.24987373853023,38.95669912463997],[-95.24987376530217,38.95670736607427],[-95.24987379207406,38.95671560750864],[-95.24987381884594,38.95672384894294],[-95.24987384558281,38.956732091277665],[-95.24987387235475,38.956740332711945],[-95.24987389912665,38.956748574146275],[-95.24987392586354,38.95675681648097],[-95.2498739537887,38.9567650579426],[-95.24987397940744,38.95677329934959],[-95.24987400617937,38.95678154078383],[-95.2498740329163,38.956789783118516],[-95.24987405968824,38.95679802455279],[-95.24987408646024,38.95680626598703],[-95.24987411319718,38.956814508321706],[-95.24987413750699,38.956821834053216],[-95.24986167875045,38.956821858472075],[-95.2498618568807,38.95687634533918],[-95.24990847713602,38.9568762534145],[-95.24991023634215,38.95687625008018],[-95.24991551399552,38.956876239176545],[-95.24991554290766,38.956885167394674],[-95.24991557181976,38.95689409561277],[-95.24991560073192,38.95690302383087],[-95.24991562520981,38.956910464021725],[-95.24991563375103,38.95691321115731],[-95.2499156618097,38.95692156797866],[-95.24991918137734,38.95692156133708],[-95.24993090948398,38.956921537605865],[-95.24994381038377,38.95692151195033],[-95.24995671243674,38.956921486320745],[-95.24995672640414,38.95692560705154]]]},"properties":{"SDE.FloorAll.FLOORLOCATION":"ROOF"}}]}
