{"type":"FeatureCollection","features":[{"type":"Feature","geometry":{"type":"Polygon","coordinates":[[[-95.24263079787268,38.95662891775408],[-95.24270313293073,38.956582683722075],[-95.24270628894547,38.956585694072814],[-95.24276524505854,38.9565480108071],[-95.24277434031451,38.95655668601633],[-95.24280971463149,38.95653407641632],[-95.24280061822087,38.956525401182404],[-95.24281059614617,38.956519023457666],[-95.24277532680433,38.9564853845738],[-95.24278054242912,38.95648205149921],[-95.24277200360952,38.956473906827],[-95.24276678794985,38.95647724080165],[-95.24270033471268,38.95641385702088],[-95.2426923289282,38.956406221594825],[-95.2426977718263,38.956402743424],[-95.24268927973813,38.95639464401664],[-95.24268383684029,38.956398122187096],[-95.24266671361634,38.9563817893849],[-95.24267215536061,38.95637831118784],[-95.24266366331344,38.9563702108782],[-95.2426582204162,38.956373689047425],[-95.24264984405126,38.95636570053636],[-95.24263666407859,38.9563741244854],[-95.24263220938862,38.95636987560299],[-95.24262183493362,38.956376506138994],[-95.24262629077654,38.95638075504927],[-95.24262082061603,38.95638425149418],[-95.24259037782487,38.956355215446536],[-95.24252008372304,38.956400145203794],[-95.24255052650464,38.956429181269804],[-95.24254553811343,38.95643237013482],[-95.2426426188083,38.95652496657314],[-95.2425702849229,38.95657120059506],[-95.24263079787268,38.95662891775408]]]},"properties":{"SDE.FloorAll.FLOORLOCATION":"-1"}},{"type":"Feature","geometry":{"type":"Polygon","coordinates":[[[-95.24252090763983,38.956400209860426],[-95.24255097874952,38.95642889101565],[-95.24254553696021,38.95643237010739],[-95.24264280468007,38.956525143127905],[-95.24270628782737,38.95658569314497],[-95.24281059499302,38.95651902343025],[-95.24264984408637,38.956365699635974],[-95.24262036606537,38.95638454169376],[-95.24259029498158,38.956355859656064],[-95.24252090763983,38.956400209860426]]]},"properties":{"SDE.FloorAll.FLOORLOCATION":"1"}},{"type":"Feature","geometry":{"type":"Polygon","coordinates":[[[-95.24263083927679,38.95662859609953],[-95.24270294705866,38.956582507167425],[-95.24270628779225,38.95658569404539],[-95.24281059495789,38.95651902433062],[-95.24264984405126,38.95636570053636],[-95.242624447655,38.95638193327958],[-95.24254644372124,38.95643179055433],[-95.24254553696021,38.95643237010739],[-95.24264280468007,38.956525143127905],[-95.24257069688231,38.95657123292323],[-95.24263083927679,38.95662859609953]]]},"properties":{"SDE.FloorAll.FLOORLOCATION":"2"}},{"type":"Feature","geometry":{"type":"Polygon","coordinates":[[[-95.24263083812357,38.956628596072086],[-95.24270294590549,38.95658250714001],[-95.24270628779225,38.95658569404539],[-95.24279835014981,38.95652685049274],[-95.24279593639903,38.956524548135874],[-95.24279548300139,38.95652483836355],[-95.24278750172105,38.95651722515686],[-95.24279203670974,38.95651432650914],[-95.24278256974802,38.9565052972918],[-95.24277803475947,38.95650819593916],[-95.24276225689174,38.95649314695026],[-95.24276679187992,38.95649024830354],[-95.24275732492463,38.9564812190841],[-95.24275278993659,38.956484117730476],[-95.24273162815886,38.95646393348497],[-95.24276881596174,38.95644016478822],[-95.24274060099418,38.95641325368265],[-95.24270341319598,38.95643702237038],[-95.24270285676924,38.95643649183345],[-95.2426829948275,38.956417547035734],[-95.24268752981408,38.95641464839207],[-95.24267806287905,38.956405619166105],[-95.2426735278926,38.956408517809415],[-95.24265737836153,38.956393114796334],[-95.2426619133476,38.956390216153686],[-95.24265244645424,38.95638118602523],[-95.2426479114332,38.956384085567905],[-95.24263955847701,38.95637611834104],[-95.24264001187434,38.95637582811396],[-95.2426375992519,38.95637352668161],[-95.2425582351779,38.956424253745176],[-95.24256863019838,38.95643416842899],[-95.24256409520561,38.956437067068],[-95.24257356097712,38.95644609627579],[-95.24257809712324,38.95644319766385],[-95.24259424549531,38.9564586006605],[-95.24258971050209,38.95646149930048],[-95.24259917739819,38.956470529434],[-95.24260371239166,38.95646763079363],[-95.2426239460695,38.956486928714384],[-95.24261941107561,38.95648982735553],[-95.24262887801449,38.9564988565862],[-95.24263341300849,38.95649595794468],[-95.24263898164301,38.95650126972973],[-95.24263535341005,38.956503588817725],[-95.24264277828071,38.956510670597275],[-95.24263370829114,38.95651646788088],[-95.24264280352692,38.95652514310047],[-95.24257069576429,38.956571231995376],[-95.24263083812357,38.956628596072086]]]},"properties":{"SDE.FloorAll.FLOORLOCATION":"3"}},{"type":"Feature","geometry":{"type":"Polygon","coordinates":[[[-95.2426304073366,38.95663360295765],[-95.24270070160048,38.956588673134355],[-95.24270144386541,38.95658938112634],[-95.24270571385442,38.95659345347878],[-95.24271727804535,38.95658606175349],[-95.24271300920928,38.95658198942889],[-95.24275881254981,38.95655271274543],[-95.24280461700559,38.95652343607116],[-95.24280888699656,38.95652750841985],[-95.24282045116591,38.95652011668425],[-95.24281618232787,38.956516044363426],[-95.24276736306831,38.95646948049485],[-95.24278890396253,38.956455711913456],[-95.24279071866943,38.9564545519306],[-95.24278644983706,38.95645047960864],[-95.24275897712246,38.956424276499],[-95.2427315043931,38.9563980742832],[-95.2427272344144,38.95639400193162],[-95.24272542089626,38.95639516104053],[-95.24270387881988,38.95640893048317],[-95.24265505970823,38.95636236656698],[-95.2426507897361,38.956358294212606],[-95.2426392255755,38.95636568593138],[-95.24264349558254,38.9563697573858],[-95.24262444769013,38.95638193237919],[-95.24259103473507,38.95635006343386],[-95.24251393872693,38.95639934116089],[-95.24252812962943,38.95641287623276],[-95.24252897425951,38.95641368219061],[-95.24252511990501,38.95641614640221],[-95.2425069283394,38.95639879591627],[-95.24252733641504,38.956385751162685],[-95.24252696470795,38.95638539715245],[-95.24252651131009,38.9563856873791],[-95.24252020043218,38.95637966759544],[-95.24252065382997,38.95637937736882],[-95.24252028212292,38.95637902335851],[-95.24249125745996,38.956397575156835],[-95.24253302334206,38.9564374113659],[-95.2425384650972,38.95643393317513],[-95.24254032132801,38.956435703171415],[-95.24263517641805,38.95652617476391],[-95.24256828313744,38.956568930561644],[-95.2425562177344,38.95655742243676],[-95.24255576433555,38.95655771266351],[-95.24255613489056,38.95655806664627],[-95.24254910568914,38.956562559717284],[-95.2425487351342,38.95656220573455],[-95.24254828177042,38.956562495060844],[-95.24262123179086,38.9566320752611],[-95.24262576679378,38.956629176619884],[-95.2426304073366,38.95663360295765]]]},"properties":{"SDE.FloorAll.FLOORLOCATION":"ROOF"}}]}
