{"type":"FeatureCollection","features":[{"type":"Feature","geometry":{"type":"Polygon","coordinates":[[[-95.25080975099094,38.95622479659168],[-95.25084600139974,38.9562122333036],[-95.25083769048298,38.95619761304348],[-95.25084062250258,38.95619659749134],[-95.25083872545534,38.95619326033661],[-95.2508357934359,38.956194275888656],[-95.25081870698736,38.95616422045697],[-95.25082163900585,38.95616320490534],[-95.25081773688194,38.95615634057887],[-95.25081480482866,38.956157357030825],[-95.25072696172009,38.956002833765865],[-95.25077612774126,38.955985793962476],[-95.25077689801691,38.955987148743276],[-95.25078117204725,38.95598566753859],[-95.25078064159612,38.95598473481026],[-95.2508075473483,38.95597540254765],[-95.25080808101409,38.955976341660595],[-95.25080907319139,38.955975997487194],[-95.25080948911112,38.95597672923023],[-95.25081653373695,38.95597428722498],[-95.25081404356385,38.95596990770844],[-95.25081190712612,38.95597064832507],[-95.25079878661614,38.955947568678056],[-95.25080031112003,38.95594704066018],[-95.25079841408143,38.955943703504744],[-95.25079688957756,38.95594423152257],[-95.25078498874362,38.95592329777093],[-95.25077864495658,38.955925496839775],[-95.25078030650195,38.95592841925563],[-95.25066618392518,38.95596800579658],[-95.25066376514293,38.955963749634805],[-95.25065742019535,38.95596594866965],[-95.25067013662358,38.95598831759895],[-95.2506334837937,38.95600102089092],[-95.25063318782252,38.95600049927326],[-95.25062731086354,38.95600253636893],[-95.25064835652256,38.95603955755464],[-95.25063019215484,38.95604585265951],[-95.25062900592808,38.956043767034544],[-95.25062259544903,38.956045988846775],[-95.2506445302215,38.95608457401307],[-95.25065588164664,38.956080639878344],[-95.25065493311143,38.95607897174966],[-95.25071372601494,38.956058595909894],[-95.25071379194576,38.95605871102757],[-95.25071611559144,38.95605790545751],[-95.25073508716564,38.956091276150794],[-95.25073276236597,38.95609208169391],[-95.25073466055859,38.95609541887772],[-95.25073692336473,38.95609463439522],[-95.2507558076127,38.956127817361626],[-95.2507537483997,38.95612853096926],[-95.25075564544117,38.95613186812539],[-95.2507577023129,38.95613115536341],[-95.25077954428124,38.95616957698178],[-95.25077748856181,38.95617028977147],[-95.25078138952935,38.95617715407195],[-95.25078245659839,38.95617678373656],[-95.25079962940507,38.95620699262727],[-95.2507984757751,38.95620739245314],[-95.25080037282078,38.95621072960858],[-95.25080152645084,38.95621032978264],[-95.25080975099094,38.95622479659168]]]},"properties":{"SDE.FloorAll.FLOORLOCATION":"-1"}},{"type":"Feature","geometry":{"type":"Polygon","coordinates":[[[-95.25094023242016,38.95645460697825],[-95.25094023673863,38.956457345000594],[-95.25092163676621,38.956457328462946],[-95.25092160974266,38.95647574073941],[-95.25098238198301,38.95647579468282],[-95.25098240442347,38.95646025990773],[-95.25098544574655,38.95646026262332],[-95.25098545613443,38.9564528430887],[-95.25098271603646,38.9564528412066],[-95.25096652940888,38.95642436805586],[-95.25097002189767,38.956423157606295],[-95.25096788829559,38.956419402985645],[-95.25096439461875,38.95642061430824],[-95.25094803190916,38.95639183146445],[-95.25095152554984,38.956390621042765],[-95.25094939079656,38.9563868663945],[-95.2509458983092,38.956388076843446],[-95.25092953561469,38.95635929399696],[-95.25093302925407,38.95635808357585],[-95.25093089446774,38.95635432982759],[-95.2509274008285,38.956355540248666],[-95.25091103930221,38.956326757426886],[-95.25091453178715,38.95632554697891],[-95.25091239819093,38.956321792357265],[-95.25090890455301,38.956323002777836],[-95.25089254185359,38.956294220826344],[-95.25089603552541,38.95629300950595],[-95.250893900743,38.95628925575698],[-95.25089040825951,38.956290466204294],[-95.25087404561019,38.95626168334975],[-95.25087753809254,38.95626047290295],[-95.25087540450026,38.956256718280606],[-95.25087191082989,38.95625792960037],[-95.2508555481956,38.95622914674322],[-95.25085904182983,38.95622793632425],[-95.25085690708636,38.9562241816742],[-95.25085341460546,38.9562253921204],[-95.25083705198624,38.95619660926052],[-95.25084054561921,38.95619539884216],[-95.25083959920933,38.95619373527165],[-95.25089576081045,38.95617427117069],[-95.25089768266692,38.9561776530727],[-95.25090402083654,38.95617515375595],[-95.25090416450848,38.956175406801734],[-95.25091641931282,38.9561966787799],[-95.25100458275794,38.956196756728886],[-95.25100471812185,38.95610376619006],[-95.25105469370057,38.95610381014841],[-95.25105471806535,38.95608674153481],[-95.25110381756848,38.95608678542911],[-95.2511038419214,38.95606971681546],[-95.2511529414127,38.956069760688955],[-95.25115296575376,38.95605269207531],[-95.25120206526829,38.95605273502759],[-95.25120208959748,38.956035666413904],[-95.25125118906523,38.95603571024581],[-95.25125121338257,38.956018641632035],[-95.2513003128735,38.956018684542784],[-95.25130033714395,38.95600161682939],[-95.25134943662307,38.95600165971934],[-95.2513494609167,38.9559845911055],[-95.25139856034903,38.95598463487504],[-95.25139858463076,38.955967566261215],[-95.25144768408637,38.95596760910952],[-95.25144770832124,38.95595054139603],[-95.25149680776498,38.95595058422356],[-95.25149683202301,38.95593351560966],[-95.25154593141994,38.95593355931676],[-95.25154595566609,38.955916490702826],[-95.25159505508631,38.95591653348877],[-95.2515950792856,38.95589946577517],[-95.25164417869397,38.95589950854032],[-95.25164421056233,38.9558771967846],[-95.25162341613894,38.95584061883958],[-95.25162367585412,38.955661172309355],[-95.25139025830768,38.95566096700229],[-95.2513902294301,38.95568287328022],[-95.25129846210027,38.95568279218127],[-95.25129849446579,38.955660885985424],[-95.25109449724494,38.955660705250715],[-95.25109446596937,38.95568261147385],[-95.25100328724527,38.955682531479674],[-95.25100328718578,38.95568024777536],[-95.25100153398539,38.955680245860606],[-95.25100154856959,38.9556697505458],[-95.25100330176969,38.95566975246056],[-95.2510033151246,38.955660624274124],[-95.25075064802633,38.95566040016507],[-95.25075428220185,38.95566679310935],[-95.25076885615121,38.95566680613808],[-95.25076885235582,38.95566954486957],[-95.25077118961825,38.955669546217614],[-95.25077117499984,38.955680041532396],[-95.25076883658392,38.955680040157034],[-95.25076881894545,38.9556923639849],[-95.25083755309159,38.95581327267019],[-95.25085212595303,38.955813284760694],[-95.25085212304052,38.95581511057255],[-95.2508544614259,38.955815112846665],[-95.25085444681987,38.955825608161305],[-95.25085210843409,38.955825605887256],[-95.25085208877728,38.9558388426072],[-95.25091744982517,38.95595383402504],[-95.25089822430925,38.955960496944115],[-95.25089662142274,38.9559610519439],[-95.25087717473184,38.95596779252796],[-95.250870060831,38.955955277974425],[-95.25086364921432,38.95595749977268],[-95.25087076426745,38.955970014353944],[-95.25084640243031,38.955978457060084],[-95.25083928853387,38.95596594250472],[-95.25081631546983,38.9559739044364],[-95.25081404359887,38.95596990680801],[-95.25081190716114,38.955970647424664],[-95.25078498877863,38.95592329687055],[-95.25077864499161,38.955925495939375],[-95.25077933893478,38.95592700301955],[-95.25066520018287,38.95596656033676],[-95.25066398485208,38.955964421750934],[-95.2506576410576,38.95596662081318],[-95.25067006032644,38.955988468997916],[-95.25062753057246,38.956003208485185],[-95.25064857738495,38.95604022969817],[-95.25063041186391,38.95604652477574],[-95.2506292267903,38.956044439178086],[-95.25062281515798,38.956046660963025],[-95.25070984470162,38.95619975099739],[-95.25072825127597,38.95619337240139],[-95.25072760202964,38.956192229574334],[-95.25077956101302,38.95617422138854],[-95.25078161039346,38.95617782621522],[-95.25078267746248,38.95617745587984],[-95.25079985026942,38.95620766477052],[-95.25079869663944,38.95620806459641],[-95.25080059368514,38.95621140175178],[-95.25080174731522,38.956211001925865],[-95.25081739907655,38.95623853415906],[-95.25081624544615,38.95623893398513],[-95.25081814249351,38.956242271140255],[-95.25081929612399,38.95624187131413],[-95.25083577645803,38.956270862446765],[-95.25083462398038,38.95627126230035],[-95.25083652102948,38.956274599455135],[-95.25083767466039,38.95627419962886],[-95.25085427383941,38.95630339995673],[-95.25085312020816,38.95630379978319],[-95.25085501725901,38.95630713693767],[-95.25085617089034,38.95630673711122],[-95.25087277011966,38.95633593653599],[-95.25087161648798,38.956336336362575],[-95.25087351354057,38.95633967351676],[-95.25087466717233,38.956339273690105],[-95.2508912675701,38.95636847313955],[-95.250890113938,38.95636887296635],[-95.25089201099232,38.956372210120186],[-95.25089316462451,38.95637181029336],[-95.25090976384936,38.956401010613064],[-95.25090861021685,38.95640141044011],[-95.25091050727292,38.95640474759364],[-95.25091166090554,38.95640434776665],[-95.2509281424685,38.95643333891305],[-95.25092698883554,38.95643373874021],[-95.25092888589337,38.95643707589341],[-95.25093003952641,38.95643667606623],[-95.25094023242016,38.95645460697825]]]},"properties":{"SDE.FloorAll.FLOORLOCATION":"1"}},{"type":"Feature","geometry":{"type":"MultiPolygon","coordinates":[[[[-95.25092139002949,38.95647506862382],[-95.25098216230427,38.95647512166691],[-95.25098218470977,38.956459587792196],[-95.2509852260328,38.95645959050779],[-95.25098522741314,38.956458516280996],[-95.25104597426876,38.9564585695895],[-95.25104597183648,38.95645970056854],[-95.25105262698466,38.95645970605159],[-95.25105266288092,38.95643438700216],[-95.2510515213718,38.95643438607311],[-95.25105157002186,38.956401260018694],[-95.2510328650549,38.95640124281167],[-95.25103291425185,38.95636750934463],[-95.2510285305968,38.9563675054456],[-95.25102852851097,38.95636910236587],[-95.25101420717273,38.95636908995524],[-95.2510142564123,38.95633494012326],[-95.25100987275921,38.95633493622352],[-95.2510098724007,38.95633547965336],[-95.25099584079685,38.95633546690004],[-95.2509958720908,38.956302520678165],[-95.2509912160449,38.95630251662779],[-95.25099121385806,38.95630405676859],[-95.2509771845668,38.95630404406768],[-95.25097723466465,38.956269872626095],[-95.25097285101556,38.956269868724945],[-95.25097284772822,38.956271615220004],[-95.25095852759797,38.95627160192943],[-95.25095855837853,38.95623745256011],[-95.25095419321727,38.95623744819537],[-95.25095419108263,38.9562391947178],[-95.25093986977073,38.95623918229797],[-95.25093990056028,38.956205032928565],[-95.25093553655421,38.95620502859046],[-95.25093553284417,38.9562072310951],[-95.2509211561513,38.956207218260964],[-95.25092116079277,38.956203893753866],[-95.25091602168686,38.95619485338457],[-95.25095431799006,38.956194887222715],[-95.25095431929012,38.95619351829355],[-95.25099698885836,38.956193555773346],[-95.25099698755913,38.95619492470252],[-95.25100312441668,38.95619493051746],[-95.25100321844016,38.95613042580282],[-95.25099883479977,38.95613042190266],[-95.2509988739958,38.95610300037365],[-95.2510523571839,38.95610304728949],[-95.25105238154926,38.956085978675844],[-95.2511014810518,38.95608602257116],[-95.25110150540529,38.95606895395755],[-95.25115060489604,38.95606899783201],[-95.25115062923767,38.956051929218326],[-95.25119972875171,38.95605197217161],[-95.25119975308148,38.95603490355793],[-95.25124885254866,38.95603494739081],[-95.25124887686654,38.95601787877705],[-95.25129797632192,38.95601792258916],[-95.25129800062797,38.95600085397539],[-95.25134710010661,38.956000896866314],[-95.25134712440081,38.95598382825249],[-95.25139622383259,38.95598387202299],[-95.25139624811489,38.95596680340913],[-95.25144534756991,38.955966846258455],[-95.25144537180535,38.95594977854496],[-95.25149447124856,38.95594982137351],[-95.25149449550713,38.95593275275959],[-95.25154359490361,38.95593279646772],[-95.25154361915033,38.95591572785376],[-95.25159271856995,38.95591577064069],[-95.25159274276979,38.95589870292712],[-95.25164184217763,38.95589874569326],[-95.25164187207697,38.9558775829518],[-95.25161965482259,38.95583850282512],[-95.25140714070335,38.95591215544198],[-95.25140747300284,38.9556828891347],[-95.2512984632534,38.95568279220861],[-95.25129849446579,38.955660885985424],[-95.25109508239034,38.95566070650698],[-95.25109505111494,38.955682612730115],[-95.25099831614571,38.955682527168484],[-95.25099806649288,38.955854492007425],[-95.25088354777232,38.9558941802148],[-95.25091034406084,38.9559413178646],[-95.25080633411535,38.955977364584825],[-95.25080952534915,38.95598297918049],[-95.25081251592928,38.95598194158596],[-95.25083374501179,38.95598196100338],[-95.25083370301635,38.956011174102095],[-95.25082783427457,38.956013207797824],[-95.25083139831678,38.95601947560813],[-95.25083317907868,38.95601885813627],[-95.25085502452632,38.9560188777449],[-95.25085498355156,38.956046848078905],[-95.25084852394568,38.956049086763095],[-95.2508523244622,38.95605577384193],[-95.25085862408011,38.95605577901793],[-95.2508586242276,38.956055686195285],[-95.25087627765252,38.956055701931255],[-95.25087623668615,38.95608367226523],[-95.25086977704257,38.95608591185099],[-95.25087356788495,38.95609258067506],[-95.25087422192887,38.95609235375377],[-95.25089754133182,38.95609237405636],[-95.25089748811715,38.95612870205569],[-95.25089505100249,38.95612954639525],[-95.2508957780616,38.95613082534881],[-95.2508630611366,38.95614216385645],[-95.25086233407795,38.956140884902695],[-95.2508580600399,38.956142366110385],[-95.25085898258554,38.95614399036228],[-95.25081866058001,38.95615796485843],[-95.25081773803511,38.9561563406062],[-95.25081346399519,38.956157821812226],[-95.25081391226996,38.95615861200071],[-95.25078329898392,38.95616922170908],[-95.25069985820868,38.95602265067371],[-95.2506297033925,38.95604696399524],[-95.25062842534504,38.956044716676104],[-95.25062281631118,38.95604666099036],[-95.25064481048092,38.95608535120592],[-95.25064774836956,38.956084333094196],[-95.25071008607978,38.956193426519754],[-95.25070741492866,38.95619435272471],[-95.25070990510305,38.95619873224347],[-95.25072686908038,38.956192852965046],[-95.25072876937168,38.956196195606026],[-95.25073197519303,38.956195084710686],[-95.25088242439728,38.95645962509256],[-95.25088710121071,38.95645962963944],[-95.25088710491869,38.95645662594617],[-95.25092141705309,38.95645665634732],[-95.25092139002949,38.95647506862382]]],[[[-95.25146929527762,38.95631590209372],[-95.25153212996366,38.95631595687952],[-95.25153215584123,38.95629860892513],[-95.25153624172748,38.95629861205509],[-95.25153624367927,38.95629725575881],[-95.25157056380888,38.95629728615931],[-95.2515939709905,38.95627905049828],[-95.25161409559249,38.95627906882349],[-95.25160822741718,38.956294980524746],[-95.25163271749169,38.956300487143714],[-95.25163064150368,38.956306114745175],[-95.25164075199156,38.9563083875707],[-95.25166086069822,38.95631089288977],[-95.2517116478073,38.956310937773786],[-95.25173451112485,38.956306837512926],[-95.25173129449249,38.95629742097908],[-95.2517491760104,38.956294213802146],[-95.25175257867643,38.95629243342909],[-95.25174641586074,38.95627439264045],[-95.25174642871646,38.956265037336365],[-95.25182153942629,38.95626510266988],[-95.25182176299501,38.956109818023414],[-95.25187002345723,38.956109859729736],[-95.25187002978964,38.956105689014144],[-95.2518695519557,38.956105688502994],[-95.25186970771274,38.95599738937691],[-95.25187029289594,38.95599738972888],[-95.25187029760001,38.95599453746571],[-95.25186971245185,38.95599453621337],[-95.25186975121163,38.95596803753502],[-95.25153424531005,38.95596774240737],[-95.2515341776592,38.956014750466856],[-95.25149852225645,38.95601471904037],[-95.25149852354598,38.956013350111185],[-95.25142516750071,38.95601328560375],[-95.25142517039843,38.95601145979188],[-95.25141830178057,38.95601145377472],[-95.25141824020159,38.95605429652078],[-95.2514205785949,38.95605429878343],[-95.25142038451332,38.9561886478071],[-95.25146947950971,38.95618869053682],[-95.25146929527762,38.95631590209372]]]]},"properties":{"SDE.FloorAll.FLOORLOCATION":"2"}},{"type":"Feature","geometry":{"type":"Polygon","coordinates":[[[-95.251439468347,38.956861749707194],[-95.25143609576224,38.956861746360865],[-95.25143608830922,38.956866538894936],[-95.25169064685926,38.95686676298425],[-95.25169065157064,38.95686391072128],[-95.25167552220177,38.95686389726578],[-95.25167552428243,38.95686265632934],[-95.25167428579375,38.956862655811506],[-95.25167434875776,38.956819298505636],[-95.25167558721071,38.95681929992389],[-95.2516755913881,38.95681610518306],[-95.25167435293521,38.95681610376483],[-95.25167441098014,38.95677604932898],[-95.25167564943229,38.956776050747266],[-95.25167564958085,38.956775928184285],[-95.2516764609697,38.95677592939292],[-95.25167646324239,38.95677444603169],[-95.25168756902032,38.95677445603789],[-95.25168756674788,38.956775939399094],[-95.25174630670357,38.956775990725546],[-95.25174642867161,38.956695609824926],[-95.25174954849128,38.956695612578415],[-95.25174960057223,38.956667674060014],[-95.2517483667347,38.95666767275191],[-95.25174854743292,38.95654481403935],[-95.25176673825108,38.95654294529796],[-95.25178484268099,38.9565406265976],[-95.25180284559089,38.956537861184664],[-95.25182072615324,38.95653465036781],[-95.25183846685992,38.956530999139645],[-95.25185605027295,38.95652691069167],[-95.25185784182464,38.95653254705439],[-95.2518657839677,38.95653100855692],[-95.2518272129547,38.95640963850117],[-95.25185345140964,38.95640455567304],[-95.25183969113031,38.956361256444964],[-95.2518134538086,38.95636634019779],[-95.25180669594513,38.9563450787529],[-95.25183293441262,38.95633999502895],[-95.2518272996717,38.956322265067286],[-95.25183080729255,38.95632226799872],[-95.25183089378156,38.95626179700295],[-95.25182154245212,38.956261788940154],[-95.25182176089868,38.95610981256641],[-95.25187263096197,38.95610985754713],[-95.251872635748,38.95610632035556],[-95.2518700272653,38.95610631800886],[-95.25187002769333,38.956105683557155],[-95.25186800652808,38.95610565637859],[-95.25186591304812,38.95609365472227],[-95.251864299188,38.95608160765704],[-95.25186316326918,38.95606952866138],[-95.2518655859497,38.956069530209184],[-95.25186558966763,38.95606679237815],[-95.25186297311414,38.95606678983992],[-95.25186245083228,38.95605561219365],[-95.2518623397801,38.9560444262701],[-95.25186263950239,38.956033243774364],[-95.2518633485657,38.956022071882266],[-95.25186446658476,38.956010920498194],[-95.25186567039341,38.95601092199485],[-95.25186567414634,38.956008183263386],[-95.25186480503768,38.95600818249016],[-95.25186666603818,38.95599567434973],[-95.25186904208361,38.95598321897219],[-95.25187193264853,38.95597082986347],[-95.2518731226184,38.95597083103204],[-95.2518731274233,38.95596803554839],[-95.25153073215108,38.95596773392796],[-95.25153071886417,38.955976862114206],[-95.2514839578279,38.955976820661995],[-95.25148390587954,38.956013331633386],[-95.25143919467308,38.956013291892994],[-95.2514391931997,38.956013834395165],[-95.2514251651191,38.956013821775784],[-95.25142516830215,38.95601145433486],[-95.2514183008375,38.956011448345045],[-95.25141823922344,38.95605429199146],[-95.2514205764986,38.956054293326375],[-95.25142038241701,38.95618864235004],[-95.2514694773784,38.95618868598015],[-95.25146917606695,38.95639679766846],[-95.25144870746932,38.95639677927512],[-95.25144870789225,38.95639626378486],[-95.2514452002678,38.9563962608419],[-95.25144519984484,38.95639677633218],[-95.25143819731585,38.95639676984623],[-95.25143818882475,38.95640236084065],[-95.2514408192288,38.95640236371649],[-95.25144075400154,38.95644743780577],[-95.2514419231872,38.95644743938706],[-95.25144186234242,38.95648999646056],[-95.25144069315606,38.956489994879234],[-95.25144061914588,38.956541290812645],[-95.25143510204134,38.95654128619514],[-95.25143509615113,38.956545741708474],[-95.25138609906726,38.95654569768634],[-95.25138604338913,38.95660035021437],[-95.25110357596465,38.956600100912674],[-95.25110365554602,38.95654510648107],[-95.25105250585533,38.9565450608492],[-95.25105157215565,38.95639992896079],[-95.25104718734534,38.95639992503513],[-95.2510471863646,38.956401256120365],[-95.25103286501987,38.95640124371206],[-95.25103291425185,38.95636750934463],[-95.2510285305968,38.9563675054456],[-95.25102852851097,38.95636910236587],[-95.25101420717273,38.95636908995524],[-95.25101423792644,38.956334940586196],[-95.25100987275921,38.95633493622352],[-95.25100987062595,38.95633668274593],[-95.25099555044747,38.95633667036034],[-95.25099558009202,38.95630252006343],[-95.2509912160449,38.95630251662779],[-95.25099121358035,38.956304034231366],[-95.25097718540725,38.95630402245822],[-95.25097721506064,38.95626987216126],[-95.25097285101556,38.956269868724945],[-95.25097284888136,38.95627161524735],[-95.25095852759797,38.95627160192943],[-95.25095855837853,38.95623745256011],[-95.25095419318224,38.956237449095745],[-95.25095419108263,38.9562391947178],[-95.25093987092389,38.956239182325305],[-95.25093992019927,38.95620503249295],[-95.25093553655421,38.95620502859046],[-95.25093553284417,38.9562072310951],[-95.25092134771842,38.95620721919822],[-95.25092135313594,38.956204230866256],[-95.25091602168686,38.95619485338457],[-95.25095490202173,38.956194887551916],[-95.25095490447494,38.95619351865012],[-95.25099698885836,38.956193555773346],[-95.25099698755913,38.95619492470252],[-95.25100224838674,38.9561949295738],[-95.25100234103566,38.9561305789359],[-95.25100058778914,38.95613057792153],[-95.25100059648018,38.95612510138643],[-95.25100234972662,38.95612510240083],[-95.25100238940063,38.956097371763136],[-95.25090691445065,38.95613046124856],[-95.25090442430145,38.956126080833634],[-95.25090068493466,38.95612737735214],[-95.25081413052388,38.95597512065066],[-95.25081653373695,38.95597428722498],[-95.250814044717,38.955969907735756],[-95.25068371750261,38.956014575982294],[-95.2506862076692,38.9560189555016],[-95.25068914555449,38.95601793738882],[-95.25069314706091,38.95602497621072],[-95.2506297033925,38.95604696399524],[-95.2506284264982,38.95604471670343],[-95.25062281631118,38.95604666099036],[-95.25064481048092,38.95608535120592],[-95.25064774836956,38.956084333094196],[-95.25071008607978,38.956193426519754],[-95.25070741492866,38.95619435272471],[-95.25070990510305,38.95619873224347],[-95.25072686908038,38.956192852965046],[-95.25072876937168,38.956196195606026],[-95.25073197519303,38.956195084710686],[-95.25088119531095,38.95645757270086],[-95.25085413846735,38.95645754939519],[-95.25085413383056,38.9564612001457],[-95.25088150112586,38.956461224503805],[-95.25088129532939,38.956602703756595],[-95.25081965152276,38.956602649824966],[-95.25081964615353,38.95660584453842],[-95.25082195688871,38.95660584615696],[-95.25082184745284,38.956680921870664],[-95.25082288972223,38.95668092225122],[-95.25082282021972,38.95672852958911],[-95.25082177798468,38.95672852830816],[-95.25082175793439,38.9567422201363],[-95.25085883914609,38.95674225312546],[-95.25085873746627,38.95681235245986],[-95.2508640895114,38.956812357696734],[-95.25086409343633,38.95681012004942],[-95.25104651721779,38.9568102816887],[-95.25104651385413,38.956812564410406],[-95.25105177476273,38.95681256837899],[-95.25105190355927,38.956723573719636],[-95.25113212902814,38.95672364449767],[-95.25113217830628,38.95669005613167],[-95.25117445916649,38.956690094236805],[-95.25117445569256,38.956692498621074],[-95.25117913140326,38.95669250222846],[-95.25117913487699,38.956690097844174],[-95.25122005148462,38.956690134230264],[-95.2512200480123,38.95669253861456],[-95.25122472372296,38.956692542220075],[-95.25122472719518,38.95669013783577],[-95.25126564380282,38.95669017420577],[-95.25126564033206,38.95669257859004],[-95.25127031600768,38.95669258309414],[-95.25127031947835,38.95669017870986],[-95.25131123608608,38.95669021506377],[-95.25131123261681,38.95669261944801],[-95.2513159094807,38.95669262307723],[-95.2513159129498,38.956690218692955],[-95.2513595546383,38.956690257449004],[-95.25135948924266,38.9567354829401],[-95.25136431151556,38.95673548731076],[-95.25136432779676,38.9567249469771],[-95.25144148422159,38.956725015079776],[-95.25144148323173,38.9567256341974],[-95.25143966535715,38.956725632559184],[-95.251439468347,38.956861749707194]]]},"properties":{"SDE.FloorAll.FLOORLOCATION":"3"}},{"type":"Feature","geometry":{"type":"MultiPolygon","coordinates":[[[[-95.25143845339271,38.956866538184414],[-95.25143496538409,38.95686653480549],[-95.25143495859403,38.95687133997242],[-95.25163288123983,38.95687151482069],[-95.25163284856933,38.956555228498054],[-95.25163644391344,38.95655523171203],[-95.25163645053905,38.95655057884828],[-95.25164022096344,38.95654806819179],[-95.25170703552394,38.95654812709567],[-95.25171000468079,38.956551203058616],[-95.25176180488698,38.956548114041134],[-95.25179936619743,38.9565423271913],[-95.2518153539735,38.95653955727047],[-95.25183752386707,38.956535095382776],[-95.25185618894794,38.956530765810804],[-95.25185798657868,38.956536423946986],[-95.25186580892937,38.956534908745624],[-95.25182713397581,38.956413213588036],[-95.25185344225292,38.956408116192776],[-95.25183964605758,38.95636470165802],[-95.25180878581921,38.95637068069924],[-95.25181435679892,38.95638820997979],[-95.25170743367602,38.95639984729529],[-95.25162957814959,38.95639977901131],[-95.25155150638368,38.95639114211592],[-95.25157200876612,38.95633380197118],[-95.25155929387698,38.95632385205686],[-95.25157547477184,38.956311246279974],[-95.25157299138591,38.95630930295133],[-95.25157050247486,38.956311241965906],[-95.25156553458524,38.95630735438072],[-95.25158015974903,38.9562959608214],[-95.25157756687527,38.956294102316186],[-95.25157486370605,38.956296208385744],[-95.25157010306309,38.95629248252652],[-95.2515858375736,38.956280224854055],[-95.25158335418847,38.95627828152567],[-95.25158090337078,38.95628019080181],[-95.25157333675196,38.956274268834186],[-95.25158217108763,38.95626738741908],[-95.25159360341479,38.956267397967196],[-95.25159360876634,38.956263965330756],[-95.25152957838577,38.95626390926958],[-95.25152947643501,38.95633486384695],[-95.25149572969421,38.95644003882948],[-95.25151321707769,38.95644397085578],[-95.25148383596255,38.95653554170305],[-95.251491693442,38.95653730871718],[-95.25149167149887,38.95655235864273],[-95.25143395900524,38.95655230720701],[-95.25143395953266,38.956552263960766],[-95.25143396436835,38.95654929003516],[-95.25105034699848,38.956548900249835],[-95.2510505313353,38.95643802878093],[-95.25104935869028,38.95643802711361],[-95.25104940958741,38.9564034780791],[-95.25104501324509,38.95640347387992],[-95.25104501212428,38.95640480856675],[-95.25103065272393,38.956404795255885],[-95.25103070199924,38.956370970767054],[-95.25102630565897,38.95637096656717],[-95.25102630336298,38.95637256888979],[-95.25101194512241,38.95637255560396],[-95.25101197483632,38.95633831428534],[-95.2510075992552,38.956338310576896],[-95.25100759579362,38.95634006157393],[-95.25099323752458,38.956340049186174],[-95.25099328688654,38.956305807431875],[-95.25098889170351,38.95630580325793],[-95.25098888906376,38.956307325363454],[-95.2509748228002,38.95630731358812],[-95.25097485368522,38.95627307229667],[-95.25097047699,38.956273067659126],[-95.2509704746807,38.95627481868351],[-95.25095611527175,38.956274806263785],[-95.2509561461658,38.95624056497229],[-95.25095176940262,38.95624056213477],[-95.25095176712784,38.956242312258745],[-95.25093740776052,38.95624229893635],[-95.25093745826759,38.95620805810952],[-95.25093306193743,38.95620805390613],[-95.25093305913535,38.95621026274089],[-95.25091883637445,38.956210239136695],[-95.25091884053386,38.95620725347855],[-95.25091349503914,38.95619785133066],[-95.25095248038456,38.95619788618625],[-95.2509524830129,38.95619651278244],[-95.2509946804793,38.95619655078525],[-95.25099467903995,38.95619792331601],[-95.25099995374086,38.95619792761507],[-95.25100004731442,38.956133404865206],[-95.25099828833696,38.956133402813705],[-95.25099829643531,38.95612791184499],[-95.25100005544766,38.95612791299609],[-95.2510000956877,38.956100108471425],[-95.25090436339278,38.956133285580556],[-95.25090186674483,38.95612889419679],[-95.25089811685916,38.95613019407073],[-95.25087432810838,38.956088347624764],[-95.25075507129424,38.95612986280495],[-95.25075079246677,38.95613134840125],[-95.25077603272226,38.956175759029],[-95.25072288736247,38.95619417797783],[-95.25072574048964,38.95619919695992],[-95.25072895452342,38.95619808265452],[-95.25087857539586,38.95646127679735],[-95.25085144701873,38.95646125269619],[-95.25085144084339,38.956464913323686],[-95.25085493113852,38.956464916774884],[-95.2508547209723,38.95660997919374],[-95.25081917723328,38.95660994750952],[-95.25081899819203,38.95673295950571],[-95.25085617983088,38.95673299217346],[-95.25085605742207,38.956817008625855],[-95.25086142449398,38.95681701331789],[-95.2508614274759,38.956814770240925],[-95.25104961654009,38.95681493699654],[-95.25104974300811,38.956727990764975],[-95.25113018314913,38.956728062127894],[-95.25113023485314,38.95669209638942],[-95.25135822293893,38.95669229779351],[-95.25135817011407,38.95672936389764],[-95.2514386518066,38.95672943513035],[-95.25143845339271,38.956866538184414]]],[[[-95.2515299463184,38.9559700738035],[-95.2515297427291,38.95611060950283],[-95.25156246306918,38.95611063803314],[-95.25156261207715,38.956011222104415],[-95.25156266181128,38.955972896916975],[-95.25156266540527,38.95597010320679],[-95.2515299463184,38.9559700738035]]]]},"properties":{"SDE.FloorAll.FLOORLOCATION":"4"}},{"type":"Feature","geometry":{"type":"MultiPolygon","coordinates":[[[[-95.25085878148256,38.956812526538656],[-95.25086413468092,38.956812531802825],[-95.25086413745265,38.95681029412822],[-95.25104656238777,38.956810455794766],[-95.25104655905913,38.95681273761605],[-95.25105181877949,38.95681274245773],[-95.25105199367037,38.956692854017],[-95.25143496513299,38.95669319241747],[-95.25143495998982,38.95669700537559],[-95.25144237000725,38.95669701160742],[-95.25144237971799,38.95669052843005],[-95.25143982524055,38.9566905021201],[-95.25143990359511,38.95663579966244],[-95.25144106125202,38.956635800970425],[-95.2514411787058,38.956554535852895],[-95.2514458093633,38.95655454018415],[-95.25144582823285,38.9565414692741],[-95.2514351460589,38.956541460273655],[-95.25143514379769,38.956543655602495],[-95.25105257710837,38.95654331776808],[-95.25105273156294,38.95643680571451],[-95.25091528430332,38.95619502696025],[-95.25095494719105,38.956195061658015],[-95.2509549484911,38.95619369272886],[-95.25099703402779,38.95619372987942],[-95.25099703157544,38.95619509878123],[-95.251002292403,38.95619510365252],[-95.25100243457003,38.95609754586922],[-95.25088585621126,38.95613794859052],[-95.25088490770486,38.9561362795633],[-95.250725967842,38.956191363499805],[-95.25072881338735,38.95619636968485],[-95.25073201920863,38.95619525878952],[-95.25088154396718,38.956458283021654],[-95.25088115053045,38.95672875549118],[-95.25085890320551,38.956728735376096],[-95.25085878148256,38.956812526538656]]],[[[-95.25151659961256,38.95652905902165],[-95.25153600372539,38.95653330053947],[-95.25155558539952,38.95653701273832],[-95.25157532178103,38.95654018966903],[-95.25159518648636,38.95654282710121],[-95.25161515763958,38.95654492361505],[-95.25163520997542,38.95654647590792],[-95.25165532049976,38.95654748163221],[-95.25167546272398,38.95654793925891],[-95.25169561239586,38.95654784911429],[-95.25171574641624,38.95654721155207],[-95.25173584056789,38.956546025998215],[-95.25175586934036,38.95654429545299],[-95.25177580729313,38.95654202111593],[-95.25179563356356,38.95653920519612],[-95.25181532141798,38.95653585246738],[-95.25183484765235,38.9565319659847],[-95.25183338264601,38.95652707456301],[-95.25182946538217,38.956515609165145],[-95.25184466309898,38.956512081510105],[-95.25180082040472,38.95638395077763],[-95.25179969163473,38.95638418627866],[-95.25168688235858,38.95639646451561],[-95.25161670575744,38.95639640250498],[-95.25155073275815,38.956388982468084],[-95.25150853899669,38.9565069880178],[-95.2514987757911,38.95650439176333],[-95.25149397830923,38.95650345341599],[-95.25148573132496,38.95652915729981],[-95.25149515528865,38.95653127597549],[-95.25149739602001,38.95652429143283],[-95.25151659961256,38.95652905902165]]]]},"properties":{"SDE.FloorAll.FLOORLOCATION":"5"}},{"type":"Feature","geometry":{"type":"Polygon","coordinates":[[[-95.25097781368166,38.95654992563367],[-95.25097760102472,38.956696483118094],[-95.25105241900351,38.95669654920802],[-95.25105263147044,38.95654999262384],[-95.25097781368166,38.95654992563367]]]},"properties":{"SDE.FloorAll.FLOORLOCATION":"6"}},{"type":"Feature","geometry":{"type":"MultiPolygon","coordinates":[[[[-95.25144057434704,38.95687124238586],[-95.25154052655509,38.95687133080588],[-95.25164047995156,38.95687141826662],[-95.25164223321647,38.95687141927133],[-95.25167452796289,38.956871448487966],[-95.25167466318031,38.95677748915488],[-95.25167290995269,38.95677748725028],[-95.25164236844172,38.956777460838644],[-95.25164237216839,38.956774723007754],[-95.25164267176928,38.95656729532625],[-95.25165012747247,38.956567907349616],[-95.25168506168411,38.95656838575825],[-95.2517199176136,38.956566483970136],[-95.25175442803246,38.95656221728049],[-95.25178833077808,38.95655561912948],[-95.25182136770576,38.95654673837373],[-95.25185328797305,38.95653564387001],[-95.25186391460048,38.95653135177485],[-95.25186589706439,38.956537896590355],[-95.25186934991541,38.95653720067462],[-95.25183211282824,38.95641453383361],[-95.25185793929306,38.956409330388524],[-95.25184216614416,38.95636160440241],[-95.25183058586346,38.9563265678983],[-95.25183280884309,38.95632657012048],[-95.2518329039571,38.956260622589674],[-95.2518235526278,38.956260614527054],[-95.25182360487457,38.95622432887356],[-95.25182361234873,38.95621885231113],[-95.25182365206099,38.95619146865327],[-95.25182365457988,38.95618941482299],[-95.25182365701627,38.956188045921095],[-95.25182365953519,38.95618599209084],[-95.25182369921238,38.95615860933332],[-95.25182370668652,38.95615313277085],[-95.251823765948,38.956111946425985],[-95.25187228839212,38.95611198893368],[-95.25187249682341,38.955966858022315],[-95.25170766512456,38.95596671358903],[-95.2517076613655,38.95596945232047],[-95.25167259001529,38.955969421272926],[-95.25153581448946,38.95596930087212],[-95.2515357541217,38.956011372197366],[-95.25153224651635,38.95601136925707],[-95.25153230878112,38.95596823993936],[-95.25147619527182,38.955968191270244],[-95.25147613295691,38.95601200371558],[-95.25153224531282,38.956012053257766],[-95.25153224407433,38.9560127381589],[-95.25153224345286,38.95601311034982],[-95.25141679967206,38.95601300882611],[-95.25141504646344,38.95601300691761],[-95.25141478960205,38.95619019956031],[-95.25141654281505,38.95619020146881],[-95.25146622299737,38.95619024455416],[-95.25146592544476,38.956395617511056],[-95.25143658906717,38.95639559257332],[-95.25143483469586,38.95639559063779],[-95.2514295738533,38.95639558578615],[-95.25142957008345,38.956398324517515],[-95.251433077708,38.95639832746097],[-95.2514328655645,38.95654456950935],[-95.2510595729389,38.95654423886094],[-95.25105969945383,38.95645654911865],[-95.25105174236452,38.956456542508135],[-95.2510517673223,38.956438627659324],[-95.25105182454719,38.95640011699221],[-95.25103311954558,38.95640010068558],[-95.25103316667833,38.95636769647571],[-95.2510144628384,38.95636768019338],[-95.25101450932164,38.956335203869855],[-95.25099580549029,38.95633518758454],[-95.2509958521221,38.95630270765937],[-95.25097744029819,38.956302691985826],[-95.25097748709055,38.95627005975724],[-95.25095878327652,38.95627004346597],[-95.25095883040825,38.95623764015615],[-95.25094010584564,38.956237623369695],[-95.25094015298585,38.95620522005981],[-95.25092771625114,38.95620521537239],[-95.25093718609541,38.95620193865052],[-95.25089991806358,38.95613638132751],[-95.25175185224964,38.95584112095622],[-95.25162107761973,38.955841005906734],[-95.25162133743875,38.955661170951174],[-95.2513902617672,38.955660967084306],[-95.25134582707773,38.955640910454164],[-95.25129806301419,38.955626241702284],[-95.25124803367115,38.95561728976498],[-95.25119685668561,38.95561425327104],[-95.25114566979657,38.95561719974887],[-95.25109601129763,38.9556259286486],[-95.25104780414112,38.95564066976044],[-95.25100331624274,38.95566062520185],[-95.25075064914446,38.95566040109285],[-95.25091034406084,38.9559413178646],[-95.2508089958565,38.95597644266081],[-95.2508072143965,38.955973309219175],[-95.25077855994502,38.95592290470461],[-95.25065862070906,38.95596443243848],[-95.25066795245485,38.955980848727634],[-95.25060871226454,38.956001359934774],[-95.25060938211388,38.95600262581774],[-95.25063094815097,38.95604339041653],[-95.25061953955955,38.95604734031641],[-95.25070511812842,38.95619788062942],[-95.25070450039179,38.95619809399114],[-95.25072059548923,38.95622853058307],[-95.250742643167,38.9562214236168],[-95.25087621583303,38.95645638758299],[-95.25085608656806,38.95645636902033],[-95.25085141090807,38.95645636449958],[-95.25084790328066,38.956456361538535],[-95.25084769025457,38.956602862244324],[-95.25081881205944,38.95660283630049],[-95.25081860473169,38.95674524197699],[-95.25085737917125,38.956745276362646],[-95.25085734323204,38.956770268267526],[-95.25085728036525,38.956813995990494],[-95.25085727822781,38.95681532704836],[-95.25105016953547,38.95681549805216],[-95.25105017064904,38.9568142525864],[-95.25105017055117,38.95681416606655],[-95.2510502344168,38.95677043927113],[-95.25105028205459,38.95673730958877],[-95.25113057218735,38.956737380098176],[-95.25113057348396,38.95673601116908],[-95.2511306369375,38.9566928872839],[-95.25135814488159,38.956693088119174],[-95.25135808195635,38.95673706276949],[-95.25135807951098,38.9567384316713],[-95.2514390125288,38.956738502788234],[-95.2514388211171,38.956871240477795],[-95.25144057434704,38.95687124238586]]],[[[-95.25171350097577,38.95659816401311],[-95.25168184000387,38.956665225243185],[-95.25171330721689,38.95673234089184],[-95.25171155395542,38.95673233988826],[-95.25171154907827,38.956735077691825],[-95.25171330345802,38.95673507962315],[-95.25168168215713,38.956774758096316],[-95.25171324629859,38.95677478530585],[-95.251744810405,38.95677481340718],[-95.25174496815396,38.956665280553985],[-95.25171350097577,38.95659816401311]]],[[[-95.25173788212935,38.95681588199329],[-95.25174475082538,38.95681588799154],[-95.25174480552919,38.95677755121069],[-95.25173793799006,38.95677754523986],[-95.25173788212935,38.95681588199329]]],[[[-95.25171525423394,38.95659816501673],[-95.25171525795773,38.95659542718578],[-95.25171350473462,38.956595425281826],[-95.25171175147656,38.95659542427823],[-95.25171174659941,38.956598162081775],[-95.25171350097577,38.95659816401311],[-95.25171525423394,38.95659816501673]]]]},"properties":{"SDE.FloorAll.FLOORLOCATION":"ROOF"}}]}
