{"type":"FeatureCollection","features":[{"type":"Feature","geometry":{"type":"Polygon","coordinates":[[[-95.25736334908588,38.95596230611115],[-95.25740934005331,38.95597463587478],[-95.25739320166542,38.95601140161683],[-95.25739443196522,38.95601173172775],[-95.25745928430291,38.95602911828645],[-95.25765014154933,38.9560802529599],[-95.25770986865597,38.95594440676323],[-95.25772871517005,38.955949458670304],[-95.25773480547426,38.9559356094369],[-95.25771595899836,38.955930556630406],[-95.25773837329412,38.95587958551497],[-95.25760782882216,38.95584459633867],[-95.25758579805478,38.955894694205824],[-95.257526753514,38.955878864517324],[-95.25752714467387,38.955877975250864],[-95.25752309503717,38.95587688991936],[-95.25750304012439,38.95584485472991],[-95.25746201143296,38.95586051358951],[-95.25745981470524,38.95585992449874],[-95.25745838679774,38.95586317027136],[-95.25746154310667,38.955864016378236],[-95.25748090462348,38.955894942891746],[-95.25744092328904,38.955910202043135],[-95.25743804457899,38.95590943009384],[-95.25743661666948,38.955912675866216],[-95.25744007224688,38.95591360295296],[-95.25745279404053,38.955933924538606],[-95.25742135468714,38.95594592324165],[-95.25737591090058,38.955933740708076],[-95.25736334908588,38.95596230611115]]]},"properties":{"SDE.FloorAll.FLOORLOCATION":"1"}},{"type":"Feature","geometry":{"type":"Polygon","coordinates":[[[-95.25736334908588,38.95596230611115],[-95.25740935717621,38.95597464078595],[-95.25739320163049,38.956011402517234],[-95.2573946741324,38.95601179693688],[-95.25745904210076,38.9560290539779],[-95.25765014154933,38.9560802529599],[-95.25770986865597,38.95594440676323],[-95.25772871513513,38.95594945957072],[-95.25773480547426,38.9559356094369],[-95.25771595899836,38.955930556630406],[-95.25773836952021,38.955879593536714],[-95.25770317032574,38.95587015703158],[-95.25768287974627,38.95587790166853],[-95.25766860608553,38.95587407542895],[-95.25767236723361,38.955865519863565],[-95.25767375978056,38.95586589256167],[-95.25767518652509,38.95586264675912],[-95.25760782882216,38.95584459633867],[-95.25760711485452,38.95584621967609],[-95.25759159378352,38.955842058407256],[-95.25758307665892,38.955861426996385],[-95.25759859773365,38.955865588266356],[-95.25758476131156,38.95589705071335],[-95.25758891945378,38.95589816564581],[-95.25758938409946,38.95589710778633],[-95.2576484195838,38.95591293362311],[-95.257632458882,38.95594922865389],[-95.25763174719717,38.95594903788456],[-95.25763189871246,38.955948672868324],[-95.25763203425805,38.95594830296825],[-95.25763215257581,38.95594793085828],[-95.25763225373576,38.955947554737534],[-95.25763233882113,38.95594717643418],[-95.25763240783195,38.95594679594813],[-95.25763245846188,38.955946413224865],[-95.25763249179415,38.955946030092505],[-95.25763250898207,38.95594564657827],[-95.25763250887235,38.95594526265489],[-95.25763249146506,38.9559448783224],[-95.25763245669029,38.955944495381516],[-95.25763240458295,38.95594411293195],[-95.25763233507331,38.95594373277442],[-95.25763224934931,38.955943354035746],[-95.25763214734116,38.95594297851687],[-95.25763202789565,38.95594260619044],[-95.25763189101288,38.95594223705645],[-95.25763173899911,38.95594187116946],[-95.25763157063132,38.95594151030296],[-95.25763138590948,38.95594115445699],[-95.25763118483363,38.95594080363156],[-95.25763096852204,38.95594045875427],[-95.2576307369746,38.95594011982521],[-95.2576304913446,38.95593978687162],[-95.25763023040894,38.95593946166696],[-95.25762995420257,38.95593914331095],[-95.25762966499691,38.955938832758456],[-95.25762936163875,38.95593852998215],[-95.25762904524639,38.95593823590984],[-95.25762871581973,38.95593795054143],[-95.257628373324,38.955937674777374],[-95.25762801894714,38.9559374077445],[-95.25762765377252,38.95593715127085],[-95.25762727552879,38.955936904401575],[-95.2576268876404,38.9559366681188],[-95.2576264901075,38.95593644242266],[-95.25762608174192,38.95593622818609],[-95.2576256637317,38.95593602453613],[-95.25762523834838,38.95593583242763],[-95.25762480325055,38.95593565270649],[-95.25762436077956,38.955935484526854],[-95.25762391090049,38.95593532878905],[-95.2576234548014,38.95593518462009],[-95.25762299241246,38.955935053820646],[-95.25762252376863,38.95593493549037],[-95.25762205117618,38.95593482968383],[-95.25762157344704,38.95593473727412],[-95.25762109176931,38.95593465738812],[-95.25762060722629,38.955934591853904],[-95.2576201199228,38.95593453797029],[-95.25761963090726,38.955934498465766],[-95.25761914021444,38.95593447243988],[-95.25761864787947,38.95593445899224],[-95.25761815617363,38.95593445907786],[-95.25761766394382,38.95593447266942],[-95.25761717349634,38.955934499821446],[-95.25761668483118,38.95593454053395],[-95.25761619679521,38.9559345947797],[-95.25761571288288,38.95593466174009],[-95.25761523194099,38.95593474138783],[-95.25761475393456,38.95593483462338],[-95.25761428117009,38.95593494150124],[-95.25761381371727,38.95593506022062],[-95.25761335154132,38.95593519168196],[-95.25761289464214,38.95593533588519],[-95.25761244532603,38.95593549288489],[-95.25761200362804,38.955935661780714],[-95.25761156958306,38.95593584167217],[-95.25761114427445,38.95593603438741],[-95.25761072661881,38.95593623809836],[-95.25761031888757,38.955936453759904],[-95.25760992115062,38.955936679571266],[-95.257609533373,38.955936916432904],[-95.25760915674287,38.95593716347167],[-95.25760879126021,38.95593742068748],[-95.25760843807818,38.95593768810777],[-95.25760809607854,38.95593796480476],[-95.25760776760251,38.95593824993261],[-95.2576074514621,38.95593854436449],[-95.25760714884541,38.955938847227216],[-95.25760685975234,38.95593915852082],[-95.25760658537104,38.95593947737219],[-95.25760632454833,38.95593980375398],[-95.25760607966049,38.95594013592013],[-95.25760584833122,38.9559404756167],[-95.2576056329368,38.95594082109748],[-95.25760543347715,38.95594117236255],[-95.2576052499873,38.955941528511474],[-95.25760508246718,38.955941889544206],[-95.25760492976369,38.95594225543351],[-95.2576047954061,38.95594262446043],[-95.25760467705322,38.95594299747082],[-95.25760457474,38.95594337356425],[-95.25760448965445,38.95594375186759],[-95.25760442179666,38.95594413238088],[-95.25760437004838,38.95594451417646],[-95.2576043367159,38.955944897308775],[-95.25760431949291,38.95594528172342],[-95.25760432075568,38.95594566567409],[-95.25760433819775,38.95594604910623],[-95.25760437293744,38.955946432947485],[-95.25760442507949,38.95594681449668],[-95.25760449340096,38.95594719552738],[-95.25760457915973,38.95594757336561],[-95.25760468232093,38.9559479489118],[-95.25760480173129,38.95594832213864],[-95.25760493746078,38.95594869124543],[-95.25760508950943,38.95594905623204],[-95.25760525903024,38.95594941712587],[-95.25760544375198,38.95594977297185],[-95.25760564367452,38.95595012377007],[-95.25760585995116,38.955950469547744],[-95.25760609149845,38.95595080847688],[-95.25760633716335,38.95595114053016],[-95.25760659921717,38.95595146666251],[-95.25760687427032,38.95595178499135],[-95.25760716347594,38.95595209554393],[-95.25760746683406,38.95595239832023],[-95.2576077832264,38.9559526923926],[-95.25760811384113,38.95595297688794],[-95.25760845514877,38.95595325352523],[-95.25760880956057,38.95595351965776],[-95.25760917585337,38.955953777059115],[-95.25760955294402,38.95595402390117],[-95.25760994083238,38.95595426018398],[-95.25761033955347,38.95595448500711],[-95.25761074673103,38.95595470011682],[-95.2576111647762,38.95595490286645],[-95.25761159131282,38.95595509500226],[-95.25761202525756,38.95595527469618],[-95.2576124677286,38.95595544287586],[-95.25761291757286,38.955955599514084],[-95.257613373707,38.95595574278272],[-95.25761383609604,38.95595587358219],[-95.25761439126333,38.95595602279812],[-95.25761412163813,38.955956635560554],[-95.25756433348131,38.955943287803066],[-95.25752542885967,38.95588114482005],[-95.25752571673416,38.95588122192469],[-95.25752714467387,38.955877975250864],[-95.25752309503717,38.95587688991936],[-95.2574842720503,38.95581487592379],[-95.25748561137335,38.95581183083056],[-95.2574814532029,38.95581071679475],[-95.25742191897452,38.955946075377966],[-95.25737591090058,38.955933740708076],[-95.25736334908588,38.95596230611115]]]},"properties":{"SDE.FloorAll.FLOORLOCATION":"2"}},{"type":"Feature","geometry":{"type":"Polygon","coordinates":[[[-95.25736336292367,38.955962276698116],[-95.2573795282836,38.95596661095177],[-95.2574093801346,38.95597461429234],[-95.25739321546828,38.95601137310422],[-95.25765014154933,38.9560802529599],[-95.25773839020702,38.95587956608812],[-95.25748146704068,38.955810687381735],[-95.25742193850832,38.95594604790213],[-95.25739209009251,38.955938045546965],[-95.25737592358522,38.95593371126783],[-95.25736336292367,38.955962276698116]]]},"properties":{"SDE.FloorAll.FLOORLOCATION":"ROOF"}}]}
