{"type":"FeatureCollection","features":[{"type":"Feature","geometry":{"type":"Polygon","coordinates":[[[-95.25982211938312,38.95476443937462],[-95.25982774217952,38.95475370443041],[-95.25984337175088,38.95475869619015],[-95.25984335061146,38.954758735344285],[-95.25986243812204,38.95476483081237],[-95.25986723078204,38.954755680421975],[-95.25987150117645,38.95474752705672],[-95.25987884281999,38.95473351082938],[-95.25987912074127,38.95473298117065],[-95.25987906940777,38.9547329655379],[-95.25989203886283,38.95470820366695],[-95.25988558251382,38.95470614138992],[-95.25989913533687,38.95468026497564],[-95.259899406681,38.95468035159727],[-95.25991005635156,38.95466002118208],[-95.25990978500757,38.95465993456051],[-95.25991777230885,38.95464468539787],[-95.2599067954412,38.95464118067512],[-95.25990690637882,38.95464096880613],[-95.25988954728686,38.95463542518653],[-95.25988943634913,38.954635637055446],[-95.25987641760845,38.954631479352614],[-95.25987652854619,38.9546312674837],[-95.2598504910346,38.954622952974105],[-95.25985038009684,38.954623164843],[-95.25983736136074,38.95461900713579],[-95.25983747229859,38.95461879526691],[-95.25982011318256,38.954613252537264],[-95.25982000227962,38.954613463505744],[-95.25980155894469,38.95460757431341],[-95.25980166988256,38.95460736244455],[-95.2597843108071,38.954601818809145],[-95.25978419986913,38.95460203067797],[-95.2597321249303,38.954585400711004],[-95.25973223586834,38.9545851888422],[-95.25971487676887,38.95457964609684],[-95.25971476583071,38.95457985796557],[-95.25969633051557,38.954573970748065],[-95.25969644145376,38.95457375887929],[-95.25967908239475,38.95456821522814],[-95.25967897145651,38.95456842709688],[-95.25966608839485,38.95456431313169],[-95.25966619933307,38.954564101262946],[-95.25964016190592,38.95455578580568],[-95.25964005096758,38.95455599767437],[-95.25962689656717,38.954551797082615],[-95.25962700750553,38.95455158521394],[-95.25960964845741,38.95454604155234],[-95.25960953751898,38.95454625342106],[-95.25959880808816,38.954542827515795],[-95.25959224046238,38.95455536599296],[-95.25945458003831,38.954511404819215],[-95.2594635024638,38.954479302407066],[-95.25946707578511,38.95446644442171],[-95.25946899987876,38.954466771083695],[-95.25947347448556,38.95445067197847],[-95.2594715503923,38.95445034531652],[-95.25947573136997,38.954435300008875],[-95.25947679206358,38.954435479189954],[-95.2594855038922,38.95440413423227],[-95.25948579057356,38.95440418246489],[-95.25949175671681,38.95438271669005],[-95.25949147003551,38.95438266845747],[-95.25949519606506,38.95436926523673],[-95.25949548159318,38.954369313442065],[-95.25950144773054,38.95434784766673],[-95.2595011622025,38.95434779946142],[-95.25951234481764,38.95430756196725],[-95.25951263149864,38.95430761019974],[-95.25951859762559,38.95428614442342],[-95.25951831094467,38.95428609619089],[-95.25952303233679,38.95426910890507],[-95.25952331901765,38.95426915713757],[-95.25952928513811,38.9542476913606],[-95.25952914179767,38.954247667244346],[-95.25952899845733,38.9542476431281],[-95.25953372263929,38.95423064329075],[-95.25953400931999,38.95423069152322],[-95.25953997543395,38.95420922574563],[-95.25953968875332,38.954209177513135],[-95.2595444101701,38.95419218932595],[-95.25954469681575,38.95419223845881],[-95.25955066292322,38.95417077268057],[-95.25955037627764,38.954170723547755],[-95.25956106766861,38.954132258858266],[-95.25956135319583,38.95413230706344],[-95.25956533019844,38.95411799683507],[-95.25956504470619,38.95411794772952],[-95.2595677769817,38.954108115992426],[-95.25955325675325,38.95410565490887],[-95.25955344318619,38.95410498430025],[-95.25955592980897,38.95409604076919],[-95.25955723490914,38.954091344708026],[-95.25957175401655,38.95409380486342],[-95.25957647933114,38.95407680505131],[-95.25957676597633,38.95407685418411],[-95.25958273091118,38.95405538837679],[-95.25958244541921,38.95405533927128],[-95.25958915471767,38.95403119640404],[-95.25958944136268,38.95403124553678],[-95.25959341838883,38.95401693440695],[-95.25959313286207,38.95401688620185],[-95.25959686168305,38.954003469526036],[-95.25958234147508,38.954001008446106],[-95.25959002038404,38.953973380039756],[-95.259581536216,38.95397194212477],[-95.25956664560977,38.953969419115644],[-95.2595324313842,38.953963622131894],[-95.25953286319141,38.95396207052073],[-95.25951218423971,38.95395856623965],[-95.25950894500137,38.95397022088055],[-95.25951071658658,38.95397052140674],[-95.25950948125818,38.953974965873265],[-95.25947448960311,38.95396903694209],[-95.25947455252793,38.95396881312397],[-95.25944706123286,38.95396415465692],[-95.25944699830795,38.953964378475035],[-95.25942638012722,38.9539608846273],[-95.25942389590384,38.95396982550903],[-95.25942360922427,38.95396977727626],[-95.25941963220131,38.953984087499926],[-95.25941991769291,38.953984136605825],[-95.2594169346451,38.95399486904154],[-95.25941664911856,38.953994820836094],[-95.2594106829853,38.95401628660769],[-95.25941096966508,38.954016334840475],[-95.25940795457544,38.954027179171376],[-95.25940766904876,38.95402713096584],[-95.25940369086622,38.95404144116164],[-95.25940397751117,38.95404149029484],[-95.25939974972326,38.954056701219756],[-95.25939946419645,38.95405665301421],[-95.2593954860106,38.954070963209666],[-95.25939577269058,38.95407101144252],[-95.25939282048657,38.9540816328553],[-95.25939253499465,38.954081583749364],[-95.25938656884671,38.95410304951955],[-95.25938685433876,38.95410309862551],[-95.25938384039485,38.954113942983],[-95.25938355486791,38.95411389477742],[-95.25937957667556,38.95412820497226],[-95.25937986335575,38.95412825320516],[-95.2593756703568,38.954143340583016],[-95.25937538371146,38.954143291449746],[-95.25937140663409,38.95415760257197],[-95.25937169331439,38.95415765080487],[-95.25936871021705,38.954168384139585],[-95.25936842357164,38.95416833500627],[-95.25936245740907,38.95418980077514],[-95.25936274405458,38.95418984990843],[-95.25935976098943,38.95420058234255],[-95.25935947430897,38.95420053410964],[-95.25935549726005,38.95421484433086],[-95.25935578394056,38.95421489256378],[-95.25935329714872,38.95422383969203],[-95.25939575142192,38.95423103373616],[-95.25938845065951,38.95425730121266],[-95.25936188779062,38.95425280706751],[-95.2593589072733,38.954263533253304],[-95.25935862059262,38.95426348502037],[-95.25935265441905,38.95428495078855],[-95.25935294109985,38.95428499902144],[-95.25934821826823,38.954301992575864],[-95.25934793158737,38.954301944342944],[-95.25934196540733,38.954323410110476],[-95.25934225208829,38.95432345834343],[-95.25933752925154,38.95434045189733],[-95.25933724257052,38.95434040366437],[-95.25933127638399,38.9543618694313],[-95.2593315630651,38.95436191766431],[-95.25932683907008,38.954378911190474],[-95.25932655354205,38.95437886298472],[-95.25932058734904,38.95440032875102],[-95.2593208740303,38.95440037698407],[-95.25931615003014,38.954417370509724],[-95.25931586450194,38.954417322303954],[-95.25930989830245,38.95443878806968],[-95.25931018498385,38.95443883630269],[-95.25930546094365,38.95445583072829],[-95.25930517545021,38.954455781622094],[-95.25929920924423,38.954477247387125],[-95.25929949473768,38.95447729649337],[-95.25929576447274,38.95449071853425],[-95.25930091876641,38.95449159199549],[-95.2592997544824,38.95449578129126],[-95.25929888643529,38.954495634600455],[-95.25929441178589,38.95451173369885],[-95.25929527979828,38.95451188129013],[-95.25929152940559,38.95452537585406],[-95.25929331934942,38.954525679520906],[-95.25928492935239,38.95455586589262],[-95.25928313940777,38.95455556222564],[-95.25927979277044,38.95456760365021],[-95.25928143940932,38.95456788230025],[-95.2592757025641,38.954588522559455],[-95.25928337194317,38.95459097223238],[-95.25928391462917,38.95459114547849],[-95.25929422335686,38.95459443709939],[-95.25929399403546,38.95459487417851],[-95.25931386127309,38.9546012188839],[-95.25931569228837,38.95460180290007],[-95.25931605997815,38.95460110142881],[-95.25934620285967,38.9546107279522],[-95.25934616173353,38.95461080628757],[-95.25934943948185,38.954611853483485],[-95.25934948176116,38.954611775175366],[-95.25937386721357,38.954619562284826],[-95.25937382608743,38.95461964062023],[-95.25937710498971,38.95462068784258],[-95.25937714611585,38.95462060950719],[-95.25940204459309,38.95462856104408],[-95.25940167690406,38.95462926251565],[-95.25950798953134,38.95466321191061],[-95.25951863815871,38.95464288150408],[-95.25951843523639,38.95464281632572],[-95.25951899618495,38.95464174451357],[-95.2595408130408,38.954648711143186],[-95.25952919339841,38.95467089584529],[-95.25954451741109,38.95467578940041],[-95.25954440647227,38.95467600126901],[-95.2595704439674,38.95468431584727],[-95.25957055490615,38.95468410397863],[-95.2595911689568,38.95469068708677],[-95.25959105801815,38.95469089895543],[-95.25961709552426,38.95469921352319],[-95.25961720646283,38.95469900165453],[-95.25963782052223,38.95470558475437],[-95.25963770958364,38.95470579662302],[-95.2596637471007,38.95471411118033],[-95.25966385803923,38.95471389931163],[-95.25968447095411,38.95472048237589],[-95.25968436001564,38.954720694244614],[-95.25971039869685,38.95472900881872],[-95.25971050963524,38.95472879694997],[-95.2597311225588,38.95473538000593],[-95.2597310116205,38.954735591874716],[-95.25975704915946,38.954743906411046],[-95.25975716009776,38.95474369454226],[-95.2597777741832,38.95475027761716],[-95.25977766324499,38.95475048948599],[-95.25980370079498,38.954758804011846],[-95.25980381169823,38.95475859304339],[-95.25982211938312,38.95476443937462]]]},"properties":{"SDE.FloorAll.FLOORLOCATION":"1"}},{"type":"Feature","geometry":{"type":"Polygon","coordinates":[[[-95.25984333642197,38.95475868454051],[-95.25984264965439,38.95475999490797],[-95.25986339944212,38.95476662082832],[-95.25988074765367,38.954733500873346],[-95.25987906940777,38.9547329655379],[-95.25989203886283,38.95470820366695],[-95.25988558136065,38.95470614136266],[-95.25989913533687,38.95468026497564],[-95.259899406681,38.95468035159727],[-95.25991005519842,38.954660021154815],[-95.25990978500757,38.95465993456051],[-95.25991777112081,38.954644686271],[-95.25990679673394,38.95464117710076],[-95.25990690637882,38.95464096880613],[-95.25988954728686,38.95463542518653],[-95.25988943634913,38.954635637055446],[-95.25987641757354,38.95463148025305],[-95.25987652851127,38.95463126838409],[-95.2598504910346,38.954622952974105],[-95.25985038009684,38.954623164843],[-95.25980155894469,38.95460757431341],[-95.25980166988256,38.95460736244455],[-95.2597843108071,38.954601818809145],[-95.25978419986913,38.95460203067797],[-95.25977118110598,38.95459787386374],[-95.25977129204391,38.95459766199488],[-95.25974525459203,38.95458934656126],[-95.25974514365397,38.95458955843006],[-95.25973212377711,38.95458540068375],[-95.25973223471523,38.95458518881497],[-95.25971487676887,38.95457964609684],[-95.25971476583071,38.95457985796557],[-95.25966595274062,38.954564269370394],[-95.25966606367888,38.954564057501685],[-95.2596400262168,38.954555742944784],[-95.25963991527846,38.95455595481346],[-95.25962689541403,38.95455179705536],[-95.25962700635233,38.954551585186685],[-95.25960964845741,38.95454604155234],[-95.25960953751898,38.95454625342106],[-95.25959880808816,38.954542827515795],[-95.25959223930924,38.95455536596569],[-95.25945458003831,38.954511404819215],[-95.25945679056419,38.95450345061404],[-95.25945592021039,38.954503303869906],[-95.25945915151567,38.95449167607941],[-95.25946002183443,38.95449182372391],[-95.2594670757502,38.95446644532209],[-95.25946899872562,38.954466771056424],[-95.25947347333245,38.954450671951214],[-95.2594715503923,38.95445034531652],[-95.25947574971559,38.95443530314622],[-95.259476787451,38.95443547908094],[-95.25948550046765,38.954404133250094],[-95.25948578596096,38.95440418235587],[-95.25949175210417,38.95438271658102],[-95.25949146661097,38.95438266747529],[-95.25949519148739,38.95436926422731],[-95.25949547816865,38.95436931245989],[-95.259501444306,38.954347846684534],[-95.25950115762483,38.95434779845198],[-95.2595123413931,38.954307560985036],[-95.25951262688608,38.954307610090716],[-95.25951859301303,38.95428614431439],[-95.259518306367,38.95428609518146],[-95.25952302775913,38.95426910789565],[-95.25952331443999,38.954269156128134],[-95.25952928056039,38.95424769035118],[-95.2595289938796,38.95424764211866],[-95.25953371921482,38.95423064230859],[-95.25953400470743,38.95423069141418],[-95.2595399708214,38.95420922563662],[-95.2595396853288,38.954209176530995],[-95.25954440671063,38.95419218924418],[-95.2595446922381,38.954192237449384],[-95.25955065834556,38.95417077167118],[-95.25955037166509,38.95417072343872],[-95.25955509698994,38.954153723627655],[-95.25955538367037,38.954153771860085],[-95.25956134861813,38.95413230605399],[-95.25956106309097,38.95413225784882],[-95.2595657844626,38.95411527056103],[-95.25956606998969,38.9541153187662],[-95.25957203608417,38.954093852986794],[-95.25957175055711,38.95409380478162],[-95.25957647471857,38.954076804942275],[-95.2595767613987,38.95407685317469],[-95.25958272748665,38.95405538739463],[-95.2595824408066,38.95405533916226],[-95.25958716220288,38.95403835097308],[-95.25958744884794,38.95403840010587],[-95.25959341377627,38.954016934297925],[-95.25959312828442,38.95401688519245],[-95.2595968571054,38.9540034685166],[-95.25958234144017,38.95400100934649],[-95.25959001923093,38.9539733800125],[-95.2595815361811,38.95397194302521],[-95.25958196683412,38.95397039138656],[-95.25956707622824,38.95396786837751],[-95.25956664445665,38.95396941908838],[-95.2595324313842,38.953963622131894],[-95.25953286203824,38.95396207049346],[-95.25951218308658,38.9539585662124],[-95.25950894384825,38.9539702208533],[-95.2595106627031,38.95397051202205],[-95.25950948010504,38.95397496584603],[-95.25947448960311,38.95396903694209],[-95.25947455137477,38.95396881309669],[-95.25944706004483,38.95396415553007],[-95.25944699830795,38.953964378475035],[-95.25942638012722,38.9539608846273],[-95.25942386386478,38.9539699374044],[-95.25942357718522,38.95396988917172],[-95.25941960016223,38.95398419939534],[-95.25941988680695,38.953984248528485],[-95.25941690375916,38.95399498096428],[-95.25941661707947,38.95399493273148],[-95.2594106509462,38.95401639850312],[-95.25941093762596,38.95401644673591],[-95.25939974972326,38.954056701219756],[-95.25939946304332,38.95405665298695],[-95.2593954860106,38.954070963209666],[-95.25939577269058,38.95407101144252],[-95.25939278960054,38.954081744777966],[-95.25939250295541,38.954081695644724],[-95.25938653680753,38.95410316141496],[-95.25938682345272,38.95410321054822],[-95.25938384039485,38.954113942983],[-95.25938355371471,38.95411389475017],[-95.25937957667556,38.95412820497226],[-95.25937986335575,38.95412825320516],[-95.25936881489447,38.95416800629827],[-95.25936852824904,38.954167957165005],[-95.25936256208651,38.954189422933865],[-95.25936284873204,38.95418947206715],[-95.2593597301033,38.95420069426517],[-95.25935944342281,38.954200646032305],[-95.25935546637388,38.95421495625348],[-95.2593557519013,38.95421500445916],[-95.25935329714872,38.95422383969203],[-95.2593957502688,38.95423103370891],[-95.25938844807398,38.954257308361335],[-95.25936188779062,38.95425280706751],[-95.25935890612017,38.95426353322605],[-95.25935862059262,38.95426348502037],[-95.25935265441905,38.95428495078855],[-95.2593529399467,38.95428499899422],[-95.2593482171151,38.954301992548594],[-95.25934793158737,38.954301944342944],[-95.25934196540733,38.954323410110476],[-95.25934225093515,38.954323458316175],[-95.25933752809841,38.954340451870074],[-95.2593372414174,38.95434040363709],[-95.25933127638399,38.9543618694313],[-95.25933156191192,38.95436191763702],[-95.25932683903518,38.95437891209083],[-95.25932655238893,38.95437886295745],[-95.25932058619586,38.95440032872378],[-95.2593208728771,38.954400376956805],[-95.25931614999521,38.95441737141012],[-95.25931586334882,38.9544173222767],[-95.25930989714927,38.95443878804241],[-95.25931018379575,38.954438837175836],[-95.25930546496167,38.9544558164037],[-95.2593051782802,38.95445576817064],[-95.25929921207417,38.95447723393574],[-95.25929949875572,38.954477282168796],[-95.25929576447274,38.95449071853425],[-95.25930197484783,38.95449177106906],[-95.25930081056387,38.95449596036483],[-95.25929888643529,38.954495634600455],[-95.25929441178589,38.95451173369885],[-95.25929633587998,38.954512060363754],[-95.25929473128211,38.954517633441455],[-95.2592812739448,38.954515352461556],[-95.25926023240426,38.95459106059542],[-95.25929484672066,38.954602114926445],[-95.25929490161377,38.95460200897861],[-95.25929886800967,38.9546032752298],[-95.25930193933661,38.954597411482666],[-95.25950798834324,38.954663212783764],[-95.25951872048053,38.954642723032414],[-95.25954033437937,38.954649625384164],[-95.25952919469123,38.95467089227097],[-95.25954452212841,38.95467578680823],[-95.25954440647227,38.95467600126901],[-95.2595704439674,38.95468431584727],[-95.25957055490615,38.95468410397863],[-95.25959116780366,38.954690687059504],[-95.25959105686495,38.954690898928156],[-95.25961709552426,38.95469921352319],[-95.25961720646283,38.95469900165453],[-95.25963781936908,38.9547055847271],[-95.2596377084305,38.9547057965958],[-95.2596637471007,38.95471411118033],[-95.25966386153361,38.95471389849302],[-95.25968447095411,38.95472048237589],[-95.25968436001564,38.954720694244614],[-95.2597103975437,38.95472900879145],[-95.25971050844718,38.9547287978231],[-95.25973112601828,38.9547353800877],[-95.2597310116205,38.954735591874716],[-95.25975704912456,38.95474390731145],[-95.25975716006285,38.95474369544263],[-95.25977777303002,38.9547502775899],[-95.25977766209184,38.95475048945872],[-95.25980370076007,38.954758804912274],[-95.25980381169823,38.95475859304339],[-95.25982211938312,38.95476443937462],[-95.25982774214462,38.95475370533082],[-95.25984333642197,38.95475868454051]]]},"properties":{"SDE.FloorAll.FLOORLOCATION":"2"}},{"type":"Feature","geometry":{"type":"Polygon","coordinates":[[[-95.25984334099968,38.95475868554989],[-95.25984265423207,38.95475999591741],[-95.25986340401984,38.95476662183776],[-95.25988075223141,38.954733501882785],[-95.25987907398547,38.95473296654734],[-95.25989204344054,38.954708204676386],[-95.25988558593839,38.95470614237207],[-95.25989913991464,38.95468026598508],[-95.25989941125869,38.95468035260668],[-95.2599100597761,38.954660022164255],[-95.25990978958525,38.954659935569914],[-95.2599177756985,38.954644687280464],[-95.25990680131166,38.954641178110194],[-95.2599069109565,38.95464096981557],[-95.25988955186453,38.95463542619592],[-95.25988944092684,38.95463563806484],[-95.2598764221513,38.95463148126244],[-95.25987653308897,38.954631269393516],[-95.25985049561234,38.95462295398353],[-95.25985038467454,38.954623165852404],[-95.25980156352239,38.95460757532282],[-95.25980167446032,38.95460736345397],[-95.2597843153848,38.95460181981855],[-95.25978420444686,38.95460203168736],[-95.25977118568368,38.95459787487313],[-95.25977129662165,38.95459766300428],[-95.25974525916972,38.954589347570646],[-95.25974514823166,38.95458955943943],[-95.2597321283548,38.95458540169318],[-95.2597322392929,38.95458518982438],[-95.25971488134657,38.95457964710623],[-95.25971477040841,38.95457985897501],[-95.2596659573183,38.954564270379784],[-95.25966606825658,38.95456405851109],[-95.25964003079447,38.95455574395418],[-95.25963991985616,38.95455595582286],[-95.25962689999172,38.95455179806479],[-95.25962701093003,38.95455158619609],[-95.25960965303508,38.95454604256181],[-95.25960954209667,38.95454625443046],[-95.25959881266584,38.95454282852525],[-95.25959224388694,38.95455536697511],[-95.259454584616,38.95451140582866],[-95.25945679514186,38.95450345162347],[-95.25945592478806,38.95450330487933],[-95.25945915609337,38.954491677088825],[-95.25946002641217,38.95449182473333],[-95.25946708032787,38.954466446331516],[-95.25946900330331,38.9544667720659],[-95.25947347791009,38.95445067296061],[-95.25947155496999,38.95445034632595],[-95.25947575429332,38.954435304155695],[-95.25947679202868,38.95443548009035],[-95.25948550504532,38.954404134259526],[-95.25948579053866,38.95440418336527],[-95.2594917566819,38.954382717590434],[-95.25949147118864,38.95438266848472],[-95.25949519606506,38.95436926523673],[-95.25949548274632,38.95436931346932],[-95.25950144888367,38.95434784769399],[-95.2595011622025,38.95434779946142],[-95.25951234597083,38.9543075619945],[-95.25951263146375,38.95430761110019],[-95.25951859759068,38.954286145323785],[-95.25951831094467,38.95428609619089],[-95.25952303233679,38.95426910890507],[-95.25952331901765,38.95426915713757],[-95.25952928513811,38.9542476913606],[-95.25952899845733,38.9542476431281],[-95.25953372379247,38.954230643318006],[-95.2595340092851,38.954230692423614],[-95.25953997539905,38.954209226646],[-95.25953968990646,38.954209177540406],[-95.25954441128837,38.9541921902536],[-95.25954469681575,38.95419223845881],[-95.25955066292322,38.95417077268057],[-95.25955037624274,38.95417072444817],[-95.2595551015676,38.95415372463707],[-95.25955538824803,38.95415377286949],[-95.25956135319583,38.95413230706344],[-95.25956106766861,38.954132258858266],[-95.25956578904027,38.9541152715705],[-95.25956607456735,38.95411531977563],[-95.25957204066182,38.9540938539962],[-95.25957175513477,38.95409380579104],[-95.25957647929623,38.95407680595174],[-95.25957676597633,38.95407685418411],[-95.25958273206435,38.954055388404065],[-95.25958244538431,38.95405534017167],[-95.25958716678053,38.954038351982526],[-95.2595874534256,38.95403840111528],[-95.25959341835393,38.95401693530733],[-95.25959313286207,38.95401688620185],[-95.25959686168305,38.954003469526036],[-95.25958234601781,38.95400101035593],[-95.25959002380858,38.95397338102189],[-95.25958154075876,38.95397194403461],[-95.25958197141175,38.95397039239597],[-95.25956708080588,38.95396786938691],[-95.2595666490343,38.95396942009777],[-95.25953243596186,38.95396362314131],[-95.25953286661593,38.95396207150292],[-95.25951218766423,38.95395856722182],[-95.2595089484259,38.95397022186272],[-95.25951066728075,38.9539705130315],[-95.2595094846827,38.95397496685543],[-95.25947449418075,38.9539690379515],[-95.25947455595248,38.95396881410613],[-95.25944706462249,38.953964156539485],[-95.2594470028856,38.95396437948443],[-95.25942638470487,38.95396088563671],[-95.25942386844243,38.9539699384139],[-95.25942358176285,38.9539698901811],[-95.25941960473989,38.95398420040475],[-95.25941989138461,38.95398424953794],[-95.2594169083368,38.953994981973686],[-95.25941662165712,38.95399493374091],[-95.25941065552385,38.954016399512525],[-95.25941094220362,38.95401644774533],[-95.2593997543009,38.9540567022292],[-95.25939946762098,38.95405665399639],[-95.25939549058825,38.95407096421914],[-95.25939577726822,38.954071012451934],[-95.25939279417824,38.95408174578739],[-95.25939250753315,38.95408169665414],[-95.25938654138518,38.954103162424396],[-95.25938682803036,38.95410321155763],[-95.2593838449725,38.95411394399244],[-95.25938355829237,38.95411389575958],[-95.25937958125326,38.954128205981725],[-95.25937986793345,38.95412825421454],[-95.25936881947216,38.95416800730769],[-95.2593685328267,38.954167958174416],[-95.25936256666422,38.954189423943255],[-95.25936285330975,38.95418947307656],[-95.259359734681,38.95420069527465],[-95.25935944800052,38.95420064704173],[-95.2593554709516,38.95421495726295],[-95.25935575647895,38.954215005468576],[-95.25935330172638,38.95422384070147],[-95.25939575484645,38.95423103471829],[-95.25938845265163,38.95425730937077],[-95.25936189236828,38.95425280807695],[-95.25935891069784,38.95426353423548],[-95.2593586251703,38.95426348602978],[-95.2593526589967,38.95428495179799],[-95.2593529445244,38.95428500000367],[-95.25934822169278,38.95430199355806],[-95.25934793616507,38.95430194535234],[-95.259341969985,38.95432341111992],[-95.25934225551283,38.954323459325586],[-95.25933753267608,38.954340452879535],[-95.25933724599506,38.954340404646565],[-95.25933128096167,38.95436187044072],[-95.25933156648964,38.95436191864645],[-95.25932684361285,38.95437891310032],[-95.25932655696658,38.954378863966916],[-95.25932059077357,38.95440032973319],[-95.25932087745483,38.95440037796624],[-95.2593161545729,38.95441737241951],[-95.25931586792649,38.95441732328612],[-95.259309901727,38.95443878905184],[-95.25931018837348,38.95443883818525],[-95.25930546953936,38.95445581741312],[-95.25930518285787,38.95445576918012],[-95.25929921665184,38.95447723494515],[-95.2592995033334,38.954477283178214],[-95.25929576905041,38.954490719543685],[-95.25930197942552,38.9544917720785],[-95.25930081514154,38.95449596137425],[-95.25929889101296,38.95449563560988],[-95.25929441636357,38.954511734708326],[-95.25929634045767,38.95451206137315],[-95.25929473585978,38.95451763445093],[-95.25928127852247,38.95451535347102],[-95.25926023698194,38.95459106160483],[-95.25929485129835,38.95460211593587],[-95.25929490619149,38.95460200998802],[-95.25929887258735,38.954603276239226],[-95.2593019439143,38.95459741249213],[-95.25950799292094,38.9546632137932],[-95.25951872505821,38.95464272404182],[-95.25954033895705,38.9546496263936],[-95.25952919926891,38.95467089328043],[-95.25954452670611,38.954675787817635],[-95.25954441105002,38.9546760022784],[-95.25957044854509,38.95468431685672],[-95.25957055948383,38.95468410498807],[-95.25959117238136,38.954690688068936],[-95.2595910614427,38.95469089993756],[-95.25961710010196,38.954699214532646],[-95.25961721104053,38.95469900266395],[-95.25963782394678,38.954705585736505],[-95.25963771300819,38.95470579760517],[-95.25966375167843,38.95471411218979],[-95.25966386611131,38.954713899502444],[-95.25968447553183,38.95472048338531],[-95.25968436459341,38.95472069525403],[-95.2597104021214,38.95472900980093],[-95.25971051302488,38.95472879883254],[-95.25973113059598,38.9547353810971],[-95.25973101619823,38.954735592884084],[-95.25975705370234,38.95474390832087],[-95.25975716464056,38.95474369645208],[-95.25977777760777,38.95475027859932],[-95.25977766666954,38.95475049046811],[-95.25980370533777,38.95475880592167],[-95.25980381627592,38.954758594052834],[-95.25982212396083,38.954764440384004],[-95.25982774672232,38.9547537063402],[-95.25984334099968,38.95475868554989]]]},"properties":{"SDE.FloorAll.FLOORLOCATION":"3"}},{"type":"Feature","geometry":{"type":"Polygon","coordinates":[[[-95.25984333642197,38.95475868454051],[-95.25984264965439,38.95475999490797],[-95.25986339944212,38.95476662082832],[-95.25988074765367,38.954733500873346],[-95.25987906940777,38.9547329655379],[-95.25989203886283,38.95470820366695],[-95.25988558136065,38.95470614136266],[-95.25989913533687,38.95468026497564],[-95.259899406681,38.95468035159727],[-95.25991005519842,38.954660021154815],[-95.25990978500757,38.95465993456051],[-95.25991777112081,38.954644686271],[-95.25990679673394,38.95464117710076],[-95.25990690637882,38.95464096880613],[-95.25988954728686,38.95463542518653],[-95.25988943634913,38.954635637055446],[-95.25987641757354,38.95463148025305],[-95.25987652851127,38.95463126838409],[-95.2598504910346,38.954622952974105],[-95.25985038009684,38.954623164843],[-95.25980155894469,38.95460757431341],[-95.25980166988256,38.95460736244455],[-95.2597843108071,38.954601818809145],[-95.25978419986913,38.95460203067797],[-95.25977118110598,38.95459787386374],[-95.25977129204391,38.95459766199488],[-95.25974525459203,38.95458934656126],[-95.25974514365397,38.95458955843006],[-95.25973212377711,38.95458540068375],[-95.25973223471523,38.95458518881497],[-95.25971487676887,38.95457964609684],[-95.25971476583071,38.95457985796557],[-95.25966595274062,38.954564269370394],[-95.25966606367888,38.954564057501685],[-95.2596400262168,38.954555742944784],[-95.25963991527846,38.95455595481346],[-95.25962689541403,38.95455179705536],[-95.25962700635233,38.954551585186685],[-95.25960964845741,38.95454604155234],[-95.25960953751898,38.95454625342106],[-95.25959880808816,38.954542827515795],[-95.25959223930924,38.95455536596569],[-95.25945458003831,38.954511404819215],[-95.25945679056419,38.95450345061404],[-95.25945592021039,38.954503303869906],[-95.25945915151567,38.95449167607941],[-95.25946002183443,38.95449182372391],[-95.2594670757502,38.95446644532209],[-95.25946899872562,38.954466771056424],[-95.25947347333245,38.954450671951214],[-95.2594715503923,38.95445034531652],[-95.25947574971559,38.95443530314622],[-95.259476787451,38.95443547908094],[-95.25948550046765,38.954404133250094],[-95.25948578596096,38.95440418235587],[-95.25949175210417,38.95438271658102],[-95.25949146661097,38.95438266747529],[-95.25949519148739,38.95436926422731],[-95.25949547816865,38.95436931245989],[-95.259501444306,38.954347846684534],[-95.25950115762483,38.95434779845198],[-95.2595123413931,38.954307560985036],[-95.25951262688608,38.954307610090716],[-95.25951859301303,38.95428614431439],[-95.259518306367,38.95428609518146],[-95.25952302775913,38.95426910789565],[-95.25952331443999,38.954269156128134],[-95.25952928056039,38.95424769035118],[-95.2595289938796,38.95424764211866],[-95.25953371921482,38.95423064230859],[-95.25953400470743,38.95423069141418],[-95.2595399708214,38.95420922563662],[-95.2595396853288,38.954209176530995],[-95.25954440671063,38.95419218924418],[-95.2595446922381,38.954192237449384],[-95.25955065834556,38.95417077167118],[-95.25955037166509,38.95417072343872],[-95.25955509698994,38.954153723627655],[-95.25955538367037,38.954153771860085],[-95.25956134861813,38.95413230605399],[-95.25956106309097,38.95413225784882],[-95.2595657844626,38.95411527056103],[-95.25956606998969,38.9541153187662],[-95.25957203608417,38.954093852986794],[-95.25957175055711,38.95409380478162],[-95.25957647471857,38.954076804942275],[-95.2595767613987,38.95407685317469],[-95.25958272748665,38.95405538739463],[-95.2595824408066,38.95405533916226],[-95.25958716220288,38.95403835097308],[-95.25958744884794,38.95403840010587],[-95.25959341377627,38.954016934297925],[-95.25959312828442,38.95401688519245],[-95.2595968571054,38.9540034685166],[-95.25958234144017,38.95400100934649],[-95.25959001923093,38.9539733800125],[-95.2595815361811,38.95397194302521],[-95.25958196683412,38.95397039138656],[-95.25956707622824,38.95396786837751],[-95.25956664445665,38.95396941908838],[-95.2595324313842,38.953963622131894],[-95.25953286203824,38.95396207049346],[-95.25951218308658,38.9539585662124],[-95.25950894384825,38.9539702208533],[-95.2595106627031,38.95397051202205],[-95.25950948010504,38.95397496584603],[-95.25947448960311,38.95396903694209],[-95.25947455137477,38.95396881309669],[-95.25944706004483,38.95396415553007],[-95.25944699830795,38.953964378475035],[-95.25942638012722,38.9539608846273],[-95.25942386386478,38.9539699374044],[-95.25942357718522,38.95396988917172],[-95.25941960016223,38.95398419939534],[-95.25941988680695,38.953984248528485],[-95.25941690375916,38.95399498096428],[-95.25941661707947,38.95399493273148],[-95.2594106509462,38.95401639850312],[-95.25941093762596,38.95401644673591],[-95.25939974972326,38.954056701219756],[-95.25939946304332,38.95405665298695],[-95.2593954860106,38.954070963209666],[-95.25939577269058,38.95407101144252],[-95.25939278960054,38.954081744777966],[-95.25939250295541,38.954081695644724],[-95.25938653680753,38.95410316141496],[-95.25938682345272,38.95410321054822],[-95.25938384039485,38.954113942983],[-95.25938355371471,38.95411389475017],[-95.25937957667556,38.95412820497226],[-95.25937986335575,38.95412825320516],[-95.25936881489447,38.95416800629827],[-95.25936852824904,38.954167957165005],[-95.25936256208651,38.954189422933865],[-95.25936284873204,38.95418947206715],[-95.2593597301033,38.95420069426517],[-95.25935944342281,38.954200646032305],[-95.25935546637388,38.95421495625348],[-95.2593557519013,38.95421500445916],[-95.25935329714872,38.95422383969203],[-95.2593957502688,38.95423103370891],[-95.25938844807398,38.954257308361335],[-95.25936188779062,38.95425280706751],[-95.25935890612017,38.95426353322605],[-95.25935862059262,38.95426348502037],[-95.25935265441905,38.95428495078855],[-95.2593529399467,38.95428499899422],[-95.2593482171151,38.954301992548594],[-95.25934793158737,38.954301944342944],[-95.25934196540733,38.954323410110476],[-95.25934225093515,38.954323458316175],[-95.25933752809841,38.954340451870074],[-95.2593372414174,38.95434040363709],[-95.25933127638399,38.9543618694313],[-95.25933156191192,38.95436191763702],[-95.25932683903518,38.95437891209083],[-95.25932655238893,38.95437886295745],[-95.25932058619586,38.95440032872378],[-95.2593208728771,38.954400376956805],[-95.25931614999521,38.95441737141012],[-95.25931586334882,38.9544173222767],[-95.25930989714927,38.95443878804241],[-95.25931018379575,38.954438837175836],[-95.25930546496167,38.9544558164037],[-95.2593051782802,38.95445576817064],[-95.25929921207417,38.95447723393574],[-95.25929949875572,38.954477282168796],[-95.25929576447274,38.95449071853425],[-95.25930197484783,38.95449177106906],[-95.25930081056387,38.95449596036483],[-95.25929888643529,38.954495634600455],[-95.25929441178589,38.95451173369885],[-95.25929633587998,38.954512060363754],[-95.25929473128211,38.954517633441455],[-95.2592812739448,38.954515352461556],[-95.25926023240426,38.95459106059542],[-95.25929484672066,38.954602114926445],[-95.25929490161377,38.95460200897861],[-95.25929886800967,38.9546032752298],[-95.25930193933661,38.954597411482666],[-95.25950798834324,38.954663212783764],[-95.25951872048053,38.954642723032414],[-95.25954033437937,38.954649625384164],[-95.25952919469123,38.95467089227097],[-95.25954452212841,38.95467578680823],[-95.25954440647227,38.95467600126901],[-95.2595704439674,38.95468431584727],[-95.25957055490615,38.95468410397863],[-95.25959116780366,38.954690687059504],[-95.25959105686495,38.954690898928156],[-95.25961709552426,38.95469921352319],[-95.25961720646283,38.95469900165453],[-95.25963781936908,38.9547055847271],[-95.2596377084305,38.9547057965958],[-95.2596637471007,38.95471411118033],[-95.25966386153361,38.95471389849302],[-95.25968447095411,38.95472048237589],[-95.25968436001564,38.954720694244614],[-95.2597103975437,38.95472900879145],[-95.25971050844718,38.9547287978231],[-95.25973112601828,38.9547353800877],[-95.2597310116205,38.954735591874716],[-95.25975704912456,38.95474390731145],[-95.25975716006285,38.95474369544263],[-95.25977777303002,38.9547502775899],[-95.25977766209184,38.95475048945872],[-95.25980370076007,38.954758804912274],[-95.25980381169823,38.95475859304339],[-95.25982211938312,38.95476443937462],[-95.25982774214462,38.95475370533082],[-95.25984333642197,38.95475868454051]]]},"properties":{"SDE.FloorAll.FLOORLOCATION":"4"}},{"type":"Feature","geometry":{"type":"Polygon","coordinates":[[[-95.25984334099968,38.95475868554989],[-95.25984265423207,38.95475999591741],[-95.25986340401984,38.95476662183776],[-95.25988075223141,38.954733501882785],[-95.25987907398547,38.95473296654734],[-95.25989204344054,38.954708204676386],[-95.25988558593839,38.95470614237207],[-95.25989913991464,38.95468026598508],[-95.25989941125869,38.95468035260668],[-95.2599100597761,38.954660022164255],[-95.25990978958525,38.954659935569914],[-95.2599177756985,38.954644687280464],[-95.25990680131166,38.954641178110194],[-95.2599069109565,38.95464096981557],[-95.25988955186453,38.95463542619592],[-95.25988944092684,38.95463563806484],[-95.2598764221513,38.95463148126244],[-95.25987653308897,38.954631269393516],[-95.25985049561234,38.95462295398353],[-95.25985045696753,38.9546230278716],[-95.25980156352239,38.95460757532282],[-95.25980167446032,38.95460736345397],[-95.2597843153848,38.95460181981855],[-95.25978420444686,38.95460203168736],[-95.25977118568368,38.95459787487313],[-95.25977129662165,38.95459766300428],[-95.25974525916972,38.954589347570646],[-95.25974514823166,38.95458955943943],[-95.2597321283548,38.95458540169318],[-95.2597322392929,38.95458518982438],[-95.25971488134657,38.95457964710623],[-95.25971477040841,38.95457985897501],[-95.2596659573183,38.954564270379784],[-95.25966606825658,38.95456405851109],[-95.25964003079447,38.95455574395418],[-95.25963991985616,38.95455595582286],[-95.25962689999172,38.95455179806479],[-95.25962701093003,38.95455158619609],[-95.25960965303508,38.95454604256181],[-95.25960954209667,38.95454625443046],[-95.25959881266584,38.95454282852525],[-95.25959224388694,38.95455536697511],[-95.259454584616,38.95451140582866],[-95.25945679514186,38.95450345162347],[-95.25945592478806,38.95450330487933],[-95.25945915609337,38.954491677088825],[-95.25946002641217,38.95449182473333],[-95.25946708032787,38.954466446331516],[-95.25946900330331,38.9544667720659],[-95.25947347791009,38.95445067296061],[-95.25947155496999,38.95445034632595],[-95.25947575429332,38.954435304155695],[-95.25947679202868,38.95443548009035],[-95.25948550504532,38.954404134259526],[-95.25948579053866,38.95440418336527],[-95.2594917566819,38.954382717590434],[-95.25949147118864,38.95438266848472],[-95.25949519606506,38.95436926523673],[-95.25949548274632,38.95436931346932],[-95.25950144888367,38.95434784769399],[-95.2595011622025,38.95434779946142],[-95.25951234597083,38.9543075619945],[-95.25951263146375,38.95430761110019],[-95.25951859759068,38.954286145323785],[-95.25951831094467,38.95428609619089],[-95.25952303233679,38.95426910890507],[-95.25952331901765,38.95426915713757],[-95.25952928513811,38.9542476913606],[-95.25952899845733,38.9542476431281],[-95.25953372379247,38.954230643318006],[-95.2595340092851,38.954230692423614],[-95.25953997539905,38.954209226646],[-95.25953968990646,38.954209177540406],[-95.25954441128837,38.9541921902536],[-95.25954469681575,38.95419223845881],[-95.25955066292322,38.95417077268057],[-95.25955037624274,38.95417072444817],[-95.2595551015676,38.95415372463707],[-95.25955538824803,38.95415377286949],[-95.25956135319583,38.95413230706344],[-95.25956106766861,38.954132258858266],[-95.25956578904027,38.9541152715705],[-95.25956607456735,38.95411531977563],[-95.25957204066182,38.9540938539962],[-95.25957175513477,38.95409380579104],[-95.25957647929623,38.95407680595174],[-95.25957676597633,38.95407685418411],[-95.25958273206435,38.954055388404065],[-95.25958244538431,38.95405534017167],[-95.25958716678053,38.954038351982526],[-95.2595874534256,38.95403840111528],[-95.25959341835393,38.95401693530733],[-95.25959313286207,38.95401688620185],[-95.25959686168305,38.954003469526036],[-95.25958234601781,38.95400101035593],[-95.25959002380858,38.95397338102189],[-95.25958154075876,38.95397194403461],[-95.25958197141175,38.95397039239597],[-95.25956708080588,38.95396786938691],[-95.2595666490343,38.95396942009777],[-95.25953243596186,38.95396362314131],[-95.25953286661593,38.95396207150292],[-95.25951218766423,38.95395856722182],[-95.2595089484259,38.95397022186272],[-95.25951072116423,38.953970522416164],[-95.2595094846827,38.95397496685543],[-95.25947449418075,38.9539690379515],[-95.25947455595248,38.95396881410613],[-95.25944706462249,38.953964156539485],[-95.2594470028856,38.95396437948443],[-95.25942638470487,38.95396088563671],[-95.25942386844243,38.9539699384139],[-95.25942358176285,38.9539698901811],[-95.25941960473989,38.95398420040475],[-95.25941989138461,38.95398424953794],[-95.2594169083368,38.953994981973686],[-95.25941662165712,38.95399493374091],[-95.25941065552385,38.954016399512525],[-95.25941094220362,38.95401644774533],[-95.2593997543009,38.9540567022292],[-95.25939946762098,38.95405665399639],[-95.25939549058825,38.95407096421914],[-95.25939577726822,38.954071012451934],[-95.25939279417824,38.95408174578739],[-95.25939250753315,38.95408169665414],[-95.25938654138518,38.954103162424396],[-95.25938682803036,38.95410321155763],[-95.2593838449725,38.95411394399244],[-95.25938355829237,38.95411389575958],[-95.25937958125326,38.954128205981725],[-95.25937986793345,38.95412825421454],[-95.25936881947216,38.95416800730769],[-95.2593685328267,38.954167958174416],[-95.25936256666422,38.954189423943255],[-95.25936285330975,38.95418947307656],[-95.259359734681,38.95420069527465],[-95.25935944800052,38.95420064704173],[-95.2593554709516,38.95421495726295],[-95.25935575647895,38.954215005468576],[-95.25935330172638,38.95422384070147],[-95.25939575484645,38.95423103471829],[-95.25938845265163,38.95425730937077],[-95.25936189236828,38.95425280807695],[-95.25935891069784,38.95426353423548],[-95.2593586251703,38.95426348602978],[-95.2593526589967,38.95428495179799],[-95.2593529445244,38.95428500000367],[-95.25934822169278,38.95430199355806],[-95.25934793616507,38.95430194535234],[-95.259341969985,38.95432341111992],[-95.25934225551283,38.954323459325586],[-95.25933753267608,38.954340452879535],[-95.25933724599506,38.954340404646565],[-95.25933128096167,38.95436187044072],[-95.25933156648964,38.95436191864645],[-95.25932684361285,38.95437891310032],[-95.25932655696658,38.954378863966916],[-95.25932059077357,38.95440032973319],[-95.25932087745483,38.95440037796624],[-95.2593161545729,38.95441737241951],[-95.25931586792649,38.95441732328612],[-95.259309901727,38.95443878905184],[-95.25931018837348,38.95443883818525],[-95.25930546953936,38.95445581741312],[-95.25930518285787,38.95445576918012],[-95.25929921665184,38.95447723494515],[-95.2592995033334,38.954477283178214],[-95.25929576905041,38.954490719543685],[-95.25930197942552,38.9544917720785],[-95.25930081514154,38.95449596137425],[-95.25929889101296,38.95449563560988],[-95.25929441636357,38.954511734708326],[-95.25929634045767,38.95451206137315],[-95.25929473585978,38.95451763445093],[-95.25928127852247,38.95451535347102],[-95.25926023698194,38.95459106160483],[-95.25929485129835,38.95460211593587],[-95.25929490245274,38.954602017109444],[-95.25929887258735,38.954603276239226],[-95.2593019439143,38.95459741249213],[-95.25950799292094,38.9546632137932],[-95.25951872505821,38.95464272404182],[-95.25954033895705,38.9546496263936],[-95.25952919926891,38.95467089328043],[-95.25954452670611,38.954675787817635],[-95.25954441105002,38.9546760022784],[-95.25957044854509,38.95468431685672],[-95.25957055948383,38.95468410498807],[-95.25959117238136,38.954690688068936],[-95.2595910614427,38.95469089993756],[-95.25961710010196,38.954699214532646],[-95.25961721104053,38.95469900266395],[-95.25963782394678,38.954705585736505],[-95.25963771300819,38.95470579760517],[-95.25966375167843,38.95471411218979],[-95.25966386611131,38.954713899502444],[-95.25968447553183,38.95472048338531],[-95.25968436459341,38.95472069525403],[-95.2597104021214,38.95472900980093],[-95.25971051302488,38.95472879883254],[-95.25973113059598,38.9547353810971],[-95.25973101619823,38.954735592884084],[-95.25975705370234,38.95474390832087],[-95.25975716464056,38.95474369645208],[-95.25977777760777,38.95475027859932],[-95.25977766666954,38.95475049046811],[-95.25980370533777,38.95475880592167],[-95.25980381627592,38.954758594052834],[-95.25982212396083,38.954764440384004],[-95.25982774672232,38.9547537063402],[-95.25984334099968,38.95475868554989]]]},"properties":{"SDE.FloorAll.FLOORLOCATION":"5"}},{"type":"Feature","geometry":{"type":"MultiPolygon","coordinates":[[[[-95.25982767135102,38.954753774854204],[-95.2598623852877,38.95476485389666],[-95.25989200388692,38.954708272234406],[-95.25988549501642,38.95470619519781],[-95.25991768512435,38.954644701361815],[-95.25959875389367,38.95454291545584],[-95.25959219088048,38.95455545404202],[-95.259454550453,38.954511721350066],[-95.25947574182389,38.954435447155205],[-95.25947635218147,38.95443345816592],[-95.25940362504464,38.954421328144115],[-95.25939997237195,38.95443459520937],[-95.2594029873841,38.954435095460106],[-95.2594059040542,38.95442422987716],[-95.2594724775038,38.95443539342683],[-95.25945101121312,38.95451316165741],[-95.25959185777845,38.954558508521],[-95.25957314620621,38.95459425211161],[-95.2595599118849,38.95459002889516],[-95.25955875889201,38.95459223036429],[-95.25957481378687,38.95459735478097],[-95.25959609699983,38.9545566972289],[-95.25959544598575,38.95455648988106],[-95.25960067882079,38.95454649554669],[-95.25991331786035,38.95464627261813],[-95.25988245777891,38.954705225799295],[-95.25985316732543,38.95469587821506],[-95.25985183729358,38.95469841886829],[-95.25987136386627,38.9547046508832],[-95.25984488852255,38.95471319780073],[-95.25984487674542,38.95471317409065],[-95.25984478766675,38.95471303049348],[-95.25984468219964,38.95471289281755],[-95.25984456369879,38.95471276384582],[-95.25984442989278,38.95471264262336],[-95.25984428301818,38.95471253100548],[-95.25984412419315,38.954712429919844],[-95.25984395568913,38.954712340321294],[-95.25984377750613,38.95471226220992],[-95.25984359076239,38.95471219651328],[-95.2598433977293,38.95471214418638],[-95.25984319956004,38.95471210525635],[-95.25984299744263,38.95471207885015],[-95.25984279357874,38.95471206772345],[-95.25984258922618,38.95471206920233],[-95.25984238543342,38.954712086015164],[-95.25984218461141,38.954712115515356],[-95.25984198787845,38.95471215863046],[-95.2598418092469,38.954712211185644],[-95.2597871770791,38.95461056261617],[-95.25965677740733,38.95465315271612],[-95.25965668301718,38.95465299727739],[-95.25965657866875,38.95465286052895],[-95.2596564590501,38.954652730629384],[-95.25965632524455,38.95465260940669],[-95.25965617833546,38.954652498688965],[-95.259656020664,38.954652397630326],[-95.2596558510421,38.954652307103856],[-95.25965567282458,38.95465222989256],[-95.2596554860811,38.954652164195636],[-95.25965529308328,38.95465211096799],[-95.25965509491428,38.95465207203772],[-95.25965489276221,38.954652046531564],[-95.25965468893342,38.954652034504086],[-95.25965448454612,38.954652036883026],[-95.25965428078834,38.95465205279517],[-95.25965407996642,38.95465208229501],[-95.25965388319867,38.95465212631021],[-95.25965369639034,38.954652181375494],[-95.25962480857233,38.95459907540324],[-95.25955663734224,38.954621200467756],[-95.25955654176433,38.95462104590207],[-95.25955643745108,38.95462090825319],[-95.25955631783263,38.954620778353494],[-95.25955618399239,38.954620658031075],[-95.25955603827157,38.954620546440076],[-95.25955587944718,38.95462044535403],[-95.25955571094373,38.95462035575507],[-95.25955553160813,38.95462027761601],[-95.25955534601806,38.95462021194614],[-95.25955515183229,38.95462015959151],[-95.25955495369834,38.954620119760605],[-95.2595547526996,38.954620094281566],[-95.25955454883601,38.95462008315436],[-95.25955434333054,38.954620084605416],[-95.259554140726,38.954620100544666],[-95.25955393986924,38.954620130944726],[-95.25955374313634,38.954620174059336],[-95.25955355164561,38.95462023081626],[-95.25955337245556,38.95462029777735],[-95.25949043913373,38.95452732717677],[-95.25942281177704,38.954544296509305],[-95.25936115940681,38.9545590710746],[-95.25936108570431,38.95455891792709],[-95.25936099662684,38.954558774329584],[-95.25936089227918,38.954558637580874],[-95.25936077266124,38.95455850768101],[-95.25936063885636,38.95455838645799],[-95.25936049310107,38.95455827576714],[-95.25936033427703,38.95455817468083],[-95.25936016465576,38.95455808415393],[-95.25935998647368,38.95455800604178],[-95.2593597996959,38.95455794124477],[-95.25935960669854,38.95455788801665],[-95.25935940852999,38.95455784908583],[-95.25935920637829,38.95455782357916],[-95.25935900254981,38.954557811551204],[-95.25935879816278,38.95455781392962],[-95.25935859555834,38.9545578298685],[-95.25935839358344,38.954557859340554],[-95.2593581968157,38.95455790335527],[-95.25935800651308,38.95455795923869],[-95.25935780852348,38.95455803476731],[-95.25931777099599,38.954499340729924],[-95.25932641344671,38.95446832849593],[-95.25932666808444,38.954467417071115],[-95.25933398045899,38.95444117871151],[-95.25933403003785,38.954441001441516],[-95.25935604786943,38.95444483660587],[-95.25937746613211,38.95444856656979],[-95.2593806803997,38.95444919680103],[-95.2593844227364,38.95443576062362],[-95.2593207199868,38.95442491992874],[-95.25927504874736,38.95458907217009],[-95.25950806386605,38.954663438071975],[-95.25951870546986,38.954643110203044],[-95.25954018500731,38.954649965219055],[-95.25952918819473,38.954670970523715],[-95.25982208443942,38.95476444756096],[-95.25982767135102,38.954753774854204]]],[[[-95.25953540227277,38.95400015129339],[-95.25953519851687,38.954000167205315],[-95.25953499769675,38.954000196704946],[-95.25953480093067,38.95400024071998],[-95.25953460944163,38.95400029747685],[-95.25953442557075,38.95400036612964],[-95.25953428335264,38.954000432162125],[-95.25953424924825,38.95400044847923],[-95.25953408403828,38.95400054190611],[-95.2595339288226,38.95400064548274],[-95.25953378587258,38.95400076016387],[-95.25953365641121,38.954000884176146],[-95.25953354166138,38.954001015745824],[-95.25953344162319,38.95400115487309],[-95.25953335748459,38.954001300684745],[-95.25953329046855,38.95400145140718],[-95.25953324061011,38.95400160614009],[-95.25953320794402,38.954001763983065],[-95.25953319254018,38.95400192313527],[-95.25953319558656,38.95400208272357],[-95.25953321596504,38.95400224182033],[-95.25953325374532,38.95400239862479],[-95.25953330896242,38.95400255223645],[-95.2595333816512,38.95400270175502],[-95.25953347072826,38.954002845352385],[-95.25953356731763,38.954002973806574],[-95.25941596097243,38.95406207629259],[-95.25949161188285,38.954153500055156],[-95.25949143727273,38.95415359776591],[-95.25949128202176,38.954153702242856],[-95.25949113907136,38.95415381692395],[-95.25949100964453,38.95415394003572],[-95.25949089485947,38.95415407250582],[-95.25949079482098,38.95415421163303],[-95.25949071068209,38.95415435744464],[-95.25949064366586,38.95415450816708],[-95.25949059380719,38.954154662899995],[-95.2594905599878,38.95415482071562],[-95.25949054573695,38.95415497989511],[-95.25949054763014,38.954155139456155],[-95.25949056916167,38.95415529858018],[-95.25949060694197,38.9541554553846],[-95.25949066215908,38.95415560899634],[-95.25949073488283,38.95415575761452],[-95.2594908239251,38.954155902112326],[-95.25949092166779,38.95415603059383],[-95.25937191402413,38.95421587226561],[-95.25950753409552,38.954238792258764],[-95.25949321222733,38.95415684807168],[-95.25949342699032,38.95415681619805],[-95.25949362372195,38.95415677308348],[-95.25949381405835,38.95415671629941],[-95.25949399911768,38.95415664677354],[-95.25949417425261,38.95415656529715],[-95.25949434061611,38.95415647189758],[-95.25949449583224,38.95415636832103],[-95.25949463762944,38.95415625361265],[-95.25949476709123,38.9541561296005],[-95.25949488184133,38.95415599803077],[-95.25949498191478,38.95415585800321],[-95.25949506601872,38.95415571309198],[-95.25949513303493,38.954155562369515],[-95.2594951840468,38.954155407663904],[-95.25949521671302,38.95415524982099],[-95.25949523211698,38.9541550906688],[-95.25949522907067,38.954154931080424],[-95.25949520869224,38.9541547719837],[-95.25949516975876,38.954154615151985],[-95.25949511454165,38.95415446154027],[-95.25949504185283,38.954154312021686],[-95.2594949527756,38.95415416842425],[-95.25949484846318,38.95415403077529],[-95.25949472881072,38.95415390177593],[-95.25949459615957,38.954153780580334],[-95.25949444928659,38.954153668962014],[-95.25949429046335,38.95415356787583],[-95.25949413212996,38.954153483924514],[-95.2595498851137,38.95408485071166],[-95.25953585787278,38.95400379128367],[-95.25953607375351,38.954003760337535],[-95.25953627048467,38.95400371722294],[-95.25953646197375,38.95400366046607],[-95.25953664587952,38.95400359091286],[-95.259536821014,38.954003509436426],[-95.25953698737712,38.95400341603677],[-95.25953714262774,38.95400331155979],[-95.25953728442458,38.95400319685135],[-95.25953741385109,38.95400307373949],[-95.2595375297889,38.95400294129662],[-95.25953762867401,38.95400280214211],[-95.25953771281257,38.9540026563305],[-95.25953778098169,38.95400250563528],[-95.2595378308402,38.95400235090239],[-95.25953786350628,38.954002193059424],[-95.25953787891011,38.954002033907244],[-95.25953787586371,38.954001874318905],[-95.25953785548523,38.95400171522215],[-95.25953781770487,38.95400155841771],[-95.25953776133466,38.954001404778786],[-95.25953768864592,38.95400125526019],[-95.25953760072191,38.95400111169005],[-95.2595374952216,38.95400097491427],[-95.25953737560425,38.954000845014555],[-95.25953724295327,38.954000723818986],[-95.25953709604566,38.95400061310107],[-95.25953693722269,38.95400051201504],[-95.25953677326355,38.95400042432586],[-95.2595365905399,38.95400034430417],[-95.25953640379832,38.95400027860705],[-95.25953621080231,38.954000225379176],[-95.25953601263525,38.95400018644867],[-95.2595358104851,38.95400016094232],[-95.25953560665819,38.95400014891471],[-95.25953540227277,38.95400015129339]]],[[[-95.25938441485954,38.95442045408177],[-95.25938422567664,38.95442054063322],[-95.25938406046548,38.9544206340599],[-95.25938390521375,38.95442073853669],[-95.25938376226266,38.954420853217684],[-95.25938363283511,38.954420976329345],[-95.25938351804946,38.95442110879932],[-95.25938341801033,38.95442124792644],[-95.25938333387094,38.95442139373796],[-95.25938326685423,38.954421544460345],[-95.25938321699513,38.95442169919315],[-95.25938318432851,38.95442185703605],[-95.25938316892419,38.95442201618822],[-95.25938317197033,38.95442217577653],[-95.25938319234857,38.95442233487333],[-95.25938323012875,38.95442249167782],[-95.25938328534585,38.954422645289604],[-95.25938335803468,38.95442279480826],[-95.25938344711204,38.954422938405735],[-95.25938355145954,38.954423075154395],[-95.25938367107736,38.954423205054276],[-95.259383804882,38.95442332627727],[-95.25938383734581,38.95442335227886],[-95.25938395175528,38.95442343789573],[-95.25938410946077,38.95442353805437],[-95.25938427908176,38.95442362858125],[-95.25938445726354,38.954423706693305],[-95.25938464404098,38.95442377149032],[-95.25938483703803,38.95442382471842],[-95.25938503520625,38.95442386364918],[-95.2593852373575,38.95442388915579],[-95.25938544118566,38.954423901183674],[-95.2593856455723,38.95442389880525],[-95.25938584932942,38.954423882893586],[-95.2593860501508,38.95442385339422],[-95.25938624691815,38.954423809379456],[-95.25938643837357,38.954423753523216],[-95.25938662228059,38.95442368397026],[-95.25938674804142,38.954423625659885],[-95.25938679745119,38.954423601593646],[-95.25938696378056,38.9544235090946],[-95.25938711903228,38.954423404617835],[-95.25938726083025,38.954423289909634],[-95.25938739029266,38.95442316589752],[-95.25938750619659,38.95442303435522],[-95.25938760508254,38.95442289520084],[-95.25938768922194,38.95442274938932],[-95.25938775739179,38.9544225986942],[-95.25938780725086,38.954422443961356],[-95.2593878399175,38.954422286118415],[-95.2593878553218,38.95442212696626],[-95.25938785227567,38.95442196737796],[-95.2593878318974,38.95442180828114],[-95.2593877941172,38.95442165147672],[-95.25938773774698,38.954421497837686],[-95.25938766505806,38.95442134831903],[-95.25938757273077,38.954421199237366],[-95.2594878672981,38.95437842325746],[-95.25933908136295,38.95435308136341],[-95.25938441485954,38.95442045408177]]],[[[-95.25929982007179,38.95448902908334],[-95.25936447284941,38.95425620990583],[-95.25938959078464,38.954260462613604],[-95.2593938997769,38.95424473540581],[-95.2593982075792,38.954229009070986],[-95.25935727375528,38.95422207357078],[-95.25942887051956,38.95396437715133],[-95.2595089771366,38.95397790636068],[-95.25950480618735,38.95399296181973],[-95.25950811009416,38.95399342293457],[-95.25951613509925,38.953964549113316],[-95.2595159674142,38.953963902578394],[-95.25958590478099,38.953975754812916],[-95.25957893945639,38.954000815380994],[-95.2595785764232,38.954002468653556],[-95.25957884276535,38.95400250559055],[-95.25957469786103,38.954016651433086],[-95.25955749004466,38.95401373028619],[-95.25955689952954,38.95401630914411],[-95.2595771934483,38.954019623170204],[-95.25959146590391,38.95400638451405],[-95.25959666897828,38.95400370649865],[-95.25958224490115,38.954001266616615],[-95.25958986573418,38.953973647652184],[-95.2595135902477,38.95396073446891],[-95.25951334256546,38.9539606925655],[-95.25950926032279,38.95397530581901],[-95.2594262456748,38.95396116713651],[-95.25935315343648,38.95422415262385],[-95.25939404707566,38.95423108266946],[-95.25939431313931,38.95423112681007],[-95.25938696708388,38.95425725262524],[-95.25936185058237,38.95425299274095],[-95.2592957975016,38.954490908571664],[-95.25929982007179,38.95448902908334]]],[[[-95.2594110541127,38.954486864882504],[-95.259410930568,38.954487312573185],[-95.25941030948964,38.95448954824365],[-95.25941018479175,38.954489995907096],[-95.25940993658406,38.95449089036077],[-95.25940644780388,38.95450344302632],[-95.25940960039415,38.95450396725701],[-95.25941275298447,38.95450449148762],[-95.25941590672802,38.95450501574537],[-95.25941905701211,38.95450553992129],[-95.25942221190891,38.954506064206115],[-95.25942536449939,38.9545065884364],[-95.25942851708994,38.95450711266657],[-95.25943166968055,38.95450763689662],[-95.2594348222712,38.95450816112666],[-95.25943853629909,38.95449479998121],[-95.25943927980292,38.95449211569221],[-95.25943940446571,38.95449166892914],[-95.2594432098225,38.95447797649026],[-95.25944005873536,38.954477443283764],[-95.25943690880146,38.95447691010444],[-95.25943376113898,38.95447637787997],[-95.25943060889885,38.954475844646005],[-95.25942746008326,38.954475312394074],[-95.25942430784323,38.954474779159916],[-95.25942115790959,38.954474245980194],[-95.25941800682277,38.95447371277309],[-95.25941485688917,38.95447317959321],[-95.2594110541127,38.954486864882504]]],[[[-95.25944969501928,38.954308504473836],[-95.25944949241558,38.95430852041286],[-95.25944929040654,38.95430855078546],[-95.2594490936745,38.95430859389995],[-95.25944890333767,38.954308650683934],[-95.25944871827784,38.95430872020976],[-95.25944853608401,38.954308805124086],[-95.25944837677856,38.954308895085575],[-95.2594482226803,38.954308999589685],[-95.25944807976444,38.95430911337035],[-95.25944795030237,38.954309237382475],[-95.25944783551701,38.9543093698525],[-95.25944773547816,38.954309508979684],[-95.25944765133906,38.95430965479124],[-95.25944758432257,38.954309805513674],[-95.25944753331052,38.95430996021928],[-95.259447500679,38.9543101171618],[-95.25944748523997,38.9543102772144],[-95.2594474882862,38.954310436802714],[-95.25944750869945,38.954310594999065],[-95.25944754763292,38.9543107518308],[-95.25944760285007,38.95431090544255],[-95.25944767553892,38.95431105496113],[-95.25944776458137,38.954311199458985],[-95.25944784687827,38.95431130955095],[-95.25944786892886,38.954311336207624],[-95.25944798854651,38.9543114661074],[-95.25944812238598,38.954311586429924],[-95.259448268106,38.95431169802107],[-95.25944842692961,38.95431179910731],[-95.25944859543213,38.954311888706386],[-95.25944877476687,38.95431196684567],[-95.25944896035605,38.95431203251566],[-95.2594491533877,38.95431208484327],[-95.25944935267384,38.95431212470158],[-95.25944955367173,38.954312150180854],[-95.25944975749951,38.954312162208595],[-95.25944996188584,38.954312159830074],[-95.25945016099519,38.95431214470965],[-95.25945036649864,38.954312113518384],[-95.25945056323067,38.95431207040391],[-95.25945075472069,38.95431201364719],[-95.25945093862735,38.95431194409411],[-95.25945111491582,38.95431186264506],[-95.25945128127977,38.95431176924553],[-95.25945143537801,38.954311664741375],[-95.25945157829389,38.95431155096072],[-95.25945170775596,38.95431142694862],[-95.25945182250646,38.95431129537893],[-95.25945192258015,38.95431115535137],[-95.25945200671931,38.95431100953982],[-95.25945207373573,38.9543108588174],[-95.25945212474778,38.954310704111776],[-95.25945215737927,38.954310547169264],[-95.25945217163024,38.95431038798985],[-95.25945216977205,38.95431022752837],[-95.25945214935876,38.95431006933199],[-95.25945211042531,38.95430991250027],[-95.2594520552082,38.95430975888853],[-95.25945198251928,38.95430960936992],[-95.259451893442,38.954309465772475],[-95.25945178912936,38.954309328123465],[-95.25945166951169,38.954309198223676],[-95.25945153567221,38.954309077901165],[-95.25945138995219,38.95430896631003],[-95.25945123112865,38.95430886522385],[-95.25945107279496,38.95430878127243],[-95.25945088329141,38.95430869748547],[-95.25945069654905,38.954308631788194],[-95.2594505035174,38.9543085794606],[-95.25945030538438,38.95430853962955],[-95.25945010323338,38.95430851412307],[-95.2594498993707,38.95430850299568],[-95.25944969501928,38.954308504473836]]],[[[-95.25939780181099,38.954499896019406],[-95.25939789558565,38.95449950169835],[-95.25938760069295,38.95449775871301],[-95.25938749203206,38.954498149978505],[-95.25939780181099,38.954499896019406]]],[[[-95.2593896399065,38.954490085245574],[-95.25938972936343,38.95449009997729],[-95.25938985413127,38.9544896505131],[-95.259388708453,38.954489460310164],[-95.25938858382487,38.954489906172796],[-95.2593896399065,38.954490085245574]]],[[[-95.25938749203206,38.954498149978505],[-95.25938634652823,38.95449795527357],[-95.25938622298337,38.95449840296424],[-95.25938736852206,38.954498596768744],[-95.25938749203206,38.954498149978505]]]]},"properties":{"SDE.FloorAll.FLOORLOCATION":"ROOF"}}]}
