{"type":"FeatureCollection","features":[{"type":"Feature","geometry":{"type":"Polygon","coordinates":[[[-95.25055135366335,38.96262552014714],[-95.25057245349905,38.962625678893794],[-95.2505728260901,38.96259547779492],[-95.25062644923236,38.962595881389106],[-95.25062675363164,38.962571171634536],[-95.25065474056089,38.962571381914806],[-95.25065495622682,38.96255387894795],[-95.25065686148011,38.96255389348139],[-95.25065690068749,38.96255068965814],[-95.2506544461236,38.96255067111231],[-95.25065484961479,38.96251795362765],[-95.25065539892525,38.96251795764],[-95.25065696649965,38.96239086182808],[-95.25063007822575,38.96239066047369],[-95.25063031564315,38.96237144119028],[-95.25063207432048,38.96237145495248],[-95.25063213935829,38.96236619244454],[-95.25060759605512,38.96236600793378],[-95.25060761252966,38.962364634858865],[-95.25060515797229,38.96236461631198],[-95.25060556148523,38.96233189882692],[-95.25060801604153,38.962331917373774],[-95.25060805521593,38.96232871445088],[-95.25060615112203,38.96232869994394],[-95.25060616347794,38.96232767013779],[-95.25043648496191,38.96232639454656],[-95.25043672338543,38.96230706173182],[-95.25040566000604,38.96230682801179],[-95.25040461629447,38.962391486792846],[-95.25040345536367,38.96239147818935],[-95.25040340390171,38.962395590156206],[-95.25040456483259,38.9623955987597],[-95.2504043136908,38.96241597038434],[-95.25030103855676,38.962415194045185],[-95.25030099214932,38.96241899791331],[-95.2503026193193,38.96241900946314],[-95.25030183647911,38.96248248034204],[-95.25030031785568,38.96248285348536],[-95.25031415873508,38.962517233560895],[-95.25037730958395,38.962501737604796],[-95.25039183062819,38.962520504769245],[-95.25040308777837,38.96254059233377],[-95.25040775845882,38.962551921527925],[-95.25041381871705,38.96257444353165],[-95.25041549454653,38.962587654661526],[-95.25043033041545,38.96258776673591],[-95.25043077008687,38.96255219322694],[-95.25055224634515,38.962553107227684],[-95.25055203889166,38.962569923656915],[-95.25054735017889,38.96256988818231],[-95.25054730474078,38.96257354877854],[-95.25055199345377,38.962573584253114],[-95.25055135366335,38.96262552014714]]]},"properties":{"SDE.FloorAll.FLOORLOCATION":"-1"}},{"type":"Feature","geometry":{"type":"Polygon","coordinates":[[[-95.25066483372993,38.96290552925843],[-95.25074571718058,38.962906136646005],[-95.25074607520361,38.96287707975814],[-95.25078138907499,38.962877344764365],[-95.25078585984443,38.96251470448174],[-95.25077501681768,38.962514623135114],[-95.25077565548965,38.962462800771014],[-95.25075455566709,38.96246264296167],[-95.25075565557833,38.962373412709404],[-95.2507569746126,38.96237342235433],[-95.25075703964113,38.96236815984632],[-95.25073608641787,38.96236800280517],[-95.25074053469108,38.9620071923567],[-95.25070522125448,38.96200692733805],[-95.25070557928954,38.961977870448074],[-95.25062469693623,38.96197726213203],[-95.25062433886788,38.96200631902175],[-95.25060635269898,38.962006183641044],[-95.25060361278786,38.96222842994191],[-95.25054619742602,38.962272401007205],[-95.25049431979505,38.96223111056592],[-95.25051178935479,38.962217732473555],[-95.25051014793999,38.96221642552964],[-95.2505214449603,38.96220777308926],[-95.2504958940954,38.96218743762275],[-95.25049746342384,38.96218623565191],[-95.25042050420348,38.96212498312206],[-95.25023827788634,38.96226453869644],[-95.25030787081538,38.96231992813619],[-95.25030664796274,38.96241903920854],[-95.25029622498893,38.96241896146925],[-95.25029542176048,38.96248405406834],[-95.25026312435176,38.96249197867029],[-95.25026125599406,38.96249781034557],[-95.25025965012522,38.96250368970184],[-95.25025830706049,38.96250960863559],[-95.25025722935169,38.96251556089874],[-95.25025641846752,38.96252153841518],[-95.25025587468818,38.96252753398173],[-95.2502555993773,38.96253354222336],[-95.25025559292021,38.962539553235736],[-95.250255854409,38.96254556068882],[-95.25025638527721,38.962551557406734],[-95.25025718234527,38.96255753610436],[-95.25025824704682,38.9625634896058],[-95.25025957735559,38.96256941065328],[-95.25026117124533,38.96257529198892],[-95.25026302672487,38.96258112545447],[-95.25026514169785,38.9625869055928],[-95.25026751298475,38.962592625118816],[-95.2502701397476,38.96259827590151],[-95.25027301646523,38.96260385150142],[-95.25027614107647,38.96260934556107],[-95.25027950809512,38.962614750740464],[-95.25028311542486,38.96262006158271],[-95.25028695873287,38.962625270775035],[-95.25029103134469,38.96263037185073],[-95.25029533001072,38.96263535932523],[-95.25029984805646,38.962640226731814],[-95.25030458111411,38.96264496765815],[-95.25030952362744,38.96264957656523],[-95.25031466885189,38.96265404878685],[-95.2503200112663,38.962658377883606],[-95.25033469734991,38.96265477427549],[-95.25033306782952,38.9627868001238],[-95.25042859892729,38.96278751896128],[-95.25042862166698,38.962785688213025],[-95.25046325229326,38.96278594883154],[-95.2504635001136,38.96276581054608],[-95.25055137205503,38.962766471133634],[-95.25055399043379,38.962554148941756],[-95.25065142535446,38.9625548812031],[-95.25064746275312,38.962876338592466],[-95.25066519182114,38.96287647147042],[-95.25066483372993,38.96290552925843]]]},"properties":{"SDE.FloorAll.FLOORLOCATION":"1"}},{"type":"Feature","geometry":{"type":"Polygon","coordinates":[[[-95.25066385511504,38.96291243646796],[-95.25074473829086,38.9629130807997],[-95.25074511826169,38.962884023531004],[-95.25078068767522,38.96288430721337],[-95.25078532668688,38.962529152881984],[-95.2508322530378,38.962529477812055],[-95.2508325633345,38.96250568294074],[-95.25084897411118,38.9625058142774],[-95.250849739033,38.962447242936875],[-95.25075229905511,38.96244646655876],[-95.25075316265387,38.96238034529855],[-95.2507563868669,38.96238037127611],[-95.2507564553553,38.962375108850125],[-95.2507355025152,38.96237494190454],[-95.2507402161839,38.96201413414394],[-95.25070490337428,38.962013852918076],[-95.2507052822034,38.96198479561995],[-95.25062440120814,38.961984152188386],[-95.25062433159209,38.9619894136867],[-95.25062402699389,38.96201320869519],[-95.25060599843243,38.96201306509953],[-95.25060183488,38.96233452044514],[-95.2504924824856,38.96233364974081],[-95.25049253083367,38.962329914411896],[-95.25055198225446,38.9622844370384],[-95.25049373234253,38.9622380216426],[-95.2505113155256,38.962224571442924],[-95.25050967529889,38.96222326362591],[-95.25052097902983,38.96221461675204],[-95.25049477748405,38.96219373773902],[-95.25049645145303,38.9621924571393],[-95.25042010174735,38.96213161920586],[-95.25023756297207,38.96227125388768],[-95.25030731920049,38.96232683735849],[-95.25030602056769,38.962425700599525],[-95.2502909426151,38.9624255809652],[-95.25029007598043,38.96249188781218],[-95.2502640600956,38.96249830943023],[-95.2502620854452,38.962503935809416],[-95.25026036161069,38.96250961319769],[-95.25025889009581,38.96251533261844],[-95.2502576745355,38.96252108965184],[-95.25025671412688,38.96252687526655],[-95.25025601253996,38.962532684142275],[-95.25025556893694,38.96253850814813],[-95.25025538359797,38.96254434008095],[-95.25025545788675,38.96255017456584],[-95.25025579100021,38.96255600257134],[-95.25025638199538,38.962561818667844],[-95.25025723118767,38.96256761475177],[-95.25025833766892,38.96257338449305],[-95.250259699378,38.96257912153415],[-95.25026131547685,38.96258481774428],[-95.25026318275098,38.96259046673855],[-95.25026530029237,38.96259606218682],[-95.25026766492145,38.96260159680394],[-95.25027027345863,38.96260706330471],[-95.25027312377266,38.9626124571324],[-95.25027621156572,38.96261777007406],[-95.25027953362313,38.962622995744894],[-95.25028308550712,38.96262812953351],[-95.25028686291975,38.96263316322691],[-95.25029086145815,38.9626380913134],[-95.25029507668435,38.96264290918158],[-95.2502995031123,38.962647609491455],[-95.25030413630401,38.96265218763172],[-95.25030896958498,38.96265663713545],[-95.25031399736402,38.96266095336394],[-95.25031921408495,38.96266513077803],[-95.25033390223132,38.9626615335275],[-95.25033217688178,38.962793559806975],[-95.25042536259024,38.96279430233718],[-95.25042540618944,38.962790956224545],[-95.25046120061994,38.962791240835685],[-95.25046144372821,38.9627726182975],[-95.25055049583304,38.96277332759814],[-95.25055326997733,38.96256100729735],[-95.25065070437957,38.96256178280553],[-95.25064650521128,38.962883238190514],[-95.25066438165618,38.96288338087153],[-95.25066385511504,38.96291243646796]]]},"properties":{"SDE.FloorAll.FLOORLOCATION":"2"}},{"type":"Feature","geometry":{"type":"Polygon","coordinates":[[[-95.25066584917423,38.96290031632218],[-95.25066496981151,38.96290030989155],[-95.25066490481066,38.9629055714989],[-95.25074578822637,38.96290617978682],[-95.25074614624936,38.96287712289896],[-95.25078146012076,38.96287738790517],[-95.25078155393767,38.96286972341671],[-95.25078184704677,38.962869725860045],[-95.25078614862898,38.962520812615615],[-95.25083127942094,38.96252115175113],[-95.2508315723837,38.962497357370076],[-95.25084798347372,38.96249748060336],[-95.25084899864659,38.962415114770174],[-95.250837358231,38.96241502714071],[-95.2508369322002,38.962412714412366],[-95.25083425913695,38.96240193187704],[-95.25083321428913,38.96240208464553],[-95.25082172153007,38.96237609212607],[-95.25082268510529,38.96237574366759],[-95.25082102401984,38.96237342869346],[-95.25081656364074,38.96236663315412],[-95.25081629083716,38.96236622744381],[-95.25081108658404,38.96235956296931],[-95.25080953763478,38.96235739214587],[-95.25080614333741,38.96235354815689],[-95.25075709535056,38.96236936880746],[-95.25075710953311,38.96236820295977],[-95.25073615630981,38.96236804591863],[-95.250736228445,38.962362244647075],[-95.25073652158709,38.962362246190175],[-95.25074080281482,38.96201495915481],[-95.25074050967422,38.96201495761171],[-95.25074060458265,38.96200723547016],[-95.25070529229934,38.96200697047883],[-95.25070565033435,38.96197791358891],[-95.25062476798098,38.9619773052729],[-95.25062470294299,38.96198256778102],[-95.25062609581425,38.96198257827716],[-95.25062580163114,38.96200637263137],[-95.25060667990962,38.962006229251124],[-95.25060658607492,38.96201389374],[-95.25060632569043,38.962014177760054],[-95.25060201320052,38.96236091612065],[-95.2506020112236,38.962361144984676],[-95.25060193784635,38.96236703725062],[-95.25059285355472,38.962366968749166],[-95.25059219096089,38.962420678613164],[-95.25060193538867,38.96242075105129],[-95.25060083518275,38.962509924522266],[-95.25059768477365,38.9625099002905],[-95.25059762088641,38.962515162825696],[-95.25065198140261,38.96251557127644],[-95.25065191224775,38.96252117705306],[-95.25065162029334,38.9625211746367],[-95.25064737146121,38.962868714775894],[-95.25064762763022,38.96286871724498],[-95.2506475326455,38.96287638170598],[-95.25066614222935,38.9628765210419],[-95.25066584917423,38.96290031632218]]]},"properties":{"SDE.FloorAll.FLOORLOCATION":"3"}},{"type":"Feature","geometry":{"type":"Polygon","coordinates":[[[-95.25066578413843,38.962905578829904],[-95.25074578819134,38.962906180687206],[-95.25074614621433,38.96287712379939],[-95.25078146008573,38.962877388805545],[-95.25078155390264,38.96286972431706],[-95.25078184704677,38.962869725860045],[-95.25078612899318,38.962522415427664],[-95.25078603896254,38.962520812719134],[-95.2508312793859,38.96252115265154],[-95.25083157234869,38.962497358270504],[-95.25084798343869,38.962497481503746],[-95.25084899864659,38.962415114770174],[-95.25083735819597,38.96241502804109],[-95.25083426029026,38.96240193190436],[-95.25083321425413,38.96240208554597],[-95.25082172153007,38.96237609212607],[-95.25082268622353,38.96237574459534],[-95.25081657772517,38.962366627179456],[-95.25081629195542,38.962366228371536],[-95.25080953759975,38.96235739304625],[-95.25080951978026,38.96235734666134],[-95.2508061433024,38.96235354905727],[-95.25075731626158,38.96236929834241],[-95.25075709699918,38.96236929674863],[-95.25075711065135,38.96236820388751],[-95.25073615746312,38.962368045945965],[-95.25073622855263,38.96236221220554],[-95.25073652169465,38.96236221374868],[-95.25074080383304,38.96201490330304],[-95.25074051072747,38.96201490085958],[-95.25074060570093,38.96200723639789],[-95.25070529229934,38.96200697047883],[-95.25070565033435,38.96197791358891],[-95.25062476794596,38.96197730617329],[-95.25062470406121,38.9619825687088],[-95.25062558225927,38.961982575112366],[-95.25062528922932,38.962006369493956],[-95.25060667990962,38.962006229251124],[-95.25060658498651,38.962013951392514],[-95.25060632878561,38.96201394982378],[-95.25060201118859,38.96236114588506],[-95.25060230429558,38.96236114832893],[-95.25060223095338,38.96236703969444],[-95.2505928535197,38.962366969649544],[-95.25059219201427,38.96242062186101],[-95.25060193640698,38.962420695199526],[-95.25060083630099,38.96250992544997],[-95.25059768589189,38.962509901218226],[-95.25059762085138,38.96251516372606],[-95.2506519825209,38.96251557220419],[-95.25065191336599,38.96252117798079],[-95.25065162025832,38.9625211755371],[-95.25064737247953,38.96286865892415],[-95.25064762868354,38.962868660492795],[-95.25064753376374,38.96287638263373],[-95.2506661421943,38.962876521942256],[-95.25066578413843,38.962905578829904]]]},"properties":{"SDE.FloorAll.FLOORLOCATION":"4"}},{"type":"Feature","geometry":{"type":"Polygon","coordinates":[[[-95.25066571424604,38.962905535716416],[-95.2507457183339,38.96290613667336],[-95.25074607635686,38.962877079785486],[-95.25078139022825,38.962877344791714],[-95.25078148404516,38.96286968030327],[-95.25078177715427,38.96286968274663],[-95.2507860622657,38.962522142577114],[-95.25083295058631,38.9625224954445],[-95.25083324358361,38.962498700163025],[-95.25084965467389,38.96249882339604],[-95.25085070291479,38.962413826772774],[-95.25083706261114,38.9624137241716],[-95.25083418924493,38.96240188876363],[-95.25083314439712,38.96240204153216],[-95.25082165163803,38.9623760490127],[-95.25082261521327,38.9623757005542],[-95.25081650783319,38.96236658406608],[-95.25081622209848,38.96236618435775],[-95.25080946774276,38.96235734903246],[-95.25080855867941,38.962357779893466],[-95.25080569676257,38.96235452350791],[-95.25075723556446,38.96237015619684],[-95.25075726005679,38.9623681614675],[-95.25073608641787,38.96236800280517],[-95.2507361586957,38.9623621681917],[-95.25073645180272,38.962362170635224],[-95.25074073397643,38.96201485928919],[-95.25074044087086,38.96201485684573],[-95.25074053584433,38.96200719238404],[-95.25070522240775,38.96200692736539],[-95.25070558044285,38.96197787047543],[-95.25062469808947,38.96197726215939],[-95.25062463305147,38.96198252466749],[-95.25062551240283,38.96198253109846],[-95.25062521933776,38.96200632638044],[-95.25060661001808,38.96200618613755],[-95.25060651509501,38.96201390827897],[-95.25060625892908,38.96201390580985],[-95.25060194129675,38.96236110277155],[-95.25060223443876,38.96236110431501],[-95.2506021610965,38.96236699568049],[-95.25059278366284,38.96236692563561],[-95.25059212215734,38.962420577847084],[-95.25060186655011,38.9624206511856],[-95.25060076529071,38.96250988140869],[-95.2505976148466,38.96250985807734],[-95.25059755099441,38.96251511971214],[-95.25065191147559,38.96251552906332],[-95.25065184350899,38.96252113396688],[-95.25065155040132,38.962521131523175],[-95.25064730146886,38.96286861488293],[-95.2506475588262,38.96286861647892],[-95.25064746275312,38.962876338592466],[-95.25066607230187,38.96287647882879],[-95.25066571424604,38.962905535716416]]]},"properties":{"SDE.FloorAll.FLOORLOCATION":"5"}},{"type":"Feature","geometry":{"type":"Polygon","coordinates":[[[-95.25066571424604,38.962905535716416],[-95.2507457183339,38.96290613667336],[-95.25074607635686,38.962877079785486],[-95.25078139022825,38.962877344791714],[-95.25078148404516,38.96286968030327],[-95.25078177715427,38.96286968274663],[-95.2507860622657,38.962522142577114],[-95.25083295058631,38.9625224954445],[-95.25083324358361,38.962498700163025],[-95.25084965467389,38.96249882339604],[-95.25085070291479,38.962413826772774],[-95.25083706261114,38.9624137241716],[-95.25083418924493,38.96240188876363],[-95.25083314439712,38.96240204153216],[-95.25082165163803,38.9623760490127],[-95.25082261521327,38.9623757005542],[-95.25081650783319,38.96236658406608],[-95.25081622209848,38.96236618435775],[-95.25080946774276,38.96235734903246],[-95.25080855867941,38.962357779893466],[-95.25080569676257,38.96235452350791],[-95.25075723556446,38.96237015619684],[-95.25075726005679,38.9623681614675],[-95.25073608641787,38.96236800280517],[-95.2507361586957,38.9623621681917],[-95.25073645180272,38.962362170635224],[-95.25074073397643,38.96201485928919],[-95.25074044087086,38.96201485684573],[-95.25074053584433,38.96200719238404],[-95.25070522240775,38.96200692736539],[-95.25070558044285,38.96197787047543],[-95.25062469808947,38.96197726215939],[-95.25062463305147,38.96198252466749],[-95.25062551240283,38.96198253109846],[-95.25062521933776,38.96200632638044],[-95.25060661001808,38.96200618613755],[-95.25060651509501,38.96201390827897],[-95.25060625892908,38.96201390580985],[-95.25060194129675,38.96236110277155],[-95.25060223443876,38.96236110431501],[-95.2506021610965,38.96236699568049],[-95.25059278366284,38.96236692563561],[-95.25059212215734,38.962420577847084],[-95.25060186655011,38.9624206511856],[-95.25060076529071,38.96250988140869],[-95.2505976148466,38.96250985807734],[-95.25059755099441,38.96251511971214],[-95.25065191147559,38.96251552906332],[-95.25065184350899,38.96252113396688],[-95.25065155040132,38.962521131523175],[-95.25064730146886,38.96286861488293],[-95.2506475588262,38.96286861647892],[-95.25064746275312,38.962876338592466],[-95.25066607230187,38.96287647882879],[-95.25066571424604,38.962905535716416]]]},"properties":{"SDE.FloorAll.FLOORLOCATION":"6"}},{"type":"Feature","geometry":{"type":"Polygon","coordinates":[[[-95.2506658023825,38.96290027285519],[-95.25066492301974,38.962900266424576],[-95.25066485798389,38.962905528932296],[-95.25074574143461,38.96290613631985],[-95.25074610061083,38.96287707945932],[-95.25078141329394,38.9628773453386],[-95.25078150829913,38.962869679977075],[-95.2507818014083,38.96286968242046],[-95.25078608338995,38.962522371087665],[-95.25078579024726,38.96252236954471],[-95.25078588409824,38.962514704155595],[-95.25077504107152,38.962514622808946],[-95.25077567970844,38.96246280134523],[-95.25076894033386,38.962462750603905],[-95.25076892686201,38.96246377948241],[-95.25075574006692,38.962463680414736],[-95.25075575238563,38.96246265150891],[-95.25075223614466,38.96246262491599],[-95.25075258790325,38.96243402570046],[-95.25075310146151,38.9624340288647],[-95.2507531065326,38.96243357206432],[-95.2507525941627,38.962433568027016],[-95.25075272422045,38.96242304301105],[-95.25075323659031,38.96242304704831],[-95.25075324169649,38.96242258934757],[-95.2507527293266,38.962422585310286],[-95.25075285934932,38.96241206119471],[-95.25075337171907,38.962412065231966],[-95.2507533779785,38.96241160755855],[-95.2507528644555,38.962411603493955],[-95.25075299451314,38.96240107847794],[-95.25075350688282,38.96240108251525],[-95.25075351314224,38.96240062484179],[-95.25075300073755,38.9624006217049],[-95.2507531296419,38.96239009666158],[-95.25075364316481,38.96239010072618],[-95.25075364827092,38.96238964302542],[-95.25075313590133,38.962389638988164],[-95.25075333605882,38.96237339466375],[-95.25075699886645,38.962373422028186],[-95.25075706389492,38.962368159520175],[-95.25073611067167,38.96236800247902],[-95.25073618294951,38.96236216786555],[-95.25073647605652,38.96236217030904],[-95.25074075707684,38.9620148589357],[-95.25074046393625,38.96201485739262],[-95.25074055894474,38.96200719203054],[-95.2507052466614,38.96200692703921],[-95.2507054137537,38.961993313504586],[-95.25070482750773,38.961993309517865],[-95.25070495345363,38.9619831277703],[-95.25070553966451,38.96198313265744],[-95.2507056046965,38.96197787014925],[-95.25062472234312,38.96197726183325],[-95.25062465730518,38.96198252434137],[-95.25062553665649,38.96198253077228],[-95.25062539063444,38.96199438561723],[-95.25062590300116,38.96199438965508],[-95.25062575595824,38.96200633009214],[-95.2506066342718,38.9620061858114],[-95.25060653928382,38.962013850272996],[-95.25060624614318,38.96201384872956],[-95.25060200024872,38.962361160045276],[-95.2506022564509,38.962361161614055],[-95.25060218531532,38.96236699625475],[-95.25059280676338,38.962366925282154],[-95.25059214525788,38.96242057749361],[-95.25060188965065,38.96242065083213],[-95.25060133645023,38.96246549524432],[-95.25060184997368,38.962465499309594],[-95.25060144227464,38.96249850238314],[-95.25060092990427,38.9624984983452],[-95.2506007895446,38.96250988108259],[-95.25059763910042,38.9625098577512],[-95.25059757405997,38.96251512025905],[-95.25065193572941,38.96251552873717],[-95.25065186347949,38.962521362450104],[-95.25065157033679,38.9625213609068],[-95.25064728888269,38.96286867136162],[-95.25064758083852,38.96286867377796],[-95.25064748700709,38.962876338266305],[-95.25066609540256,38.962876478475295],[-95.2506658023825,38.96290027285519]]]},"properties":{"SDE.FloorAll.FLOORLOCATION":"7"}},{"type":"Feature","geometry":{"type":"MultiPolygon","coordinates":[[[[-95.25059219484878,38.962420578669466],[-95.25061915579035,38.96242078175542],[-95.25064597019603,38.96242098316304],[-95.2506598897687,38.962421087902214],[-95.25065999809499,38.96241227920267],[-95.25065208626138,38.962412219580195],[-95.25065219870709,38.962403067611916],[-95.25065264041501,38.96236729047586],[-95.25069794654623,38.962367630218175],[-95.25071835734467,38.96236778431862],[-95.25072040571966,38.96220164716303],[-95.2506220861646,38.96220090839191],[-95.25062003653773,38.96236713113785],[-95.25059285635422,38.96236692645802],[-95.25059219484878,38.962420578669466]]],[[[-95.25072825361549,38.96246244561654],[-95.25072759221187,38.96251609782836],[-95.2507107233716,38.962515961021026],[-95.25068892832208,38.96251572182793],[-95.25066978916354,38.96251557804789],[-95.2506677386189,38.9626818863823],[-95.25076605769002,38.96268262508735],[-95.25076810698272,38.962516402343255],[-95.25077506793178,38.962516454733084],[-95.25077572929935,38.96246280252101],[-95.25072825361549,38.96246244561654]]]]},"properties":{"SDE.FloorAll.FLOORLOCATION":"8"}},{"type":"Feature","geometry":{"type":"Polygon","coordinates":[[[-95.25066490761016,38.96290552920774],[-95.25073113856679,38.96290602710824],[-95.25073231103893,38.96290603598186],[-95.25074579102582,38.96290613749567],[-95.25074615020202,38.96287708063514],[-95.25078146292014,38.96287734561401],[-95.25078155574886,38.96286979555751],[-95.25078858942466,38.962869848768825],[-95.25079287549075,38.962522194167065],[-95.25083302327785,38.96252249626671],[-95.25083331742837,38.96249870101262],[-95.2508497285187,38.96249882424563],[-95.25085078911187,38.96241279781612],[-95.2508358193939,38.96241268532485],[-95.2508348416155,38.96240817584908],[-95.25083367116753,38.96240369334807],[-95.25083230892332,38.96239924505234],[-95.25083075939077,38.96239483377239],[-95.25082902117153,38.96239046578362],[-95.25082709755036,38.96238614567008],[-95.25082499065867,38.962381877988356],[-95.25082270262803,38.96237766729521],[-95.25082023674307,38.96237351817445],[-95.25081759394703,38.962369436055894],[-95.25081477871286,38.962365424650464],[-95.25081179429036,38.96236148944247],[-95.25080864288098,38.962357633187864],[-95.25080532888768,38.96235386139831],[-95.25076420105032,38.962368459419324],[-95.25075711084389,38.962368406667466],[-95.25075711348578,38.962368160695966],[-95.25074319277009,38.96236805594112],[-95.25074754814078,38.96201479644972],[-95.25074051570336,38.96201474326332],[-95.25074060853532,38.96200719320635],[-95.25070529509874,38.962006928187684],[-95.25070565428707,38.96197787132507],[-95.25069217332391,38.96197776977927],[-95.2506910008672,38.961977760905214],[-95.25062477193369,38.961977263009096],[-95.25062441271213,38.96200631987148],[-95.25060668386239,38.96200618698726],[-95.25060658986287,38.96201373701682],[-95.25059955742564,38.962013683821866],[-95.25059682358854,38.96223535798957],[-95.25054681935148,38.962273654036196],[-95.25049140801725,38.96222955179735],[-95.25050814586216,38.962216734039515],[-95.25050890609673,38.962217339664555],[-95.25052390922346,38.962205850631314],[-95.25049852071427,38.96218564428534],[-95.25049774499739,38.96218623782257],[-95.25042058089313,38.962124821819025],[-95.2502381451548,38.962264538252455],[-95.25031046220606,38.962322096650325],[-95.250310149352,38.96234749564325],[-95.25030928272439,38.96241777869172],[-95.25028644153701,38.96241760744039],[-95.2502855924222,38.96248643092093],[-95.25026482845118,38.96249152611201],[-95.25026293554357,38.96249715803456],[-95.25026128786071,38.96250283632747],[-95.25025988795426,38.96250855474276],[-95.2502587360346,38.962514307877974],[-95.25025783587677,38.96252008771169],[-95.2502571865729,38.96252588791382],[-95.25025678952147,38.96253170220893],[-95.25025664384951,38.96253752336656],[-95.25025675210887,38.96254334513861],[-95.25025711342651,38.96254916029459],[-95.25025772685949,38.962554963404834],[-95.25025859156986,38.96256074633841],[-95.25025970664957,38.9625665027652],[-95.25026107115556,38.96257222725548],[-95.25026268424996,38.96257791167839],[-95.25026454152982,38.96258355052219],[-95.25026664442879,38.96258913661098],[-95.25026898739063,38.962594664405685],[-95.25027156954242,38.96260012667581],[-95.25027438651628,38.96260551700917],[-95.25027743618084,38.962610830849094],[-95.25028071539155,38.96261606000992],[-95.25028421971054,38.96262119988039],[-95.25028794476995,38.962626244048195],[-95.25029188620181,38.962631186101255],[-95.25029604072157,38.962636021455495],[-95.25030040277296,38.96264074457181],[-95.2503049668348,38.96264534901062],[-95.2503097284692,38.96264983016061],[-95.25031468211998,38.96265418248267],[-95.2503198210425,38.96265840131062],[-95.25033477168796,38.96265473277956],[-95.25033313969678,38.962787029837735],[-95.25042757105159,38.96278773972052],[-95.25042760343418,38.962785156678805],[-95.25046085850741,38.96278540630934],[-95.25046109665088,38.96276602121776],[-95.25055144392297,38.96276670084741],[-95.25055406543187,38.962554149818835],[-95.2506444666732,38.962554829760954],[-95.25064059576572,38.962868736166016],[-95.25064762944133,38.96286878938581],[-95.2506475365983,38.96287633944215],[-95.25064929416989,38.96287635227637],[-95.25064895369933,38.96290403701679],[-95.25066492404872,38.962904157033236],[-95.25066490761016,38.96290552920774]]]},"properties":{"SDE.FloorAll.FLOORLOCATION":"ROOF"}}]}
