{"type":"FeatureCollection","features":[{"type":"Feature","geometry":{"type":"Polygon","coordinates":[[[-95.24193292392472,38.95739669461507],[-95.2420173223756,38.95739678262588],[-95.24201735853522,38.95737550371172],[-95.24205765214421,38.95737554562487],[-95.24205777001855,38.957306674851964],[-95.24205894267779,38.95730667661018],[-95.24205910582755,38.95721126397333],[-95.24205793313476,38.957211263115546],[-95.24205805100857,38.95714239234171],[-95.24193086974833,38.957142259972215],[-95.24193083959698,38.957159420422265],[-95.24193025443932,38.95715941911974],[-95.24193023284188,38.95717177533133],[-95.24193081918797,38.9571717757609],[-95.24193079073991,38.957188478428],[-95.2419302043937,38.957188477998464],[-95.24193018283141,38.95720083330964],[-95.24193076917769,38.95720083373922],[-95.24193075425273,38.9572095284236],[-95.24193016790638,38.95720952799405],[-95.24193014749726,38.95722188333262],[-95.24193073269053,38.95722188373473],[-95.24193068188144,38.9572520862524],[-95.24193009553474,38.95725208582283],[-95.24193007397237,38.957264441133944],[-95.24193066031924,38.9572644415635],[-95.2419306550486,38.95726741638892],[-95.24193006870176,38.95726741595934],[-95.24193004829263,38.957279771297856],[-95.24193063348638,38.95727977169999],[-95.24193057217109,38.957315922967844],[-95.24192998582387,38.95731592253834],[-95.24192996426152,38.95732827784936],[-95.24193055060886,38.957328278278894],[-95.24193052106038,38.9573458965664],[-95.24192993471291,38.957345896136864],[-95.24192991315047,38.95735825144787],[-95.24193049949812,38.957358251877444],[-95.24193047049974,38.95737541235456],[-95.24193296129809,38.957375414827986],[-95.24193292392472,38.95739669461507]]]},"properties":{"SDE.FloorAll.FLOORLOCATION":"-1"}},{"type":"Feature","geometry":{"type":"Polygon","coordinates":[[[-95.24198068994309,38.957396743974854],[-95.24201732122235,38.957396782598444],[-95.24201735738205,38.95737550368429],[-95.24202277873081,38.957375509174206],[-95.2420227781813,38.95737596698449],[-95.24203860244054,38.95737598380633],[-95.24203860299004,38.957375525996035],[-95.24205765099103,38.957375545597436],[-95.24205768026047,38.95735861403912],[-95.24205826660804,38.95735861446803],[-95.24205828814804,38.957346259156985],[-95.2420577018005,38.95734625872811],[-95.24205773161925,38.957328869359436],[-95.2420583179666,38.95732886978833],[-95.24205833835335,38.95731651444982],[-95.24205775200612,38.957316514020924],[-95.24205776831603,38.95730713263486],[-95.24205894097527,38.95730713439304],[-95.24205896276246,38.95729409235278],[-95.24205954910956,38.957294092781694],[-95.24205957064927,38.95728173747055],[-95.24205898430232,38.957281737041676],[-95.24205906602819,38.957234145182696],[-95.24205965237473,38.95723414561158],[-95.24205967276121,38.95722179027298],[-95.24205908641477,38.95722178984408],[-95.24205910497628,38.957211492864744],[-95.24205793228356,38.95721149200698],[-95.24205795105749,38.95720050919884],[-95.24205853740376,38.957200509627775],[-95.24205855779044,38.95718815428914],[-95.24205797259745,38.95718815388765],[-95.24205800211413,38.9571705355999],[-95.2420585884602,38.95717053602882],[-95.24205861,38.95715818071757],[-95.24205802365408,38.95715818028867],[-95.24205805100857,38.95714239234171],[-95.24203870987985,38.95714237297601],[-95.24203871042933,38.95714191516573],[-95.24202288622244,38.957141898343956],[-95.24202288567288,38.95714235615424],[-95.24196720658722,38.95714229791924],[-95.24196720713711,38.95714184010897],[-95.24195138289511,38.9571418241778],[-95.24195138238026,38.957142281087705],[-95.24193086859512,38.95714225994478],[-95.24193084121222,38.957158047891724],[-95.24193025605462,38.957158046589186],[-95.24193023445721,38.957170402800834],[-95.24193082080325,38.95717040323035],[-95.24193079065185,38.957187563680364],[-95.2419304986495,38.95718756304282],[-95.24193048177261,38.957197402239274],[-95.24193077381013,38.95719740197644],[-95.24193072023256,38.957228976997214],[-95.24193013388602,38.957228976567684],[-95.24193011347687,38.957241331906225],[-95.24193069863519,38.957241333208735],[-95.24193068349678,38.95725071372189],[-95.24193009715003,38.95725071329235],[-95.24193007558772,38.95726306860346],[-95.24193066193452,38.957263069033],[-95.24193065666392,38.95726604385841],[-95.2419300703171,38.957266043428824],[-95.24193004990795,38.957278398767386],[-95.2419306351017,38.957278399169475],[-95.24193057098279,38.9573159238408],[-95.24192998467069,38.957315922510915],[-95.24192996422639,38.95732827874975],[-95.24193055057371,38.95732827917931],[-95.2419305199072,38.95734589653897],[-95.24192993355967,38.95734589610943],[-95.24192991315047,38.95735825144787],[-95.24193049830976,38.95735825275038],[-95.24193046931141,38.95737541322755],[-95.24194893096464,38.957375432417265],[-95.24194893041457,38.95737589022756],[-95.241964754709,38.95737590615905],[-95.2419647552589,38.957375448348756],[-95.24198072726698,38.95737546508812],[-95.24198068994309,38.957396743974854]]]},"properties":{"SDE.FloorAll.FLOORLOCATION":"1"}},{"type":"Feature","geometry":{"type":"Polygon","coordinates":[[[-95.24193046931141,38.95737541322755],[-95.2419810192701,38.95737546572556],[-95.24198101820558,38.95737638044574],[-95.2420047546122,38.957376405236],[-95.24200475682957,38.95737549054325],[-95.24205765099103,38.957375545597436],[-95.24205804765812,38.9571442235555],[-95.2419308652765,38.95714409025818],[-95.24193075254945,38.95720998620646],[-95.2419289946635,38.95720998494525],[-95.24192882443441,38.95730882838939],[-95.24193058344085,38.95730883057842],[-95.24193046931141,38.95737541322755]]]},"properties":{"SDE.FloorAll.FLOORLOCATION":"2"}},{"type":"Feature","geometry":{"type":"Polygon","coordinates":[[[-95.24192863201877,38.95737744685083],[-95.24205890583977,38.95737758247896],[-95.24205905764371,38.95728885036925],[-95.24205905926742,38.95728809878447],[-95.24206054010884,38.95728810066351],[-95.24206058819814,38.95725962303116],[-95.24206063744055,38.9572311454262],[-95.2420591565652,38.95723114444759],[-95.24205915818885,38.9572303928628],[-95.2420593099922,38.957141660751994],[-95.24192903664103,38.95714152422393],[-95.24192888304913,38.95723100791931],[-95.2419280035469,38.95723100682484],[-95.24192795540424,38.95725948445713],[-95.24192790610836,38.95728796206198],[-95.24192878561131,38.95728796315646],[-95.24192863201877,38.95737744685083]]]},"properties":{"SDE.FloorAll.FLOORLOCATION":"ROOF"}}]}
