{"type":"FeatureCollection","features":[{"type":"Feature","geometry":{"type":"MultiPolygon","coordinates":[[[[-95.24679873942792,38.955134973621504],[-95.24683361035251,38.95513492569038],[-95.24683355514438,38.95511044348156],[-95.24694490890226,38.95511029026301],[-95.24694478007592,38.955052906158635],[-95.246923102796,38.955036040482305],[-95.24692298002546,38.954981731503366],[-95.24700088135982,38.95498162382654],[-95.24700011299655,38.95464184706684],[-95.24689254021767,38.954641995475136],[-95.24686502339486,38.954642034200184],[-95.24686504743478,38.95465255928636],[-95.24682841763227,38.95465260961411],[-95.24682839359775,38.95464208452796],[-95.24676949434257,38.9546421656745],[-95.24676963004332,38.954702569955465],[-95.24646106400125,38.95470299527627],[-95.24646102739918,38.95468674980917],[-95.24643260334223,38.95468678851497],[-95.24643273955726,38.95474696480505],[-95.246452959056,38.95474693672258],[-95.24645355164083,38.95501006280901],[-95.24643333206686,38.95501009089162],[-95.24643346859921,38.95507049609897],[-95.24679859263813,38.95506999355643],[-95.24679873942792,38.955134973621504]]],[[[-95.24682564051379,38.95450983815848],[-95.2468256468221,38.954512698799135],[-95.24683724264362,38.95452172145768],[-95.24683735038741,38.954569569195456],[-95.24682577649428,38.95456958455073],[-95.24682578700572,38.95457461904793],[-95.246892387539,38.95457452698526],[-95.24691838643976,38.95457449096281],[-95.246918349415,38.954558016576776],[-95.2468563730701,38.95450979559671],[-95.24682564051379,38.95450983815848]]]]},"properties":{"SDE.FloorAll.FLOORLOCATION":"1"}},{"type":"Feature","geometry":{"type":"Polygon","coordinates":[[[-95.24643346863428,38.95507049519857],[-95.24646083553867,38.955070457517564],[-95.24646082260018,38.95506450821796],[-95.24663007051399,38.95506427566947],[-95.24663008346671,38.9550702249691],[-95.24680181543752,38.95506998807545],[-95.24680181754255,38.955070674859485],[-95.24680533348875,38.95507067003105],[-95.24680527488118,38.955044586262765],[-95.24690439778854,38.95504444906104],[-95.24691907443864,38.95505586912641],[-95.24694742361848,38.95505583032235],[-95.24694725640528,38.95498215474897],[-95.24702586644253,38.9549820467605],[-95.24702509617003,38.95464181213576],[-95.24691736638782,38.954641961345224],[-95.24691717423718,38.954557102766316],[-95.24685637191696,38.95450979556935],[-95.24682564054888,38.95450983725808],[-95.24682593962083,38.95464208753794],[-95.24676920004444,38.954642164994375],[-95.24676930019004,38.95468632473612],[-95.24643260334223,38.95468678851497],[-95.24643346863428,38.95507049519857]]]},"properties":{"SDE.FloorAll.FLOORLOCATION":"2"}},{"type":"Feature","geometry":{"type":"Polygon","coordinates":[[[-95.24682066458034,38.95464209475415],[-95.24677836152095,38.95464215273911],[-95.24677846020197,38.95468608353458],[-95.24642681779969,38.95468656729471],[-95.24642769438063,38.955075079583935],[-95.24680571180771,38.95507455879195],[-95.24680568095783,38.95506083058768],[-95.24694751003437,38.95506063500647],[-95.2469473433036,38.954986502523106],[-95.24702587604932,38.954986393600464],[-95.24702509617003,38.95464181213576],[-95.24691853914325,38.9546419594527],[-95.24691835054118,38.95455896559433],[-95.24685457062141,38.9545093400338],[-95.24682036484849,38.95450938753688],[-95.24682066458034,38.95464209475415]]]},"properties":{"SDE.FloorAll.FLOORLOCATION":"ROOF"}}]}
