{"type":"FeatureCollection","features":[{"type":"Feature","geometry":{"type":"Polygon","coordinates":[[[-95.2408571523821,38.9591732432022],[-95.24087707976756,38.95917325056685],[-95.24087708184666,38.95916958983097],[-95.24092822082068,38.95916960810745],[-95.24092823019997,38.959153133895676],[-95.2409878668931,38.95915315608667],[-95.24098793264847,38.95904149829458],[-95.24092873577678,38.959041477555076],[-95.24092874419274,38.95902774845856],[-95.24093753626018,38.959027752193826],[-95.24093758426356,38.95894538206147],[-95.24092879335963,38.958945378353576],[-95.24092880174045,38.95893165015738],[-95.24101847582173,38.958931683243385],[-95.24101854152856,38.958820025449214],[-95.24092476527184,38.95881999207697],[-95.24092477313191,38.958806720790434],[-95.24085209577613,38.95880669465371],[-95.24085208793761,38.95881996503984],[-95.24080798333206,38.95881994919657],[-95.24080796308128,38.958854619832366],[-95.24080092583763,38.958860108469466],[-95.2408009070973,38.958891162515805],[-95.24080793809594,38.95889665608648],[-95.2408079172927,38.958931606990625],[-95.24084652648318,38.95893162093524],[-95.2408465180864,38.95894534913149],[-95.24083779990536,38.958945345344844],[-95.24083775063248,38.959027715449736],[-95.2408464688237,38.9590277192364],[-95.2408464615801,38.959041447459974],[-95.24078865678887,38.9590414264304],[-95.24078861895421,38.95910366158685],[-95.24077924163335,38.95910365833271],[-95.24077921227337,38.959153080040345],[-95.24083730109375,38.95915310152287],[-95.24083730095421,38.95916957505381],[-95.24085715446223,38.95916958246632],[-95.2408571523821,38.9591732432022]]]},"properties":{"SDE.FloorAll.FLOORLOCATION":"1"}},{"type":"Feature","geometry":{"type":"Polygon","coordinates":[[[-95.24085656758153,38.959170955489434],[-95.24087766772669,38.95917096282357],[-95.24087766820925,38.95916959026582],[-95.24092822082068,38.95916960810745],[-95.24092823019997,38.959153133895676],[-95.2409878668931,38.95915315608667],[-95.24098793264847,38.95904149829458],[-95.24092170282745,38.959041474222616],[-95.24092171120964,38.959027746026514],[-95.24093753626018,38.959027752193826],[-95.24093758426356,38.95894538206147],[-95.24092175923153,38.95894537589413],[-95.24092176761371,38.95893164769793],[-95.24101847585688,38.95893168234302],[-95.24101854152856,38.958820025449214],[-95.24092476530699,38.95881999117657],[-95.24092477313191,38.958806720790434],[-95.24085209577613,38.95880669465371],[-95.24085208793761,38.95881996503984],[-95.24080798333206,38.95881994919657],[-95.24080796308128,38.958854619832366],[-95.24080092583763,38.958860108469466],[-95.2408009070973,38.958891162515805],[-95.24080793809594,38.95889665608648],[-95.24080791732784,38.95893160609024],[-95.24085377993173,38.95893162321108],[-95.24085377153637,38.958945351407266],[-95.24083779990536,38.958945345344844],[-95.24083775063248,38.959027715449736],[-95.24085372228213,38.959027721512214],[-95.24085371388672,38.959041449708295],[-95.24078865678887,38.9590414264304],[-95.24078861895421,38.95910366158685],[-95.24077924163335,38.95910365833271],[-95.24077921227337,38.959153080040345],[-95.24083731042492,38.959153099041224],[-95.24083730095421,38.95916957505381],[-95.24085656809964,38.95916958203137],[-95.24085656758153,38.959170955489434]]]},"properties":{"SDE.FloorAll.FLOORLOCATION":"2"}},{"type":"Feature","geometry":{"type":"Polygon","coordinates":[[[-95.2408583271875,38.95916958333626],[-95.24087942733226,38.95916959067005],[-95.24087942833249,38.959166844654234],[-95.2409282229371,38.95916686301947],[-95.24092823231634,38.95915038880771],[-95.24094522900114,38.95915039491534],[-95.24096632914019,38.959150402233305],[-95.24098786904233,38.959150410098296],[-95.24098793380166,38.959041498321994],[-95.24096639393275,38.959041490457075],[-95.24094529382621,38.95904148313913],[-95.24092170282745,38.959041474222616],[-95.24092171332632,38.95902500093847],[-95.2409375372581,38.959025006178],[-95.2409375458955,38.959010591252806],[-95.24093755639066,38.95899411796863],[-95.24093756840027,38.9589735252104],[-95.24093757777732,38.95895705099833],[-95.24093758541677,38.9589453820889],[-95.24092176038474,38.958945375921566],[-95.24092176976545,38.958928901709456],[-95.24093656863637,38.95892890779159],[-95.24095766870931,38.95892891511114],[-95.24098386948049,38.95892892483861],[-95.24100514382958,38.95892893269157],[-95.24101847796972,38.95892893725494],[-95.24101854268176,38.95882002547667],[-95.24100520856217,38.958820020913286],[-95.24098410855682,38.95882001270202],[-95.24095773351503,38.95882000333287],[-95.24093663347459,38.958819996013325],[-95.24092476527184,38.95881999207697],[-95.24092477313191,38.958806720790434],[-95.24085561285088,38.958806695435385],[-95.24085560497782,38.958819966721954],[-95.24084505497518,38.95881996260315],[-95.24082395493477,38.95881995526314],[-95.24081150037232,38.958819950880006],[-95.24081143537649,38.958928861757784],[-95.24082374335919,38.95892886625721],[-95.24084498999589,38.95892887438137],[-95.2408572979786,38.95892887887723],[-95.24085728858286,38.95894535308932],[-95.24084131695182,38.958945347027395],[-95.24084131044974,38.95895701596422],[-95.240841299897,38.95897349014889],[-95.24084128785934,38.95899408290705],[-95.24084127845985,38.95901055711904],[-95.24084126983799,38.95902497114385],[-95.24085724148696,38.959024977205836],[-95.24085723093793,38.95904145139034],[-95.24082338421998,38.959041439030415],[-95.24080228411346,38.95904143168645],[-95.2407921738753,38.959041427214004],[-95.24079213604368,38.959103662370445],[-95.24078217232561,38.95910365958166],[-95.24078214512485,38.959150335300926],[-95.24080207250384,38.959150342678484],[-95.24082313570473,38.95915035004473],[-95.24084016929248,38.95915035704598],[-95.24084015992786,38.95916683035737],[-95.24085832934175,38.959166837347894],[-95.2408583271875,38.95916958333626]]]},"properties":{"SDE.FloorAll.FLOORLOCATION":"3"}},{"type":"Feature","geometry":{"type":"Polygon","coordinates":[[[-95.24073406095687,38.95918921453119],[-95.24092952809342,38.95918928597023],[-95.24092953703078,38.95917509996405],[-95.24093510410428,38.95917510175936],[-95.2409365700285,38.95917510239559],[-95.24093657862608,38.959159771822684],[-95.24099489715354,38.959159793284805],[-95.24099489793234,38.959158649645914],[-95.24099493335498,38.95909732918227],[-95.24099496989565,38.9590360096462],[-95.24099497070961,38.959034865106915],[-95.24098940249394,38.95903486328699],[-95.24098940978564,38.95902204981093],[-95.24096244946027,38.959022040036025],[-95.24096249177222,38.95895111084946],[-95.2410199294507,38.958951131169734],[-95.24101993785496,38.95893831862139],[-95.24102550606302,38.95893832043979],[-95.24102550687644,38.95893717590048],[-95.24102554223731,38.95887585633613],[-95.24102557875132,38.95881453679884],[-95.24102557956472,38.95881339225954],[-95.24093326811548,38.95881335860143],[-95.24093327515902,38.958801231854196],[-95.24093181036062,38.958801232145774],[-95.24088843760696,38.95880121572341],[-95.24084506597137,38.958801200212655],[-95.24084360120808,38.95880119960269],[-95.24084359414917,38.95881332634994],[-95.24080051455034,38.95881331056241],[-95.2408005137333,38.95881445510174],[-95.24080047817729,38.95887577466635],[-95.24080044143287,38.95893709510363],[-95.24080044065096,38.958938238742554],[-95.2408435191727,38.95893825450266],[-95.24084351898748,38.9589398559792],[-95.24083091665175,38.9589398516871],[-95.24082945188557,38.95893985107694],[-95.24082939635822,38.959033203389595],[-95.24083086112631,38.959033203999724],[-95.2408434634787,38.959033208291864],[-95.2408434621051,38.959034810641384],[-95.24078162774796,38.959034788346685],[-95.2407816269657,38.95903593198561],[-95.24078162462183,38.95904027945057],[-95.24073414942691,38.95904026177864],[-95.24073413452591,38.95906657455937],[-95.24073091063666,38.95906657354156],[-95.2407309098185,38.95906771808087],[-95.24073089800889,38.959087624109856],[-95.24073088619934,38.95910753013876],[-95.2407308854163,38.95910867377763],[-95.2407341093074,38.959108674795395],[-95.24073406095687,38.95918921453119]]]},"properties":{"SDE.FloorAll.FLOORLOCATION":"ROOF"}}]}
