{"type":"FeatureCollection","features":[{"type":"Feature","geometry":{"type":"Polygon","coordinates":[[[-95.2518631765891,38.95851206355637],[-95.251867068268,38.95851106801849],[-95.25186714331956,38.95851124553601],[-95.25200039694535,38.95851096292524],[-95.25199899613084,38.95808378379059],[-95.25180060121944,38.95808417974328],[-95.25180009095718,38.95792624705233],[-95.25179447980999,38.957926253743736],[-95.25174049243728,38.957926314213736],[-95.25173488824426,38.95792632016589],[-95.2517361883482,38.95832342311232],[-95.25180961610404,38.95849834275545],[-95.25181346703128,38.9584974156477],[-95.2518150189308,38.958501112301924],[-95.25182852558406,38.95849765630935],[-95.2518269736839,38.95849395965527],[-95.2518477204128,38.95848865111578],[-95.25184927119574,38.95849234684185],[-95.25185435325665,38.95849104606581],[-95.2518631765891,38.95851206355637]]]},"properties":{"SDE.FloorAll.FLOORLOCATION":"-1"}},{"type":"Feature","geometry":{"type":"Polygon","coordinates":[[[-95.251815994549,38.958512683711206],[-95.25181613370061,38.958512726663265],[-95.25182140856639,38.95851133582996],[-95.2518214494643,38.958511174579],[-95.25181751295251,38.95850207173848],[-95.25185408823637,38.958492429471804],[-95.25186265175998,38.95851223226305],[-95.25186850597062,38.95851217995841],[-95.25200175801658,38.958510987973575],[-95.25199556830488,38.95808383412731],[-95.25179300333015,38.95808564709221],[-95.251793216427,38.95810017536931],[-95.2517376144344,38.95810067251571],[-95.25173740006204,38.95808605859169],[-95.25173717816692,38.958085917247296],[-95.25173153757959,38.95808596829936],[-95.25173146489048,38.958085997218056],[-95.25173199987746,38.958122496857996],[-95.25173236589902,38.95812249381789],[-95.25173236847286,38.958122665111475],[-95.25173369403431,38.95812265327253],[-95.25173666579721,38.958325126026836],[-95.25177765212196,38.95841990502681],[-95.25177605870066,38.95842033409279],[-95.251815994549,38.958512683711206]]]},"properties":{"SDE.FloorAll.FLOORLOCATION":"1"}},{"type":"Feature","geometry":{"type":"Polygon","coordinates":[[[-95.25174183969712,38.95851418668647],[-95.2517422085481,38.95851422967578],[-95.2518086273174,38.958497233344],[-95.25181462153631,38.9585115111194],[-95.25181475946466,38.958511555844886],[-95.25182005022825,38.95851020143744],[-95.25182009343256,38.958510040241144],[-95.25181625962905,38.95850090829218],[-95.25186151647853,38.95848932958513],[-95.25187076653712,38.958511365658964],[-95.25200039694535,38.95851096292524],[-95.25199954360384,38.95825107295648],[-95.25198592446633,38.95825109984809],[-95.2519862128053,38.958339014776016],[-95.2518093507282,38.95833877204218],[-95.25180873996709,38.95815237090928],[-95.25180939680702,38.95815236935466],[-95.25180939385635,38.95815158431856],[-95.2519855963939,38.95815123284601],[-95.2519859242993,38.95825098538868],[-95.25199954343678,38.95825095849707],[-95.2519992258768,38.95815402703127],[-95.25199930944444,38.95815279793986],[-95.25242058482522,38.95815195438783],[-95.25242047115822,38.958117405078674],[-95.25199910826957,38.95811824835386],[-95.25199899646493,38.95808401270942],[-95.25199881279616,38.95808392724616],[-95.25179648495617,38.95808433181684],[-95.25179654680872,38.95809886101519],[-95.25178991617658,38.95809887418402],[-95.25178930835544,38.957913170663225],[-95.25178740367997,38.957913174183574],[-95.25174901327293,38.95791325106506],[-95.25174710859747,38.95791325458473],[-95.251747717426,38.95809895903353],[-95.25174094134985,38.958098972357035],[-95.25174089324848,38.95808435696684],[-95.25174067254156,38.95808421474937],[-95.2517350311884,38.95808422612961],[-95.25173495853431,38.95808425414788],[-95.25173507787866,38.95812075655296],[-95.25173830200492,38.958120750061696],[-95.25173896396429,38.958322780540314],[-95.2517389710047,38.958323044765876],[-95.25179849619623,38.95847309906008],[-95.25174224943515,38.95848749943771],[-95.25174192971525,38.95848749906922],[-95.25174192449674,38.95848914728435],[-95.2517302796867,38.95849212829299],[-95.25173922125435,38.95851342887706],[-95.2517418444808,38.95851275745847],[-95.25174183969712,38.95851418668647]]]},"properties":{"SDE.FloorAll.FLOORLOCATION":"2"}},{"type":"Feature","geometry":{"type":"Polygon","coordinates":[[[-95.25181458274302,38.95851155886604],[-95.2518147218246,38.95851160361889],[-95.25182001146996,38.95851024828367],[-95.25182005352107,38.95851008706005],[-95.25181621730617,38.95850095775754],[-95.25182704607813,38.958498183605805],[-95.25182698797275,38.95849804524256],[-95.25182710801396,38.95849801564372],[-95.25182708474375,38.958497961018715],[-95.25182818066642,38.958497680578155],[-95.25182661702614,38.95849395931275],[-95.25184791783242,38.95848850168569],[-95.2518494814737,38.9584922229508],[-95.25185047364002,38.95849196889001],[-95.25185063334551,38.958491928515315],[-95.25185071363796,38.95849211967547],[-95.2518614174052,38.958489354273645],[-95.25187060681704,38.95851110953059],[-95.25187086106352,38.958511398541006],[-95.2519255877833,38.95851127441298],[-95.25192557942769,38.958508757997485],[-95.25199697891192,38.958508504486964],[-95.25199977127389,38.958510964318485],[-95.2520003577011,38.95851096289635],[-95.25199877483941,38.95808401286407],[-95.25199859117056,38.958083927400835],[-95.25179626357152,38.95808438514903],[-95.25179633122508,38.958098913583676],[-95.25174074019765,38.95809903968706],[-95.25174067130364,38.95808442470524],[-95.2517404506317,38.958084281587375],[-95.25173481036171,38.958084294795746],[-95.25173473651941,38.95808432368708],[-95.25173487204356,38.95812082557444],[-95.25173809505162,38.95812081815547],[-95.25173884357119,38.95832284888335],[-95.25173884551069,38.95832309586474],[-95.25177878627377,38.95841813667072],[-95.25177565821429,38.95841893761641],[-95.25181458274302,38.95851155886604]]]},"properties":{"SDE.FloorAll.FLOORLOCATION":"3"}},{"type":"Feature","geometry":{"type":"MultiPolygon","coordinates":[[[[-95.25180090672036,38.95808760352487],[-95.25180094538344,38.95809943390868],[-95.25179827078145,38.958099408365506],[-95.2517986960922,38.958229245182636],[-95.25179902416862,38.95832928342351],[-95.25181283896143,38.958362194621934],[-95.25181475423425,38.9583667578544],[-95.25181795516113,38.958374384178555],[-95.25185622731128,38.95846555700481],[-95.25186422123153,38.95848460188433],[-95.2518739488178,38.95850777490494],[-95.25199598944909,38.95850753114602],[-95.25199552570467,38.95836590722277],[-95.25199507605375,38.958228849232725],[-95.25199461150984,38.958087216274926],[-95.25180090672036,38.95808760352487]]],[[[-95.25174962284161,38.95809893660556],[-95.25174771784818,38.95809891848849],[-95.25174262598426,38.95809886899324],[-95.25174268873398,38.958117857469944],[-95.25174335969078,38.958322803621435],[-95.25174338486983,38.95833046822788],[-95.2518126925138,38.95849557501492],[-95.25183892588103,38.95848886173765],[-95.2518621990649,38.95848290651789],[-95.25185463298725,38.958464881149766],[-95.2517976686282,38.95832917559119],[-95.25179764706493,38.958322694377785],[-95.25179697555944,38.95811784735198],[-95.25179691502915,38.95809939515652],[-95.2517899181717,38.95809932754704],[-95.25178816435327,38.95809931031017],[-95.25178801219839,38.95809882995618],[-95.25178770676325,38.958005572158484],[-95.2517874063503,38.95791396642288],[-95.25177543934188,38.95795070776291],[-95.25176840471727,38.95795072126799],[-95.25176137005764,38.957950735673016],[-95.25174901709603,38.957914043331684],[-95.25174931630603,38.95800564904011],[-95.25174962284161,38.95809893660556]]]]},"properties":{"SDE.FloorAll.FLOORLOCATION":"ROOF"}}]}
