{"type":"FeatureCollection","features":[{"type":"Feature","geometry":{"type":"MultiPolygon","coordinates":[[[[-95.24956799221661,38.95432684060488],[-95.24964359558206,38.95432674064254],[-95.24964359757595,38.954328113255535],[-95.24964945895033,38.95432810540106],[-95.24964945580312,38.95432673276072],[-95.2497156818851,38.95432664552032],[-95.2497156838804,38.95432801813331],[-95.24972154521973,38.9543280111756],[-95.24972154210616,38.95432663763483],[-95.24974000345881,38.95432661323852],[-95.24974000657272,38.954327986779276],[-95.2497458667939,38.95432797889257],[-95.24974586364483,38.95432660625223],[-95.24982234542792,38.95432650448001],[-95.24982234854342,38.954327878020784],[-95.2498282087646,38.95432787012995],[-95.24982820676708,38.95432649751692],[-95.24990380897864,38.95432639735756],[-95.24990358237122,38.95422183276567],[-95.24994204593764,38.954221782610894],[-95.24994225871572,38.954319940065325],[-95.25029602081247,38.95431947253036],[-95.25034041509896,38.95431941329575],[-95.25034110920845,38.954099301089954],[-95.25024470164271,38.95409942899364],[-95.25024466010949,38.95408023191917],[-95.24999206576953,38.95408056560734],[-95.24999210809573,38.954099888873834],[-95.24995372077301,38.95409993904968],[-95.249953497004,38.95399707964259],[-95.24982485683417,38.953997249236515],[-95.2498249213589,38.95402745171765],[-95.2496406041322,38.954027694583125],[-95.24964058017945,38.954016711686535],[-95.24962265325196,38.95399256166518],[-95.24958986533301,38.9540074056808],[-95.24958992775356,38.954035998526535],[-95.2495743971343,38.954036019423796],[-95.24957438013578,38.954028239645815],[-95.24956734722927,38.95402824854274],[-95.24956741478964,38.95405982366433],[-95.24956595001939,38.95405982586572],[-95.24956595627548,38.95406257204688],[-95.24956742104573,38.9540625698455],[-95.24956751055508,38.9541037552505],[-95.24956604466585,38.95410375652413],[-95.2495660509219,38.954106502705265],[-95.2495675156931,38.95410650050392],[-95.24956752231044,38.95410947470356],[-95.2495508201167,38.95410949664394],[-95.24955089425141,38.95414404686538],[-95.24956759760644,38.954144024952356],[-95.24956760520254,38.95414768590874],[-95.24956614046556,38.95414768720973],[-95.24956614556847,38.954150433363516],[-95.24956761149373,38.95415043118949],[-95.24956769985013,38.95419161656683],[-95.2495662351122,38.95419161786781],[-95.2495662413683,38.95419436404894],[-95.24956770614129,38.95419436184756],[-95.2495677944978,38.95423554722476],[-95.24956632975902,38.95423554852575],[-95.24956633601508,38.95423829470687],[-95.24956780078902,38.95423829250549],[-95.24956789029879,38.95427947790988],[-95.24956642440596,38.95427947918351],[-95.249566430662,38.95428222536462],[-95.24956789543683,38.95428222316327],[-95.24956798494674,38.9543234085675],[-95.24956652020609,38.954323409868486],[-95.24956652530902,38.95432615602222],[-95.24956799123791,38.95432615384821],[-95.24956799221661,38.95432684060488]]],[[[-95.24977257533574,38.9550477683372],[-95.24992723836503,38.955047563524424],[-95.24992714480253,38.955004548545304],[-95.24996652185101,38.9550044966079],[-95.24996660814813,38.95504407954979],[-95.25048586860669,38.95504339290253],[-95.25048525113525,38.95475921579606],[-95.25029697626687,38.954759465930685],[-95.25011514689707,38.95475970641431],[-95.2501154699961,38.95490820078318],[-95.24997276099289,38.9549083892733],[-95.24997263801066,38.954851533486014],[-95.24994837048973,38.954851566201775],[-95.24994841732803,38.95487290921927],[-95.24993136638669,38.95487293105764],[-95.24993136139099,38.95487110145257],[-95.24991846813454,38.95487111826694],[-95.24991847194173,38.95487294874499],[-95.2497757133885,38.9548731367169],[-95.24977570777816,38.954870492389816],[-95.24977219184211,38.954870497308285],[-95.24977257533574,38.9550477683372]]]]},"properties":{"SDE.FloorAll.FLOORLOCATION":"-1"}},{"type":"Feature","geometry":{"type":"Polygon","coordinates":[[[-95.24953789788577,38.955045789102286],[-95.24977467168846,38.95504547668233],[-95.24977430338289,38.95487537976433],[-95.24991940976534,38.954875188003165],[-95.24991941362826,38.95487716538222],[-95.249931767838,38.95487714930014],[-95.24993187597839,38.95492702835422],[-95.2499195217599,38.95492704443631],[-95.24991953564415,38.95493345157339],[-95.24993188986375,38.954933435491306],[-95.24993199848687,38.954983747144546],[-95.24991964422347,38.95498376412702],[-95.24991965814274,38.95499017036365],[-95.24992839603573,38.954990158625954],[-95.24992842764834,38.95500480247768],[-95.24997297010935,38.955004743283276],[-95.24997280338529,38.954928066721514],[-95.25045279682952,38.95492743118606],[-95.2504542616177,38.95492742897349],[-95.25047916976025,38.954927396022725],[-95.2504856163935,38.954927387584576],[-95.25048456800289,38.954445065995266],[-95.25039806362469,38.95444518015338],[-95.25039794629845,38.954390810985835],[-95.25039733370585,38.954390328722056],[-95.25053166801595,38.9542855378496],[-95.25048443377088,38.95424834437194],[-95.25048421265106,38.95414670260295],[-95.25032949159551,38.954146907636776],[-95.25032938768605,38.95409931599546],[-95.25023649717107,38.95409943898429],[-95.25023645667623,38.95408113504827],[-95.25011531793099,38.95408129452508],[-95.2499891373313,38.95408146135842],[-95.2499891828815,38.954102511448404],[-95.24991299455375,38.95410261217458],[-95.24991290120792,38.954059265546185],[-95.24990586829837,38.95405927446368],[-95.24990582404673,38.95403878496578],[-95.24983930505705,38.95403887257017],[-95.2498392814006,38.95402811859257],[-95.24978015891637,38.95402819686195],[-95.24965291301247,38.95402836509367],[-95.24965293798168,38.95404003384654],[-95.2496359426268,38.9540400560541],[-95.24963594544722,38.95404119977557],[-95.24960605579868,38.95404123963328],[-95.24960605297869,38.95404009591176],[-95.24958905762377,38.95404011811245],[-95.24958903400535,38.95402936413478],[-95.24958200109882,38.95402937303265],[-95.24958206699921,38.95405980446004],[-95.24957708521515,38.95405981064647],[-95.24957709147165,38.95406255682764],[-95.24958207329095,38.95406254974087],[-95.249582087797,38.95406941471622],[-95.24958267418745,38.95406941330631],[-95.24958273481039,38.95409778530919],[-95.24958214960787,38.95409778584606],[-95.2495821616557,38.95410373511845],[-95.24957718102164,38.95410374133225],[-95.24957718612498,38.95410648748602],[-95.24958216794738,38.954106480399254],[-95.24958218180095,38.954112887536795],[-95.24958423292799,38.954112884825676],[-95.24958426381637,38.95412707084075],[-95.2495842717396,38.954130960715986],[-95.24958280700297,38.95413096201719],[-95.24958282881471,38.954141258129624],[-95.24958224357681,38.95414125956689],[-95.2495822574654,38.95414766580404],[-95.24957727567514,38.9541476719905],[-95.24957728193162,38.954150418171615],[-95.249582262604,38.95415041105748],[-95.24958235212206,38.95419159646211],[-95.2495773703287,38.95419160264857],[-95.24957737658524,38.95419434882968],[-95.24958235837879,38.95419434264327],[-95.24958244677889,38.95423552712004],[-95.24957746498242,38.954235533306495],[-95.24957747123894,38.95423827948759],[-95.24958245303557,38.95423827330119],[-95.24958254143584,38.95427945777778],[-95.24957756075437,38.95427946489199],[-95.24957756589278,38.954282210145365],[-95.24958254769253,38.95428220395892],[-95.24958263724598,38.9543233884628],[-95.24957765540833,38.9543233955496],[-95.24957766054675,38.954326140802955],[-95.2495826423496,38.95432613461652],[-95.24958273190315,38.95436731912022],[-95.24957775006239,38.95436732620703],[-95.24957775635397,38.95437007148772],[-95.24958273815986,38.95437006530131],[-95.24958283661559,38.95441582643672],[-95.24970620371248,38.95441566358566],[-95.24970638459733,38.95449917718658],[-95.24964894926586,38.95449925306297],[-95.24964900346856,38.954523964135895],[-95.24953530551852,38.954524113884375],[-95.24953541953931,38.95457697884495],[-95.24953251076917,38.95457698283896],[-95.24953252597597,38.95458412630929],[-95.24953543589955,38.9545841223427],[-95.24953555620617,38.95464011830786],[-95.24926303364572,38.95464047697266],[-95.24926279379997,38.954529277226385],[-95.24921107324484,38.95452934517768],[-95.24921104867346,38.95451790534403],[-95.2491514167508,38.95451798383282],[-95.2491514413125,38.954529423666436],[-95.24913927991406,38.954529439732596],[-95.24913929719915,38.95453768545164],[-95.24911468237295,38.954537717861044],[-95.24911463364687,38.954514828289454],[-95.24910833364083,38.9545148365246],[-95.24910836638237,38.95453039605274],[-95.2490163537197,38.954530516375776],[-95.24901669242077,38.95468747728483],[-95.24902841292284,38.95468746158423],[-95.24902843397004,38.9546973007589],[-95.2490252112579,38.954697304501025],[-95.24902547441603,38.95481946190386],[-95.24904250228177,38.95481943965149],[-95.24904255284028,38.95484326023219],[-95.2490255249688,38.95484328248458],[-95.24902584361823,38.95499109097181],[-95.24915565835926,38.954990920349005],[-95.24915564483406,38.954984743031176],[-95.24918201893993,38.95498470819017],[-95.24918200923561,38.95498036045003],[-95.24918464675085,38.954980357238426],[-95.24918462910995,38.954972120523614],[-95.24919078256602,38.954972112411234],[-95.24919069919156,38.95493344427097],[-95.24950074149147,38.95493303677258],[-95.24950071137509,38.95491897965152],[-95.24953002425755,38.95491894054908],[-95.2495300555329,38.95493299769746],[-95.24953765413522,38.95493298780108],[-95.24953776297605,38.95498355361194],[-95.2495315217742,38.95498356236483],[-95.24953153565832,38.95498996860155],[-95.24953777686075,38.95498995984864],[-95.24953789788577,38.955045789102286]]]},"properties":{"SDE.FloorAll.FLOORLOCATION":"1"}},{"type":"Feature","geometry":{"type":"Polygon","coordinates":[[[-95.24953579987137,38.95504373320428],[-95.24992154721367,38.95504322431824],[-95.2499214263246,38.954987917785836],[-95.24996351359806,38.95498786254351],[-95.24996363140178,38.95504179553521],[-95.25011597310981,38.955041594891746],[-95.25011596864151,38.955039306576],[-95.25012769035482,38.95503929079162],[-95.2501276948235,38.95504157910745],[-95.25048582254274,38.95504110540305],[-95.25048452161015,38.95444254957676],[-95.25032527285605,38.95444276080008],[-95.25041603541574,38.95437196008024],[-95.25032749291293,38.954302759511684],[-95.25032748452578,38.95429852445734],[-95.2499110839508,38.95429907444855],[-95.24991105538416,38.954286221402036],[-95.24990402245204,38.95428623031943],[-95.24990403657661,38.95429230491054],[-95.24989934680161,38.95429231082785],[-95.249899346112,38.95429185389047],[-95.24988000638577,38.954291879106066],[-95.24988004244865,38.954308811274586],[-95.24975916643949,38.95430897121352],[-95.24973162102431,38.95430900723373],[-95.24960781438058,38.95430916959369],[-95.24960777834787,38.954292238325465],[-95.24958843746823,38.95429226346507],[-95.24958843812087,38.95429272130286],[-95.24958433700941,38.954292726752584],[-95.24958432344691,38.95428654943446],[-95.24958022118268,38.9542865548567],[-95.24958022064816,38.95428665758366],[-95.24958029189484,38.95431950261791],[-95.24957472369996,38.954319510214155],[-95.2495747299914,38.95432225549488],[-95.24957912543647,38.954322249818084],[-95.24957921495294,38.95436343522216],[-95.24957481950534,38.954363440899],[-95.24957482464366,38.954366186152335],[-95.24957922009142,38.95436618047552],[-95.24957931969806,38.954411941638305],[-95.24988697615217,38.954411536043466],[-95.24988715159571,38.95449282168192],[-95.2496453781911,38.954493140956245],[-95.24964543438648,38.954519224642226],[-95.2495374824145,38.954519366503966],[-95.24953773277954,38.954635142008556],[-95.24926022837857,38.95463550775168],[-95.24925997032663,38.954515759452995],[-95.24910466210083,38.95451596336069],[-95.24910469446925,38.95453108758822],[-95.24901004427215,38.95453121201642],[-95.24901040537173,38.95469892597494],[-95.24902212699381,38.95469891120274],[-95.24902275242232,38.95498949455515],[-95.24915080918943,38.95498932638561],[-95.24915076836034,38.95497056371239],[-95.24918604885228,38.954970517583675],[-95.24918595540942,38.954927333165465],[-95.24918654177193,38.95492733265795],[-95.24921232949386,38.954927298317585],[-95.24921233707164,38.95493095927376],[-95.24953555543082,38.95493053444631],[-95.24953566572829,38.954981537385954],[-95.24952794820571,38.954981548066065],[-95.24952796420888,38.9549887600482],[-95.2495356816972,38.954988750268456],[-95.24953579987137,38.95504373320428]]]},"properties":{"SDE.FloorAll.FLOORLOCATION":"2"}},{"type":"Feature","geometry":{"type":"MultiPolygon","coordinates":[[[[-95.24996833599275,38.95506787321561],[-95.2500343480713,38.95506778610814],[-95.25003430365138,38.955047566976354],[-95.25002131186005,38.95504127469426],[-95.2500212656008,38.955019856889635],[-95.25011019584363,38.9550197392494],[-95.25011020212088,38.95502248543033],[-95.25002478781822,38.955022598144495],[-95.25002482480433,38.955039744824575],[-95.25003781659568,38.95504603710631],[-95.25003786401719,38.95506778118169],[-95.25011029964355,38.955067685970725],[-95.25011023035867,38.95503588190586],[-95.2501136135499,38.95503587743337],[-95.25013822854913,38.955035844811974],[-95.25014174564652,38.955035839909726],[-95.25014045308008,38.95444025915192],[-95.25010893921083,38.95444030117506],[-95.250108946179,38.95444350429355],[-95.25004493158715,38.95444358833909],[-95.25004508283259,38.95451330707871],[-95.25004509082314,38.95451749255658],[-95.250079962454,38.95451744727837],[-95.2500799798712,38.95452545507446],[-95.25008349579008,38.9545254501466],[-95.25008343181025,38.95449570550465],[-95.2501106841185,38.95449566965705],[-95.25011078574423,38.954542574512935],[-95.25011019934988,38.95454257592557],[-95.25011020500612,38.95454486336839],[-95.25011079021232,38.95454486282887],[-95.25011089331934,38.954591996630825],[-95.2501103069246,38.95459199804342],[-95.25011031142772,38.954594285458924],[-95.25011089778751,38.9545942849467],[-95.25011099974154,38.95464141872117],[-95.25011041338135,38.954641419233376],[-95.25011041900264,38.95464370757661],[-95.25011100536278,38.95464370706438],[-95.25011110731697,38.95469084083862],[-95.25011052095641,38.95469084135083],[-95.25011052657766,38.95469312969405],[-95.25011111178507,38.95469312915452],[-95.25011121489253,38.95474026295591],[-95.25011062853159,38.9547402634681],[-95.2501106329997,38.954742551783994],[-95.25011121936066,38.954742551271764],[-95.25011123743747,38.95475101690548],[-95.2500835325403,38.954751053736835],[-95.25008351221506,38.95474163725751],[-95.24997486385398,38.95474178104166],[-95.24996487316365,38.954749608229214],[-95.24991903576712,38.954749669145244],[-95.24991918791996,38.95481956905391],[-95.24991933891995,38.95488946893482],[-95.24992384405486,38.95488946314231],[-95.24992392358689,38.954925748342895],[-95.24993008972355,38.95492574049211],[-95.2499301009558,38.9549310291462],[-95.24992393481872,38.954931036996946],[-95.24992404303582,38.954981151272456],[-95.24993020917731,38.95498114342171],[-95.24993021479345,38.95498378774869],[-95.2499628797211,38.95498374423151],[-95.24996267503734,38.954889412674845],[-95.24996794894282,38.954889405288355],[-95.24996833599275,38.95506787321561]]],[[[-95.24965508374011,38.95451251681718],[-95.24965514688675,38.95454180362153],[-95.249884592829,38.95454150103431],[-95.24988453306017,38.95451351928615],[-95.2498845296224,38.954512213329686],[-95.24965508374011,38.95451251681718]]],[[[-95.249526925019,38.95490737640664],[-95.2495304409569,38.954907371495565],[-95.24953030818553,38.95484582278851],[-95.24952679109752,38.95484582767221],[-95.24952217977022,38.95484583363374],[-95.24952217731276,38.95484491793083],[-95.24952276367459,38.95484491742157],[-95.24952276052983,38.95484354478131],[-95.24952715600733,38.954843539106456],[-95.24952715221025,38.954841708628365],[-95.24953799434824,38.95484169366754],[-95.24953794808152,38.95482007218189],[-95.2495378820363,38.95478952629689],[-95.24953786880387,38.95478357789784],[-95.24952702670981,38.954783591958325],[-95.24952703050688,38.95478542243639],[-95.24925325848561,38.95478578209202],[-95.24925338935454,38.95484618710563],[-95.24949426478675,38.954845869847404],[-95.24949439336955,38.954905360057936],[-95.2495269197427,38.95490531698231],[-95.249526925019,38.95490737640664]]]]},"properties":{"SDE.FloorAll.FLOORLOCATION":"3"}},{"type":"Feature","geometry":{"type":"Polygon","coordinates":[[[-95.24996901645116,38.95507382031644],[-95.25011641446187,38.955073625877645],[-95.25011635046772,38.955043881237074],[-95.2504858686417,38.95504339200214],[-95.25048456803792,38.95444506509483],[-95.25042619548613,38.954445142560765],[-95.25042602775926,38.95436794507604],[-95.25053175251581,38.95428547226165],[-95.25048443377088,38.95424834437194],[-95.25048434655551,38.954146702173624],[-95.25032946273197,38.95414690785344],[-95.25032980104292,38.95430291518945],[-95.25032628513515,38.95430292012473],[-95.25032584809227,38.95410206640082],[-95.25023298643725,38.95410218917018],[-95.25023294713144,38.95408388436108],[-95.24999265950075,38.954084202614546],[-95.24999270505197,38.95410525270445],[-95.24991417241661,38.954105356405606],[-95.24991416614705,38.95410261022441],[-95.24991592524914,38.954102607790425],[-95.2499158307483,38.954059261134674],[-95.24991290124294,38.9540592646458],[-95.24991283332162,38.954028021170316],[-95.24958199975862,38.954028458257376],[-95.24958206699921,38.95405980446004],[-95.24957708521515,38.95405981064647],[-95.24957775635397,38.95437007148772],[-95.2495827381949,38.954370064400926],[-95.24958283665063,38.95441582553635],[-95.24959338550913,38.95441581172545],[-95.24959339805848,38.95442130318724],[-95.24970621630555,38.95442115414706],[-95.24970624157532,38.95443305271884],[-95.24968650704926,38.95443307845123],[-95.24968661496911,38.95448307736913],[-95.24970634950907,38.954483051636736],[-95.24970638459733,38.95449917718658],[-95.2497057728341,38.95449917799531],[-95.24964840330205,38.954499253629855],[-95.24964845635142,38.95452396467547],[-95.24953530551852,38.954524113884375],[-95.24953541953931,38.95457697884495],[-95.24952928575622,38.9545769865403],[-95.24952942241762,38.95464012600321],[-95.24926362004089,38.95464047556439],[-95.24926334803405,38.95451417502818],[-95.24910833183817,38.95451437865944],[-95.24910836641743,38.95453039515231],[-95.2490163537197,38.954530516375776],[-95.24901669242077,38.95468747728483],[-95.24902519021116,38.95468746532632],[-95.2490252388993,38.954710117875194],[-95.24902584361823,38.95499109097181],[-95.24915565835926,38.954990920349005],[-95.249155618647,38.954972158603475],[-95.24919078256602,38.954972112411234],[-95.24919069919156,38.95493344427097],[-95.24926249293249,38.95493334968423],[-95.2495300555329,38.95493299769746],[-95.24953017825237,38.954989969745064],[-95.24953777686075,38.95498995984864],[-95.2495378979208,38.95504578820192],[-95.24992851631974,38.95504527318296],[-95.24992839603573,38.954990158625954],[-95.24993201240727,38.95499015338119],[-95.24996883502935,38.95499010484016],[-95.24996901645116,38.95507382031644]]]},"properties":{"SDE.FloorAll.FLOORLOCATION":"ROOF"}}]}
