{"type":"FeatureCollection","features":[{"type":"Feature","geometry":{"type":"Polygon","coordinates":[[[-95.24304753926452,38.960055400981176],[-95.24306673342952,38.960055272469006],[-95.24306672834665,38.96005481092014],[-95.24312294945553,38.96005425961385],[-95.24312295817408,38.96005471674302],[-95.24338511197598,38.960052975534104],[-95.24342415870291,38.95996693548468],[-95.24342250169043,38.959966477020416],[-95.24345612799739,38.95989238723446],[-95.24345226013602,38.959891316548514],[-95.24344683569494,38.95988981682297],[-95.24337605806487,38.95987023668305],[-95.24338193597076,38.95985729782838],[-95.24338492865546,38.959856183865064],[-95.24338700852672,38.95985160100866],[-95.24323880025955,38.95981059983894],[-95.24323788721155,38.95981261219885],[-95.2431812617838,38.95979660381844],[-95.2431823302014,38.95979424818081],[-95.24316175176978,38.959788555219276],[-95.24315901143139,38.959794593170194],[-95.2431795898295,38.95980028703258],[-95.24316739839766,38.95982715112193],[-95.24315980198037,38.959825049091606],[-95.24315627864591,38.95983281320031],[-95.243162216903,38.95983445673541],[-95.24314934724275,38.95986281695545],[-95.24314340783033,38.95986117339224],[-95.24313977342021,38.95986918089432],[-95.24314571286835,38.959870823557374],[-95.2431331855023,38.95989842767425],[-95.24312724605214,38.959896785010606],[-95.24312362541266,38.95990476490166],[-95.24312956371016,38.95990640753805],[-95.2431170363315,38.95993401165313],[-95.24311109806712,38.959932368115645],[-95.24310747627074,38.95994034797881],[-95.24311341572407,38.95994199064345],[-95.24310333444721,38.95996420500299],[-95.24309061850617,38.95996068708078],[-95.24308699670605,38.959968666943205],[-95.243095979535,38.95997115161852],[-95.2430835481362,38.95999854352057],[-95.24307448080782,38.959996035205826],[-95.24307095745546,38.96000379931181],[-95.24308259113036,38.960007009419],[-95.24308254655277,38.96000711650627],[-95.24306362953202,38.96004879094614],[-95.24305049939113,38.96004887799122],[-95.24304753926452,38.960055400981176]]]},"properties":{"SDE.FloorAll.FLOORLOCATION":"1"}},{"type":"Feature","geometry":{"type":"Polygon","coordinates":[[[-95.24304378583071,38.960058765234834],[-95.24338396222944,38.96005649903191],[-95.2433867227312,38.96005041739529],[-95.24338599765707,38.96005042178654],[-95.24342510101764,38.9599642614177],[-95.24345793440489,38.959891915579334],[-95.24345461922985,38.95989099862429],[-95.24343639665396,38.95988595743116],[-95.24343600515982,38.95988682051099],[-95.24341832734031,38.95988192925246],[-95.24341871879952,38.95988106707304],[-95.24339744827768,38.95987518286263],[-95.24339705681822,38.959876045041945],[-95.243379378969,38.95987115467781],[-95.24337977042863,38.95987029249856],[-95.24337755957957,38.95986968027506],[-95.24337834253397,38.9598679550161],[-95.24337723824513,38.959867649381955],[-95.24338193597076,38.95985729782838],[-95.24338304141266,38.959857603489915],[-95.24338382436677,38.959855878230975],[-95.24338492865546,38.959856183865064],[-95.24338575954093,38.959854354302095],[-95.24338693395438,38.95985176686383],[-95.24338130627932,38.95985021003221],[-95.24338189345094,38.95984891721349],[-95.24337692126954,38.95984754179135],[-95.24337633409775,38.95984883461004],[-95.24326326105962,38.9598175539827],[-95.24323955359655,38.959810995363995],[-95.2432248681183,38.959843354420336],[-95.2431655332361,38.95982693914704],[-95.24316592466296,38.959826077868904],[-95.24315123083919,38.95982201274519],[-95.24304378583071,38.960058765234834]]]},"properties":{"SDE.FloorAll.FLOORLOCATION":"ROOF"}}]}
