{"type":"FeatureCollection","features":[{"type":"Feature","geometry":{"type":"Polygon","coordinates":[[[-95.25879847159564,38.95555209862965],[-95.25881947906544,38.95552577313116],[-95.25883184866137,38.95553179104572],[-95.25883804439177,38.955524026600706],[-95.25883829246585,38.95552414782224],[-95.25884821023016,38.95551171923069],[-95.2588479621561,38.95551159800919],[-95.25885540018002,38.9555022767832],[-95.25885564825408,38.95550239800475],[-95.25887052433093,38.95548375465097],[-95.25887027625694,38.955483633429466],[-95.25889816850878,38.95544867926758],[-95.25889841658265,38.955448800489016],[-95.25890833432581,38.95543637189222],[-95.25890808625196,38.95543625067083],[-95.25891552426003,38.95542692944098],[-95.25891577236878,38.95542704976197],[-95.2589306495322,38.955408407327994],[-95.25893040030523,38.9554082860794],[-95.25893783830743,38.955398964848094],[-95.2589380875693,38.9553990851963],[-95.25894800529854,38.95538665659605],[-95.25894775603669,38.95538653624787],[-95.25897564946982,38.955351579393145],[-95.25897589869669,38.955351700641664],[-95.25899077467523,38.955333058172634],[-95.25899052544838,38.95533293692417],[-95.2589979646228,38.9553236148158],[-95.25899821269644,38.95532373603699],[-95.25900813040452,38.95531130743155],[-95.25900788117774,38.955311186183124],[-95.25901408287967,38.955303415562106],[-95.25900027120386,38.95529669576813],[-95.25900569413288,38.95528989898195],[-95.25900594335957,38.95529002023043],[-95.25902084237951,38.955271348562306],[-95.25902057124375,38.955271256536285],[-95.25903172881831,38.955257273793535],[-95.25903197689176,38.955257395014655],[-95.25904685398886,38.95523875256556],[-95.25904660476229,38.95523863131719],[-95.25905776229166,38.95522464947227],[-95.25905801151822,38.95522477072065],[-95.25907288748331,38.95520612734048],[-95.25907263825678,38.955206006092155],[-95.25908379577592,38.95519202424476],[-95.25908404500241,38.95519214549302],[-95.25909892091885,38.955173503009846],[-95.25909867284555,38.95517338178886],[-95.25910502624693,38.95516541918447],[-95.25910412449595,38.95516498060091],[-95.25911431821046,38.95515218991223],[-95.25911460594602,38.95515233009527],[-95.2591257623301,38.955138347316094],[-95.25912547455965,38.95513820803345],[-95.2591432062883,38.955115985811275],[-95.25914381233599,38.95511628131954],[-95.25915187145607,38.95510618078229],[-95.25915126537353,38.955105886174415],[-95.2591573226933,38.95509829598254],[-95.25929529593074,38.95514165655397],[-95.25928881957564,38.95515421970397],[-95.25929966859297,38.95515762953704],[-95.259299559959,38.95515784145996],[-95.25931695784847,38.955163309478955],[-95.25931706648238,38.95516309755608],[-95.25933010153484,38.955167193521234],[-95.25932999286607,38.95516740634453],[-95.2593560891492,38.95517560790137],[-95.25935619897106,38.95517539510532],[-95.25940513366339,38.955190774007754],[-95.25940502384168,38.95519098680384],[-95.25942242293547,38.955196453933866],[-95.25942253156913,38.95519624201089],[-95.25943558256866,38.955200343748196],[-95.25943547278185,38.955200555643934],[-95.25946157024259,38.955208757204275],[-95.25946168002935,38.9552085453085],[-95.25947471509856,38.9552126412574],[-95.25947460527695,38.955212854053585],[-95.25949200322837,38.955218321145885],[-95.25949211301504,38.955218109250104],[-95.25954107058541,38.955233494943016],[-95.259540960764,38.95523370773931],[-95.25956705824922,38.9552419092759],[-95.25956716807056,38.9552416964796],[-95.25958022478284,38.955245800137675],[-95.25958011499638,38.95524601203353],[-95.25959751292923,38.95525148001044],[-95.25959762271563,38.955251268114544],[-95.25960850827997,38.95525468869526],[-95.2596163649523,38.955239448179384],[-95.25961663633306,38.95523953390122],[-95.25962714023999,38.95521915680514],[-95.25962686882437,38.9552190719837],[-95.25964025955518,38.955193094433056],[-95.25964673089643,38.95519512823804],[-95.25965952621321,38.955170307299674],[-95.25966120820662,38.95517083551687],[-95.25967831811477,38.95513764506824],[-95.25965752204286,38.95513110904658],[-95.25965684686963,38.955132417884705],[-95.25964121758156,38.9551275063171],[-95.25964676289209,38.95511674701865],[-95.25962841393452,38.955110980796185],[-95.25962852256741,38.95511076887303],[-95.25960242627662,38.95510256737744],[-95.25960231649051,38.95510277927332],[-95.259581656126,38.95509628609903],[-95.25958176591217,38.955096074203105],[-95.25955566847907,38.95508787266975],[-95.25955555984599,38.955088084592866],[-95.25953489945516,38.95508159231058],[-95.25953500927639,38.955081379514404],[-95.25950891185416,38.95507317797048],[-95.25950880203284,38.95507339076669],[-95.25948814168552,38.9550668975757],[-95.25948825150688,38.955066684779496],[-95.25946215524861,38.9550584832523],[-95.25946204542724,38.95505869604849],[-95.2594413850885,38.95505220284916],[-95.25944149487502,38.95505199095339],[-95.25941539747446,38.95504378938844],[-95.25941528768787,38.95504400128416],[-95.25939462847596,38.95503750900417],[-95.25939473714435,38.9550372961808],[-95.25936864090784,38.955029094632536],[-95.25936853108618,38.95502930742863],[-95.25935317213724,38.95502447971652],[-95.25934179205244,38.955046555609606],[-95.25932012937777,38.95503974759996],[-95.25933110631118,38.95501845435324],[-95.25911960100203,38.95495198393975],[-95.25911918917727,38.954952781699106],[-95.25909798610802,38.954946117892874],[-95.25909660640501,38.95494600957329],[-95.25908285149738,38.95496324741602],[-95.25908210493863,38.954962884598835],[-95.25904730028392,38.955006502855],[-95.2590256330893,38.955033655436296],[-95.25902115607529,38.95503147768494],[-95.25898582846507,38.95507575136644],[-95.25898557920425,38.95507563101836],[-95.25897070327851,38.95509427348714],[-95.25897095135132,38.95509439470839],[-95.25894243079298,38.95513013792046],[-95.25894218156695,38.95513001667189],[-95.25892730561834,38.95514865913501],[-95.2589275548444,38.95514878038363],[-95.25892011204505,38.955158106907795],[-95.25891986397211,38.95515798568645],[-95.2589049879768,38.95517662904701],[-95.2589052360847,38.955176749368064],[-95.25887981877734,38.955208603259514],[-95.25890197160648,38.955219380205804],[-95.25888625727725,38.955239074396275],[-95.25886410447927,38.9552282965466],[-95.2588554557115,38.955239135644824],[-95.25885520648522,38.955239014396064],[-95.25884033049074,38.95525765684783],[-95.25884057856389,38.95525777806938],[-95.25882880459184,38.95527253479072],[-95.2588285553655,38.95527241354193],[-95.25881367935696,38.955291055990195],[-95.25881392858335,38.95529117723909],[-95.25880214862487,38.955305939223734],[-95.2588019005516,38.955305818002145],[-95.25878702334093,38.95532446132012],[-95.2587872726023,38.95532458166865],[-95.25877549259776,38.9553393445509],[-95.25877524452443,38.95533922332925],[-95.25876036733463,38.955357865743366],[-95.25876151950052,38.95535842470542],[-95.25872429785626,38.95540506970934],[-95.2587219992894,38.95540395192078],[-95.25872013347951,38.95540304443543],[-95.25866713671661,38.95546945875674],[-95.25872256704446,38.955496425334346],[-95.25872179301813,38.95549739567436],[-95.25872799535153,38.95550041361345],[-95.25872459845523,38.955504669979966],[-95.25872305888814,38.955503921613584],[-95.2587153793892,38.95551354624133],[-95.25873289324802,38.95552206682462],[-95.25873396813526,38.9555207196773],[-95.25879847159564,38.95555209862965]]]},"properties":{"SDE.FloorAll.FLOORLOCATION":"-1"}},{"type":"Feature","geometry":{"type":"Polygon","coordinates":[[[-95.25879847156071,38.95555209953004],[-95.25881947906544,38.95552577313116],[-95.25883184866137,38.95553179104572],[-95.25883804439177,38.955524026600706],[-95.25883829246585,38.95552414782224],[-95.25884821023016,38.95551171923069],[-95.2588479621561,38.95551159800919],[-95.25885540018002,38.9555022767832],[-95.25885564825408,38.95550239800475],[-95.25887052548407,38.95548375467822],[-95.25887027622201,38.95548363432986],[-95.25889816850878,38.95544867926758],[-95.25889841773585,38.95544880051631],[-95.25890833432581,38.95543637189222],[-95.25890808625196,38.95543625067083],[-95.25891552426003,38.95542692944098],[-95.25891577233386,38.95542705066233],[-95.2589306495322,38.955408407327994],[-95.25893040030523,38.9554082860794],[-95.25893783830743,38.955398964848094],[-95.2589380875693,38.9553990851963],[-95.25894800529854,38.95538665659605],[-95.25894775603669,38.95538653624787],[-95.25897564946982,38.955351579393145],[-95.25897589869669,38.955351700641664],[-95.25899077467523,38.955333058172634],[-95.25899052544838,38.95533293692417],[-95.2589979646228,38.9553236148158],[-95.25899821269644,38.95532373603699],[-95.25900813040452,38.95531130743155],[-95.2590078823309,38.95531118621039],[-95.25901408287967,38.955303415562106],[-95.25900027120386,38.95529669576813],[-95.25900569413288,38.95528989898195],[-95.25900594335957,38.95529002023043],[-95.25902081935212,38.95527137685704],[-95.25902057124375,38.955271256536285],[-95.25903172881831,38.955257273793535],[-95.25903197689176,38.955257395014655],[-95.25904685398886,38.95523875256556],[-95.25904660476229,38.95523863131719],[-95.25905776229166,38.95522464947227],[-95.25905801151822,38.95522477072065],[-95.25907288748331,38.95520612734048],[-95.25907263941,38.95520600611942],[-95.25908379577592,38.95519202424476],[-95.25908404500241,38.95519214549302],[-95.25909892091885,38.955173503009846],[-95.25909867284555,38.95517338178886],[-95.25910502624693,38.95516541918447],[-95.25910412449595,38.95516498060091],[-95.25911431821046,38.95515218991223],[-95.25911460594602,38.95515233009527],[-95.2591257622952,38.95513834821648],[-95.25912547571279,38.95513820806071],[-95.25914320740652,38.95511598673892],[-95.25914381233599,38.95511628131954],[-95.25915187145607,38.95510618078229],[-95.25915126652667,38.95510588620169],[-95.2591573226933,38.95509829598254],[-95.25929529593074,38.95514165655397],[-95.25928881957564,38.95515421970397],[-95.25929966859297,38.95515762953704],[-95.259299559959,38.95515784145996],[-95.25931695784847,38.955163309478955],[-95.25931706648238,38.95516309755608],[-95.25933010153484,38.955167193521234],[-95.25932999286607,38.95516740634453],[-95.2593560891492,38.95517560790137],[-95.25935619897106,38.95517539510532],[-95.25940513366339,38.955190774007754],[-95.2594050249948,38.95519098683108],[-95.25942242293547,38.955196453933866],[-95.25942253156913,38.95519624201089],[-95.25943558256866,38.955200343748196],[-95.25943547278185,38.955200555643934],[-95.25946157024259,38.955208757204275],[-95.25946168002935,38.9552085453085],[-95.25947471509856,38.9552126412574],[-95.25947460527695,38.955212854053585],[-95.25949200319346,38.95521832204632],[-95.25949211301504,38.955218109250104],[-95.25954107058541,38.955233494943016],[-95.259540960764,38.95523370773931],[-95.25956705824922,38.9552419092759],[-95.25956716803564,38.95524169738002],[-95.25958022478284,38.955245800137675],[-95.25958011499638,38.95524601203353],[-95.25959751292923,38.95525148001044],[-95.25959762271563,38.955251268114544],[-95.25960850827997,38.95525468869526],[-95.2596163649523,38.955239448179384],[-95.25961663633306,38.95523953390122],[-95.25962714023999,38.95521915680514],[-95.25962686882437,38.9552190719837],[-95.25964025955518,38.955193094433056],[-95.25964673204957,38.95519512826531],[-95.25965957628914,38.955170325606474],[-95.2596612069487,38.95517083819082],[-95.25967831814965,38.95513764416786],[-95.259657523196,38.955131109073854],[-95.25965686671648,38.95513238230492],[-95.25964121758156,38.9551275063171],[-95.25964676289209,38.95511674701865],[-95.25962841393452,38.955110980796185],[-95.25962852372058,38.95511076890027],[-95.25960242627662,38.95510256737744],[-95.25960231649051,38.95510277927332],[-95.259581656126,38.95509628609903],[-95.25958176591217,38.955096074203105],[-95.25955566847907,38.95508787266975],[-95.25955555984599,38.955088084592866],[-95.25953476376516,38.95508154944958],[-95.25953487243319,38.95508133662612],[-95.25950877616413,38.95507313510938],[-95.25950866634287,38.95507334790561],[-95.2594881428387,38.955066897602975],[-95.25948825147196,38.95506668567989],[-95.25946215521368,38.9550584841527],[-95.25946204542724,38.95505869604849],[-95.2594413850885,38.95505220284916],[-95.25944149487502,38.95505199095339],[-95.25941539747446,38.95504378938844],[-95.25941528884103,38.955044001311414],[-95.25939462847596,38.95503750900417],[-95.25939473714435,38.9550372961808],[-95.25936864090784,38.955029094632536],[-95.25936853108618,38.95502930742863],[-95.25935317213724,38.95502447971652],[-95.25934179205244,38.955046555609606],[-95.25932012368183,38.95503974566291],[-95.25933110627626,38.95501845525362],[-95.25920770086545,38.954979672137135],[-95.25920736517966,38.95498032209381],[-95.2591991879833,38.95497775136439],[-95.25919925660897,38.95497761870458],[-95.25919569764784,38.95497650087024],[-95.25919563017533,38.95497663355735],[-95.25916818061239,38.95496785292885],[-95.2591680982545,38.954968012300704],[-95.25916440248656,38.95496685067629],[-95.25916324736032,38.95496648721333],[-95.25913819455012,38.954958613990335],[-95.25913283392161,38.954956929051086],[-95.25913318334008,38.95495625238261],[-95.25913129724485,38.95495565985187],[-95.25912397867569,38.95495335995486],[-95.25912676935417,38.95494729311081],[-95.2590890020335,38.95493542338993],[-95.25903648387948,38.9550012408557],[-95.25904812613256,38.955006904497],[-95.25904222647051,38.955014298339194],[-95.25904203273699,38.95501420453816],[-95.2590308752377,38.95502818638179],[-95.25903106893635,38.955028281083244],[-95.25902645890326,38.95503405797886],[-95.25902115607529,38.95503147768494],[-95.25901184857955,38.95504314296229],[-95.25901159931877,38.95504302261424],[-95.25899672340675,38.95506166508643],[-95.2589969714795,38.955061786307596],[-95.258985818751,38.9550757637539],[-95.25898556949018,38.95507564340579],[-95.25897069356444,38.955094285874566],[-95.25897094163724,38.95509440709581],[-95.25894242838189,38.95513014056713],[-95.25894230376888,38.95513007994285],[-95.25894217915587,38.95513001931855],[-95.25892730317234,38.95514866268206],[-95.25892755239839,38.95514878393068],[-95.25892011449099,38.95515810336076],[-95.2589198663832,38.95515798303978],[-95.25890499042275,38.95517662549997],[-95.25890523849573,38.955176746721385],[-95.2588798321605,38.95520858555147],[-95.25890198369677,38.955219366072065],[-95.25888628883075,38.95523903458727],[-95.25888180391048,38.955236852137745],[-95.25886410447927,38.9552282965466],[-95.258855426604,38.95523917190677],[-95.25885517737774,38.95523905065798],[-95.25884030134833,38.955257694010164],[-95.25884055060955,38.95525781435859],[-95.25882877307323,38.95527257369933],[-95.25882852384689,38.955272452450494],[-95.25881364780341,38.95529109579922],[-95.2588138970298,38.955291217048064],[-95.2588021195173,38.95530597548565],[-95.25880187144405,38.955305854264054],[-95.25878699423338,38.955324497582026],[-95.25878724345982,38.955324618830936],[-95.25877546593617,38.95533937726575],[-95.25877521782793,38.9553392569445],[-95.25876034179126,38.95535789938589],[-95.25876058986462,38.95535802060757],[-95.25874881344811,38.95537277996737],[-95.25874856422156,38.95537265871836],[-95.25873368817085,38.955391301156276],[-95.25873393624423,38.95539142237802],[-95.2587221598166,38.95540618173504],[-95.25872191058998,38.955406060486],[-95.2587070345252,38.95542470292045],[-95.25870728375187,38.95542482416951],[-95.25869550615995,38.95543958349655],[-95.25869525693327,38.95543946224739],[-95.2586803808195,38.95545810557876],[-95.25868063008116,38.95545822592752],[-95.25867257207665,38.955468324658234],[-95.25869047904888,38.95547703568876],[-95.25869032491451,38.95547723031332],[-95.2586992778257,38.95548158581392],[-95.25869943307832,38.95548139211703],[-95.25873094221429,38.95549671978374],[-95.25872459845523,38.955504669979966],[-95.25872305888814,38.955503921613584],[-95.2587153793892,38.95551354624133],[-95.25873289324802,38.95552206682462],[-95.25873396813526,38.9555207196773],[-95.25877799869016,38.95554213913928],[-95.25877692380344,38.95554348628699],[-95.25878985866807,38.95554977982637],[-95.25879093358957,38.95554843177813],[-95.25879847156071,38.95555209953004]]]},"properties":{"SDE.FloorAll.FLOORLOCATION":"1"}},{"type":"Feature","geometry":{"type":"Polygon","coordinates":[[[-95.25879847156071,38.95555209953004],[-95.25881947906544,38.95552577313116],[-95.25883184866137,38.95553179104572],[-95.25883804439177,38.955524026600706],[-95.25883829361901,38.955524147849516],[-95.25884821023016,38.95551171923069],[-95.2588479621561,38.95551159800919],[-95.25885540018002,38.9555022767832],[-95.25885564825408,38.95550239800475],[-95.25887052548407,38.95548375467822],[-95.25887027622201,38.95548363432986],[-95.25889816850878,38.95544867926758],[-95.25889841773585,38.95544880051631],[-95.25890833432581,38.95543637189222],[-95.25890808625196,38.95543625067083],[-95.25891552426003,38.95542692944098],[-95.25891577348708,38.955427050689615],[-95.2589306495322,38.955408407327994],[-95.25893040030523,38.9554082860794],[-95.25893783946059,38.955398964875386],[-95.2589380875693,38.9553990851963],[-95.25894800529854,38.95538665659605],[-95.25894775603669,38.95538653624787],[-95.25897564946982,38.955351579393145],[-95.25897589869669,38.955351700641664],[-95.25899077467523,38.955333058172634],[-95.25899052660154,38.95533293695144],[-95.2589979646228,38.9553236148158],[-95.25899821269644,38.95532373603699],[-95.25900813040452,38.95531130743155],[-95.2590078823309,38.95531118621039],[-95.25901408287967,38.955303415562106],[-95.25900027120386,38.95529669576813],[-95.25900569528602,38.955289899009216],[-95.25900594335957,38.95529002023043],[-95.25902084353265,38.95527134858956],[-95.25902057124375,38.955271256536285],[-95.25903172881831,38.955257273793535],[-95.25903197689176,38.955257395014655],[-95.25904685398886,38.95523875256556],[-95.25904660476229,38.95523863131719],[-95.25905776229166,38.95522464947227],[-95.25905801151822,38.95522477072065],[-95.25907288748331,38.95520612734048],[-95.25907263941,38.95520600611942],[-95.25908379577592,38.95519202424476],[-95.25908404500241,38.95519214549302],[-95.259098922072,38.9551735030371],[-95.25909867284555,38.95517338178886],[-95.25910502624693,38.95516541918447],[-95.25910412449595,38.95516498060091],[-95.25911431821046,38.95515218991223],[-95.25911460594602,38.95515233009527],[-95.2591257622952,38.95513834821648],[-95.25912547571279,38.95513820806071],[-95.25914320740652,38.95511598673892],[-95.25914381233599,38.95511628131954],[-95.25915187145607,38.95510618078229],[-95.25915126652667,38.95510588620169],[-95.2591573226933,38.95509829598254],[-95.25929529593074,38.95514165655397],[-95.25928881957564,38.95515421970397],[-95.25929966859297,38.95515762953704],[-95.259299559959,38.95515784145996],[-95.25931695784847,38.955163309478955],[-95.25931706648238,38.95516309755608],[-95.25933010153484,38.955167193521234],[-95.25932999286607,38.95516740634453],[-95.2593560891492,38.95517560790137],[-95.25935619897106,38.95517539510532],[-95.25940513366339,38.955190774007754],[-95.2594050249948,38.95519098683108],[-95.25942242293547,38.955196453933866],[-95.25942253156913,38.95519624201089],[-95.25943558256866,38.955200343748196],[-95.25943547278185,38.955200555643934],[-95.25946157024259,38.955208757204275],[-95.25946168002935,38.9552085453085],[-95.25947471509856,38.9552126412574],[-95.25947460527695,38.955212854053585],[-95.25949200319346,38.95521832204632],[-95.25949211301504,38.955218109250104],[-95.25954107058541,38.955233494943016],[-95.25954096191714,38.95523370776657],[-95.25956705824922,38.9552419092759],[-95.25956716803564,38.95524169738002],[-95.25958022478284,38.955245800137675],[-95.25958011499638,38.95524601203353],[-95.25959751292923,38.95525148001044],[-95.25959762271563,38.955251268114544],[-95.25960850827997,38.95525468869526],[-95.2596163649523,38.955239448179384],[-95.25961663633306,38.95523953390122],[-95.25962714023999,38.95521915680514],[-95.25962686882437,38.9552190719837],[-95.25964025955518,38.955193094433056],[-95.25964673204957,38.95519512826531],[-95.25965952621321,38.955170307299674],[-95.25966120820662,38.95517083551687],[-95.25967831811477,38.95513764506824],[-95.25965752204286,38.95513110904658],[-95.25965684686963,38.955132417884705],[-95.25964121758156,38.9551275063171],[-95.25964676289209,38.95511674701865],[-95.25962841393452,38.955110980796185],[-95.25962852372058,38.95511076890027],[-95.25960242627662,38.95510256737744],[-95.25960231649051,38.95510277927332],[-95.259581656126,38.95509628609903],[-95.25958176591217,38.955096074203105],[-95.25955566847907,38.95508787266975],[-95.25955555984599,38.955088084592866],[-95.25953489945516,38.95508159231058],[-95.25953500927639,38.955081379514404],[-95.25950891185416,38.95507317797048],[-95.25950880203284,38.95507339076669],[-95.2594881428387,38.955066897602975],[-95.25948825147196,38.95506668567989],[-95.25946215521368,38.9550584841527],[-95.25946204542724,38.95505869604849],[-95.2594413850885,38.95505220284916],[-95.25944149487502,38.95505199095339],[-95.25941539747446,38.95504378938844],[-95.25941528884103,38.955044001311414],[-95.25939462847596,38.95503750900417],[-95.25939473714435,38.9550372961808],[-95.25936864090784,38.955029094632536],[-95.25936853108618,38.95502930742863],[-95.25935317213724,38.95502447971652],[-95.25934179205244,38.955046555609606],[-95.25932013053097,38.95503974762724],[-95.25933110627626,38.95501845525362],[-95.25912397867569,38.95495335995486],[-95.25912705900917,38.95494738377198],[-95.2590890020335,38.95493542338993],[-95.25903648387948,38.9550012408557],[-95.25904812613256,38.955006904497],[-95.25904222647051,38.955014298339194],[-95.25904203273699,38.95501420453816],[-95.2590308752377,38.95502818638179],[-95.25903106893635,38.955028281083244],[-95.25902645890326,38.95503405797886],[-95.25902115607529,38.95503147768494],[-95.25898582843017,38.95507575226683],[-95.25898557920425,38.95507563101836],[-95.25897070327851,38.95509427348714],[-95.25897095135132,38.95509439470839],[-95.25894243079298,38.95513013792046],[-95.25894218156695,38.95513001667189],[-95.25892730558341,38.9551486600354],[-95.2589275548444,38.95514878038363],[-95.25892011204505,38.955158106907795],[-95.25891986397211,38.95515798568645],[-95.2589049879768,38.95517662904701],[-95.2589052360847,38.955176749368064],[-95.25887981877734,38.955208603259514],[-95.25890197160648,38.955219380205804],[-95.25888625727725,38.955239074396275],[-95.25886410447927,38.9552282965466],[-95.2588554557115,38.955239135644824],[-95.25885520648522,38.955239014396064],[-95.25884033045583,38.95525765774827],[-95.25884057971703,38.95525777809665],[-95.25882880459184,38.95527253479072],[-95.2588285553655,38.95527241354193],[-95.25881367935696,38.955291055990195],[-95.25881392858335,38.95529117723909],[-95.25880214862487,38.955305939223734],[-95.2588019005516,38.955305818002145],[-95.25878702334093,38.95532446132012],[-95.2587872726023,38.95532458166865],[-95.25877549259776,38.9553393445509],[-95.25877524452443,38.95533922332925],[-95.25876036848778,38.95535786577061],[-95.25876061656115,38.955357986992354],[-95.25874884014462,38.9553727463521],[-95.25874859091806,38.95537262510313],[-95.25873371483243,38.95539126844141],[-95.2587339629408,38.9553913887628],[-95.25872218651317,38.95540614811979],[-95.25872193728655,38.95540602687077],[-95.25870706118687,38.955424670205595],[-95.25870731044844,38.95542479055428],[-95.2586955328565,38.955439549881284],[-95.25869528362982,38.95543942863222],[-95.25868040751608,38.95545807196356],[-95.25868065674281,38.955458193212685],[-95.25867257207665,38.955468324658234],[-95.25868998171353,38.95547679411815],[-95.25868982646088,38.95547698781507],[-95.25869878049029,38.95548134424339],[-95.25869893577777,38.95548114964609],[-95.25873094221429,38.95549671978374],[-95.25872459845523,38.955504669979966],[-95.25872305888814,38.955503921613584],[-95.2587153793892,38.95551354624133],[-95.25873289324802,38.95552206682462],[-95.25873396813526,38.9555207196773],[-95.25877804719131,38.95554207900285],[-95.25877692380344,38.95554348628699],[-95.25878985866807,38.95554977982637],[-95.25879093358957,38.95554843177813],[-95.25879847156071,38.95555209953004]]]},"properties":{"SDE.FloorAll.FLOORLOCATION":"2"}},{"type":"Feature","geometry":{"type":"Polygon","coordinates":[[[-95.25879847156071,38.95555209953004],[-95.25881947906544,38.95552577313116],[-95.25883184866137,38.95553179104572],[-95.25883804439177,38.955524026600706],[-95.25883829361901,38.955524147849516],[-95.25884821023016,38.95551171923069],[-95.2588479621561,38.95551159800919],[-95.25885540018002,38.9555022767832],[-95.25885564825408,38.95550239800475],[-95.25887052548407,38.95548375467822],[-95.25887027622201,38.95548363432986],[-95.25889816850878,38.95544867926758],[-95.25889841773585,38.95544880051631],[-95.25890833432581,38.95543637189222],[-95.25890808625196,38.95543625067083],[-95.25891552426003,38.95542692944098],[-95.25891577348708,38.955427050689615],[-95.2589306495322,38.955408407327994],[-95.25893040030523,38.9554082860794],[-95.25893783946059,38.955398964875386],[-95.2589380875693,38.9553990851963],[-95.25894800529854,38.95538665659605],[-95.25894775603669,38.95538653624787],[-95.25897564946982,38.955351579393145],[-95.25897589869669,38.955351700641664],[-95.25899077467523,38.955333058172634],[-95.25899052660154,38.95533293695144],[-95.2589979646228,38.9553236148158],[-95.25899821269644,38.95532373603699],[-95.25900813040452,38.95531130743155],[-95.2590078823309,38.95531118621039],[-95.25901408287967,38.955303415562106],[-95.25900027120386,38.95529669576813],[-95.25900569528602,38.955289899009216],[-95.25900594335957,38.95529002023043],[-95.25902084353265,38.95527134858956],[-95.25902057124375,38.955271256536285],[-95.25903172881831,38.955257273793535],[-95.25903197689176,38.955257395014655],[-95.25904685398886,38.95523875256556],[-95.25904660476229,38.95523863131719],[-95.25905776229166,38.95522464947227],[-95.25905801151822,38.95522477072065],[-95.25907288748331,38.95520612734048],[-95.25907263941,38.95520600611942],[-95.25908379577592,38.95519202424476],[-95.25908404500241,38.95519214549302],[-95.259098922072,38.9551735030371],[-95.25909867284555,38.95517338178886],[-95.25910502624693,38.95516541918447],[-95.25910412449595,38.95516498060091],[-95.25911431821046,38.95515218991223],[-95.25911460594602,38.95515233009527],[-95.2591257622952,38.95513834821648],[-95.25912547571279,38.95513820806071],[-95.25914320740652,38.95511598673892],[-95.25914381233599,38.95511628131954],[-95.25915187145607,38.95510618078229],[-95.25915126652667,38.95510588620169],[-95.2591573226933,38.95509829598254],[-95.25929529593074,38.95514165655397],[-95.25928881957564,38.95515421970397],[-95.25929966859297,38.95515762953704],[-95.259299559959,38.95515784145996],[-95.25931695784847,38.955163309478955],[-95.25931706648238,38.95516309755608],[-95.25933010153484,38.955167193521234],[-95.25932999286607,38.95516740634453],[-95.2593560891492,38.95517560790137],[-95.25935619897106,38.95517539510532],[-95.25940513366339,38.955190774007754],[-95.2594050249948,38.95519098683108],[-95.25942242293547,38.955196453933866],[-95.25942253156913,38.95519624201089],[-95.25943558256866,38.955200343748196],[-95.25943547278185,38.955200555643934],[-95.25946157024259,38.955208757204275],[-95.25946168002935,38.9552085453085],[-95.25947471509856,38.9552126412574],[-95.25947460527695,38.955212854053585],[-95.25949200319346,38.95521832204632],[-95.25949211301504,38.955218109250104],[-95.25954107058541,38.955233494943016],[-95.25954096191714,38.95523370776657],[-95.25956705824922,38.9552419092759],[-95.25956716803564,38.95524169738002],[-95.25958022478284,38.955245800137675],[-95.25958011499638,38.95524601203353],[-95.25959751292923,38.95525148001044],[-95.25959762271563,38.955251268114544],[-95.25960850827997,38.95525468869526],[-95.2596163649523,38.955239448179384],[-95.25961663633306,38.95523953390122],[-95.25962714023999,38.95521915680514],[-95.25962686882437,38.9552190719837],[-95.25964025955518,38.955193094433056],[-95.25964673204957,38.95519512826531],[-95.25965952621321,38.955170307299674],[-95.25966120820662,38.95517083551687],[-95.25967831811477,38.95513764506824],[-95.25965752204286,38.95513110904658],[-95.25965684686963,38.955132417884705],[-95.25964121758156,38.9551275063171],[-95.25964676289209,38.95511674701865],[-95.25962841393452,38.955110980796185],[-95.25962852372058,38.95511076890027],[-95.25960242627662,38.95510256737744],[-95.25960231649051,38.95510277927332],[-95.259581656126,38.95509628609903],[-95.25958176591217,38.955096074203105],[-95.25955566847907,38.95508787266975],[-95.25955555984599,38.955088084592866],[-95.25953489945516,38.95508159231058],[-95.25953500927639,38.955081379514404],[-95.25950891185416,38.95507317797048],[-95.25950880203284,38.95507339076669],[-95.2594881428387,38.955066897602975],[-95.25948825147196,38.95506668567989],[-95.25946215521368,38.9550584841527],[-95.25946204542724,38.95505869604849],[-95.2594413850885,38.95505220284916],[-95.25944149487502,38.95505199095339],[-95.25941539747446,38.95504378938844],[-95.25941528884103,38.955044001311414],[-95.25939462847596,38.95503750900417],[-95.25939473714435,38.9550372961808],[-95.25936864090784,38.955029094632536],[-95.25936853108618,38.95502930742863],[-95.25935317213724,38.95502447971652],[-95.25934179205244,38.955046555609606],[-95.25932013053097,38.95503974762724],[-95.25933110627626,38.95501845525362],[-95.25912397867569,38.95495335995486],[-95.25912705900917,38.95494738377198],[-95.2590890020335,38.95493542338993],[-95.25903648387948,38.9550012408557],[-95.25904812613256,38.955006904497],[-95.25904222647051,38.955014298339194],[-95.25904203273699,38.95501420453816],[-95.2590308752377,38.95502818638179],[-95.25903106893635,38.955028281083244],[-95.25902645890326,38.95503405797886],[-95.25902115607529,38.95503147768494],[-95.25898582843017,38.95507575226683],[-95.25898557920425,38.95507563101836],[-95.25897070327851,38.95509427348714],[-95.25897095135132,38.95509439470839],[-95.25894243079298,38.95513013792046],[-95.25894218156695,38.95513001667189],[-95.25892730558341,38.9551486600354],[-95.2589275548444,38.95514878038363],[-95.25892011204505,38.955158106907795],[-95.25891986397211,38.95515798568645],[-95.2589049879768,38.95517662904701],[-95.2589052360847,38.955176749368064],[-95.25887981877734,38.955208603259514],[-95.25890197160648,38.955219380205804],[-95.25888625727725,38.955239074396275],[-95.25886410447927,38.9552282965466],[-95.2588554557115,38.955239135644824],[-95.25885520648522,38.955239014396064],[-95.25884033045583,38.95525765774827],[-95.25884057971703,38.95525777809665],[-95.25882880459184,38.95527253479072],[-95.2588285553655,38.95527241354193],[-95.25881367935696,38.955291055990195],[-95.25881392858335,38.95529117723909],[-95.25880214862487,38.955305939223734],[-95.2588019005516,38.955305818002145],[-95.25878702334093,38.95532446132012],[-95.2587872726023,38.95532458166865],[-95.25877549259776,38.9553393445509],[-95.25877524452443,38.95533922332925],[-95.25876036848778,38.95535786577061],[-95.25876061656115,38.955357986992354],[-95.25874884014462,38.9553727463521],[-95.25874859091806,38.95537262510313],[-95.25873371483243,38.95539126844141],[-95.2587339629408,38.9553913887628],[-95.25872218651317,38.95540614811979],[-95.25872193728655,38.95540602687077],[-95.25870706118687,38.955424670205595],[-95.25870731044844,38.95542479055428],[-95.2586955328565,38.955439549881284],[-95.25869528362982,38.95543942863222],[-95.25868040751608,38.95545807196356],[-95.25868065674281,38.955458193212685],[-95.25867257207665,38.955468324658234],[-95.25868998171353,38.95547679411815],[-95.25868982646088,38.95547698781507],[-95.25869878049029,38.95548134424339],[-95.25869893577777,38.95548114964609],[-95.25873094221429,38.95549671978374],[-95.25872459845523,38.955504669979966],[-95.25872305888814,38.955503921613584],[-95.2587153793892,38.95551354624133],[-95.25873289324802,38.95552206682462],[-95.25873396813526,38.9555207196773],[-95.25877804719131,38.95554207900285],[-95.25877692380344,38.95554348628699],[-95.25878985866807,38.95554977982637],[-95.25879093358957,38.95554843177813],[-95.25879847156071,38.95555209953004]]]},"properties":{"SDE.FloorAll.FLOORLOCATION":"3"}},{"type":"Feature","geometry":{"type":"Polygon","coordinates":[[[-95.25879847156071,38.95555209953004],[-95.25881947906544,38.95552577313116],[-95.25883184866137,38.95553179104572],[-95.25883804439177,38.955524026600706],[-95.25883829361901,38.955524147849516],[-95.25884821023016,38.95551171923069],[-95.2588479621561,38.95551159800919],[-95.25885540018002,38.9555022767832],[-95.25885564825408,38.95550239800475],[-95.25887052548407,38.95548375467822],[-95.25887027622201,38.95548363432986],[-95.25889816850878,38.95544867926758],[-95.25889841773585,38.95544880051631],[-95.25890833432581,38.95543637189222],[-95.25890808625196,38.95543625067083],[-95.25891552426003,38.95542692944098],[-95.25891577348708,38.955427050689615],[-95.2589306495322,38.955408407327994],[-95.25893040030523,38.9554082860794],[-95.25893783946059,38.955398964875386],[-95.2589380875693,38.9553990851963],[-95.25894800529854,38.95538665659605],[-95.25894775603669,38.95538653624787],[-95.25897564946982,38.955351579393145],[-95.25897589869669,38.955351700641664],[-95.25899077467523,38.955333058172634],[-95.25899052660154,38.95533293695144],[-95.2589979646228,38.9553236148158],[-95.25899821269644,38.95532373603699],[-95.25900813040452,38.95531130743155],[-95.2590078823309,38.95531118621039],[-95.25901408287967,38.955303415562106],[-95.25900027120386,38.95529669576813],[-95.25900569528602,38.955289899009216],[-95.25900594335957,38.95529002023043],[-95.25902082050531,38.955271376884305],[-95.25902057124375,38.955271256536285],[-95.25903172881831,38.955257273793535],[-95.25903197689176,38.955257395014655],[-95.25904685398886,38.95523875256556],[-95.25904660476229,38.95523863131719],[-95.25905776229166,38.95522464947227],[-95.25905801151822,38.95522477072065],[-95.25907288748331,38.95520612734048],[-95.25907263941,38.95520600611942],[-95.25908379577592,38.95519202424476],[-95.25908404500241,38.95519214549302],[-95.259098922072,38.9551735030371],[-95.25909867284555,38.95517338178886],[-95.25910502624693,38.95516541918447],[-95.25910412449595,38.95516498060091],[-95.25911431821046,38.95515218991223],[-95.25911460594602,38.95515233009527],[-95.2591257622952,38.95513834821648],[-95.25912547571279,38.95513820806071],[-95.25914320740652,38.95511598673892],[-95.25914381233599,38.95511628131954],[-95.25915187145607,38.95510618078229],[-95.25915126652667,38.95510588620169],[-95.2591573226933,38.95509829598254],[-95.25929529593074,38.95514165655397],[-95.25928881957564,38.95515421970397],[-95.25929966859297,38.95515762953704],[-95.259299559959,38.95515784145996],[-95.25931695784847,38.955163309478955],[-95.25931706648238,38.95516309755608],[-95.25933010153484,38.955167193521234],[-95.25932999286607,38.95516740634453],[-95.2593560891492,38.95517560790137],[-95.25935619897106,38.95517539510532],[-95.25940513366339,38.955190774007754],[-95.2594050249948,38.95519098683108],[-95.25942242293547,38.955196453933866],[-95.25942253156913,38.95519624201089],[-95.25943558256866,38.955200343748196],[-95.25943547278185,38.955200555643934],[-95.25946157024259,38.955208757204275],[-95.25946168002935,38.9552085453085],[-95.25947471509856,38.9552126412574],[-95.25947460527695,38.955212854053585],[-95.25949200319346,38.95521832204632],[-95.25949211301504,38.955218109250104],[-95.25954107058541,38.955233494943016],[-95.25954096191714,38.95523370776657],[-95.25956705824922,38.9552419092759],[-95.25956716803564,38.95524169738002],[-95.25958022478284,38.955245800137675],[-95.25958011499638,38.95524601203353],[-95.25959751292923,38.95525148001044],[-95.25959762271563,38.955251268114544],[-95.25960850827997,38.95525468869526],[-95.2596163649523,38.955239448179384],[-95.25961663633306,38.95523953390122],[-95.25962714023999,38.95521915680514],[-95.25962686882437,38.9552190719837],[-95.25964025955518,38.955193094433056],[-95.25964673204957,38.95519512826531],[-95.25965952621321,38.955170307299674],[-95.25966120820662,38.95517083551687],[-95.25967831811477,38.95513764506824],[-95.25965752204286,38.95513110904658],[-95.25965684686963,38.955132417884705],[-95.25964121758156,38.9551275063171],[-95.25964676289209,38.95511674701865],[-95.25962841393452,38.955110980796185],[-95.25962852372058,38.95511076890027],[-95.25960242627662,38.95510256737744],[-95.25960231649051,38.95510277927332],[-95.259581656126,38.95509628609903],[-95.25958176591217,38.955096074203105],[-95.25955566847907,38.95508787266975],[-95.25955555984599,38.955088084592866],[-95.25953489945516,38.95508159231058],[-95.25953500927639,38.955081379514404],[-95.25950891185416,38.95507317797048],[-95.25950880203284,38.95507339076669],[-95.2594881428387,38.955066897602975],[-95.25948825147196,38.95506668567989],[-95.25946215521368,38.9550584841527],[-95.25946204542724,38.95505869604849],[-95.2594413850885,38.95505220284916],[-95.25944149487502,38.95505199095339],[-95.25941539747446,38.95504378938844],[-95.25941528884103,38.955044001311414],[-95.25939462847596,38.95503750900417],[-95.25939473714435,38.9550372961808],[-95.25936864090784,38.955029094632536],[-95.25936853108618,38.95502930742863],[-95.25935317213724,38.95502447971652],[-95.25934179205244,38.955046555609606],[-95.25932013053097,38.95503974762724],[-95.25933110627626,38.95501845525362],[-95.25912397867569,38.95495335995486],[-95.25912705900917,38.95494738377198],[-95.2590890020335,38.95493542338993],[-95.25903648387948,38.9550012408557],[-95.25904812613256,38.955006904497],[-95.25904222647051,38.955014298339194],[-95.25904203273699,38.95501420453816],[-95.2590308752377,38.95502818638179],[-95.25903106893635,38.955028281083244],[-95.25902645890326,38.95503405797886],[-95.25902115607529,38.95503147768494],[-95.25898582843017,38.95507575226683],[-95.25898557920425,38.95507563101836],[-95.25897070327851,38.95509427348714],[-95.25897095135132,38.95509439470839],[-95.25894243079298,38.95513013792046],[-95.25894218156695,38.95513001667189],[-95.25892730558341,38.9551486600354],[-95.2589275548444,38.95514878038363],[-95.25892011204505,38.955158106907795],[-95.25891986397211,38.95515798568645],[-95.2589049879768,38.95517662904701],[-95.2589052360847,38.955176749368064],[-95.25887981877734,38.955208603259514],[-95.25890197160648,38.955219380205804],[-95.25888625727725,38.955239074396275],[-95.25886410447927,38.9552282965466],[-95.2588554557115,38.955239135644824],[-95.25885520648522,38.955239014396064],[-95.25884033045583,38.95525765774827],[-95.25884057971703,38.95525777809665],[-95.25882880459184,38.95527253479072],[-95.2588285553655,38.95527241354193],[-95.25881367935696,38.955291055990195],[-95.25881392858335,38.95529117723909],[-95.25880214862487,38.955305939223734],[-95.2588019005516,38.955305818002145],[-95.25878702334093,38.95532446132012],[-95.2587872726023,38.95532458166865],[-95.25877549259776,38.9553393445509],[-95.25877524452443,38.95533922332925],[-95.25876036848778,38.95535786577061],[-95.25876061656115,38.955357986992354],[-95.25874884014462,38.9553727463521],[-95.25874859091806,38.95537262510313],[-95.25873371483243,38.95539126844141],[-95.2587339629408,38.9553913887628],[-95.25872218651317,38.95540614811979],[-95.25872193728655,38.95540602687077],[-95.25870706118687,38.955424670205595],[-95.25870731044844,38.95542479055428],[-95.2586955328565,38.955439549881284],[-95.25869528362982,38.95543942863222],[-95.25868040751608,38.95545807196356],[-95.25868065674281,38.955458193212685],[-95.25867257207665,38.955468324658234],[-95.25868998171353,38.95547679411815],[-95.25868982646088,38.95547698781507],[-95.25869878049029,38.95548134424339],[-95.25869893577777,38.95548114964609],[-95.25873094221429,38.95549671978374],[-95.25872459845523,38.955504669979966],[-95.25872305888814,38.955503921613584],[-95.2587153793892,38.95551354624133],[-95.25873289324802,38.95552206682462],[-95.25873396813526,38.9555207196773],[-95.25877804719131,38.95554207900285],[-95.25877692380344,38.95554348628699],[-95.25878985866807,38.95554977982637],[-95.25879093358957,38.95554843177813],[-95.25879847156071,38.95555209953004]]]},"properties":{"SDE.FloorAll.FLOORLOCATION":"4"}},{"type":"Feature","geometry":{"type":"MultiPolygon","coordinates":[[[[-95.25881990116466,38.955525960651485],[-95.25883209725924,38.955531898761336],[-95.25883219429632,38.955531777588085],[-95.25901443204857,38.955303578827035],[-95.25900047727471,38.95529682861345],[-95.25910530611591,38.9551654348129],[-95.2591042351675,38.95516507333943],[-95.2591575277843,38.95509839455794],[-95.2592952260418,38.955141643185996],[-95.25928882739693,38.95515404775545],[-95.25960842573613,38.95525455516584],[-95.25964021272323,38.95519293290867],[-95.25964673532843,38.95519498414729],[-95.25967598142054,38.955138284681524],[-95.2596411961192,38.95512734539233],[-95.25964671239372,38.95511665029559],[-95.25935320379179,38.95502434798516],[-95.25934234594499,38.95504539801526],[-95.25932082140646,38.95503862932002],[-95.25933132973704,38.95501825866218],[-95.25909782843186,38.9549448263189],[-95.25898563837511,38.95508583244944],[-95.25903980456894,38.95511211650982],[-95.25904923371739,38.95510067760925],[-95.25904627753991,38.95509955239147],[-95.25900928309707,38.955081620372155],[-95.25902634216324,38.95506019606816],[-95.2590269730899,38.955059403488924],[-95.25904081472142,38.955042013593484],[-95.25912930737204,38.95501200768536],[-95.2591293725465,38.955012112866626],[-95.25912945051039,38.9550122156466],[-95.25912954021535,38.95501231329679],[-95.2591296405781,38.95501240398916],[-95.25912975044542,38.95501248769642],[-95.25912986985219,38.95501256351822],[-95.2591299965271,38.95501263049962],[-95.25913013047006,38.95501268864061],[-95.25913027052796,38.95501273791392],[-95.2591304144294,38.955012777364665],[-95.25913056332752,38.955012807020104],[-95.25913071495093,38.95501282592529],[-95.25913086811148,38.955012834953386],[-95.25913102169108,38.955012833176696],[-95.2591311733484,38.95501282144113],[-95.25913132427152,38.955012798873526],[-95.2591314721192,38.95501276631979],[-95.25913161573824,38.95501272375266],[-95.25913175041141,38.95501267376424],[-95.25918223382506,38.95510324589136],[-95.25915629441748,38.955095018262405],[-95.25915679053418,38.955094398233896],[-95.25909850333973,38.955065981846985],[-95.25909562014543,38.955069612302424],[-95.25909883482065,38.95507121496915],[-95.25909983886552,38.955069967982084],[-95.25911566441111,38.95507773482896],[-95.25910696475378,38.955088637629686],[-95.25910634483465,38.955089414247546],[-95.25910603545168,38.955089802570136],[-95.25910448395891,38.955091743173554],[-95.2591041734227,38.955092131468824],[-95.25909469003088,38.95510401699869],[-95.25907882475154,38.955096292468355],[-95.25909250413909,38.95507912764175],[-95.25909194830723,38.95507884683864],[-95.25909145348909,38.95507859992191],[-95.25909176528317,38.955078208952756],[-95.25909168707686,38.95507817195623],[-95.25909077061533,38.955077725814974],[-95.25909046126722,38.95507811323712],[-95.25908984414231,38.955077805750754],[-95.2590892883105,38.95507752494762],[-95.25907355515956,38.95509720069231],[-95.25909912474556,38.95510966705699],[-95.25912827289788,38.95512387716375],[-95.25910232397113,38.95515700187396],[-95.25909897821862,38.95514606936121],[-95.25905452701629,38.955124696849445],[-95.25905191964588,38.95512341675672],[-95.259042700372,38.95513492009983],[-95.25910158795777,38.95516377878776],[-95.25899459953742,38.95529794145388],[-95.25900833653576,38.95530462253296],[-95.25883076905662,38.95552718821371],[-95.25882949623362,38.95551396603089],[-95.2588115428612,38.955505171013],[-95.25880966609542,38.95550734364755],[-95.25882483809367,38.955514672407375],[-95.25879776771207,38.9555485816409],[-95.25872299576884,38.9555122753522],[-95.25874364721945,38.95548641008493],[-95.25874086581291,38.955484944724965],[-95.25873370473589,38.9554939399409],[-95.25871848827542,38.955513055581534],[-95.25879897755671,38.9555521178018],[-95.25881990116466,38.955525960651485]]],[[[-95.25875098426171,38.955452460581654],[-95.25875083145027,38.95545247228943],[-95.2587506805261,38.95545249485656],[-95.25875053267733,38.955452527409804],[-95.25875039021025,38.955452570003715],[-95.25875025200669,38.955452621710684],[-95.258750120338,38.9554526834856],[-95.2587499953089,38.95545275262729],[-95.25874987915601,38.955452830991014],[-95.25874977194908,38.95545291677606],[-95.2587496748413,38.95545301000967],[-95.25874958905563,38.955453108918256],[-95.25874951343897,38.95545321347468],[-95.25874945148568,38.95545332286023],[-95.2587494009593,38.955453435219624],[-95.25874936297805,38.95545355148045],[-95.25874933761182,38.95545366984204],[-95.25874932720177,38.95545378945848],[-95.25874932832343,38.95545390934757],[-95.25874934447111,38.955454028690674],[-95.25874937340842,38.95545414563249],[-95.25874941510037,38.955454261073456],[-95.25874946738033,38.9554543713574],[-95.25874953583947,38.95545448112271],[-95.25874961380337,38.95545458390289],[-95.25874970350839,38.9554546815534],[-95.25874980387124,38.95545477224607],[-95.25874991377368,38.955454855053304],[-95.25875003318085,38.95545493087549],[-95.25875015982126,38.955454998757695],[-95.25875029376473,38.95545505689912],[-95.25875043267011,38.95545510614561],[-95.2587505777254,38.95545514562409],[-95.25875072662429,38.955455175280015],[-95.25875087824848,38.955455194185696],[-95.25875103141003,38.95545520321429],[-95.2587511838374,38.95545520141082],[-95.25875133664886,38.95545518970304],[-95.25875148638498,38.955455168009095],[-95.25875163542183,38.95545513458268],[-95.25875177904206,38.955455092016],[-95.25875191724565,38.955455040309054],[-95.25875204891433,38.95545497853413],[-95.25875217282515,38.95545490846481],[-95.25875228894313,38.95545483100145],[-95.25875239615006,38.955454745216414],[-95.25875249325786,38.955454651982805],[-95.25875257904354,38.955454553074155],[-95.25875265466017,38.955454448517784],[-95.25875271776661,38.955454339159495],[-95.2587527683279,38.955454225899715],[-95.25875280512109,38.95545411051196],[-95.2587528304873,38.955453992150396],[-95.2587528420505,38.95545387256122],[-95.25875283977568,38.95545375264488],[-95.25875282362799,38.95545363330176],[-95.258752795774,38.955453518187994],[-95.25888898874959,38.95542889219989],[-95.25885744825779,38.95532255301377],[-95.25885759960065,38.9553225196418],[-95.25885774206736,38.955322477047716],[-95.25885788027064,38.95532242534063],[-95.25885801309215,38.955322363592856],[-95.2588581370026,38.9553222935234],[-95.25885825315514,38.95532221515955],[-95.25885836036176,38.9553221293744],[-95.25885845743434,38.95532203704111],[-95.25885854321967,38.95532193813241],[-95.25885861883609,38.95532183357593],[-95.25885868078903,38.95532172419035],[-95.25885873135006,38.955321610930476],[-95.25885876933107,38.95532149466956],[-95.25885879466219,38.955321377208364],[-95.258858805072,38.955321257591926],[-95.25885880395019,38.955321137702875],[-95.25885878780231,38.95532101835979],[-95.25885875994824,38.955320903246026],[-95.258953758588,38.95530365667387],[-95.25893160920144,38.95522933284381],[-95.25893176127828,38.95522931030377],[-95.25893190912649,38.9552292777503],[-95.25893205274616,38.95522923518337],[-95.25893219098408,38.955229182575835],[-95.25893232261724,38.95522912170109],[-95.2589324465275,38.95522905163157],[-95.2589325626798,38.95522897326765],[-95.25893266988619,38.955228887482434],[-95.25893276695858,38.95522879514903],[-95.25893285389681,38.95522869626757],[-95.25893292835981,38.95522859168377],[-95.2589329914658,38.95522848232543],[-95.25893304202664,38.95522836906551],[-95.25893308000744,38.95522825280463],[-95.25893310422018,38.95522813441572],[-95.25893311574806,38.95522801572691],[-95.25893311347299,38.955227895810616],[-95.25893309847815,38.955227776494766],[-95.25893306950577,38.9552276604534],[-95.2590382592974,38.95520855039882],[-95.25901385490124,38.95512665618086],[-95.2590140050904,38.955126622781414],[-95.25901414870982,38.95512658021442],[-95.25901428691259,38.95512652850717],[-95.25901441858042,38.95512646673193],[-95.25901454249043,38.95512639666232],[-95.25901465864247,38.95512631829828],[-95.2590147658486,38.955126232512974],[-95.25901486292065,38.95512614017958],[-95.2590149487056,38.95512604127073],[-95.2590150243215,38.9551259367142],[-95.25901508742723,38.955125827355744],[-95.25901513798787,38.95512571409588],[-95.25901517596851,38.955125597834886],[-95.25901520014611,38.95512548034638],[-95.25901521170881,38.955125360757194],[-95.25901520943356,38.95512524084086],[-95.25901519443865,38.95512512152503],[-95.25901516553596,38.95512500368286],[-95.25901512380885,38.95512488914241],[-95.25901509067954,38.9551248207675],[-95.25901506929225,38.95512477700323],[-95.25901500191635,38.95512466906617],[-95.25901492395244,38.95512456628616],[-95.25901483424745,38.95512446863588],[-95.25901473388471,38.955124377943434],[-95.2590146240174,38.95512429423604],[-95.25901450576367,38.95512421844138],[-95.25901437908873,38.955124151459856],[-95.2590142451456,38.955124093318744],[-95.25901410508754,38.95512404404529],[-95.2590139600328,38.955124004567146],[-95.2590138111345,38.95512397491155],[-95.25901365951093,38.95512395600624],[-95.25901357892937,38.95512395049631],[-95.25901350750324,38.955123947005234],[-95.25901335392341,38.95512394878179],[-95.25901320111272,38.95512396048992],[-95.25901305018934,38.95512398305737],[-95.25901290234135,38.95512401561095],[-95.25901275987512,38.95512405820519],[-95.25901262167238,38.955124109912454],[-95.25901249003944,38.95512417078728],[-95.25901236497629,38.95512424082965],[-95.25901224882423,38.95512431919367],[-95.25901214161813,38.955124404978946],[-95.25901204451112,38.955124498212776],[-95.2590119587262,38.955124597121554],[-95.25901188311029,38.95512470167815],[-95.25901182115771,38.95512481106385],[-95.25901177063199,38.95512492342331],[-95.25901173265135,38.955125039684276],[-95.25901170728565,38.955125158045966],[-95.2590116968761,38.95512527766241],[-95.25901169799822,38.955125397551484],[-95.25901171418117,38.95512551599416],[-95.25901174308385,38.95512563383633],[-95.25901178477604,38.95512574927719],[-95.25901183813949,38.95512586138911],[-95.25901186305607,38.95512590343439],[-95.25894157738708,38.95516155057065],[-95.25893156585589,38.955226611029396],[-95.25893141154165,38.95522660197377],[-95.25893125799657,38.95522660284982],[-95.2589311051507,38.95522661545823],[-95.25893095422705,38.95522663802555],[-95.25893080641376,38.95522666967869],[-95.25893066394724,38.95522671227282],[-95.25893052570932,38.95522676488041],[-95.25893039407612,38.95522682575512],[-95.25893026901277,38.95522689579737],[-95.2589301528604,38.95522697416129],[-95.25893004565403,38.95522705994652],[-95.25892994858171,38.95522715227987],[-95.25892986276166,38.955227252089045],[-95.25892978829863,38.95522735667278],[-95.25892972522759,38.955227465130804],[-95.25892967466675,38.95522757839065],[-95.2589296366859,38.95522769465159],[-95.2589296124732,38.95522781304049],[-95.25892960091039,38.95522793262963],[-95.25892960322037,38.95522805164562],[-95.25892961821515,38.95522817096145],[-95.25892964711775,38.955228288803596],[-95.25892968880987,38.95522840424453],[-95.2589297433264,38.955228516383684],[-95.2589298095492,38.95522862429355],[-95.25892988527653,38.95522872521832],[-95.2588663377758,38.955261009638434],[-95.2588572563324,38.95531985292069],[-95.2588571008648,38.95531984383773],[-95.25885694847268,38.95531984474092],[-95.25885679562657,38.95531985734925],[-95.25885664470272,38.95531987991647],[-95.25885649685428,38.95531991246986],[-95.25885635326931,38.955319954136264],[-95.25885621503114,38.95532000674377],[-95.2588560833977,38.9553200676184],[-95.25885595948728,38.955320137687835],[-95.25885584333464,38.95532021605168],[-95.25885573612806,38.95532030183685],[-95.25885563902058,38.95532039507051],[-95.25885555323525,38.955320493979244],[-95.25885547761885,38.95532059853568],[-95.25885541454763,38.95532070699364],[-95.25885536398658,38.955320820253455],[-95.25885532715873,38.95532093654163],[-95.25885530179272,38.95532105490324],[-95.25885529022973,38.9553211744924],[-95.25885529250472,38.95532129440875],[-95.25885530868747,38.95532141285143],[-95.25885533643681,38.95532153066638],[-95.25885537812886,38.95532164610735],[-95.25885543264536,38.95532175824653],[-95.25885550002127,38.9553218661837],[-95.25885557578353,38.9553219662081],[-95.25876435429267,38.955368245656935],[-95.25875129215692,38.95545246786132],[-95.25875113784224,38.95545245880547],[-95.25875098426171,38.955452460581654]]],[[[-95.25867897463,38.955467281019395],[-95.25886575375263,38.955233210250114],[-95.25888688220657,38.95524319874407],[-95.25890696614728,38.95521794548139],[-95.25888623028864,38.9552076850915],[-95.25902275657124,38.95503633976459],[-95.25902141990716,38.955031579451784],[-95.25888013474727,38.95520872969106],[-95.2589019573128,38.95521933210309],[-95.25888623966466,38.9552390523505],[-95.25886441594227,38.955228449908304],[-95.25867301415899,38.95546835403648],[-95.25867897463,38.955467281019395]]],[[[-95.25909734340239,38.95507121936514],[-95.25909707284079,38.9550715590382],[-95.25910601325042,38.955075908805284],[-95.25910624890491,38.95507563589867],[-95.25910629744037,38.955075574861695],[-95.25909734340239,38.95507121936514]]],[[[-95.25909765397337,38.95507083016945],[-95.2590966593056,38.95507034703174],[-95.25909634876942,38.95507073532703],[-95.25909734340239,38.95507121936514],[-95.25909765397337,38.95507083016945]]]]},"properties":{"SDE.FloorAll.FLOORLOCATION":"ROOF"}}]}
