{"type":"FeatureCollection","features":[{"type":"Feature","geometry":{"type":"Polygon","coordinates":[[[-95.24165077976407,38.95688804597323],[-95.24168726426153,38.95688805327729],[-95.24168727065273,38.95686688900887],[-95.24171994500686,38.95686689488062],[-95.2417199730395,38.9567806354842],[-95.24172231732781,38.95678063537837],[-95.24172234235479,38.95670078273439],[-95.24171999810424,38.95670078193981],[-95.24172002562034,38.95661497945214],[-95.24170595887557,38.956614977357354],[-95.241705961529,38.956607426037344],[-95.24168720744396,38.95660742237783],[-95.24168720478856,38.956614973697846],[-95.24164969546129,38.956614966342315],[-95.24164969696756,38.95660741499487],[-95.24163152807074,38.95660741172984],[-95.24163152659767,38.95661496217695],[-95.24161804622946,38.95661495960214],[-95.24161803742376,38.95664127252549],[-95.24159254254899,38.95664126799914],[-95.24159254179236,38.95664675915899],[-95.24157202863667,38.95664675508747],[-95.241572010876,38.95669926557412],[-95.24156263380377,38.95669926418412],[-95.24156261958943,38.956743195071304],[-95.24157199782071,38.95674319648874],[-95.24157199287443,38.95675681031035],[-95.24160452054808,38.95675681723223],[-95.2416045113527,38.95678541746093],[-95.2416179917534,38.9567854200373],[-95.24161798999585,38.95679102562906],[-95.2416086129114,38.95679102424279],[-95.24160860782193,38.95680452360496],[-95.2416179860262,38.95680452591905],[-95.24161797340474,38.95684182110662],[-95.24160859634874,38.95684181881995],[-95.24160859241242,38.956855318209485],[-95.24161796947021,38.956855320496146],[-95.24161796640576,38.95686687505795],[-95.24165078731937,38.956866881732246],[-95.24165077976407,38.95688804597323]]]},"properties":{"SDE.FloorAll.FLOORLOCATION":"-1"}},{"type":"Feature","geometry":{"type":"Polygon","coordinates":[[[-95.24165078270632,38.95688817762239],[-95.24165080072923,38.95688821860637],[-95.24165082853979,38.9568882454036],[-95.24165085792521,38.95688826142354],[-95.24165090247769,38.956888273298226],[-95.24168714812596,38.95688827852489],[-95.24168719250912,38.95688826516115],[-95.24168722805325,38.95688824167362],[-95.24168725479358,38.95688820716191],[-95.24168726409565,38.956888175840255],[-95.24168727184103,38.95686688813592],[-95.24171994616003,38.95686689490805],[-95.2417199730395,38.9567806354842],[-95.24172231732781,38.95678063537837],[-95.24172234238993,38.956700781833966],[-95.24171999810424,38.95670078193981],[-95.24172002562034,38.95661497945214],[-95.24161804622946,38.95661495960214],[-95.24161803666914,38.95664676368531],[-95.24157202863667,38.95664675508747],[-95.24157199287443,38.95675681031035],[-95.24160452170126,38.95675681725968],[-95.24160451250587,38.956785417488355],[-95.2416179917534,38.9567854200373],[-95.24161796640576,38.95686687505795],[-95.24165078731937,38.956866881732246],[-95.24165078270632,38.95688817762239]]]},"properties":{"SDE.FloorAll.FLOORLOCATION":"1"}},{"type":"Feature","geometry":{"type":"Polygon","coordinates":[[[-95.24161796640576,38.95686687505795],[-95.24171994616003,38.95686689490805],[-95.2417199730395,38.9567806354842],[-95.24172231732781,38.95678063537837],[-95.24172234235479,38.95670078273439],[-95.24171999810424,38.95670078193981],[-95.24172002562034,38.95661497945214],[-95.24161804622946,38.95661495960214],[-95.24161802048002,38.956696986893725],[-95.24160688434654,38.95669698511428],[-95.24160686632462,38.95675361420247],[-95.24160452207231,38.95675361340558],[-95.24160451250587,38.956785417488355],[-95.2416179917534,38.9567854200373],[-95.24161796640576,38.95686687505795]]]},"properties":{"SDE.FloorAll.FLOORLOCATION":"2"}},{"type":"Feature","geometry":{"type":"Polygon","coordinates":[[[-95.24161796640576,38.95686687505795],[-95.24171994616003,38.95686689490805],[-95.2417199730395,38.9567806354842],[-95.24172231732781,38.95678063537837],[-95.24172234235479,38.95670078273439],[-95.24171999810424,38.95670078193981],[-95.24172002562034,38.95661497945214],[-95.24161804622946,38.95661495960214],[-95.24161802048002,38.956696986893725],[-95.24160688434654,38.95669698511428],[-95.24160686632462,38.95675361420247],[-95.24160452207231,38.95675361340558],[-95.24160451250587,38.956785417488355],[-95.2416179917534,38.9567854200373],[-95.24161796640576,38.95686687505795]]]},"properties":{"SDE.FloorAll.FLOORLOCATION":"3"}},{"type":"Feature","geometry":{"type":"MultiPolygon","coordinates":[[[[-95.24165199124533,38.95689293871833],[-95.24168822183434,38.95689294538881],[-95.24168822198757,38.956892882306576],[-95.24168832918573,38.95689294523904],[-95.24168833557663,38.95687178097062],[-95.24169243893382,38.95687178125734],[-95.24172808889924,38.956871788522186],[-95.2417281140849,38.95679033440194],[-95.24173095113312,38.9567903370063],[-95.24173096276755,38.95675510650814],[-95.24173096354536,38.956753252702214],[-95.24173097281852,38.95672388012476],[-95.24173098308891,38.95668865500131],[-95.24172852341545,38.956688654164644],[-95.24172854878236,38.956608319371725],[-95.24161188745163,38.95660829720644],[-95.24161187784848,38.95663832767341],[-95.24156622765817,38.95663831857424],[-95.24156619035325,38.95675829176697],[-95.24159836026064,38.956758297388696],[-95.24159835204608,38.956781814718994],[-95.2416122745008,38.9567818178994],[-95.24161224551287,38.9568717659993],[-95.24165199883542,38.956871773576964],[-95.24165199124533,38.95689293871833]]],[[[-95.24173875391456,38.95673165176605],[-95.24173864509403,38.95673165999193],[-95.24173853714557,38.956731675448395],[-95.24173843118729,38.9567316990633],[-95.24173832844258,38.956731729063215],[-95.24173823002945,38.956731766375974],[-95.24173813598311,38.95673181010122],[-95.24173804633874,38.95673185933855],[-95.24173796336744,38.956731915043235],[-95.24173788595122,38.95673197628743],[-95.24173781639648,38.956732043126024],[-95.24173775477342,38.956732113758186],[-95.24173770108206,38.95673218818398],[-95.24173765647565,38.956732266430826],[-95.24173761987117,38.95673234667047],[-95.24173759238676,38.95673242983075],[-95.24173757409262,38.95673251411089],[-95.24173756614194,38.95673259953832],[-95.24173756741679,38.956732685185244],[-95.24173757791702,38.95673277105162],[-95.2417375977481,38.956732854436325],[-95.24173762799295,38.95673293716751],[-95.24173766641546,38.956733017389595],[-95.2417377141688,38.956733095129906],[-95.24173777017009,38.95673316856036],[-95.24173783326613,38.95673323765342],[-95.24173790457503,38.95673330333698],[-95.24173798304886,38.95673336288238],[-95.24173806865267,38.95673341719008],[-95.24173815911512,38.956733465304744],[-95.24173825443624,38.9567335072264],[-95.24173835461607,38.95673354295507],[-95.2417384573833,38.95673357153547],[-95.24173856389119,38.95673359299503],[-95.24173867186846,38.95673360637846],[-95.24173878124485,38.95673361348667],[-95.2417388909375,38.95673361249133],[-95.24173900094632,38.95673360339242],[-95.24173910774162,38.95673358790852],[-95.24173921366479,38.956733565194064],[-95.2417393164447,38.956733534293726],[-95.24173941597579,38.956733497908814],[-95.24173951002211,38.95673345418355],[-95.24173959854852,38.95673340401837],[-95.24173968267299,38.956733348341146],[-95.241739758936,38.956733287069504],[-95.24173982845561,38.956733221131294],[-95.2417398900787,38.95673315049912],[-95.24173994377001,38.95673307607331],[-95.24173998952965,38.95673299785396],[-95.24174002616925,38.9567329167139],[-95.24174005365366,38.95673283355361],[-95.24174007079462,38.95673274924605],[-95.2417400798984,38.95673266384603],[-95.24174007862362,38.9567325781991],[-95.24174006693505,38.956732493205685],[-95.2417400471391,38.9567324089206],[-95.24174001804747,38.95673232621685],[-95.24173997847173,38.9567322459674],[-95.24173993183645,38.956732169154805],[-95.24173987583511,38.956732095724384],[-95.24173981162104,38.95673202570351],[-95.24173974027707,38.95673196092035],[-95.24173966180318,38.95673190137491],[-95.24173957738768,38.95673184619431],[-95.24173948692521,38.95673179807964],[-95.2417393916041,38.95673175615794],[-95.24173929138922,38.95673172132973],[-95.24173918746874,38.95673169272192],[-95.24173908096091,38.956731671262325],[-95.24173897301873,38.95673165697846],[-95.24173886360721,38.95673165077066],[-95.24173875391456,38.95673165176605]]],[[[-95.24173875824563,38.956745501929156],[-95.24173866218034,38.95674550865607],[-95.2417385681403,38.95674552264096],[-95.24173847616066,38.956745542983484],[-95.24173838624145,38.9567455696836],[-95.24173829957097,38.95674560186839],[-95.24173821611403,38.956745640438164],[-95.2417381382474,38.956745683647135],[-95.24173806593573,38.95674573239557],[-95.24173799802605,38.9567457866561],[-95.2417379368949,38.9567458446828],[-95.24173788254231,38.956745906475675],[-95.2417378361565,38.956745971161766],[-95.24173779654932,38.956746039614],[-95.24173776490889,38.95674611095946],[-95.24173774015243,38.95674618336996],[-95.24173772455119,38.95674625780066],[-95.24173771702219,38.956746332423386],[-95.2417377187186,38.956746407265605],[-95.24173772848727,38.95674648229986],[-95.24173774524532,38.956746555697926],[-95.2417377712991,38.9567466275147],[-95.24173780549542,38.9567466977227],[-95.24173784671618,38.956746765394165],[-95.24173789611459,38.95674683055648],[-95.24173795145461,38.95674689135403],[-95.24173801504259,38.9567469478416],[-95.24173808338386,38.95674700083737],[-95.24173815770183,38.956747048567934],[-95.24173823684332,38.95674709100595],[-95.24173832084347,38.95674712725091],[-95.24173840851398,38.956747158175865],[-95.24173849873682,38.956747182852915],[-95.24173859147682,38.956747202182505],[-95.24173868680428,38.95674721436379],[-95.24173878241282,38.95674721934197],[-95.24173887823213,38.9567472189178],[-95.24173897433258,38.95674721129052],[-95.24173906837267,38.956747197305596],[-95.24173916147033,38.95674717789091],[-95.24173925138953,38.95674715119082],[-95.24173933806001,38.95674711900604],[-95.24173942036374,38.956747080408796],[-95.24173949826557,38.95674703629943],[-95.24173957173034,38.95674698757845],[-95.24173963845173,38.95674693419085],[-95.24173969958288,38.95674687616418],[-95.24173975393552,38.95674681437131],[-95.24173980035641,38.9567467487848],[-95.24173983996366,38.95674668033254],[-95.2417398727221,38.95674660991493],[-95.24173989632533,38.956746537477024],[-95.24173991192659,38.956746463046336],[-95.24173991945557,38.95674638842361],[-95.24173991775916,38.95674631358137],[-95.24173990914365,38.95674623857454],[-95.24173989123243,38.95674616514905],[-95.24173986521377,38.95674609243189],[-95.24173983101753,38.956746022223875],[-95.24173978979671,38.956745954552396],[-95.24173974036316,38.95674589029047],[-95.24173968502312,38.95674582949298],[-95.24173962262346,38.95674577213242],[-95.24173955309394,38.956745720009586],[-95.24173947877598,38.956745672279006],[-95.2417393996345,38.95674562984101],[-95.24173931563435,38.956745593596054],[-95.241739229117,38.956745562698565],[-95.24173913777612,38.956745537093695],[-95.241739045001,38.95674551866448],[-95.24173894967355,38.95674550648318],[-95.24173885410013,38.95674550060463],[-95.24173875824563,38.956745501929156]]]]},"properties":{"SDE.FloorAll.FLOORLOCATION":"ROOF"}}]}
