{"type":"FeatureCollection","features":[{"type":"Feature","geometry":{"type":"Polygon","coordinates":[[[-95.25151090248475,38.95771750536812],[-95.25151158621571,38.957926766006786],[-95.25174049261233,38.95792630971176],[-95.2517944806523,38.957926202393935],[-95.25180141372252,38.95792618828271],[-95.25187567576108,38.95779505665391],[-95.2518898142029,38.95777009259825],[-95.25197593760548,38.95761801731849],[-95.25197592520148,38.95761435805478],[-95.25197945235072,38.95760813037978],[-95.25197942184646,38.957608083694396],[-95.25197903909786,38.95749157248572],[-95.25197856984514,38.95734828025317],[-95.25197848273355,38.957348175448956],[-95.25176313697926,38.957273829354925],[-95.25176274352218,38.95727394439771],[-95.25176232836033,38.957274112999485],[-95.25169391276219,38.957394592778165],[-95.25170428044204,38.957398181169296],[-95.2517465842966,38.95732348198272],[-95.25188947236812,38.95737281319778],[-95.25188982285732,38.957479581414205],[-95.25185561571443,38.95753998358028],[-95.25166185752893,38.957473090208836],[-95.25170422095756,38.957398286103725],[-95.25169385443088,38.95739469773994],[-95.251643401943,38.9574835431322],[-95.25164661725844,38.95748465305209],[-95.2516295525757,38.95751478653169],[-95.25162633610591,38.957513676583986],[-95.25160345022215,38.95755408752134],[-95.25160038277349,38.957559505067294],[-95.25160359805679,38.95756061588876],[-95.25159222081,38.95758070485286],[-95.2515890066792,38.95757959405843],[-95.25151090248475,38.95771750536812]]]},"properties":{"SDE.FloorAll.FLOORLOCATION":"-1"}},{"type":"Feature","geometry":{"type":"Polygon","coordinates":[[[-95.25155771800085,38.95763543393265],[-95.2515748833755,38.95764136173045],[-95.25157579036475,38.957926607163856],[-95.2518017411293,38.957926169006335],[-95.25198036581868,38.957610820554414],[-95.25197963029868,38.95737785832738],[-95.25197904388084,38.95737785974945],[-95.25197894998108,38.9573482703371],[-95.2519788628344,38.957348166433306],[-95.25191072561286,38.95732495815375],[-95.25190942183048,38.9573245586512],[-95.25190732091795,38.95732456292934],[-95.25190719048094,38.957283415352094],[-95.2519020848258,38.957282000181],[-95.25181843933744,38.95725311605938],[-95.25181839039303,38.957237839150054],[-95.25178288861476,38.95723790789787],[-95.25155771800085,38.95763543393265]]]},"properties":{"SDE.FloorAll.FLOORLOCATION":"-2"}},{"type":"Feature","geometry":{"type":"Polygon","coordinates":[[[-95.25151103024704,38.95792702319482],[-95.25151161663442,38.95792702267553],[-95.2515116163347,38.95792682259666],[-95.2517404134691,38.957926682745054],[-95.2517403695228,38.95791409791103],[-95.25179525030141,38.957914096468755],[-95.25179529253818,38.95792628021726],[-95.25180127096418,38.95792626781159],[-95.25180136753062,38.95792609976911],[-95.25180248031182,38.957926483930756],[-95.25180269146547,38.95792630778953],[-95.25196535197935,38.95763900467374],[-95.25196050906968,38.95763733257587],[-95.25194356850353,38.95766697787354],[-95.25194345609921,38.957666751705844],[-95.25193581698613,38.95766411481278],[-95.2519355273171,38.957664202575714],[-95.25193229873611,38.95766990560379],[-95.25188190585592,38.95765245222542],[-95.25191851344424,38.95758778647748],[-95.25197745073984,38.957607688203346],[-95.25196056851898,38.95763722854167],[-95.25196541146359,38.95763889973916],[-95.2520030039867,38.957572500824845],[-95.25200212814154,38.957319929143225],[-95.25200198134584,38.957319785974285],[-95.25199641273993,38.957319798188756],[-95.25199604702765,38.957319941827855],[-95.2519961055445,38.95733687361044],[-95.25199647264516,38.95733687239764],[-95.25199648186239,38.95733960422625],[-95.25199643230407,38.95733969137166],[-95.25195244510509,38.95732451132068],[-95.2519523866853,38.95732438106098],[-95.25195231164186,38.95730291663044],[-95.25195220356484,38.957302786996266],[-95.25177610695243,38.957242015350424],[-95.25151030105685,38.95771157006821],[-95.25151028496893,38.95771174632682],[-95.25151103024704,38.95792702319482]]]},"properties":{"SDE.FloorAll.FLOORLOCATION":"1"}},{"type":"Feature","geometry":{"type":"Polygon","coordinates":[[[-95.25151134301747,38.95792456035354],[-95.25167834478896,38.95792422737755],[-95.2516783519825,38.957926743765846],[-95.25174069873457,38.95792661921126],[-95.25174073369129,38.95792646232559],[-95.25174070898883,38.95791403566194],[-95.25180371372048,38.95791390954656],[-95.25180307864066,38.9579151030351],[-95.25180274607135,38.957914987906726],[-95.25179741516021,38.957924411822624],[-95.25179750824212,38.95792460058229],[-95.25180280219969,38.9579264284746],[-95.25180301223519,38.95792625140567],[-95.25185207451612,38.957839617942916],[-95.25184738192763,38.957837998069664],[-95.25181405080382,38.95789685286023],[-95.25181338108759,38.957896621593804],[-95.25181296714108,38.95789735258847],[-95.25180412412627,38.957894299625515],[-95.25185182103905,38.95781000762486],[-95.25182946233981,38.95780260133515],[-95.25178224688764,38.95788487067626],[-95.25178156239004,38.957884633651965],[-95.25178070346087,38.95788615168261],[-95.25178005991842,38.95788593004862],[-95.25177988685853,38.957833204336204],[-95.25182189962172,38.95775902002967],[-95.25187983763628,38.95777927302603],[-95.2518799565703,38.957779064057334],[-95.2518800421624,38.957778911075465],[-95.25188071303097,38.957779142368864],[-95.25184744141221,38.957837893135135],[-95.25185213400074,38.95783951300842],[-95.25191715151665,38.95772470601182],[-95.2519124589343,38.957723086141144],[-95.25189940856512,38.95774613114684],[-95.25189914204194,38.957746039213525],[-95.2518990296727,38.95774581214538],[-95.25189139170591,38.95774317527671],[-95.25189110088333,38.95774326301221],[-95.25188783934242,38.95774895264086],[-95.25183751051006,38.9577314538988],[-95.25186690161789,38.95767955689415],[-95.251924958549,38.957699599999025],[-95.25192483958023,38.95769980986818],[-95.25192550929498,38.957700041133954],[-95.25191251841872,38.95772298120661],[-95.25191721096608,38.95772460197767],[-95.25196568175916,38.95763901339111],[-95.25196098802815,38.95763739349505],[-95.25194420478729,38.957667029904485],[-95.25194393826435,38.957666937971275],[-95.2519438258601,38.95766671180358],[-95.25193618790018,38.95766407493788],[-95.25193589826615,38.957664161800444],[-95.25193251985617,38.95767012623724],[-95.25193243181789,38.957670282765974],[-95.25188201059342,38.95765287557954],[-95.25191913393208,38.95758732443651],[-95.25197719076718,38.95760736841578],[-95.2519777724431,38.9576077562101],[-95.25196104751245,38.95763728856049],[-95.25196574009021,38.95763890842919],[-95.25200339125702,38.95757242618963],[-95.25200256226933,38.9573198961737],[-95.25200241547368,38.957319753004796],[-95.25199684805594,38.9573197643462],[-95.25199648234361,38.957319907985315],[-95.25199653740106,38.95733683968588],[-95.2519969045017,38.957336838473076],[-95.25199691256574,38.9573395702744],[-95.25199686300745,38.957339657419766],[-95.25195287947794,38.95732447204856],[-95.25195281990504,38.95732434176152],[-95.25195274943924,38.957302878340734],[-95.25195264139715,38.95730274780616],[-95.25177655596842,38.95724195569796],[-95.25151066236508,38.957711480399645],[-95.25151064624211,38.95771165755863],[-95.25151134301747,38.95792456035354]]]},"properties":{"SDE.FloorAll.FLOORLOCATION":"2"}},{"type":"Feature","geometry":{"type":"Polygon","coordinates":[[[-95.25163401671198,38.95792700864183],[-95.25174048754575,38.95792679625269],[-95.25174052253747,38.95792663846668],[-95.25174048234905,38.95791428353387],[-95.25174049783504,38.95791421180301],[-95.25180350372005,38.95791408571506],[-95.25180353674286,38.957914097312496],[-95.25180286975841,38.95791528013135],[-95.25180253488271,38.95791516494832],[-95.25179720397152,38.957924588864216],[-95.25179729705344,38.95792477762388],[-95.25180259104604,38.95792660461577],[-95.25180280104651,38.957926428447266],[-95.25200316808088,38.957572644403776],[-95.25200235227119,38.95732007234261],[-95.2520022054405,38.95731993007402],[-95.25199663690456,38.95731994048776],[-95.25199663710463,38.9573200837871],[-95.25199627115724,38.95732008502728],[-95.25199670141433,38.95733974641594],[-95.2519966530092,38.957339833588634],[-95.25195266829145,38.957324649090424],[-95.25195260871855,38.95732451880341],[-95.25195253944099,38.95730305450952],[-95.2519524313639,38.957302924875364],[-95.25177634478172,38.95724213273946],[-95.25177611145766,38.957242552586834],[-95.2515104512113,38.957711656540276],[-95.25151088703728,38.95771279700669],[-95.2517143716744,38.95778313132638],[-95.25163401671198,38.95792700864183]]]},"properties":{"SDE.FloorAll.FLOORLOCATION":"3"}},{"type":"Feature","geometry":{"type":"MultiPolygon","coordinates":[[[[-95.25172024793639,38.95778123384638],[-95.25163972932036,38.95792341298489],[-95.2516904632577,38.957923311493325],[-95.25173609607882,38.957923220646364],[-95.25173591705061,38.957897545033816],[-95.25174478009355,38.957897529808605],[-95.25174609373359,38.957897527600494],[-95.25181438760475,38.95789742320706],[-95.25192113281413,38.95770893522597],[-95.25198409649481,38.957597754708736],[-95.25199878272848,38.95757182129025],[-95.25199852910777,38.95749441365014],[-95.25199841941102,38.95746107387054],[-95.25199806918597,38.95735417588817],[-95.25199802811674,38.95734178308369],[-95.25194821420118,38.95732458497861],[-95.25194815240809,38.957305629869936],[-95.25194815084011,38.957305046740814],[-95.25194675334022,38.957304563907236],[-95.25177907686911,38.957246675680736],[-95.25177859509026,38.95724650925064],[-95.25151575094722,38.9577106340111],[-95.25151677374109,38.957710987203214],[-95.25168310143066,38.95776840942481],[-95.25168381278341,38.957769855627866],[-95.25168566297984,38.95776929386146],[-95.25172024793639,38.95778123384638]]],[[[-95.25158994457973,38.9578336488561],[-95.25163351388575,38.95792159478534],[-95.25163587453177,38.95792159035981],[-95.25171396035958,38.957783705570144],[-95.25171453042769,38.95778269979812],[-95.25151719303236,38.95771457139773],[-95.25151762614807,38.9578471625585],[-95.25157707983388,38.957829208187476],[-95.25158994457973,38.9578336488561]]]]},"properties":{"SDE.FloorAll.FLOORLOCATION":"ROOF"}}]}
