{"type":"FeatureCollection","features":[{"type":"Feature","geometry":{"type":"Polygon","coordinates":[[[-95.2424930374685,38.95970868819225],[-95.2423747309901,38.95970863139565],[-95.24237462200752,38.95984482580442],[-95.24270988007618,38.95984498789063],[-95.24270998747636,38.9597087583114],[-95.24261562877771,38.9597087133849],[-95.24261563577151,38.95969906591894],[-95.24261485024722,38.959699051744394],[-95.24261406553079,38.959699016860824],[-95.2426132828107,38.9596989603953],[-95.24261250205167,38.959698883248215],[-95.24261172674863,38.959698784601414],[-95.24261095571315,38.959698665327856],[-95.24261019013366,38.959698524554646],[-95.2426094311282,38.95969836320952],[-95.24260868100329,38.95969818134737],[-95.24260793860562,38.95969797894078],[-95.24260720505333,38.95969775691751],[-95.24260648265289,38.959697515332486],[-95.24260577143939,38.959697253285306],[-95.24260507246076,38.959696973504485],[-95.24260438582235,38.959696673288995],[-95.24260371372516,38.95969635539471],[-95.24260305501602,38.95969601979426],[-95.24260241318977,38.95969566566957],[-95.2426017870229,38.959695294793974],[-95.24260117766865,38.959694907194844],[-95.24260058509186,38.959694503772674],[-95.24260001163411,38.959694083681846],[-95.24259945726033,38.95969364782277],[-95.24259892305348,38.95969319802367],[-95.24259840901348,38.95969273428455],[-95.24259791517558,38.959692255704944],[-95.24259744374082,38.959691765041],[-95.24259699474426,38.959691261392265],[-95.24259656815083,38.95969074565909],[-95.24259616392543,38.95969021874193],[-95.2425957843393,38.95968968159598],[-95.2425954293925,38.95968913422128],[-95.24259509789665,38.95968857749076],[-95.24259479215826,38.95968801145932],[-95.24259451210706,38.95968743792769],[-95.24259425655458,38.9596868577689],[-95.24259402784257,38.9596862701373],[-95.24259382590071,38.95968567683379],[-95.24259364954061,38.959685078731304],[-95.24259350106874,38.95968447588463],[-95.24259337926163,38.959683870067224],[-95.24259328415441,38.95968326037862],[-95.24259321683009,38.959682648647046],[-95.24259317610023,38.95968203574544],[-95.24259316308299,38.95968142260167],[-95.24258165035138,38.95968141647715],[-95.24258172952,38.95957991318989],[-95.24259324338833,38.95957991934184],[-95.24259325703582,38.95957930322729],[-95.24259329947886,38.95957868869876],[-95.242593368411,38.959578075701444],[-95.24259346498538,38.95957746426271],[-95.24259358913187,38.9595768561833],[-95.24259373966207,38.95957625233626],[-95.24259391772922,38.95957565274903],[-95.24259412214492,38.959575058294526],[-95.24259435287408,38.959574469873125],[-95.24259460991667,38.95957388748492],[-95.24259489320241,38.95957331293058],[-95.24259520157821,38.959572746182694],[-95.24259553497369,38.95957218904214],[-95.24259589342395,38.95957164060845],[-95.24259627689398,38.959571101782025],[-95.242596683007,38.95957057430877],[-95.24259711291629,38.95957005821619],[-95.2425975654334,38.95956955437717],[-95.24259804055845,38.95956906279178],[-95.24259853710299,38.95956858433287],[-95.24259905499682,38.95956812080136],[-95.24259959315692,38.959567670368976],[-95.24260015032469,38.95956723570947],[-95.24260072768857,38.9595668159499],[-95.24260132290688,38.959566411935754],[-95.24260193590945,38.95956602546782],[-95.24260256561317,38.95956565471796],[-95.24260321191285,38.959565302387325],[-95.24260387369023,38.95956496754801],[-95.2426045497922,38.95956465017269],[-95.24260524014841,38.95956435206214],[-95.24260594245241,38.959564073161424],[-95.24260665670431,38.95956381347061],[-95.24260738290403,38.95956357298973],[-95.24260811986326,38.95956335259168],[-95.24260886524031,38.959563153122055],[-95.24260961910556,38.95956297278004],[-95.24261038135364,38.95956281426678],[-95.24261114974821,38.959562675726694],[-95.24261192306588,38.95956255893314],[-95.24261270249507,38.95956246301313],[-95.24261348569406,38.95956238881219],[-95.24261427039167,38.9595623353751],[-95.24261505770588,38.959562303629696],[-95.24261584651865,38.95956229264816],[-95.24261585620255,38.959549499063435],[-95.24259669987384,38.959549489608605],[-95.24259670066188,38.95954834506933],[-95.24259025402782,38.95954834226428],[-95.24259025323974,38.959549486803525],[-95.2425427779483,38.959549463569175],[-95.24254277870206,38.95954831993034],[-95.24253809004723,38.95954831747389],[-95.24253808929338,38.959549461112715],[-95.24249999131177,38.95954944277359],[-95.24249999206624,38.95954829913472],[-95.24249530341142,38.959548296676545],[-95.24249530265686,38.959549440315406],[-95.24249316376178,38.95954943991638],[-95.2424930374685,38.95970868819225]]]},"properties":{"SDE.FloorAll.FLOORLOCATION":"-1"}},{"type":"Feature","geometry":{"type":"MultiPolygon","coordinates":[[[[-95.24261565107454,38.95970083358846],[-95.24261477336219,38.95970081541916],[-95.2426139139669,38.95970077154986],[-95.24261305663818,38.959700704297774],[-95.24261220252916,38.95970061369039],[-95.2426113539112,38.95970050068289],[-95.24261050963115,38.959700365247855],[-95.24260967318372,38.959700206567206],[-95.24260884338057,38.95970002551389],[-95.24260802137502,38.95969982211536],[-95.24260721062666,38.95969959645387],[-95.24260640879392,38.95969934937494],[-95.24260561933652,38.95969908096085],[-95.24260484110121,38.95969879118422],[-95.24260407751261,38.95969848102763],[-95.24260332745253,38.959698149563366],[-95.24260259200396,38.95969779861957],[-95.24260187347342,38.95969742825115],[-95.24260117070756,38.959697038430605],[-95.24260048597787,38.959696630113186],[-95.24259982043749,38.95969620332639],[-95.2425991740513,38.959695758970575],[-95.24259854678417,38.959695297946084],[-95.24259794097769,38.95969481940744],[-95.24259735652649,38.95969432605579],[-95.24259679465406,38.9596938161178],[-95.24259625529011,38.959693291394224],[-95.24259573839953,38.959692752785465],[-95.24259524744201,38.95969220037379],[-95.24259478007598,38.95969163500476],[-95.24259433857273,38.959691057633584],[-95.24259392289716,38.959690469160705],[-95.24259353308443,38.95968986868568],[-95.24259317018236,38.959689258937125],[-95.242592834226,38.95968863901465],[-95.24259252629847,38.95968801074651],[-95.24259224636452,38.959687375033035],[-95.2425919944242,38.95968673187423],[-95.2425917715956,38.959686082197926],[-95.2425915766904,38.959685426877094],[-95.24259141197983,38.959684766867],[-95.2425912763108,38.95968410214012],[-95.24259116957785,38.95968343539779],[-95.24259109185125,38.95968276483907],[-95.24259104533206,38.959682093220096],[-95.24259102767871,38.959681421386364],[-95.24258165035138,38.95968141647715],[-95.24258167875307,38.959645153590294],[-95.24259310722289,38.95964515951357],[-95.24259313077187,38.959616181127245],[-95.24258170111837,38.95961617607691],[-95.24258172958136,38.959580828837765],[-95.24259113464296,38.95958083260433],[-95.24259110975414,38.959580168709586],[-95.24259111376622,38.95957950369966],[-95.24259114772707,38.95957884030316],[-95.24259120936539,38.95957817756486],[-95.24259130210565,38.95957751646745],[-95.24259142241802,38.95957685872944],[-95.24259157260883,38.95957620440564],[-95.24259175148984,38.95957555436908],[-95.24259195787265,38.959574909492645],[-95.24259219399345,38.95957427163204],[-95.24259245761606,38.959573638931566],[-95.24259274859993,38.95957301499283],[-95.24259306701539,38.95957239801504],[-95.24259341275697,38.95957179069938],[-95.24259378467154,38.95957119301841],[-95.24259418272388,38.95957060587251],[-95.24259460691407,38.95957002926171],[-95.24259505601857,38.959569464959394],[-95.24259553003739,38.959568912965494],[-95.24259602781734,38.95956837325259],[-95.242596549253,38.959567848521864],[-95.24259709326138,38.95956733694517],[-95.24259765858393,38.95956684119619],[-95.242598246409,38.959566360401965],[-95.24259885554817,38.95956589543547],[-95.24259948481316,38.95956544716967],[-95.24260013301559,38.959565016477576],[-95.24260079900223,38.95956460333167],[-95.24260148389119,38.95956420865985],[-95.24260218537597,38.959563832407206],[-95.24260290342153,38.95956347547413],[-95.24260363687456,38.95956313783325],[-95.24260438458191,38.95956281945716],[-95.24260514532007,38.95956252211916],[-95.24260591912412,38.959562244918786],[-95.24260670477062,38.959561989629535],[-95.24260750117665,38.95956175442315],[-95.24260830711863,38.95956154107294],[-95.24260912259665,38.95956134957898],[-95.24260994642226,38.95956118081417],[-95.24261077632424,38.959561033823356],[-95.24261161230255,38.959560908606434],[-95.24261245313366,38.95956080693682],[-95.2426132988879,38.95956072701371],[-95.24261414603534,38.95956067055564],[-95.24261499691747,38.959560636717015],[-95.24261584807469,38.95956062541565],[-95.2426158536059,38.95955270196153],[-95.2426743568688,38.959552729668424],[-95.24267447493645,38.95940309098521],[-95.24245644218753,38.959402986014645],[-95.24245632365847,38.95955262469764],[-95.24249316115963,38.959552642814515],[-95.2424930374685,38.95970868819225],[-95.2423747309901,38.95970863139565],[-95.24237462200752,38.95984482580442],[-95.24254400901064,38.959844907770346],[-95.24254401848398,38.959833924745226],[-95.24257684042374,38.95983394016131],[-95.24257683210875,38.95984492321393],[-95.2427098801113,38.95984498699018],[-95.24270998747636,38.9597087583114],[-95.2426156288771,38.959708740424084],[-95.24261565107454,38.95970083358846]]],[[[-95.24261568889112,38.95970081105593],[-95.24261569808777,38.95970078243536],[-95.24261568750387,38.959700757850555],[-95.24261565469256,38.9597007408482],[-95.24261565107454,38.95970083358846],[-95.24261568889112,38.95970081105593]]]]},"properties":{"SDE.FloorAll.FLOORLOCATION":"1"}},{"type":"Feature","geometry":{"type":"Polygon","coordinates":[[[-95.24237462197239,38.959844826704796],[-95.24270987892291,38.959844987863185],[-95.24270994187462,38.959765821100014],[-95.24270437363641,38.959765818462046],[-95.24265484704887,38.959765794261486],[-95.24265365069304,38.95976577752714],[-95.24265245560173,38.95976572837869],[-95.24265126296338,38.95976564594317],[-95.24265007501403,38.95976553207618],[-95.24264889297729,38.959765385004474],[-95.24264771908938,38.95976520658357],[-95.24264655342049,38.959764995012705],[-95.24264539701846,38.95976475302047],[-95.24264425226008,38.959764478861],[-95.2426431213815,38.95976417438989],[-95.2426420044179,38.9597638387067],[-95.24264090245218,38.95976347363972],[-95.24263981897921,38.95976307837078],[-95.24263875281063,38.95976265377283],[-95.24263770625294,38.95976219990082],[-95.24263668042413,38.95976171768243],[-95.24263567756053,38.9597612089734],[-95.24263469773234,38.959760671972916],[-95.24263374198738,38.959760109409594],[-95.24263281263218,38.95975952133819],[-95.24263190966667,38.95975890775881],[-95.2426310353622,38.95975826962667],[-95.24263018964858,38.959757608742564],[-95.24262937367897,38.959756925133874],[-95.24262858857152,38.95975621972848],[-95.24262783663262,38.95975549258113],[-95.24262711660378,38.95975474636567],[-95.24262643082646,38.959753980236556],[-95.2426257792305,38.95975319599452],[-95.24262516405201,38.95975239549516],[-95.24262458417297,38.95975157781081],[-95.24262404182957,38.95975074479696],[-95.24262353698666,38.95974989735407],[-95.242623069574,38.95974903728292],[-95.24262264074481,38.95974816461091],[-95.24262225273529,38.95974728119369],[-95.24262190323898,38.959746386976455],[-95.24262159445702,38.9597454847151],[-95.24262132523609,38.95974457438231],[-95.24262109784753,38.959743656933334],[-95.24262091106792,38.95974273414141],[-95.24262076605045,38.95974180603414],[-95.24262066268976,38.95974087531257],[-95.24262060098584,38.95973994197671],[-95.24262058086839,38.95973900782739],[-95.24262060127741,38.959713098043935],[-95.2426206048781,38.95970871546391],[-95.24237473001858,38.95970859712593],[-95.24237462197239,38.959844826704796]]]},"properties":{"SDE.FloorAll.FLOORLOCATION":"2"}},{"type":"Feature","geometry":{"type":"Polygon","coordinates":[[[-95.24238194659564,38.959848273261954],[-95.24238546253387,38.95984827487024],[-95.24238546441973,38.9598462147106],[-95.24267822888044,38.959846355798156],[-95.24267822700307,38.95984841595778],[-95.24268174294133,38.95984841755709],[-95.24268174481854,38.959846357397474],[-95.24271178375997,38.95984637238361],[-95.2427118928996,38.959707168797735],[-95.24270455050258,38.95970716632728],[-95.24270455107163,38.95970641201403],[-95.24270193665511,38.95970641022437],[-95.24270193605093,38.959707165437976],[-95.24261573201085,38.9597071323845],[-95.24261585415061,38.95955259923466],[-95.24267435741339,38.9595526269415],[-95.24267447548105,38.95940298825827],[-95.24245644273253,38.959402883287694],[-95.24245632420342,38.959552521970714],[-95.24249316170452,38.959552540087635],[-95.24249303880474,38.95970708584283],[-95.2424654999586,38.95970707528221],[-95.24237282728863,38.959707040515475],[-95.24237271654498,38.95984620893091],[-95.24238194732843,38.95984621307488],[-95.24238194659564,38.959848273261954]]]},"properties":{"SDE.FloorAll.FLOORLOCATION":"ROOF"}}]}
