{"type":"FeatureCollection","features":[{"type":"Feature","geometry":{"type":"Polygon","coordinates":[[[-95.24921822036865,38.958914675376434],[-95.24921692925963,38.95891688609168],[-95.2492441054671,38.95892656110145],[-95.24929503751369,38.95883934934799],[-95.24912954416074,38.95878043126023],[-95.24907851932853,38.9588677984582],[-95.24910936944823,38.95887878182606],[-95.2491107520656,38.958876414667415],[-95.24921822036865,38.958914675376434]]]},"properties":{"SDE.FloorAll.FLOORLOCATION":"-1"}},{"type":"Feature","geometry":{"type":"Polygon","coordinates":[[[-95.24859819323964,38.95902905538934],[-95.24860144192024,38.95902800414596],[-95.24860093974816,38.95902705675804],[-95.24883967677228,38.95894981348998],[-95.24884018010025,38.95895076090429],[-95.24884630102876,38.95894878015001],[-95.2488372901122,38.95893180265723],[-95.24888018911922,38.95891792239592],[-95.24888920119754,38.95893489991272],[-95.24892276684206,38.95892403988618],[-95.24891851786148,38.95891603442705],[-95.24895643782529,38.95885104199234],[-95.24898279797881,38.95886041832282],[-95.24898928242649,38.95884930506237],[-95.24898300349227,38.95884707155232],[-95.24901475674697,38.95879264834959],[-95.24902079773904,38.95879479690476],[-95.24902707934504,38.95878403120865],[-95.24901294799717,38.958779005951385],[-95.2490408919325,38.9587311109569],[-95.2491381454728,38.95876570113134],[-95.24907854605638,38.95886785316582],[-95.24910852109113,38.95887851386161],[-95.24910972814205,38.95887644625039],[-95.24921650419475,38.95891440214516],[-95.24921537872528,38.95891633110185],[-95.24924429043132,38.95892661325449],[-95.24930356194461,38.9588250220336],[-95.24932640884198,38.95883263956067],[-95.24932474046219,38.95883549831967],[-95.24931830552511,38.958833209757294],[-95.24931198809803,38.95884403680283],[-95.24941859493572,38.95888195244688],[-95.24942516966863,38.95887068268991],[-95.24941907400408,38.9588685148348],[-95.249480984421,38.95876240160161],[-95.24948718823225,38.95876460806815],[-95.24949355518781,38.9587536938687],[-95.24938700542826,38.95871579856925],[-95.2493807436661,38.95872653050768],[-95.24938733913153,38.95872887604732],[-95.24938560640946,38.95873184593383],[-95.24926278618496,38.95868816259011],[-95.24926833434034,38.958678653813365],[-95.24928260093664,38.958673975155925],[-95.24928925973205,38.95866256230352],[-95.24928406733136,38.95865183711079],[-95.24926970263137,38.95864672794187],[-95.24925549721667,38.958650872721584],[-95.24924849452088,38.958662876727914],[-95.24921374461505,38.95865051753036],[-95.24923272666344,38.95861798304115],[-95.24920589289262,38.9586084396176],[-95.24918875610923,38.95863781132323],[-95.24918346426844,38.95863592928815],[-95.24917176308901,38.95865598511388],[-95.24905662922802,38.958615036172425],[-95.24905824200425,38.95861227162764],[-95.2490635201765,38.95861414883818],[-95.2490700392619,38.95860297511232],[-95.2489642891734,38.958565364247555],[-95.24895787147207,38.95857636463447],[-95.24896419252465,38.958578612664226],[-95.24893267546646,38.9586326332021],[-95.24892615742735,38.95863031560861],[-95.24891976323728,38.95864127509513],[-95.24893442623302,38.95864648961914],[-95.24888407160358,38.95873279657532],[-95.24886935739994,38.958727562805784],[-95.24886287297963,38.95873867515926],[-95.24886871470815,38.95874075320511],[-95.24883697492587,38.95879515415926],[-95.248831175302,38.958793091530566],[-95.2488248144974,38.958803993224976],[-95.24882666233583,38.95880464990317],[-95.24882105958459,38.958814254697174],[-95.24853367185571,38.958907491037564],[-95.24855464018414,38.958946997244446],[-95.24852431965596,38.958956806741554],[-95.24855226416817,38.95900945703713],[-95.24858259439304,38.9589996657869],[-95.24859819323964,38.95902905538934]]]},"properties":{"SDE.FloorAll.FLOORLOCATION":"1"}},{"type":"Feature","geometry":{"type":"Polygon","coordinates":[[[-95.24859846896702,38.95902873298513],[-95.24860171527102,38.959027683487875],[-95.24860121421706,38.95902673702767],[-95.24883980067727,38.95894962537031],[-95.24884030173385,38.95895057182947],[-95.2488464202157,38.95894859462204],[-95.24883742394051,38.958931626488905],[-95.24888029544208,38.95891777080921],[-95.24888929176083,38.95893473803863],[-95.24892283709961,38.95892389555471],[-95.24889123607939,38.958864293063606],[-95.24890899231237,38.95883404658706],[-95.24898285173423,38.95886034209291],[-95.24898933576137,38.958849239637175],[-95.24898306259318,38.95884700626393],[-95.24901481615674,38.958792634438346],[-95.24902085250092,38.958794783784434],[-95.24902713368637,38.9587840288931],[-95.24901301624719,38.95877900216334],[-95.24904096066659,38.958731154043974],[-95.2491381206914,38.958765744703385],[-95.24907851932853,38.9588677984582],[-95.24910846661595,38.95887846029814],[-95.24910967244357,38.958876394460326],[-95.2492163369813,38.95891436843773],[-95.24921522147336,38.958916278705026],[-95.24924410427886,38.95892656197451],[-95.24930362499171,38.95882464771857],[-95.24932620387847,38.95883268606803],[-95.24932483738228,38.958835024772306],[-95.24931840821135,38.95883273634671],[-95.24931178939114,38.95884407084143],[-95.24941829345221,38.95888198765243],[-95.249424868953,38.95887072782717],[-95.24941877905454,38.95886856010883],[-95.24948069127863,38.95876254875708],[-95.24948688817062,38.958764755059484],[-95.24949325585895,38.95875385169207],[-95.24938680887564,38.95871595522569],[-95.24938054638072,38.958726676332006],[-95.24938713604499,38.95872902263526],[-95.24938540346308,38.9587319889202],[-95.2492627010066,38.9586883047653],[-95.24926824884665,38.958678804092095],[-95.24928250702004,38.95867413424708],[-95.249289165395,38.958662732199414],[-95.24928398193967,38.95865201442868],[-95.24926947284885,38.95864684866196],[-95.2492546056775,38.958651180517606],[-95.24925021164843,38.958658706041916],[-95.24921225050775,38.95864519099229],[-95.24920985130952,38.958649299533505],[-95.24918518336452,38.95864051675267],[-95.24917532693823,38.95865739356514],[-95.24905674156416,38.958615174922656],[-95.24905835420019,38.958612413979495],[-95.24906362775968,38.958614291080515],[-95.24907014757767,38.95860312818678],[-95.24896449799367,38.95856551520061],[-95.2489580806778,38.958576505683205],[-95.24896439596436,38.95857875357614],[-95.24893287744426,38.95863272270957],[-95.24892636635943,38.95863040437989],[-95.24891997143675,38.958641353034345],[-95.24893462055886,38.95864656813038],[-95.2488842633878,38.95873279211362],[-95.24886956302268,38.95872755867246],[-95.24886308017615,38.958738660248564],[-95.24886891613865,38.95874073815764],[-95.24883717492963,38.958795086806916],[-95.2488313799186,38.95879302428766],[-95.24882501953459,38.95880391517736],[-95.24883160010212,38.95880625769169],[-95.24882831167851,38.958811888924515],[-95.24853405768904,38.9589072460481],[-95.24855499006094,38.9589467270686],[-95.24855012003277,38.95894830129885],[-95.24852468861533,38.95895652079654],[-95.24855259563229,38.959009155782645],[-95.24858289594339,38.958999362020066],[-95.24859846896702,38.95902873298513]]]},"properties":{"SDE.FloorAll.FLOORLOCATION":"2"}},{"type":"Feature","geometry":{"type":"Polygon","coordinates":[[[-95.24859893641344,38.959028674683175],[-95.248604742411,38.95902677839312],[-95.2486043193383,38.959025993300244],[-95.24884028636092,38.95894960264789],[-95.24884077560826,38.958950526296235],[-95.24884693818285,38.95894863214646],[-95.24883804728425,38.95893153673731],[-95.24888091888491,38.958918360583354],[-95.2488893049633,38.958934487811334],[-95.24892361880319,38.95892394834873],[-95.24889209776207,38.958863506912664],[-95.24889406294344,38.95886014060235],[-95.24889296540049,38.95885975046578],[-95.2489031323022,38.958842343010765],[-95.24890434477783,38.95884277552814],[-95.24890952039705,38.958833913118504],[-95.24898372136853,38.958860330282164],[-95.24899018190736,38.95884926782419],[-95.24898324954236,38.95884679981298],[-95.24901493012464,38.95879255332844],[-95.24902125797752,38.958794805120796],[-95.24902762455211,38.958783902652016],[-95.24901313593053,38.95877874454896],[-95.24904134130531,38.958730449304944],[-95.24913890095682,38.95876518192533],[-95.2490789953685,38.95886775658034],[-95.24910894150275,38.958878418392736],[-95.24911022142949,38.95887622814148],[-95.24921686772599,38.95891419627825],[-95.24921569751363,38.95891623682651],[-95.24924458035414,38.95892651919555],[-95.2493044362594,38.95882402979894],[-95.24932652218045,38.95883189243047],[-95.24932479822664,38.9588348444997],[-95.24931872657555,38.95883268261617],[-95.24931243309209,38.95884345795867],[-95.24941875956318,38.95888131107535],[-95.24942497512525,38.958870669062584],[-95.24941885223897,38.958868488845766],[-95.24948096603201,38.95876213260042],[-95.24948730752537,38.958764390098],[-95.24949352055017,38.958753753429065],[-95.24938690733487,38.958715798044665],[-95.24938058045775,38.95872663117795],[-95.24938744681442,38.95872907506889],[-95.2493857946577,38.95873190267067],[-95.24926297150215,38.95868817599883],[-95.24926860840061,38.95867852242782],[-95.24928294018568,38.958674037277724],[-95.24928943257149,38.95866292599265],[-95.2492841654497,38.95865159971274],[-95.24927008673737,38.958646586549904],[-95.24925508171592,38.95865113863896],[-95.2492506876869,38.9586586641633],[-95.24924592874915,38.95865696961146],[-95.24924386872078,38.95865761287939],[-95.249241311295,38.958661990738456],[-95.24924298035666,38.95866258458905],[-95.24923964499665,38.95866829582936],[-95.24923605869633,38.95866701932751],[-95.24923487024738,38.958669054035894],[-95.24921455132863,38.958661820905284],[-95.24921528340529,38.95866056844771],[-95.24921396501348,38.95866009917419],[-95.24921776908599,38.95865358524852],[-95.24921931975477,38.95865413663678],[-95.2492218747,38.95864976322545],[-95.2492212149137,38.95864817944119],[-95.24921525143552,38.95864605616712],[-95.24921818613797,38.95864103026642],[-95.2492061384845,38.95863674120018],[-95.24920283276221,38.95864240267403],[-95.24918434460382,38.958635820397575],[-95.2491778680017,38.95864691132341],[-95.249183234904,38.95864882217633],[-95.24917786020895,38.958658025944445],[-95.24905742364217,38.95861514784678],[-95.24905901646005,38.958612421581165],[-95.2490642592683,38.958614288039115],[-95.24907066786776,38.95860331356624],[-95.24896449799367,38.95856551520061],[-95.24895823037961,38.958576247879925],[-95.24896453539237,38.958578492825424],[-95.24893288705876,38.9586326832838],[-95.24892650460488,38.95863041126492],[-95.24892017402998,38.95864124879305],[-95.248934495232,38.958646347961555],[-95.2488841565507,38.95873254174182],[-95.24887003909689,38.958727515895006],[-95.24886355506217,38.958738618344206],[-95.2488695698015,38.95874075907474],[-95.2488378162547,38.958795128159665],[-95.2488313996834,38.95879284270924],[-95.2488250504494,38.95880371403651],[-95.24883207614182,38.958806215814796],[-95.24882872962695,38.95881194570518],[-95.24882448737277,38.95881331674591],[-95.24882984686167,38.958823424981134],[-95.24881894033481,38.9588268873503],[-95.24881912638332,38.9588272378352],[-95.24879849372813,38.958833906693236],[-95.24879825712343,38.95883346128132],[-95.24878745801455,38.958836951430655],[-95.24878213458577,38.958826925159286],[-95.2487472706735,38.95883819323526],[-95.24874771366005,38.95883903016994],[-95.24853447119438,38.95890795070521],[-95.2485549003017,38.95894627522727],[-95.24852390420887,38.958956270567434],[-95.24855249183283,38.959009539043734],[-95.24858335353721,38.95899958646902],[-95.24859893641344,38.959028674683175]]]},"properties":{"SDE.FloorAll.FLOORLOCATION":"3"}},{"type":"Feature","geometry":{"type":"Polygon","coordinates":[[[-95.24859863668567,38.95902893162966],[-95.24860188298975,38.959027882132354],[-95.24860138193579,38.95902693567216],[-95.2488399683964,38.95894982401448],[-95.24884046945301,38.958950770473585],[-95.24884658678165,38.95894879323881],[-95.24883759162456,38.95893182603346],[-95.2488804631613,38.95891796945328],[-95.24888945948014,38.95893493668273],[-95.24892300481899,38.958924094198785],[-95.24889141669092,38.95886451634664],[-95.24890908374724,38.95883421818679],[-95.24890916003149,38.958834245231095],[-95.2489830194536,38.958860540736865],[-95.24898950348074,38.95884943828111],[-95.24898323031255,38.95884720490791],[-95.24901498387601,38.95879283308225],[-95.24902102022025,38.958794982428365],[-95.2490273014057,38.958784227536974],[-95.24901318396641,38.95877920080724],[-95.24904112838578,38.95873135268788],[-95.24913828841095,38.958765943347146],[-95.24907868704821,38.95886799710205],[-95.24910863433574,38.958878658941934],[-95.24910984016336,38.95887659310412],[-95.24921650470141,38.95891456708132],[-95.24921538919354,38.95891647734865],[-95.24924427199907,38.95892676061806],[-95.24930379271186,38.958824846362056],[-95.24932637159874,38.9588328847115],[-95.24932500510256,38.95883522341577],[-95.24931857593161,38.95883293499014],[-95.24931195711139,38.958844269484935],[-95.24941846117282,38.958882186295796],[-95.24942503667361,38.958870926470496],[-95.24941894677517,38.958868758752146],[-95.24948085899919,38.9587627474003],[-95.24948705589117,38.95876495370271],[-95.24949342357952,38.95875405033531],[-95.2494622284802,38.95874294443038],[-95.24946263780502,38.95874224397546],[-95.24946159009458,38.958741166490704],[-95.24945411707596,38.95873256997102],[-95.2494515058465,38.95873115258419],[-95.24943967216359,38.958726614473505],[-95.24943584290824,38.958726390252295],[-95.24942197573932,38.958727063447824],[-95.24942202239046,38.958727080776534],[-95.24941919286894,38.95872720921826],[-95.2494189925229,38.95872755233828],[-95.24938697659582,38.95871615386907],[-95.24938071410092,38.95872687497541],[-95.2493873037652,38.95872922127864],[-95.2493855711833,38.958732187563584],[-95.24926286872632,38.95868850340886],[-95.24926841656634,38.95867900273566],[-95.24928267473977,38.958674332890645],[-95.24928933311473,38.95866293084293],[-95.24928414965942,38.95865221307222],[-95.24926980564705,38.95864710619657],[-95.24925560407743,38.95865124115405],[-95.24925099872716,38.95865912485856],[-95.24924562043029,38.95865721013362],[-95.24924451505262,38.95865755521397],[-95.2492212644901,38.9586492783092],[-95.24922090659481,38.958648419963275],[-95.24921540421116,38.958646460836675],[-95.24921833269201,38.958641446504316],[-95.24920619851554,38.9586371265462],[-95.24920271974447,38.958643082219936],[-95.24918363501111,38.958636287520356],[-95.24917734274783,38.958647061082324],[-95.24918342577061,38.958649226848415],[-95.2491780164377,38.958658490176866],[-95.24905690928317,38.958615373566545],[-95.24905852191921,38.9586126126233],[-95.24906379547866,38.958614489724376],[-95.2490703152967,38.9586033268306],[-95.2490396075976,38.95859239459315],[-95.24903869318764,38.95859124366298],[-95.24902971507593,38.95858140105921],[-95.24901322046757,38.95857552845428],[-95.24899773995276,38.95857672748648],[-95.2489961612135,38.95857692705072],[-95.24896466571231,38.95856571384461],[-95.24895824839643,38.95857670432724],[-95.24896456368305,38.958578952220144],[-95.24893304516291,38.9586329213536],[-95.24892653407811,38.958630603023934],[-95.24892013915537,38.95864155167837],[-95.24893477097612,38.958646796104276],[-95.2488844311066,38.95873299075774],[-95.24886973074145,38.95872775731658],[-95.24886324789492,38.95873885889268],[-95.24886908385741,38.958740936801725],[-95.24883734264837,38.95879528545112],[-95.24883154763737,38.958793222931874],[-95.24882518725335,38.95880411382154],[-95.24888038084471,38.958823763361515],[-95.2488681184181,38.958844771955235],[-95.24884538860816,38.95885211834994],[-95.24884568216324,38.95885267235887],[-95.24880271364552,38.95886655996961],[-95.24878182741786,38.95882716570762],[-95.24874696235217,38.95883843375607],[-95.24874707744007,38.95883865007725],[-95.24853422540728,38.958907444692684],[-95.24855515777928,38.958946925713164],[-95.24852485633362,38.958956719441176],[-95.24855270107696,38.95900935294945],[-95.24858305398398,38.95899954241045],[-95.24859863668567,38.95902893162966]]]},"properties":{"SDE.FloorAll.FLOORLOCATION":"4"}},{"type":"Feature","geometry":{"type":"Polygon","coordinates":[[[-95.24859731088563,38.95902631004816],[-95.24860055718958,38.959025260550895],[-95.24860005498248,38.95902431406334],[-95.24883790034174,38.95894744077176],[-95.24883864147074,38.95894720150796],[-95.24883914368051,38.95894814799448],[-95.24884526100898,38.958946170759766],[-95.24883626469934,38.95892920352692],[-95.24887913738793,38.958915346974585],[-95.24888813370612,38.95893231420413],[-95.24892167785569,38.95892147259359],[-95.24889007687257,38.95886186920172],[-95.24890880513945,38.95882995869589],[-95.2489805332794,38.95885549527139],[-95.24898507324161,38.95884772087595],[-95.2489788012269,38.95884548752988],[-95.24901249882012,38.95878778854518],[-95.24901853519891,38.95878993699103],[-95.24902287232294,38.9587825101606],[-95.24900876166346,38.9587774871961],[-95.24903865017939,38.958726310116305],[-95.24932814796193,38.95882935710178],[-95.24932483853547,38.95883502479967],[-95.24931840939959,38.95883273547364],[-95.24931373347556,38.95884074187545],[-95.24941597496684,38.95887714083966],[-95.2494206063875,38.95886920998235],[-95.24941451652437,38.958867041363405],[-95.24947837279288,38.958757701945494],[-95.2494845708376,38.95875990827537],[-95.24948899445229,38.958752333877115],[-95.24946063878868,38.958742238911555],[-95.2494618494969,38.95874016597635],[-95.24946099047504,38.95873928222495],[-95.24946114381017,38.95873902000115],[-95.24945279124977,38.95872994839923],[-95.24945018002046,38.95872853101234],[-95.24943834518483,38.958723992874155],[-95.24943453095648,38.95872376810817],[-95.2494177964208,38.95872456344006],[-95.24941662527745,38.958726568820325],[-95.24938680891069,38.95871595432532],[-95.24938249161191,38.95872334739214],[-95.24938908127595,38.95872569369528],[-95.24938540465138,38.95873198804713],[-95.24925838607346,38.95868676854851],[-95.24926621060203,38.95867337091838],[-95.24926753238393,38.95867384207414],[-95.24927959736765,38.958670300802574],[-95.24928547162314,38.95866024280458],[-95.24928097292528,38.958650941782146],[-95.24926860534796,38.95864653878812],[-95.24925689861259,38.95864995067025],[-95.24925115916496,38.958659777546686],[-95.24925112952548,38.9586598273121],[-95.24924287535342,38.958656889060734],[-95.24924315731369,38.95865640638499],[-95.24921980656538,38.95864809375777],[-95.24921955427948,38.95864852576768],[-95.24921062270816,38.9586453461368],[-95.24921390357856,38.95863973003561],[-95.24920607182118,38.958636941493],[-95.24920259305011,38.95864289716674],[-95.24920180176365,38.95864261613729],[-95.24920202074028,38.958642239213106],[-95.24919386221575,38.95863933477024],[-95.24919364212094,38.95863971076663],[-95.24918346844493,38.95863608890403],[-95.24917912023193,38.95864353440254],[-95.24918520325447,38.958645700168574],[-95.24917784987149,38.95865829156054],[-95.24905247902203,38.95861365706425],[-95.24905603574832,38.95860756715939],[-95.24906130930741,38.95860944426054],[-95.249065885036,38.95860161032889],[-95.24903778909662,38.95859160703546],[-95.24903861519785,38.95859019278683],[-95.24903794286021,38.958589346806754],[-95.24903847214513,38.95858844101648],[-95.24902906883639,38.958578372030395],[-95.24901557509321,38.95857357368811],[-95.24901068924446,38.95857282690748],[-95.2489970407875,38.958573872039295],[-95.24899683799329,38.95857421870544],[-95.24899505126824,38.9585743051879],[-95.24899404215522,38.958576032325205],[-95.24896449914687,38.95856551522796],[-95.24896002477156,38.95857317672301],[-95.2489663412111,38.9585754246432],[-95.2489328786325,38.95863272183648],[-95.24892636754767,38.95863040350685],[-95.24892191668722,38.95863802410217],[-95.24893656465566,38.958643239170584],[-95.24888426457602,38.95873279124059],[-95.24886956421093,38.95872755779943],[-95.24886502427883,38.95873533129003],[-95.24887086024107,38.958737409198974],[-95.24883717608282,38.95879508683429],[-95.24883138110684,38.95879302341465],[-95.24882700568895,38.95880051421795],[-95.24887922663976,38.95881910548161],[-95.24886561053096,38.9588424197332],[-95.24880104261175,38.958863288526636],[-95.2487805004616,38.95882454410078],[-95.2487456365502,38.95883581217621],[-95.24874575048489,38.95883602847008],[-95.24853289845865,38.95890482308307],[-95.24855383086422,38.95894430320339],[-95.24852352941951,38.958954096931045],[-95.2485514267567,38.95900671366326],[-95.24858173786306,38.958996939082894],[-95.24859731088563,38.95902631004816]]]},"properties":{"SDE.FloorAll.FLOORLOCATION":"5"}},{"type":"Feature","geometry":{"type":"Polygon","coordinates":[[[-95.24859846896702,38.95902873298513],[-95.24860171527102,38.959027683487875],[-95.24860121421706,38.95902673702767],[-95.24883980067727,38.95894962537031],[-95.24884030173385,38.95895057182947],[-95.2488464202157,38.95894859462204],[-95.24883742390547,38.958931627389276],[-95.24888029544208,38.95891777080921],[-95.24888929176083,38.95893473803863],[-95.24892283709961,38.95892389555471],[-95.24889127905395,38.958864375193514],[-95.24890899231237,38.95883404658706],[-95.24898285173423,38.95886034209291],[-95.24898933576137,38.958849239637175],[-95.24898306259318,38.95884700626393],[-95.24901481615674,38.958792634438346],[-95.24902085250092,38.958794783784434],[-95.24902713368637,38.9587840288931],[-95.24901301624719,38.95877900216334],[-95.24904096066659,38.958731154043974],[-95.24914233316886,38.95876724424727],[-95.24914236360483,38.95876726299389],[-95.24914195718526,38.958767888715],[-95.24914588161381,38.958769285894924],[-95.24914656178848,38.95876812142759],[-95.24916743404515,38.95877555154725],[-95.24916675387075,38.95877671601471],[-95.24917076709477,38.95877814504083],[-95.24917116034456,38.958777472143446],[-95.24932620387847,38.95883268606803],[-95.24932483738228,38.958835024772306],[-95.24931840821135,38.95883273634671],[-95.24931178939114,38.95884407084143],[-95.24941829345221,38.95888198765243],[-95.249424868953,38.95887072782717],[-95.24941877905454,38.95886856010883],[-95.24948069127863,38.95876254875708],[-95.24948688817062,38.958764755059484],[-95.24949325585895,38.95875385169207],[-95.24938680887564,38.95871595522569],[-95.24938054638072,38.958726676332006],[-95.24938713604499,38.95872902263526],[-95.24938540346308,38.9587319889202],[-95.2492627010066,38.9586883047653],[-95.24926824884665,38.958678804092095],[-95.24928250702004,38.95867413424708],[-95.249289165395,38.958662732199414],[-95.24928398193967,38.95865201442868],[-95.24926963226642,38.95864690471507],[-95.24925543635777,38.95865104251047],[-95.24925083100756,38.958658926214994],[-95.24921523649168,38.95864626219304],[-95.24921816497253,38.95864124786069],[-95.2492060307961,38.958636927902546],[-95.24920255202498,38.95864288357625],[-95.24918346729173,38.958636088876666],[-95.2491771750284,38.95864686243863],[-95.24918325805115,38.958649028204775],[-95.2491778487183,38.95865829153317],[-95.24905674156416,38.958615174922656],[-95.24905835420019,38.958612413979495],[-95.24906362775968,38.958614291080515],[-95.24907014757767,38.95860312818678],[-95.24896449799367,38.95856551520061],[-95.2489580806778,38.958576505683205],[-95.24896439596436,38.95857875357614],[-95.24893287744426,38.95863272270957],[-95.24892636635943,38.95863040437989],[-95.24891997143675,38.958641353034345],[-95.24893460325738,38.958646597460294],[-95.2488842633878,38.95873279211362],[-95.24886956302268,38.95872755867246],[-95.24886308017615,38.958738660248564],[-95.24886891613865,38.95874073815764],[-95.24883717492963,38.958795086806916],[-95.2488313799186,38.95879302428766],[-95.24882501953459,38.95880391517736],[-95.24887937060964,38.95882326534696],[-95.24886676861848,38.95884484266752],[-95.2488023189998,38.958865934167605],[-95.24878165969912,38.95882696706335],[-95.24853405768904,38.9589072460481],[-95.24855499006094,38.9589467270686],[-95.24852468861533,38.95895652079654],[-95.24855259563229,38.959009155782645],[-95.24858289594339,38.958999362020066],[-95.24859846896702,38.95902873298513]]]},"properties":{"SDE.FloorAll.FLOORLOCATION":"6"}},{"type":"Feature","geometry":{"type":"Polygon","coordinates":[[[-95.248553188877,38.958943329966715],[-95.24859006631219,38.95901288472131],[-95.24883801643172,38.95893274454788],[-95.24883753787557,38.958931842782626],[-95.24888041056555,38.95891798622983],[-95.24888093531106,38.958918976509715],[-95.24888418275908,38.95891792703184],[-95.24884676416282,38.958847352867174],[-95.24880042640645,38.95886236456936],[-95.24880090496166,38.95886326633475],[-95.248553188877,38.958943329966715]]]},"properties":{"SDE.FloorAll.FLOORLOCATION":"7"}},{"type":"Feature","geometry":{"type":"Polygon","coordinates":[[[-95.24859006306282,38.95901287923688],[-95.2485979667599,38.95902778649755],[-95.24884591800584,38.95894764813556],[-95.24883801426544,38.9589327408916],[-95.24888088580268,38.95891888431126],[-95.24888929176083,38.95893473803863],[-95.24892283709961,38.95892389555471],[-95.24892121440102,38.95892083524591],[-95.24896034364966,38.95885383653688],[-95.24896853521207,38.958856752594315],[-95.24896926366017,38.95885550455818],[-95.24898285173423,38.95886034209291],[-95.24898933576137,38.958849239637175],[-95.24898306259318,38.95884700626393],[-95.24901481615674,38.958792634438346],[-95.24902085250092,38.958794783784434],[-95.24902713368637,38.9587840288931],[-95.24901408985235,38.95877938452102],[-95.24904203311796,38.95873153637405],[-95.2491381206914,38.958765744703385],[-95.2491302775335,38.95877917522895],[-95.24912753946168,38.95878386422854],[-95.24912170725635,38.958793849316486],[-95.24911587620252,38.95880383443146],[-95.2491100451471,38.95881381954607],[-95.24910421412503,38.95882380376009],[-95.24909838191306,38.9588337888468],[-95.24909346112162,38.95884221390758],[-95.24907851929349,38.95886779935862],[-95.24910937968697,38.95887878567388],[-95.24910986570198,38.95887795365832],[-95.24911026021127,38.958877278087286],[-95.24911394328197,38.95887858933287],[-95.24912673214911,38.95888314202756],[-95.24913952101797,38.95888769472088],[-95.24915230988843,38.95889224741278],[-95.24916509872547,38.95889680100363],[-95.24917788759925,38.958901353692745],[-95.24919067532143,38.95890590635302],[-95.24920346416346,38.95891045993965],[-95.24921601167858,38.95891492668928],[-95.24921532409374,38.95891610359833],[-95.24921522147336,38.958916278705026],[-95.24921732885309,38.958917028953124],[-95.24922825168242,38.958920918224145],[-95.24924337222052,38.958926301276314],[-95.24924410427886,38.95892656197451],[-95.24925221327955,38.95891267722256],[-95.249258044288,38.9589026930012],[-95.24926387648311,38.95889270790654],[-95.24926970752334,38.95888272278418],[-95.2492755385619,38.958872737661565],[-95.24928137075206,38.95886275256597],[-95.24928720178733,38.958852767442735],[-95.24929303278596,38.95884278321958],[-95.24929577203733,38.958838093343054],[-95.2493036151352,38.95882466370679],[-95.24932136332913,38.95883098237373],[-95.24932000784244,38.958833305117075],[-95.24931840821135,38.95883273634671],[-95.24931257718214,38.95884272147151],[-95.24931178939114,38.95884407084143],[-95.24932504275054,38.95884878954425],[-95.24940550456645,38.95887743498991],[-95.24941829345221,38.95888198765243],[-95.249424868953,38.95887072782717],[-95.24942197597856,38.95886969849251],[-95.24948388819885,38.95876368713904],[-95.24948688817062,38.958764755059484],[-95.24949325585895,38.95875385169207],[-95.2494804669916,38.95874929903774],[-95.24939959657779,38.95872050786303],[-95.24938680887564,38.95871595522569],[-95.24938054638072,38.958726676332006],[-95.24938393912788,38.95872788425061],[-95.24938366457813,38.958728354485324],[-95.24926130933915,38.958684794823895],[-95.24926536569431,38.958677848886715],[-95.249265400297,38.95867779022678],[-95.2492682488116,38.95867880499248],[-95.24928250702004,38.95867413424708],[-95.249289165395,38.958662732199414],[-95.24928398193967,38.95865201442868],[-95.2492696379274,38.95864690755304],[-95.24925543635777,38.95865104251047],[-95.2492508309725,38.95865892711538],[-95.24921523649168,38.95864626219304],[-95.24921816497253,38.95864124786069],[-95.2492060307961,38.958636927902546],[-95.24920255202498,38.95864288357625],[-95.24918346725669,38.95863608977704],[-95.24918227758346,38.95863812625834],[-95.24917717499335,38.95864686333904],[-95.24917877346591,38.95864743208402],[-95.24918171538518,38.95864847880836],[-95.24917776293695,38.95865524606178],[-95.24911701693898,38.95863361922042],[-95.24906187469408,38.95861398723105],[-95.2490620292888,38.95861372233396],[-95.24906362775968,38.958614291080515],[-95.24907014757767,38.95860312818678],[-95.24905815801759,38.95859885940882],[-95.24897648754245,38.958569783988246],[-95.24896449799367,38.95856551520061],[-95.2489580806778,38.958576505683205],[-95.24896439596436,38.95857875357614],[-95.24896403113006,38.95857937848092],[-95.2489624326958,38.95857880883258],[-95.24896061100564,38.9585819289092],[-95.24896220828677,38.9585824985302],[-95.24893512454447,38.95862887462381],[-95.24893287744426,38.95863272270957],[-95.24892636635943,38.95863040437989],[-95.24891997143675,38.958641353034345],[-95.24893142361776,38.95864543063365],[-95.2488810664786,38.95873165371513],[-95.24886956302268,38.95872755867246],[-95.24886308017615,38.958738660248564],[-95.24886891613865,38.95874073815764],[-95.24886672963922,38.95874448223678],[-95.24883860823583,38.95879263343527],[-95.24883717492963,38.958795086806916],[-95.2488313799186,38.95879302428766],[-95.24882501953459,38.95880391517736],[-95.24882271702383,38.95879910387847],[-95.24877204139182,38.95881548253791],[-95.2487787611393,38.958828157296864],[-95.248534057654,38.95890724694848],[-95.24855377601828,38.958944437085634],[-95.24855499006094,38.9589467270686],[-95.24852468861533,38.95895652079654],[-95.24855258591928,38.95900913842885],[-95.24858289709657,38.95899936204742],[-95.24859006306282,38.95901287923688]]]},"properties":{"SDE.FloorAll.FLOORLOCATION":"ROOF"}}]}
