{"type":"FeatureCollection","features":[{"type":"Feature","geometry":{"type":"Polygon","coordinates":[[[-95.25239666373767,38.950703332055454],[-95.25244499876135,38.950703112219536],[-95.25244730986502,38.95070134741901],[-95.25244990167448,38.950703347376916],[-95.25247128921382,38.95068645070002],[-95.25247320625989,38.95068493611285],[-95.2524961351574,38.95068483152488],[-95.25249605567993,38.950674078034],[-95.2525229749279,38.95067381296127],[-95.25252305440947,38.950684566452196],[-95.25253814524791,38.950684497805156],[-95.25253810604227,38.95067921119486],[-95.25253935158612,38.950679205564704],[-95.25260967470892,38.95067888489971],[-95.25261092025278,38.950678879268764],[-95.25261095942892,38.95068416677943],[-95.25262654434766,38.95068409541],[-95.252626493859,38.95067743596776],[-95.25273289505172,38.950676951809854],[-95.25273288783887,38.950675979217834],[-95.2527325707696,38.950633474469825],[-95.25273256216711,38.95063235945144],[-95.25278437058714,38.950632123550406],[-95.25278923918036,38.950631786504104],[-95.25278921469324,38.95062852619542],[-95.25278999040594,38.95062852294762],[-95.25278998292225,38.950627379116625],[-95.2527892060565,38.950627382337046],[-95.25278901343049,38.95060154237436],[-95.25278623030032,38.95060155483061],[-95.25278561464513,38.950519186361035],[-95.25278839896019,38.95051917303173],[-95.25278836219545,38.95051426859887],[-95.25278913794186,38.95051426445069],[-95.25278912930513,38.95051312059235],[-95.25278835296554,38.95051311030688],[-95.25278831679566,38.95050819056726],[-95.2529987003007,38.950507233047496],[-95.25299759240535,38.950358968918806],[-95.25277255950395,38.95035999384868],[-95.25277256400796,38.95036067978716],[-95.25276318724958,38.950360722549],[-95.25276318274565,38.950360036610554],[-95.25269520328297,38.950360346208974],[-95.25269514253537,38.950352109381],[-95.25274899974181,38.950351863471774],[-95.25273549992721,38.95031645980405],[-95.25269487736107,38.95031664442345],[-95.25269412932838,38.95020653312496],[-95.25232127049767,38.950208229359866],[-95.25232183075667,38.95028322001129],[-95.25232102503276,38.95028322344584],[-95.25232103250882,38.9502843672769],[-95.2523218393858,38.95028436386974],[-95.25232218443038,38.95032085722033],[-95.2523215980361,38.950320859544505],[-95.25232187033168,38.95035735387445],[-95.25232065480856,38.950357359312406],[-95.25232066343764,38.950358503170875],[-95.25232187896083,38.95035849773286],[-95.25232262824164,38.95045894164059],[-95.25232141268172,38.95045894797892],[-95.2523214213109,38.95046009183733],[-95.25232263683583,38.95046008639933],[-95.25232339342732,38.950561559677794],[-95.25232357767939,38.950586155757165],[-95.2523223621523,38.95058616119514],[-95.25232237074648,38.95058730595393],[-95.2523235862736,38.95058730051592],[-95.2523243867396,38.9506946228787],[-95.2523292581151,38.950694600444834],[-95.25239516814361,38.9506943005877],[-95.25239659608528,38.950694293874534],[-95.25239666373767,38.950703332055454]]]},"properties":{"SDE.FloorAll.FLOORLOCATION":"1"}},{"type":"Feature","geometry":{"type":"MultiPolygon","coordinates":[[[[-95.2524954319772,38.950429080711345],[-95.2524973735596,38.95042907265145],[-95.25252493476347,38.95042894716317],[-95.25262115309,38.95042850928544],[-95.25262099946114,38.9504079036548],[-95.25262091461737,38.95039657505583],[-95.25259886249941,38.95035556315456],[-95.25262265935098,38.950355454780016],[-95.25262266673731,38.95035642287006],[-95.25262331662131,38.95035642024651],[-95.25262507468693,38.950356412341655],[-95.25262572460592,38.95035640881768],[-95.25262572159257,38.9503559518255],[-95.25263913626883,38.950355890309105],[-95.25263911717876,38.950355490614285],[-95.25263907535064,38.950354933567596],[-95.25263890796421,38.95035398421651],[-95.25263863494762,38.9503530503867],[-95.25263825955014,38.950352137562504],[-95.25263778372799,38.950351254802555],[-95.25263721073044,38.95035040759121],[-95.25263654492493,38.95034960234054],[-95.25263579298489,38.95034884551717],[-95.25263495812466,38.95034814350588],[-95.2526340494289,38.9503475001269],[-95.25263307126494,38.95034692179228],[-95.25263203275244,38.95034641142184],[-95.25263094063496,38.95034597368144],[-95.25262980399708,38.95034561239124],[-95.25262863199353,38.95034532957073],[-95.25262743262579,38.95034512721194],[-95.25262621501355,38.95034500823464],[-95.25262563976668,38.950344990997564],[-95.2526256391402,38.95034494772395],[-95.25262609212741,38.95034493322453],[-95.25262730989341,38.95034481067733],[-95.25262850778228,38.950344605647665],[-95.25262967877052,38.950344320672755],[-95.25263081475167,38.95034395646172],[-95.25263190405482,38.950343516342855],[-95.25263294077467,38.95034300378115],[-95.2526339166647,38.950342423087264],[-95.25263482351336,38.95034177767159],[-95.25263565531023,38.95034107370016],[-95.25263640499693,38.950340314610685],[-95.25263706764616,38.95033950839737],[-95.25263763731755,38.95033865942558],[-95.25263811023694,38.95033777571691],[-95.25263848273515,38.95033686259171],[-95.25263875103792,38.9503359280716],[-95.25263891490036,38.950334978459374],[-95.25263896217955,38.95033432619212],[-95.25263897288946,38.95033402093084],[-95.25263897198646,38.95033392537962],[-95.25262555731437,38.95033398689604],[-95.252625554336,38.95033352900344],[-95.25262538278001,38.95031053380194],[-95.25262567482403,38.95031053261175],[-95.2526260418882,38.95031053139695],[-95.25262604050054,38.95031035923022],[-95.2526260174087,38.95030727108817],[-95.25262601602104,38.95030709892142],[-95.25262565007498,38.950307101063935],[-95.25262535687789,38.9503071022268],[-95.2526251529365,38.9502798029112],[-95.25262463584092,38.95021052344959],[-95.25278141539177,38.95020980918327],[-95.25278144642874,38.950214029451224],[-95.25274569929327,38.95028274786944],[-95.25278247045712,38.9503511353508],[-95.25278253632216,38.95035989410868],[-95.25271934861453,38.95036018028322],[-95.25271926444987,38.95034892289744],[-95.25269546414141,38.95034903120986],[-95.252695488759,38.95035237713818],[-95.2526939511767,38.950352383960336],[-95.25269396424511,38.95035421555799],[-95.25269315852042,38.950354218995095],[-95.25269313473252,38.950351029899494],[-95.2526895447344,38.95035104576319],[-95.25268961731882,38.950360641016864],[-95.25269320616438,38.950360625125874],[-95.25269319197785,38.950358792600476],[-95.25269399770268,38.95035878916341],[-95.25269401188919,38.95036062168877],[-95.25269555065977,38.950360613993475],[-95.25269556879132,38.950363117123295],[-95.25269557524236,38.950363960822216],[-95.25278344292872,38.9503635610447],[-95.25278350799242,38.950372281030965],[-95.25275114359222,38.95043449526558],[-95.2527844349494,38.95049641240504],[-95.25278450004834,38.9505051314908],[-95.25278376703605,38.950505134849145],[-95.2527001483248,38.95050551545717],[-95.25270015477585,38.95050635915606],[-95.25270017290768,38.950508862285865],[-95.25270017523692,38.95050906962265],[-95.25270017638324,38.95050918861143],[-95.25278379513388,38.95050880710298],[-95.25278654247987,38.950508794700106],[-95.25278696035072,38.950508792886225],[-95.25278698180001,38.95051201256789],[-95.2527869831214,38.95051212705471],[-95.25278698315309,38.95051218563504],[-95.25278698325477,38.95051224241459],[-95.25278698467783,38.95051241368096],[-95.25278700774176,38.95051550272331],[-95.25278700916479,38.95051567398965],[-95.25278700926643,38.95051573076922],[-95.25278701128937,38.95051579750775],[-95.25278701180761,38.95051590296327],[-95.25278849862283,38.950515895838],[-95.25278846973323,38.95051200637037],[-95.25278825040257,38.950512007481564],[-95.25278823465388,38.95050994781075],[-95.25279259345294,38.950509928532256],[-95.25279258443292,38.95050876483786],[-95.25299946448476,38.950507823432],[-95.25299931443557,38.95048747924449],[-95.25300080240329,38.95048747214383],[-95.25300077234893,38.95048358264892],[-95.25299928556937,38.95048358887654],[-95.25299853644526,38.95038314590116],[-95.25300002325767,38.9503831387731],[-95.25299999320345,38.95037924927818],[-95.25299850639112,38.950379256406165],[-95.2529983553293,38.95035890858953],[-95.25279189581924,38.950359850035014],[-95.25279188672927,38.950358688141414],[-95.25278741710383,38.95035870839835],[-95.25278738516495,38.95035436283888],[-95.25278760449514,38.950354361727676],[-95.25278757560565,38.95035047225996],[-95.25278608767583,38.95035047845753],[-95.2527850742983,38.950214612895316],[-95.2527865610722,38.950214606670414],[-95.25278653221783,38.95021071630228],[-95.252785045409,38.950210723427524],[-95.25278501839935,38.950206963780666],[-95.25262415712795,38.95020769577878],[-95.25262415827407,38.95020781476758],[-95.25262415941509,38.95020802297745],[-95.2526241607362,38.950208137464244],[-95.25252519537521,38.950208587741216],[-95.25249047345763,38.95020875621402],[-95.25249047328619,38.950208701235304],[-95.2524626766953,38.950208827443376],[-95.25246265852614,38.95020766172952],[-95.2524626683493,38.95020758716069],[-95.25232128276153,38.95020824046518],[-95.25232182628304,38.95028211770772],[-95.25232033489539,38.95028212381729],[-95.25232036487719,38.95028601421286],[-95.25232185514687,38.95028600717555],[-95.25232212932546,38.95032144351267],[-95.25232365265022,38.95032144717221],[-95.25232407167303,38.95032144538735],[-95.25232727615625,38.950321430311575],[-95.25232753535897,38.95035612368462],[-95.25234562321924,38.95032134964435],[-95.25235173441122,38.950321319643955],[-95.25235173326548,38.95032120065518],[-95.25235173209035,38.95032099334569],[-95.25235170550887,38.950317460816926],[-95.25234399796362,38.950317495340684],[-95.25232678844202,38.95028548963524],[-95.25232676671708,38.95028254481991],[-95.25236351832658,38.95021189737401],[-95.25245783978733,38.95021146785478],[-95.25245797181634,38.95022906468792],[-95.25246249454526,38.95022904389993],[-95.25246276122121,38.95022904210896],[-95.25246291356751,38.95022904211456],[-95.25246278944091,38.950212489086724],[-95.25246270516129,38.95021248979303],[-95.25246269524223,38.95021126028776],[-95.25249049071594,38.95021113315191],[-95.25249063729684,38.950211133020886],[-95.25249135790939,38.9503076586209],[-95.2524910647123,38.95030765978345],[-95.25249069876624,38.95030766192555],[-95.25249070018857,38.95030783319192],[-95.25249106609964,38.95030783195017],[-95.25249106752199,38.9503080032165],[-95.25249136071906,38.95030800205399],[-95.25249138096035,38.950310747663416],[-95.25249108776325,38.950310748825885],[-95.25249108918557,38.95031092009226],[-95.25249072323949,38.950310922234365],[-95.25249072466181,38.95031109350072],[-95.2524910905729,38.95031109225902],[-95.25249138377006,38.95031109109649],[-95.2524915553174,38.95033408539779],[-95.25249155832996,38.95033454238999],[-95.25247814365763,38.95033460388931],[-95.25247816274677,38.95033500358415],[-95.25247820457355,38.950335560630904],[-95.25247837195779,38.9503365099822],[-95.25247864493726,38.95033744471278],[-95.25247902036757,38.950338356637076],[-95.25247949618766,38.95033923939768],[-95.25248006918316,38.950340086609835],[-95.25248073498683,38.95034089186144],[-95.25248148692512,38.95034164868582],[-95.25248232178375,38.95034235069817],[-95.2524832304781,38.950342994078355],[-95.25248420860581,38.950343573314626],[-95.25248524715217,38.95034408278602],[-95.25248633926873,38.950344520527814],[-95.25248747590587,38.95034488181937],[-95.25248864790883,38.9503451646413],[-95.25248984727618,38.95034536700154],[-95.25249106488816,38.9503454859803],[-95.25249164013505,38.950345503218],[-95.25249164072638,38.95034554739201],[-95.25249118773921,38.95034556189089],[-95.25248997000796,38.950345683536256],[-95.25248877211867,38.95034588856453],[-95.2524875999767,38.950346173510695],[-95.2524864651479,38.95034653774766],[-95.25248537584376,38.95034697786514],[-95.25248433912277,38.95034749042554],[-95.25248336323149,38.95034807111815],[-95.2524824563814,38.95034871653267],[-95.2524816245479,38.950349421403395],[-95.25248087489439,38.95035017959147],[-95.25248021224327,38.95035098580389],[-95.25247964256988,38.95035183477489],[-95.25247916964844,38.95035271848294],[-95.25247879714813,38.95035363160756],[-95.25247852880814,38.95035456702771],[-95.25247836497847,38.95035551573933],[-95.25247831769785,38.95035616800654],[-95.25247830698724,38.950356473267796],[-95.25247830788996,38.95035656881898],[-95.25249172256649,38.950356507319626],[-95.25249172554403,38.950356965212194],[-95.2524923765811,38.95035696261667],[-95.25249413464677,38.95035695471386],[-95.25249478453077,38.95035695209099],[-95.25249497653435,38.950382627118444],[-95.2524951405271,38.95040459835081],[-95.25249532226131,38.95042905287687],[-95.25249532229452,38.95042908171687],[-95.2524954319772,38.950429080711345]]],[[[-95.25232924411193,38.950585097734006],[-95.25236147678616,38.95052313643326],[-95.2523283214156,38.95046147112493],[-95.2523287833049,38.95052328534367],[-95.25232924411193,38.950585097734006]]],[[[-95.25278467623865,38.95062687214926],[-95.25278425924631,38.95057110892524],[-95.25278384340768,38.95051534572832],[-95.25275476447283,38.950571242730675],[-95.25278467623865,38.95062687214926]]],[[[-95.25232829382774,38.95045784574616],[-95.25235382683239,38.95040876638115],[-95.25232756318063,38.95035992120281],[-95.25232792904546,38.95040888438866],[-95.25232829382774,38.95045784574616]]],[[[-95.25262474979026,38.95063547959214],[-95.25262474982355,38.95063550843212],[-95.25262515270497,38.95063550626361],[-95.25262647096244,38.95063550055324],[-95.25262780770423,38.950635494379675],[-95.25262637169094,38.95044307147149],[-95.2526250349528,38.950443077645055],[-95.25262371669896,38.950443083355424],[-95.25262349621539,38.95044308443899],[-95.2526233126655,38.950443085496595],[-95.25262331242396,38.950443032318624],[-95.25261994286966,38.95044304799696],[-95.25262138019175,38.95063549617093],[-95.25262474979026,38.95063547959214]]],[[[-95.25252495695518,38.950431820792566],[-95.25252503533288,38.95044233543306],[-95.25261993423568,38.950441904138586],[-95.25262330378995,38.95044188846022],[-95.25262322026865,38.95043064460776],[-95.25261985071494,38.950430660286074],[-95.25252495179222,38.95043109248084],[-95.25252495695518,38.950431820792566]]],[[[-95.2523607027329,38.95064715451344],[-95.25232927044365,38.9505886960462],[-95.25232970723684,38.950647295903],[-95.2523607027329,38.95064715451344]]],[[[-95.25252372943164,38.95067967077625],[-95.25252424196144,38.95067966850294],[-95.25252409497895,38.95065999129066],[-95.25252409196622,38.95065953429848],[-95.25252394498382,38.95063985708612],[-95.25252394200605,38.95063939919356],[-95.25252379502375,38.95061972198118],[-95.25252379085792,38.95061926496168],[-95.25252375338538,38.95061423073524],[-95.25252375037269,38.95061377374305],[-95.252523610534,38.95059501144273],[-95.2525236075213,38.950594554450554],[-95.25252346652962,38.950575792122834],[-95.25252346351687,38.950575335130644],[-95.25252330343581,38.95055382722094],[-95.25252329930498,38.95055336930101],[-95.25252313918898,38.950531862291676],[-95.25252313621127,38.95053140439911],[-95.25252297494228,38.950509897362416],[-95.25252297196454,38.95050943946981],[-95.25252293445718,38.950504406143715],[-95.25252293032635,38.950503948223805],[-95.25252275711163,38.95048061051713],[-95.25252275298078,38.95048015259721],[-95.25252257712417,38.95045658591688],[-95.25252257411147,38.9504561289247],[-95.25252248311443,38.95044394942363],[-95.25252248013673,38.95044349153101],[-95.25252116072977,38.95044349721291],[-95.25252116486058,38.95044395513279],[-95.25252125585733,38.950456134633875],[-95.25252125883509,38.950456592526415],[-95.2525214346912,38.95048015920677],[-95.25252143770396,38.95048061619897],[-95.25252161203639,38.95050395483341],[-95.25252161620215,38.95050441185292],[-95.25252165367446,38.95050944607939],[-95.25252165668716,38.95050990307157],[-95.25252181676765,38.9505314109814],[-95.2525218209335,38.9505318680009],[-95.25252198101407,38.95055337591065],[-95.25252198402681,38.950553832902806],[-95.25252214526056,38.9505753408399],[-95.25252214827326,38.950575797832066],[-95.25252228811149,38.95059456013242],[-95.25252229224233,38.95059501805231],[-95.25252243211565,38.95061377945225],[-95.25252243509337,38.95061423734482],[-95.2525224726008,38.950619270670835],[-95.25252247673158,38.95061972859078],[-95.25252262259548,38.95063940487544],[-95.25252262672625,38.95063986279532],[-95.2525227737083,38.950659540007685],[-95.25252277668608,38.95065999790025],[-95.25252328925073,38.950659994726536],[-95.25252343623302,38.95067967193887],[-95.25252372943164,38.95067967077625]]],[[[-95.25252495179222,38.95043109248084],[-95.2525249403167,38.95042957634943],[-95.25252493896254,38.95042943302259],[-95.25249532649336,38.95042956757635],[-95.25249532229452,38.95042908171687],[-95.25249522187146,38.95042908204061],[-95.25249522627134,38.95042971119954],[-95.25249523774626,38.950431227331],[-95.25252495179222,38.95043109248084]]],[[[-95.25252830987105,38.950675077638785],[-95.25253966407607,38.95067502588164],[-95.25253965683082,38.950674054190024],[-95.252528302661,38.950674105046765],[-95.25252830987105,38.950675077638785]]],[[[-95.25232321365958,38.950461725879315],[-95.25232470739219,38.95046171892396],[-95.25232470694466,38.950461611667635],[-95.25232470597027,38.95046154765762],[-95.25232469678664,38.95046032898445],[-95.2523246883656,38.95045920946407],[-95.25232467991508,38.95045800162296],[-95.25232468215495,38.95045794399767],[-95.25232467849314,38.95045783035661],[-95.2523231847956,38.950457836411566],[-95.25232321365958,38.950461725879315]]],[[[-95.25232416309841,38.95058893999588],[-95.25232565452755,38.95058893298586],[-95.25232565292693,38.9505888257022],[-95.2523256531056,38.950588761719494],[-95.252325643922,38.95058754304638],[-95.25232563550088,38.95058642352599],[-95.25232562705037,38.95058521568488],[-95.25232562813713,38.95058515803226],[-95.25232562566343,38.95058504351814],[-95.25232413308127,38.95058505050085],[-95.25232416309841,38.95058893999588]]],[[[-95.25232245574874,38.950360138113275],[-95.25232394371385,38.95036013102126],[-95.25232394211318,38.95036002373763],[-95.25232394232692,38.95035995885453],[-95.25232393310833,38.95035874108175],[-95.2523239246873,38.95035762156134],[-95.25232391508374,38.95035641369288],[-95.25232391617054,38.950356356040274],[-95.2523239136968,38.95035624152615],[-95.25232242691989,38.95035624774509],[-95.25232245574874,38.950360138113275]]],[[[-95.25278783617514,38.95062639998533],[-95.2527878373949,38.95062645769257],[-95.25278783749658,38.950626514472134],[-95.25278783888464,38.95062668663891],[-95.25278786198365,38.95062977478087],[-95.25278786337171,38.95062994694759],[-95.25278786347339,38.95063000372714],[-95.2527878643782,38.95063006953796],[-95.25278786489643,38.95063017499349],[-95.25278935286718,38.95063016789552],[-95.25278932282438,38.950626278400556],[-95.25278783600683,38.95062628552585],[-95.25278783617514,38.95062639998533]]],[[[-95.25262787397344,38.95050701740072],[-95.25262971286362,38.95050700870738],[-95.25262970422948,38.95050586484903],[-95.2526278653393,38.9505058735423],[-95.25262698689866,38.95050587705825],[-95.25262698821984,38.95050599154505],[-95.25262695128617,38.95050599157099],[-95.25262695839608,38.95050690738347],[-95.25262699417661,38.950506907330166],[-95.25262699549778,38.950507021816975],[-95.25262787397344,38.95050701740072]]],[[[-95.25262612936102,38.95028143563728],[-95.25262796821033,38.9502814278444],[-95.25262795957624,38.950280283986004],[-95.25262612072697,38.95028029177886],[-95.25262524225415,38.95028029619519],[-95.25262524357527,38.95028041068199],[-95.25262520664172,38.95028041070797],[-95.2526252137866,38.950281325620026],[-95.25262524956703,38.95028132556674],[-95.25262525088814,38.95028144005356],[-95.25262612936102,38.95028143563728]]],[[[-95.25249178542613,38.950404271902634],[-95.25249141951454,38.950404273144336],[-95.25249142090189,38.95040444531108],[-95.25249178684845,38.950404443168985],[-95.25249208004594,38.95040444200646],[-95.25249207862362,38.95040427074011],[-95.25249207723625,38.95040409857338],[-95.25249178515685,38.95040410066361],[-95.25249178542613,38.950404271902634]]],[[[-95.25249205699494,38.95040135296403],[-95.25249205557259,38.950401181697664],[-95.25249205415027,38.950401010431285],[-95.25249176210585,38.950401011621125],[-95.25249139504118,38.95040101283553],[-95.25249139642852,38.95040118500228],[-95.25249176237512,38.95040118286014],[-95.25249176379745,38.950401354126505],[-95.25249205699494,38.95040135296403]]]]},"properties":{"SDE.FloorAll.FLOORLOCATION":"ROOF"}}]}
