{"type":"FeatureCollection","features":[{"type":"Feature","geometry":{"type":"Polygon","coordinates":[[[-95.24448461847389,38.95995222317465],[-95.24469560452592,38.95995259663929],[-95.24469572445133,38.95991141165401],[-95.24476005037886,38.959911525296484],[-95.24476032647115,38.959816112743184],[-95.2447651626521,38.95981612131863],[-95.24476560829245,38.95966231875017],[-95.24477146940761,38.9596623291501],[-95.2447716075386,38.95961427995821],[-95.24476574639239,38.959614270458694],[-95.24476620392608,38.959456668601014],[-95.24476092800468,38.95945665948904],[-95.24476120218783,38.95936239144404],[-95.24451855318532,38.95936196314522],[-95.24451826706395,38.95946034861612],[-95.24452135688112,38.959460354453],[-95.24452122129861,38.959507031142294],[-95.24451813147941,38.95950702530542],[-95.24451775649278,38.959636528904284],[-95.24441518696398,38.95963634798933],[-95.24441438986692,38.95991091374138],[-95.24448473852222,38.95991103818962],[-95.24448461847389,38.95995222317465]]]},"properties":{"SDE.FloorAll.FLOORLOCATION":"1"}},{"type":"Feature","geometry":{"type":"Polygon","coordinates":[[[-95.24448461847389,38.95995222317465],[-95.24469560452592,38.95995259663929],[-95.2446957232981,38.9599114116266],[-95.24476004922565,38.95991152526907],[-95.24476032647115,38.959816112743184],[-95.24476516149882,38.959816121291226],[-95.24476561844858,38.95965847526219],[-95.24477147959846,38.9596584847617],[-95.24477160721253,38.959614554824405],[-95.24476574610135,38.95961454442452],[-95.24476580936862,38.959592578541724],[-95.24477049778076,38.959592587210885],[-95.24477051447091,38.95958709553564],[-95.24476582487083,38.95958708773947],[-95.24476620277288,38.95945666857362],[-95.24476092800468,38.95945665948904],[-95.24476120103463,38.95936239141661],[-95.24452089626561,38.95936196655704],[-95.2445208957322,38.95936242436723],[-95.24441598240263,38.95936223911342],[-95.24441568141772,38.959465887395275],[-95.24438813376061,38.959465839228024],[-95.24438778660391,38.95958550390617],[-95.24439482037451,38.959585516960104],[-95.24439474809085,38.959610227766234],[-95.24438771547094,38.95961021473963],[-95.24438769318948,38.9596175366731],[-95.24439472696334,38.959617549727085],[-95.24439461802098,38.95965507329614],[-95.24438758536155,38.95965506116998],[-95.24438756308005,38.9596623831034],[-95.24439459689346,38.959662395256984],[-95.24439452460956,38.95968710606292],[-95.24438749194697,38.959687093936736],[-95.244387364748,38.95973068142294],[-95.24437649778699,38.959730661984835],[-95.2443539949645,38.95974323912201],[-95.24437294721038,38.9597639094533],[-95.24437614621272,38.95976212174483],[-95.24439723842173,38.95976215888749],[-95.24439703603495,38.95983171612287],[-95.24441461942226,38.95983174737762],[-95.24441438986692,38.95991091374138],[-95.24448473736899,38.9599110381622],[-95.24448461847389,38.95995222317465]]]},"properties":{"SDE.FloorAll.FLOORLOCATION":"2"}},{"type":"Feature","geometry":{"type":"MultiPolygon","coordinates":[[[[-95.24448533638187,38.95995222491484],[-95.24469487274406,38.95995259547192],[-95.24469499148154,38.95991141135967],[-95.24476005034376,38.95991152619685],[-95.24476032478606,38.95981657052599],[-95.24476516096705,38.959816579101485],[-95.24476619914664,38.95945827176868],[-95.24476136302525,38.95945826229288],[-95.24476163858215,38.959363307546234],[-95.24441598071533,38.959362696896214],[-95.24441527089355,38.95960713403287],[-95.24441423906542,38.959607131140224],[-95.24441400197698,38.959666357696705],[-95.24441509964534,38.95966635945038],[-95.24441438983182,38.95991091464177],[-95.24448545642976,38.9599110399298],[-95.24448533638187,38.95995222491484]]],[[[-95.24439549955409,38.95966183271488],[-95.2443886042686,38.959661820248634],[-95.24438853286937,38.95968665634614],[-95.24441198195059,38.95968669812983],[-95.2444122719097,38.95958679688625],[-95.24438882286157,38.959586755102634],[-95.24438875080597,38.959611548827],[-95.24439564493329,38.9596115612658],[-95.24439562377076,38.959618884127046],[-95.24438763892957,38.959618869198394],[-95.24438753576608,38.959654497626154],[-95.24439552068154,38.959654510754014],[-95.24439549955409,38.95966183271488]]]]},"properties":{"SDE.FloorAll.FLOORLOCATION":"3"}},{"type":"Feature","geometry":{"type":"Polygon","coordinates":[[[-95.24441438983182,38.95991091464177],[-95.24476005037886,38.959911525296484],[-95.24476032475096,38.95981657142638],[-95.24476516093195,38.95981658000185],[-95.2447656794991,38.95963742497252],[-95.24476619918173,38.95945827086832],[-95.24476136302525,38.95945826229288],[-95.24476163858215,38.959363307546234],[-95.24441598071533,38.959362696896214],[-95.24441522499414,38.95962326308868],[-95.2444139172635,38.95962326084883],[-95.24441383640993,38.95965106355817],[-95.24441514414113,38.95965106579798],[-95.24441438983182,38.95991091464177]]]},"properties":{"SDE.FloorAll.FLOORLOCATION":"4"}},{"type":"Feature","geometry":{"type":"Polygon","coordinates":[[[-95.24446023578,38.959866606721185],[-95.24473453638963,38.9598670914897],[-95.24473588947644,38.95940032907452],[-95.24446159071273,38.9593998434088],[-95.2444612036251,38.95953323731703],[-95.24444362031201,38.95953320606936],[-95.24444303950838,38.959733181569],[-95.2444606228712,38.95973321281672],[-95.24446023578,38.959866606721185]]]},"properties":{"SDE.FloorAll.FLOORLOCATION":"5"}},{"type":"Feature","geometry":{"type":"Polygon","coordinates":[[[-95.24448303115415,38.95995308577701],[-95.24470106604318,38.959953471735794],[-95.24470117956918,38.95991434590016],[-95.24477327111939,38.95991447283713],[-95.24477393059942,38.9596868117626],[-95.244800305609,38.95968685900817],[-95.24480059967277,38.9595852689765],[-95.24477422466599,38.95958522263139],[-95.24477488413982,38.95935756155061],[-95.24441266916031,38.959356920642485],[-95.24441204379775,38.95957245565971],[-95.24438332459056,38.95957240488396],[-95.24438296323613,38.95969687456193],[-95.24441168364712,38.95969692536521],[-95.24441105325167,38.95991383282432],[-95.24448314476572,38.95991396084199],[-95.24448303115415,38.95995308577701]]]},"properties":{"SDE.FloorAll.FLOORLOCATION":"ROOF"}}]}
