{"type":"FeatureCollection","features":[{"type":"Feature","geometry":{"type":"Polygon","coordinates":[[[-95.247431661552,38.959547585353064],[-95.24747277658459,38.95947647239107],[-95.24742256268492,38.95945877349416],[-95.24754759782253,38.95924251597706],[-95.24757697870348,38.95925287096857],[-95.24761266872741,38.95919114251501],[-95.24778868870075,38.95925318033825],[-95.24790311212104,38.95905527367184],[-95.24769450645549,38.958981750548254],[-95.24769547174111,38.95898008276319],[-95.24761213687071,38.958950710923254],[-95.24762081770923,38.9589356961973],[-95.24751558086962,38.95889860538213],[-95.24750689886012,38.958913620072884],[-95.24742356414635,38.95888424809728],[-95.2474225999738,38.95888591680789],[-95.24722387765142,38.95881587636052],[-95.2471094527173,38.95901378236076],[-95.24728493663201,38.95907563250403],[-95.24724924638024,38.959137360857355],[-95.24727936272184,38.959147975816876],[-95.24715432577776,38.95936423301914],[-95.24710417804773,38.95934655808204],[-95.24706306156673,38.959417670886765],[-95.24720515854723,38.95946775419893],[-95.24719696020723,38.95948193500269],[-95.24728136361762,38.95951168307367],[-95.24728956309734,38.95949750229136],[-95.247431661552,38.959547585353064]]]},"properties":{"SDE.FloorAll.FLOORLOCATION":"1"}},{"type":"Feature","geometry":{"type":"Polygon","coordinates":[[[-95.24715273975896,38.95936666382007],[-95.24715295725456,38.959366740180684],[-95.24715234338336,38.959367801669224],[-95.24742051194939,38.95946231889672],[-95.2475475978576,38.959242515076674],[-95.24757697870348,38.95925287096857],[-95.24761266872741,38.95919114251501],[-95.24778868870075,38.95925318033825],[-95.24790311212104,38.95905527367184],[-95.24769450645549,38.958981750548254],[-95.24769547177618,38.95898008186282],[-95.24761213687071,38.958950710923254],[-95.24762081770923,38.9589356961973],[-95.24759465027641,38.95892647283076],[-95.24758902150616,38.958936207629364],[-95.24756657744943,38.958928297408875],[-95.24757220506895,38.958918562583975],[-95.24751558090469,38.9588986044817],[-95.24750689886012,38.958913620072884],[-95.24742356414635,38.95888424809728],[-95.2474225999738,38.95888591680789],[-95.24722387765142,38.95881587636052],[-95.2471094527173,38.95901378236076],[-95.24728493663201,38.95907563250403],[-95.24724924638024,38.959137360857355],[-95.24727942876713,38.95914799901429],[-95.24725281049166,38.95919403702069],[-95.24725259299653,38.95919396066026],[-95.2472506646699,38.95919729717811],[-95.24725088101184,38.95919737351114],[-95.24722035035806,38.95925018055581],[-95.24722013289787,38.95925010329493],[-95.24721820337992,38.959253440685266],[-95.2472184208752,38.95925351704576],[-95.24718785067476,38.95930638983455],[-95.24718763317938,38.959306313474016],[-95.24718570369336,38.95930964996335],[-95.24718592118876,38.95930972632387],[-95.24715488559039,38.95936340366453],[-95.24715466924808,38.95936332733128],[-95.24715273975896,38.95936666382007]]]},"properties":{"SDE.FloorAll.FLOORLOCATION":"2"}},{"type":"Feature","geometry":{"type":"Polygon","coordinates":[[[-95.24742051194939,38.95946231889672],[-95.2475475978576,38.959242515076674],[-95.24757697870348,38.95925287096857],[-95.24761266872741,38.95919114251501],[-95.24778868870075,38.95925318033825],[-95.24790311212104,38.95905527367184],[-95.24769450645549,38.958981750548254],[-95.24769547177618,38.95898008186282],[-95.24761213687071,38.958950710923254],[-95.24762081770923,38.9589356961973],[-95.24758769764652,38.95892402227859],[-95.24758890313758,38.95892193662064],[-95.24755631707333,38.95891045200914],[-95.24755511158156,38.95891253766679],[-95.24753427760366,38.95890519468032],[-95.24751558090469,38.9588986044817],[-95.24750689886012,38.958913620072884],[-95.24746443044485,38.9588986519182],[-95.24742356414635,38.95888424809728],[-95.2474225999738,38.95888591680789],[-95.24722387765142,38.95881587636052],[-95.2471094527173,38.95901378236076],[-95.24728493663201,38.95907563250403],[-95.24724924638024,38.959137360857355],[-95.24727942876713,38.95914799901429],[-95.24715234338336,38.959367801669224],[-95.24720309236358,38.95938568822778],[-95.2472028510028,38.95938610607343],[-95.24720926167291,38.9593883653382],[-95.2472113718746,38.959384715907596],[-95.24723614457518,38.95939344752083],[-95.24723735123779,38.95939136189397],[-95.24724549722747,38.9593942328312],[-95.24724429171827,38.95939631848554],[-95.24726819678524,38.95940474380454],[-95.24726938859142,38.959402683960164],[-95.24727753454864,38.95940555579553],[-95.24727634389585,38.95940761566737],[-95.24730024897049,38.95941604097976],[-95.24730145447838,38.959413955324806],[-95.24730960162648,38.95941682628491],[-95.24730839611878,38.959418911939935],[-95.24733230120106,38.959427337245685],[-95.2473335066731,38.95942525249083],[-95.24734165382381,38.959428123448674],[-95.24734044831688,38.959430209104006],[-95.24736435340672,38.95943863440315],[-95.24736555891309,38.9594365487476],[-95.24736949868631,38.959437937339544],[-95.2473688353224,38.95943908417177],[-95.24736576434495,38.9594380018937],[-95.24736311200714,38.959442590150424],[-95.24736952153428,38.95944484937893],[-95.24736976285915,38.95944443243334],[-95.24742051194939,38.95946231889672]]]},"properties":{"SDE.FloorAll.FLOORLOCATION":"3"}},{"type":"Feature","geometry":{"type":"Polygon","coordinates":[[[-95.2472161540539,38.95932799096201],[-95.24741654935347,38.959398620849214],[-95.24754036649752,38.9591844712311],[-95.24757104771328,38.95919528427391],[-95.24755741499087,38.959218863850204],[-95.24759000119742,38.959230348461084],[-95.24761266872741,38.95919114251501],[-95.2476142367652,38.95918843190154],[-95.24729077804659,38.95907442835948],[-95.2472865046798,38.95907292189498],[-95.24726220527678,38.95911490266405],[-95.24729563169919,38.959126683983946],[-95.24730930409426,38.9591030359841],[-95.24733996930465,38.9591138433025],[-95.2472161540539,38.95932799096201]]]},"properties":{"SDE.FloorAll.FLOORLOCATION":"3.5"}},{"type":"Feature","geometry":{"type":"Polygon","coordinates":[[[-95.24754439248865,38.959241386354066],[-95.24757697866842,38.95925287186897],[-95.24761266872741,38.95919114251501],[-95.2477886886657,38.95925318123861],[-95.24790311212104,38.95905527367184],[-95.24769450642043,38.95898175144868],[-95.24769547174111,38.95898008276319],[-95.24761213683566,38.95895071182366],[-95.24762081770923,38.9589356961973],[-95.24751558086962,38.95889860538213],[-95.24750689886012,38.958913620072884],[-95.24742356411129,38.95888424899767],[-95.2474225999738,38.95888591680789],[-95.24722387765142,38.95881587636052],[-95.24710945268224,38.959013783261135],[-95.24728493659694,38.95907563340443],[-95.24724924634518,38.95913736175773],[-95.24728263405748,38.95914912954499],[-95.24731892703693,38.9590863583539],[-95.24737982585503,38.95910782214007],[-95.24737050381404,38.95912394635636],[-95.24739107026882,38.95913119469988],[-95.24739074722211,38.959131753901424],[-95.24747060931405,38.959159901602874],[-95.24746132563156,38.959175960046004],[-95.24750753356749,38.959192246241784],[-95.24752646460837,38.959159504419745],[-95.24758068528304,38.95917861508152],[-95.24754439248865,38.959241386354066]]]},"properties":{"SDE.FloorAll.FLOORLOCATION":"4"}},{"type":"Feature","geometry":{"type":"Polygon","coordinates":[[[-95.24715225021764,38.95936779314869],[-95.2474203151723,38.95946227367014],[-95.2475473503978,38.95924255606602],[-95.24757671988674,38.95925290718224],[-95.24761239509048,38.959191203611226],[-95.24778861320029,38.9592533110262],[-95.24790311212104,38.95905527367184],[-95.24769806021224,38.95898300289367],[-95.24769950583409,38.95898050116126],[-95.24761620394908,38.95895114182324],[-95.24762488226993,38.95893613244458],[-95.24752235540733,38.95889999727738],[-95.24751367825745,38.95891500577538],[-95.24743037537347,38.95888564627636],[-95.24742892977912,38.958888147105036],[-95.24722387765142,38.95881587636052],[-95.24710937721585,38.9590139130483],[-95.24728559328867,38.95907602120106],[-95.24724991782271,38.95913772557253],[-95.24727928722456,38.95914807676423],[-95.24715225021764,38.95936779314869]]]},"properties":{"SDE.FloorAll.FLOORLOCATION":"ROOF"}}]}
