{"type":"FeatureCollection","features":[{"type":"Feature","geometry":{"type":"Polygon","coordinates":[[[-95.24267876372306,38.95862474302599],[-95.2426998626927,38.958624746399586],[-95.24269986285677,38.95860015372654],[-95.24270898629919,38.95860015349325],[-95.2427089864485,38.958575442759134],[-95.24291232211165,38.95857544296869],[-95.24291232177632,38.958517097541446],[-95.24294279935604,38.95851709767722],[-95.24294279926704,38.95841024462809],[-95.24291232169826,38.958410245392685],[-95.24291232095192,38.95837294990824],[-95.24265179953414,38.95837294969936],[-95.24263841876102,38.95837319655584],[-95.24263277665167,38.958373196661185],[-95.242628045515,38.95837404846051],[-95.24262240505755,38.958375751923406],[-95.24261767326799,38.95837759685882],[-95.24261367028676,38.95837972588933],[-95.24260912091006,38.95838299008859],[-95.24260620919513,38.95838540282192],[-95.24260420658072,38.95838824182592],[-95.24260184175907,38.958391222720934],[-95.24260002155742,38.95839548098913],[-95.2425989297012,38.958398319121855],[-95.24259838380156,38.958401867787934],[-95.24259833695199,38.958407921115715],[-95.24259979235534,38.95841274755087],[-95.24260033862927,38.95841501811544],[-95.24260252169296,38.9584187082852],[-95.24260543425156,38.958422398680234],[-95.24260670814847,38.95842424404649],[-95.24260998335124,38.958426657014904],[-95.24261271259515,38.95842906961666],[-95.24261831383507,38.9584319813054],[-95.24249941281576,38.95843198164292],[-95.2424882410931,38.95843190881258],[-95.24248569386081,38.95843205010734],[-95.24248332853736,38.958433327669276],[-95.24248041656844,38.95843488873417],[-95.24247786936093,38.95843715962847],[-95.24247641245147,38.95843914733225],[-95.24247581798637,38.958442964309725],[-95.24247581751679,38.95850611416721],[-95.24247586839246,38.95850856761546],[-95.24247695990489,38.958510413151735],[-95.24247859787917,38.95851254205236],[-95.24248041776929,38.958514386886826],[-95.2424824197594,38.95851538078781],[-95.24248642284103,38.95851679989408],[-95.24248988445227,38.95851709761361],[-95.24249941189358,38.95851709709172],[-95.24261688170657,38.958517097862305],[-95.24261515136264,38.95851813548059],[-95.24261151220179,38.95852040654502],[-95.2426082369042,38.95852281874295],[-95.24260550731277,38.958525799975526],[-95.24260259562483,38.95852892197504],[-95.24259986519249,38.95853488354466],[-95.24259840928289,38.958539567744374],[-95.24259840990833,38.958545528473564],[-95.24259931981969,38.958551348606264],[-95.2426015029183,38.95855645820896],[-95.24260550678291,38.95856185174002],[-95.24260969274872,38.958565684170544],[-95.24261369586675,38.95856852270543],[-95.24261788133482,38.95857065180507],[-95.2426189730721,38.958571219405606],[-95.24262334045581,38.958573064438674],[-95.24263189349524,38.958575051370055],[-95.24263883158227,38.958575443476384],[-95.24267876276068,38.958575443192984],[-95.24267876372306,38.95862474302599]]]},"properties":{"SDE.FloorAll.FLOORLOCATION":"-1"}},{"type":"Feature","geometry":{"type":"Polygon","coordinates":[[[-95.24261068307503,38.95851988304126],[-95.24260699398492,38.958522635074544],[-95.24260410707761,38.95852538816036],[-95.24260186144758,38.958528390815786],[-95.24259961538762,38.95853214418284],[-95.24259849250451,38.95853477159184],[-95.2425978508567,38.958536898548594],[-95.24259674866079,38.95854145147003],[-95.24259674884296,38.9585468317986],[-95.24259803186533,38.95855146127162],[-95.24259979688195,38.958556340131096],[-95.2426033261238,38.95856096985046],[-95.24260653430832,38.95856459788124],[-95.24260974165976,38.9585669749893],[-95.2426143940055,38.95856997766627],[-95.2426190458975,38.95857210433976],[-95.24262514114142,38.95857398145166],[-95.24262851005892,38.95857473208208],[-95.242637366326,38.95857548523488],[-95.24268387817338,38.95857548192956],[-95.24268388098363,38.95856907787872],[-95.24268388346246,38.95840731132919],[-95.2426847573187,38.958407309579705],[-95.24268475725918,38.95837366858349],[-95.24263604294254,38.95837367808792],[-95.24262690975708,38.958374490989655],[-95.24262081441995,38.95837649275556],[-95.24261568123116,38.95837874451178],[-95.24261086918422,38.958380871424694],[-95.24260734034267,38.95838425001653],[-95.24260349012397,38.95838787781506],[-95.24260108467578,38.9583911308156],[-95.24259899878686,38.958395009657394],[-95.24259771592342,38.95839851285913],[-95.24259691410816,38.95840489340243],[-95.24259723524857,38.95840914762063],[-95.2425988385866,38.95841515277374],[-95.24260060365019,38.958418906002095],[-95.24260381136344,38.958423285645196],[-95.24260717963391,38.95842653806676],[-95.2426103881323,38.95842891520222],[-95.24261375645344,38.958431041992505],[-95.24261514987728,38.958431953826526],[-95.2425997825609,38.95843202365892],[-95.24253340698742,38.95843202316306],[-95.24249955895101,38.958432022969944],[-95.24249003152116,38.95843202349188],[-95.24248657261558,38.958432366608896],[-95.24248288346853,38.95843349282361],[-95.24248015708383,38.958435119585594],[-95.24247807170522,38.958437121181895],[-95.24247678776925,38.958439497823356],[-95.24247598618686,38.958441374940875],[-95.24247596527488,38.95844300566416],[-95.24247596457208,38.95845879333994],[-95.24247596477024,38.95850615642204],[-95.24247614393144,38.9585089607949],[-95.24247742697604,38.95851083792307],[-95.2424790315775,38.958512964227594],[-95.24248031505316,38.958514090643995],[-95.24248223942698,38.95851509171131],[-95.2424843251559,38.958516217380456],[-95.24248689208582,38.95851684349817],[-95.24248817514426,38.958517093010855],[-95.2424995591471,38.95851713934654],[-95.24261541645149,38.958517139620554],[-95.24261068307503,38.95851988304126]]]},"properties":{"SDE.FloorAll.FLOORLOCATION":"-2"}},{"type":"Feature","geometry":{"type":"Polygon","coordinates":[[[-95.24264505799813,38.9585758222627],[-95.24282059627035,38.958575823072735],[-95.24282059681477,38.95857536526251],[-95.24284638460587,38.95857536475174],[-95.2428463852148,38.95857582258942],[-95.24289092887189,38.958575822867076],[-95.24289092941581,38.95857536505678],[-95.2429123217076,38.95857536455236],[-95.24291232216744,38.958564611125844],[-95.2429134937646,38.95856461104718],[-95.24291349322868,38.95852319696197],[-95.24291232163223,38.95852319704064],[-95.2429123219817,38.9585174769628],[-95.24291466547912,38.95851770572432],[-95.24291466639325,38.958518392480826],[-95.24293635182887,38.958518392634424],[-95.24293635206773,38.958517705905315],[-95.24293752335929,38.9585174769076],[-95.24293777408619,38.95851770727505],[-95.24293790146724,38.95851840695222],[-95.24293828710248,38.958518907290774],[-95.24293892828177,38.95851930736102],[-95.24294021096709,38.95851950729232],[-95.24294162093761,38.9585191073296],[-95.2429422621682,38.9585187071117],[-95.2429427754154,38.95851800734695],[-95.242942776181,38.95851730711199],[-95.24294354495606,38.95851730646673],[-95.24294418602321,38.95851720635344],[-95.24294495624306,38.95851660642675],[-95.24294546893924,38.95851550650421],[-95.24294495623346,38.958514505667],[-95.24294405868376,38.95851360562836],[-95.24294279861772,38.95851335846995],[-95.24294279824285,38.958490020293496],[-95.24294514374107,38.95849002019038],[-95.24294514293622,38.95848841328398],[-95.2429715943527,38.95848841410669],[-95.24297159488837,38.95848979119386],[-95.24297444825513,38.95848979145054],[-95.24297459413457,38.95849043118542],[-95.2429749789274,38.95849113067489],[-95.24297587704415,38.95849163148331],[-95.24297728712625,38.95849173170366],[-95.24297844230165,38.95849153116153],[-95.2429794673504,38.95849073091313],[-95.2429797233021,38.958489791612465],[-95.24297972339595,38.95845913188145],[-95.24297984291854,38.95845855343222],[-95.24297920118838,38.95845775320445],[-95.24297804677879,38.958457253511575],[-95.24297625117455,38.95845715313638],[-95.24297484060342,38.95845795322988],[-95.24297444835123,38.958459131719536],[-95.24297158114722,38.95845913113379],[-95.2429715816478,38.95846050912135],[-95.24294514289191,38.95846050950068],[-95.24294514324026,38.958458902621715],[-95.24294279889628,38.95845890275222],[-95.24294279845543,38.95843464892772],[-95.24294367400945,38.95843454447681],[-95.24294444291182,38.958434244627306],[-95.242945340563,38.95843354408969],[-95.24294546916461,38.95843264411846],[-95.24294521224344,38.958431743992286],[-95.2429444435557,38.95843094344906],[-95.24294367338804,38.95843074308762],[-95.24294277622698,38.95843054331136],[-95.24294277595152,38.95843034323243],[-95.242942262532,38.95842924234208],[-95.24294085202851,38.958428442759306],[-95.24293931295853,38.95842854224735],[-95.24293790255093,38.9584290422358],[-95.24293752358712,38.95843053106332],[-95.24293635168739,38.958430302223384],[-95.24293635192623,38.95842961549429],[-95.24291466536461,38.958429615313264],[-95.24291466627879,38.95843030206981],[-95.24291232108725,38.95843053109109],[-95.24291232153742,38.95842572576079],[-95.24291349313222,38.95842572568213],[-95.24291349371443,38.95838431252426],[-95.24291232100217,38.95838431167508],[-95.24291232146204,38.958373558248404],[-95.24289092811317,38.95837355782505],[-95.24289092862202,38.9583731009152],[-95.24284638509269,38.95837310063756],[-95.24284638454844,38.9583735584478],[-95.2428205957129,38.95837355803074],[-95.24282059622212,38.95837310112089],[-95.24264505845323,38.95837310031086],[-95.24264505906089,38.95837355814851],[-95.24263641002548,38.95837361832441],[-95.24263179274753,38.95837391857712],[-95.24262897063193,38.95837441923596],[-95.24262563631034,38.95837511950202],[-95.24262114767303,38.95837661964282],[-95.24262063460823,38.9583762199138],[-95.24261947957861,38.95837691973544],[-95.24261614520184,38.95837842028941],[-95.24261152775847,38.95838112140567],[-95.24260806461078,38.958383822034754],[-95.24260447326122,38.958387323509335],[-95.24260216475813,38.95839072481412],[-95.24260024122833,38.958393726117265],[-95.24259857340662,38.95839842780803],[-95.2425976760807,38.95840272965324],[-95.24259764977228,38.95840689539931],[-95.24259829127692,38.95841089678175],[-95.24259931775524,38.95841449816255],[-95.24260047240021,38.95841729959823],[-95.24260201046148,38.958419800130144],[-95.24260355024508,38.95842190145949],[-95.24260664073827,38.95842529147141],[-95.24260709858608,38.958425005856135],[-95.24261219433039,38.95842915822892],[-95.24260432448807,38.95842915762508],[-95.24260432439128,38.95842824287756],[-95.2424938438627,38.95842824248878],[-95.24249384392287,38.9584291581367],[-95.24248919232112,38.95842912501479],[-95.24248585700772,38.95842952514481],[-95.2424838059694,38.958430025212714],[-95.24248136880348,38.95843092525443],[-95.24247867548827,38.958432325693664],[-95.24247572497931,38.95843472668648],[-95.24247405748346,38.95843672740646],[-95.24247264673728,38.958439928358224],[-95.24247230049109,38.958442886061185],[-95.24247230132906,38.958454669622576],[-95.2424708399975,38.95845467001588],[-95.24247083900114,38.958494252777996],[-95.2424723002984,38.95849425328513],[-95.24247230113643,38.95850603684651],[-95.24247240428346,38.95850679542897],[-95.24247291673909,38.95850969604872],[-95.24247394316028,38.95851199695897],[-95.24247573920037,38.95851409807594],[-95.24247753428793,38.95851589816051],[-95.24247971475472,38.95851719911839],[-95.24248228006627,38.958518399279235],[-95.24248497365478,38.95851929967855],[-95.24248988311102,38.958519765213246],[-95.24249384346055,38.95851976477191],[-95.24249384352072,38.95852068041989],[-95.24260432419382,38.958520680808654],[-95.2426043241322,38.958519765160695],[-95.24261219401973,38.958519764864135],[-95.24260709863631,38.95852391730541],[-95.24260663999344,38.958523631523946],[-95.24260640976068,38.95852385225657],[-95.24260397319674,38.95852645293028],[-95.24260179269105,38.95852935439457],[-95.24260038167428,38.95853235526899],[-95.24259897170089,38.9585348559873],[-95.2425979440179,38.95853971799921],[-95.24259768735388,38.958544018858376],[-95.24259794428967,38.95854832111705],[-95.24259948317658,38.95855352264538],[-95.24260114973666,38.9585567237827],[-95.24260307411282,38.958559825607715],[-95.24260615221907,38.95856332617575],[-95.24260846074638,38.958565427762395],[-95.24261051270125,38.95856682750018],[-95.2426124371881,38.95856832874882],[-95.24261461769414,38.95856962880379],[-95.242616926312,38.95857092920172],[-95.2426209665238,38.958572639381266],[-95.24262133516025,38.958572155176945],[-95.24262300232574,38.95857285542386],[-95.24262595214157,38.9585737565059],[-95.2426308261855,38.95857465648493],[-95.24263377592672,38.958575056482914],[-95.2426363410231,38.95857525627331],[-95.24263883117854,38.95857536506005],[-95.24264505850857,38.95857536535284],[-95.24264505799813,38.9585758222627]]]},"properties":{"SDE.FloorAll.FLOORLOCATION":"1"}},{"type":"Feature","geometry":{"type":"Polygon","coordinates":[[[-95.24263683117834,38.95854561936981],[-95.24263620325833,38.95854567833764],[-95.24263550216469,38.95854589688485],[-95.2426350497429,38.95854613216058],[-95.24263452240854,38.95854666035595],[-95.24263422129073,38.95854712994393],[-95.2426342216041,38.958548187090436],[-95.24263459804087,38.958548716050494],[-95.24263512571191,38.95854930358192],[-95.24263565214856,38.9585495972841],[-95.24263678221803,38.95854965570166],[-95.24263678228783,38.95854983144253],[-95.24263693250803,38.95855041900997],[-95.24263738397369,38.95855094795185],[-95.24263798666229,38.95855141740414],[-95.24263866428667,38.958551652517095],[-95.24264009447177,38.95855171086191],[-95.24264099816176,38.95855141782469],[-95.24264182673025,38.95855071294276],[-95.24264212779002,38.958550008133166],[-95.24264210624439,38.95854905141913],[-95.24290936930883,38.958549051525814],[-95.24290938110425,38.95854895627626],[-95.24290945650945,38.958550248626054],[-95.24290983304225,38.95855101190637],[-95.24291051076152,38.95855148133891],[-95.24291201599945,38.958551775784066],[-95.24291307098144,38.95855159899563],[-95.24291367227183,38.95855136455514],[-95.24291419961578,38.95855077687781],[-95.24291457689034,38.95855024871787],[-95.2429145767491,38.9585497196944],[-95.24291547933176,38.958549543788244],[-95.24291608183388,38.95854936705502],[-95.24291683546494,38.95854907405236],[-95.24291713661601,38.958548603563244],[-95.24291728756829,38.958547781629036],[-95.2429172112333,38.958547312077215],[-95.2429169108942,38.95854648932523],[-95.24291630822728,38.95854607845468],[-95.24291570558393,38.958545726164445],[-95.24291464433213,38.95854561981858],[-95.24291464416575,38.95854378942311],[-95.24291581576252,38.95854378934442],[-95.24291581667175,38.95852823058757],[-95.24291464392205,38.95852823063884],[-95.24291464438392,38.95849779892637],[-95.24291581597994,38.95849779884771],[-95.24291581585751,38.95845158033235],[-95.24291464426221,38.95845158041102],[-95.24291464347016,38.95842023392341],[-95.24291581621807,38.95842023387212],[-95.24291581597414,38.95840467508775],[-95.24291464322643,38.95840467513897],[-95.24291464767288,38.958402844853175],[-95.24291510016327,38.95840278531728],[-95.24291600392075,38.95840266801882],[-95.24291645507003,38.95840213981306],[-95.24291705744156,38.95840155211739],[-95.24291720834654,38.958400613022555],[-95.24291668169812,38.95839961455734],[-95.24291622903108,38.95839896842852],[-95.24291479883702,38.95839879202612],[-95.24291457232702,38.958397852067776],[-95.24291359436494,38.95839697174618],[-95.24291253926756,38.958396678091376],[-95.2429118617026,38.95839667820166],[-95.24291095914539,38.95839691268809],[-95.2429102804861,38.95839714799253],[-95.24290945308691,38.95839779342306],[-95.24290936823081,38.958398725977425],[-95.24290936914488,38.95839941273391],[-95.24264210664603,38.95839941262725],[-95.24264212118923,38.95839850724013],[-95.24264181967744,38.95839762587975],[-95.2426410669213,38.95839703840283],[-95.24263986176757,38.95839674478194],[-95.24263888293447,38.95839674493579],[-95.24263782915384,38.95839703890975],[-95.24263730184386,38.9583976256854],[-95.2426368495275,38.958398213343315],[-95.24263684967849,38.95839868288606],[-95.24263677467303,38.95839874148453],[-95.2426359459439,38.95839885876268],[-95.24263511840263,38.95839915270948],[-95.24263466606294,38.9583996817871],[-95.2426342148883,38.958400151411446],[-95.2426342140138,38.958401031889224],[-95.24263466673617,38.95840191324074],[-95.24263549456762,38.95840261786017],[-95.2426368316204,38.95840284432217],[-95.2426368310069,38.958409251129154],[-95.24263565941236,38.95840925120499],[-95.24263565875381,38.95843533539761],[-95.24263683150197,38.95843533534918],[-95.24263683126158,38.95851312924347],[-95.24263565851213,38.95851312929193],[-95.2426356590419,38.95853921261132],[-95.24263683060353,38.958539213435834],[-95.24263683117834,38.95854561936981]]]},"properties":{"SDE.FloorAll.FLOORLOCATION":"2"}},{"type":"Feature","geometry":{"type":"Polygon","coordinates":[[[-95.24264453504752,38.95857662273289],[-95.24264205682184,38.9585766223772],[-95.24264205697393,38.958579015138035],[-95.24290227096289,38.95857901525017],[-95.24290227080198,38.95857662248933],[-95.24289993567977,38.95857662283839],[-95.24289993596533,38.95857552064487],[-95.24291246911386,38.95857552126606],[-95.24292038171151,38.95857552106279],[-95.24292038118348,38.958566598004346],[-95.2429203816047,38.95855836080197],[-95.24292038087279,38.95855012357218],[-95.24292038112154,38.95852381046099],[-95.24298954203972,38.95852381117463],[-95.24298954170524,38.958424508598895],[-95.24292036120943,38.95842450921987],[-95.2429203576587,38.958397968007674],[-95.24292035692679,38.958389730777746],[-95.24292035619483,38.95838149354784],[-95.24292035430969,38.95837325629051],[-95.24291246829358,38.95837325622408],[-95.24289993514577,38.95837325650326],[-95.24289993539617,38.958372155210085],[-95.24290227051165,38.95837215486106],[-95.24290227031564,38.9583697630006],[-95.24264205709679,38.95836976288847],[-95.24264205724889,38.95837215564935],[-95.24264453546738,38.958372156005],[-95.24264453524808,38.95837325639773],[-95.24264212510388,38.95837325675976],[-95.24263896586103,38.95837325643042],[-95.24263543368701,38.95837337700879],[-95.24263192330626,38.95837373783172],[-95.24262846711389,38.95837433696588],[-95.24262508960813,38.95837516778405],[-95.24262181867674,38.958376225542125],[-95.24261867769994,38.95837750268504],[-95.24261569250496,38.95837898811114],[-95.24261288315283,38.95838067058152],[-95.2426102731995,38.95838253803928],[-95.24260788050515,38.95838457648947],[-95.24260572534156,38.95838676929088],[-95.24260382329767,38.95838910149349],[-95.24260218783148,38.95839155359035],[-95.24260083351918,38.95839410700229],[-95.24259976913572,38.95839674391355],[-95.24259900244344,38.95839944287919],[-95.24259854001632,38.95840218332747],[-95.24259838608673,38.95840494553197],[-95.24259854037966,38.95840770695545],[-95.24259900251474,38.958410447761935],[-95.24259976868701,38.958413147132696],[-95.24260083397358,38.95841578332124],[-95.2426021887331,38.958418337172404],[-95.24260382447777,38.95842078955869],[-95.24260572695341,38.95842312121526],[-95.24260788187092,38.95842531377775],[-95.24261027364737,38.95842735245593],[-95.24261288449884,38.95842921970357],[-95.24261569300612,38.95843090239408],[-95.24261846114041,38.95843228852196],[-95.24249003157263,38.958432288453785],[-95.2424888446698,38.958432296275156],[-95.24248766383126,38.95843238535115],[-95.2424864971644,38.95843255497334],[-95.24248535284727,38.958432802632586],[-95.24248424129367,38.95843312767534],[-95.24248317071668,38.958433526691955],[-95.24248214814088,38.95843399714585],[-95.24248118293247,38.958434535654916],[-95.24248027991503,38.95843513692646],[-95.24247944841956,38.95843579847874],[-95.2424786944932,38.95843651324576],[-95.24247802177116,38.95843727680779],[-95.24247743853664,38.958438083954555],[-95.24247694625907,38.95843892660991],[-95.24247654972687,38.95843980038162],[-95.24247625386904,38.95844069727587],[-95.24247605774318,38.95844161186288],[-95.24247596516007,38.958442535220996],[-95.24247596532625,38.958443270626084],[-95.24247596507395,38.95847484600507],[-95.24247596482167,38.958506421383966],[-95.24247602987087,38.958507387243756],[-95.24247620262517,38.95850834394913],[-95.24247648098896,38.95850928604294],[-95.24247686412514,38.958510205394084],[-95.24247734766678,38.958511095590254],[-95.24247792962355,38.95851194847301],[-95.242478603252,38.95851275937582],[-95.24247936652655,38.958513521040736],[-95.24248021043239,38.95851422784602],[-95.24248113053234,38.95851487517993],[-95.24248212015291,38.95851545657525],[-95.24248317017395,38.95851596911131],[-95.24248427273372,38.95851640719383],[-95.24248542094806,38.95851676975782],[-95.24248660576696,38.95851705208198],[-95.24248781684659,38.958517253019],[-95.2424890450316,38.9585173705487],[-95.24249003179234,38.95851740393],[-95.24261702904725,38.95851740417852],[-95.24261413122649,38.95851898721264],[-95.24261142221529,38.9585207603896],[-95.24260892092167,38.95852271244313],[-95.24260664646424,38.95852482670462],[-95.24260461677356,38.95852708737844],[-95.2426028475087,38.95852947771364],[-95.24260135209259,38.9585319791037],[-95.24260014160663,38.9585345737876],[-95.24259922496645,38.958537240348065],[-95.242598608746,38.958539958213045],[-95.24259829944893,38.95854270861156],[-95.24259829791833,38.95854546993419],[-95.24259860499733,38.95854822057151],[-95.24259921688088,38.958550939704885],[-95.24260013091742,38.958553606543],[-95.24260133865401,38.95855620105775],[-95.2426028316026,38.95855870412161],[-95.24260459900394,38.958561095651696],[-95.24260662538052,38.958563358156525],[-95.24260889759631,38.958565473299224],[-95.24261139660878,38.958567426207296],[-95.24261410452856,38.95856920203556],[-95.24261699997152,38.95857078675716],[-95.24262006263653,38.95857216817332],[-95.24262326638613,38.95857333574893],[-95.24262658847225,38.95857428083193],[-95.24263000377003,38.95857499651624],[-95.24263348593126,38.958575477669136],[-95.24263392865272,38.958575520641844],[-95.24264212518598,38.95857552090136],[-95.24264453530193,38.95857552143977],[-95.24264453504752,38.95857662273289]]]},"properties":{"SDE.FloorAll.FLOORLOCATION":"ROOF"}}]}
