{"type":"FeatureCollection","features":[{"type":"Feature","geometry":{"type":"Polygon","coordinates":[[[-95.24666471178878,38.95689116293906],[-95.24670740770495,38.95674557625214],[-95.24616893739817,38.95664930477481],[-95.24612624046644,38.956794890364314],[-95.24620242811918,38.956808512303446],[-95.2462041332557,38.956802697537896],[-95.24626600064995,38.95681375869061],[-95.24626429551826,38.95681957345706],[-95.24629923829686,38.95682582063357],[-95.24629550054253,38.95683856802032],[-95.24634333307982,38.95684712023781],[-95.24634707082595,38.95683437284952],[-95.24666471178878,38.95689116293906]]]},"properties":{"SDE.FloorAll.FLOORLOCATION":"-1"}},{"type":"Feature","geometry":{"type":"Polygon","coordinates":[[[-95.24666416739443,38.956891300515935],[-95.2466604297375,38.95690404701402],[-95.24688985317914,38.95694506452278],[-95.24694035254092,38.95677286601186],[-95.2468867920737,38.95676329032261],[-95.24689092362983,38.95674920133301],[-95.2469188306311,38.956754190772806],[-95.24691927351653,38.956715230488975],[-95.2469018021089,38.95671210744562],[-95.24690240107083,38.956710065071114],[-95.24658123022503,38.956652644745375],[-95.24656148938031,38.95671995893196],[-95.24617516404251,38.95665088831977],[-95.24613253355174,38.95679625018284],[-95.24620045206382,38.956808393271714],[-95.24618612698237,38.956857239237834],[-95.24626145505268,38.956870706437414],[-95.24627578004969,38.956821861362414],[-95.24636730939766,38.95683822589916],[-95.2463670419344,38.95683913609363],[-95.24636738005393,38.956839197296205],[-95.24636652032517,38.95684212568877],[-95.2463980642354,38.95684782978385],[-95.24639906517689,38.956844417181664],[-95.24639934598807,38.95684446801086],[-95.24639948968374,38.95684397935423],[-95.24666416739443,38.956891300515935]]]},"properties":{"SDE.FloorAll.FLOORLOCATION":"1"}},{"type":"Feature","geometry":{"type":"Polygon","coordinates":[[[-95.24666416739443,38.956891300515935],[-95.24666042854926,38.95690404788698],[-95.24688985317914,38.95694506452278],[-95.24694035254092,38.95677286601186],[-95.24683953264642,38.95675484115967],[-95.2468313336319,38.956782795351224],[-95.24679266777157,38.95677588224135],[-95.24679647067171,38.9567629119825],[-95.24674376992743,38.956753490023],[-95.24673996586493,38.956766460252716],[-95.24670845958914,38.95676082743967],[-95.24671252590662,38.95674696221282],[-95.2461728164664,38.956650469367325],[-95.24613018481789,38.95679583120216],[-95.24620045202873,38.95680839417211],[-95.24618612698237,38.956857239237834],[-95.24626145501759,38.956870707337785],[-95.24627578001457,38.9568218622628],[-95.24666416739443,38.956891300515935]]]},"properties":{"SDE.FloorAll.FLOORLOCATION":"2"}},{"type":"Feature","geometry":{"type":"Polygon","coordinates":[[[-95.24688130940676,38.956891930863364],[-95.24690417521595,38.956813960839334],[-95.2466625146451,38.95677075567123],[-95.24666358752482,38.95676709603707],[-95.24665130413311,38.956764900050175],[-95.24665379042285,38.956756424485086],[-95.24657237918612,38.956741869492824],[-95.24657270657163,38.95674075434026],[-95.24655413936027,38.956737434889504],[-95.24655989490427,38.95671780769174],[-95.24641906940577,38.956692630168625],[-95.24641050015477,38.95672184717111],[-95.24631823502492,38.956705351635556],[-95.24632065611226,38.95669709893332],[-95.24627923584694,38.956689693952406],[-95.24627681594325,38.9566979457808],[-95.24619254950206,38.956682880203715],[-95.24616520791494,38.95677610789846],[-95.24619720015694,38.95678182810521],[-95.24619877072095,38.95677647517604],[-95.24622419375166,38.956781020061904],[-95.24621941797693,38.95679730173347],[-95.24619828083695,38.956793522845366],[-95.24617976958277,38.95685664123311],[-95.24625632415633,38.95687032772582],[-95.24627483534576,38.95680720932591],[-95.24625541070677,38.95680373698287],[-95.24626168945107,38.956782326081154],[-95.24629625394084,38.95678850569472],[-95.24629337616487,38.95679831838663],[-95.24663644343251,38.956859654401455],[-95.24663964858341,38.95684872564791],[-95.24688130940676,38.956891930863364]]]},"properties":{"SDE.FloorAll.FLOORLOCATION":"3"}},{"type":"Feature","geometry":{"type":"Polygon","coordinates":[[[-95.24665472493815,38.9568967702282],[-95.24665079026765,38.956910188867965],[-95.24689224384393,38.956953356689624],[-95.2469460880821,38.956769752381376],[-95.24688336092372,38.95675853779625],[-95.2468968056247,38.95671269356165],[-95.24657716046524,38.95665554557375],[-95.24656063284931,38.95671190145956],[-95.2461670918212,38.956641541038536],[-95.24612026317925,38.956801215589685],[-95.246189004698,38.9568135062072],[-95.24617483805963,38.95686181069368],[-95.2462644875446,38.95687783956554],[-95.24627865415995,38.95682953416778],[-95.24665472493815,38.9568967702282]]]},"properties":{"SDE.FloorAll.FLOORLOCATION":"ROOF"}}]}
