{"type":"FeatureCollection","features":[{"type":"Feature","geometry":{"type":"Polygon","coordinates":[[[-95.24193281346014,38.957882786851805],[-95.24195637625624,38.95781641862501],[-95.24195750599507,38.95781666269437],[-95.24199014890793,38.95772471823637],[-95.24198901920563,38.95772447326697],[-95.24201258186109,38.957658105928246],[-95.24189002168724,38.95763157926963],[-95.24181025177357,38.957856260081975],[-95.24185868329782,38.957866742600324],[-95.24185829171043,38.957867844498125],[-95.24188342601613,38.9578732846912],[-95.24188381763834,38.95787218189289],[-95.24193281346014,38.957882786851805]]]},"properties":{"SDE.FloorAll.FLOORLOCATION":"-1"}},{"type":"Feature","geometry":{"type":"Polygon","coordinates":[[[-95.24181025177357,38.957856260081975],[-95.24193281346014,38.957882786851805],[-95.24195621939839,38.95781685919871],[-95.24195734910211,38.95781710416849],[-95.24199007103824,38.95772493898718],[-95.24198894133595,38.95772469401774],[-95.24201258186109,38.957658105928246],[-95.24189002168724,38.95763157926963],[-95.24181025177357,38.957856260081975]]]},"properties":{"SDE.FloorAll.FLOORLOCATION":"1"}},{"type":"Feature","geometry":{"type":"Polygon","coordinates":[[[-95.24181025177357,38.957856260081975],[-95.24193281346014,38.957882786851805],[-95.24201195551538,38.957659870051614],[-95.24188939418553,38.95763334336487],[-95.24181025177357,38.957856260081975]]]},"properties":{"SDE.FloorAll.FLOORLOCATION":"2"}},{"type":"Feature","geometry":{"type":"Polygon","coordinates":[[[-95.24193281346014,38.957882786851805],[-95.24201195551538,38.957659870051614],[-95.24188939418553,38.95763334336487],[-95.24181025177357,38.957856260081975],[-95.24185868329782,38.957866742600324],[-95.24185836954555,38.957867624647875],[-95.24188152713931,38.95787263659964],[-95.24188183973818,38.9578717545246],[-95.24193281346014,38.957882786851805]]]},"properties":{"SDE.FloorAll.FLOORLOCATION":"3"}},{"type":"Feature","geometry":{"type":"Polygon","coordinates":[[[-95.24180686077084,38.95785720050462],[-95.24193509855255,38.95788495548755],[-95.24196571450469,38.957798723462375],[-95.24196656151155,38.957798906732556],[-95.24197630432734,38.95777146450832],[-95.24198604717076,38.95774402138283],[-95.2419852001645,38.95774383811281],[-95.2420158159944,38.95765760607335],[-95.24188757744014,38.957629851151715],[-95.24185696146584,38.9577160831575],[-95.24185611446023,38.9577158998865],[-95.24184637160549,38.957743342100734],[-95.24183662870799,38.95777078521452],[-95.24183747571414,38.95777096848565],[-95.24180686077084,38.95785720050462]]]},"properties":{"SDE.FloorAll.FLOORLOCATION":"ROOF"}}]}
