{"type":"FeatureCollection","features":[{"type":"Feature","geometry":{"type":"MultiPolygon","coordinates":[[[[-95.25658059813412,38.951636231813055],[-95.25660210101078,38.95160165332156],[-95.25661612090505,38.95160696883975],[-95.25668314291035,38.951499194947715],[-95.25666912303237,38.95149387943756],[-95.25669062582244,38.95145930092926],[-95.25655260436464,38.95140696782563],[-95.25653113241223,38.95144149386732],[-95.25644780618995,38.9514098988129],[-95.25646930906274,38.9513753203454],[-95.25633115599061,38.95132293699196],[-95.2563096530662,38.951357515433976],[-95.25627544754627,38.95134454482225],[-95.25625997530462,38.9513096554952],[-95.25628483755817,38.95126967622547],[-95.25628330926368,38.95120747457893],[-95.25633245402598,38.951206738754024],[-95.25632951134862,38.951086951520566],[-95.25628036548154,38.95108768821732],[-95.25627993681778,38.95107021597073],[-95.25632908148476,38.9510694801473],[-95.25632613878386,38.95094969381282],[-95.25627692029748,38.950950430589735],[-95.25627575416615,38.9509029842285],[-95.25627557153706,38.95089552769113],[-95.25618544698838,38.95089687797563],[-95.25618625620244,38.950929819715434],[-95.25616288723738,38.95093016966577],[-95.25616263412994,38.950919860890615],[-95.25615886247408,38.95091991762422],[-95.25615915809146,38.95093195595174],[-95.25612514095776,38.95093239454381],[-95.25612563975683,38.950952697391955],[-95.25607429751614,38.95095346673151],[-95.2560772397905,38.95107325307235],[-95.25612638564975,38.95107251646169],[-95.25612681427553,38.95108998870876],[-95.25607766959224,38.95109072444653],[-95.25608061187805,38.95121051078596],[-95.2561297577977,38.95120977507425],[-95.2561301864601,38.95122724642076],[-95.25610910741031,38.9512275622389],[-95.25605178745126,38.95131973455625],[-95.25606642142769,38.951325283674684],[-95.25604801889476,38.951354647072634],[-95.25606039368876,38.95135922797952],[-95.25606020167751,38.95135953615951],[-95.2560708774405,38.95136358478481],[-95.25605222173577,38.95139358296124],[-95.25610920631448,38.95141519025586],[-95.25610555768253,38.95142105648161],[-95.25611227869003,38.9514236046939],[-95.25610385385261,38.95143714985532],[-95.25621966803176,38.951481064118234],[-95.25622078078628,38.95147927629084],[-95.25622400994659,38.95148049997094],[-95.25623515293285,38.95146258060562],[-95.25625528523354,38.95147021457765],[-95.25623381311668,38.9515047405641],[-95.25637183449452,38.95155707494706],[-95.25639330655981,38.95152254893522],[-95.25646404733313,38.951549371626726],[-95.25644257529419,38.95158389765158],[-95.25658059813412,38.951636231813055]]],[[[-95.25655393962496,38.95089853291792],[-95.2565542551547,38.95091136839533],[-95.25664437856167,38.950910017796964],[-95.25664357039231,38.950877132867106],[-95.25670692385744,38.950876183363455],[-95.25670665187229,38.95086510990741],[-95.25675575138682,38.95086437373942],[-95.2567528077271,38.950744623456956],[-95.25670370944881,38.95074535965099],[-95.25670328630811,38.95072815880677],[-95.25675237894873,38.95072715121164],[-95.25674943439192,38.95060736485727],[-95.25670033620891,38.95060810104992],[-95.2566999062912,38.950590628776936],[-95.25674900558026,38.95058989351219],[-95.25674606103489,38.95047010715639],[-95.25669696182902,38.950470842419925],[-95.25669569178844,38.950419137131725],[-95.2567284792782,38.95039253290874],[-95.25682281936648,38.95039111974425],[-95.25682376197214,38.95042949449977],[-95.2569771650351,38.950427195923275],[-95.25697622112298,38.950388763461824],[-95.25699180300155,38.950388530116534],[-95.25698894185605,38.95027214606257],[-95.25699573559523,38.9502720445482],[-95.25699566660971,38.95026924191459],[-95.25697329098355,38.950269577674234],[-95.25697233114016,38.9502305446206],[-95.25681892850372,38.950232843190705],[-95.2568198722233,38.95027121887441],[-95.25675531024467,38.95027218579311],[-95.2567547718198,38.950250282341976],[-95.25662246288046,38.95025226507133],[-95.25662283191211,38.9502673206266],[-95.25661536145454,38.950267432241034],[-95.25661552339882,38.95027399517572],[-95.25655218717431,38.950274900864784],[-95.25655301499948,38.95030858654944],[-95.25652745482896,38.950308869394696],[-95.25652825801161,38.95034155413875],[-95.25651212297723,38.950341795960796],[-95.25651466188084,38.95044511099055],[-95.2565427134594,38.95044469063713],[-95.25654341134725,38.950473100189505],[-95.2564942677258,38.95047387937742],[-95.25649721180982,38.950593666639975],[-95.25654635617828,38.95059292982398],[-95.25654678605801,38.95061040209754],[-95.25649764055932,38.95061113798597],[-95.25650058468969,38.95073092434671],[-95.25654972911857,38.950730188429695],[-95.2565501590349,38.95074765980263],[-95.25650101340594,38.950748396592935],[-95.25650395754771,38.95086818295218],[-95.25655310207189,38.95086744703381],[-95.25655328375208,38.95087480982035],[-95.25655335650158,38.95087480883823],[-95.25655393962496,38.95089853291792]]]]},"properties":{"SDE.FloorAll.FLOORLOCATION":"1"}},{"type":"Feature","geometry":{"type":"MultiPolygon","coordinates":[[[[-95.25658059813412,38.951636231813055],[-95.25660210101078,38.95160165332156],[-95.25661612090505,38.95160696883975],[-95.25668314291035,38.951499194947715],[-95.25666912303237,38.95149387943756],[-95.25669062582244,38.95145930092926],[-95.25655260436464,38.95140696782563],[-95.25653113241223,38.95144149386732],[-95.25644780618995,38.9514098988129],[-95.25646930906274,38.9513753203454],[-95.25633115599061,38.95132293699196],[-95.2563096530662,38.951357515433976],[-95.25627544754627,38.95134454482225],[-95.25625997530462,38.9513096554952],[-95.25628483755817,38.95126967622547],[-95.25628330926368,38.95120747457893],[-95.25633245402598,38.951206738754024],[-95.25632951134862,38.951086951520566],[-95.25628036548154,38.95108768821732],[-95.25627993681778,38.95107021597073],[-95.25632908148476,38.9510694801473],[-95.25632613878386,38.95094969381282],[-95.25627692029748,38.950950430589735],[-95.25627575416615,38.9509029842285],[-95.25627557153706,38.95089552769113],[-95.25618544698838,38.95089687797563],[-95.25618625620244,38.950929819715434],[-95.25616288723738,38.95093016966577],[-95.25616263412994,38.950919860890615],[-95.25615886247408,38.95091991762422],[-95.25615915809146,38.95093195595174],[-95.25612514095776,38.95093239454381],[-95.25612563975683,38.950952697391955],[-95.25607429751614,38.95095346673151],[-95.2560772397905,38.95107325307235],[-95.25612638564975,38.95107251646169],[-95.25612681427553,38.95108998870876],[-95.25607766959224,38.95109072444653],[-95.25608061187805,38.95121051078596],[-95.2561297577977,38.95120977507425],[-95.2561301864601,38.95122724642076],[-95.25610910741031,38.9512275622389],[-95.25605178745126,38.95131973455625],[-95.25606642142769,38.951325283674684],[-95.25604801889476,38.951354647072634],[-95.25606039368876,38.95135922797952],[-95.25606020167751,38.95135953615951],[-95.2560708774405,38.95136358478481],[-95.25605222173577,38.95139358296124],[-95.25610920631448,38.95141519025586],[-95.25610555768253,38.95142105648161],[-95.25611227869003,38.9514236046939],[-95.25610385385261,38.95143714985532],[-95.25621966803176,38.951481064118234],[-95.25622078078628,38.95147927629084],[-95.25622400994659,38.95148049997094],[-95.25623515293285,38.95146258060562],[-95.25625528523354,38.95147021457765],[-95.25623381311668,38.9515047405641],[-95.25637183449452,38.95155707494706],[-95.25639330655981,38.95152254893522],[-95.25646404733313,38.951549371626726],[-95.25644257529419,38.95158389765158],[-95.25658059813412,38.951636231813055]]],[[[-95.25655393962496,38.95089853291792],[-95.2565542551547,38.95091136839533],[-95.25664437856167,38.950910017796964],[-95.25664357039231,38.950877132867106],[-95.25670692385744,38.950876183363455],[-95.25670665187229,38.95086510990741],[-95.25675575138682,38.95086437373942],[-95.2567528077271,38.950744623456956],[-95.25670370944881,38.95074535965099],[-95.25670328630811,38.95072815880677],[-95.25675237894873,38.95072715121164],[-95.25674943439192,38.95060736485727],[-95.25670033620891,38.95060810104992],[-95.2566999062912,38.950590628776936],[-95.25674900558026,38.95058989351219],[-95.25674606103489,38.95047010715639],[-95.25669696182902,38.950470842419925],[-95.25669569178844,38.950419137131725],[-95.2567284792782,38.95039253290874],[-95.25682281936648,38.95039111974425],[-95.25682376197214,38.95042949449977],[-95.2569771650351,38.950427195923275],[-95.25697622112298,38.950388763461824],[-95.25699180300155,38.950388530116534],[-95.25698894185605,38.95027214606257],[-95.25699573559523,38.9502720445482],[-95.25699566660971,38.95026924191459],[-95.25697329098355,38.950269577674234],[-95.25697233114016,38.9502305446206],[-95.25681892850372,38.950232843190705],[-95.2568198722233,38.95027121887441],[-95.25675531024467,38.95027218579311],[-95.2567547718198,38.950250282341976],[-95.25662246288046,38.95025226507133],[-95.25662283191211,38.9502673206266],[-95.25661536145454,38.950267432241034],[-95.25661552339882,38.95027399517572],[-95.25655218717431,38.950274900864784],[-95.25655301499948,38.95030858654944],[-95.25652745482896,38.950308869394696],[-95.25652825801161,38.95034155413875],[-95.25651212297723,38.950341795960796],[-95.25651466188084,38.95044511099055],[-95.2565427134594,38.95044469063713],[-95.25654341134725,38.950473100189505],[-95.2564942677258,38.95047387937742],[-95.25649721180982,38.950593666639975],[-95.25654635617828,38.95059292982398],[-95.25654678605801,38.95061040209754],[-95.25649764055932,38.95061113798597],[-95.25650058468969,38.95073092434671],[-95.25654972911857,38.950730188429695],[-95.2565501590349,38.95074765980263],[-95.25650101340594,38.950748396592935],[-95.25650395754771,38.95086818295218],[-95.25655310207189,38.95086744703381],[-95.25655328375208,38.95087480982035],[-95.25655335650158,38.95087480883823],[-95.25655393962496,38.95089853291792]]]]},"properties":{"SDE.FloorAll.FLOORLOCATION":"1"}},{"type":"Feature","geometry":{"type":"MultiPolygon","coordinates":[[[[-95.25689513217468,38.951753156689925],[-95.25691660407892,38.95171862968133],[-95.25698012939006,38.95174271644658],[-95.25698081747494,38.95174161070397],[-95.25698434580403,38.95174294778486],[-95.25705071011323,38.95163622878371],[-95.25698370662379,38.95161082328403],[-95.25700525838964,38.951576199015655],[-95.256867104528,38.95152381630154],[-95.25684491256621,38.95155950055695],[-95.25682349600551,38.951551380283355],[-95.25684499989069,38.95151680177386],[-95.25670994233624,38.9514655925222],[-95.2566881756685,38.95150007106271],[-95.25666534306743,38.95149141346823],[-95.25668684585864,38.9514568349606],[-95.25655152580165,38.95140552558009],[-95.25653002295995,38.951440104062776],[-95.25644393811243,38.95140744336804],[-95.25646544993158,38.9513728723227],[-95.25633011995791,38.95132155883635],[-95.25630860847247,38.95135614969273],[-95.25627239880457,38.9513424196839],[-95.25625649996033,38.95130656766733],[-95.2562814816489,38.95126639565948],[-95.25627993201329,38.95120331661749],[-95.25632915067568,38.95120257983934],[-95.25632626470184,38.951085138029185],[-95.25627704612113,38.951085874806104],[-95.25627657798891,38.95106602960583],[-95.25632577695319,38.951065292365215],[-95.25632289217839,38.950947879420895],[-95.25627517610151,38.95094859407449],[-95.2562739166306,38.95089736757625],[-95.25627379782398,38.950892518887024],[-95.25618367443224,38.950893869197415],[-95.25618451200928,38.950927983198824],[-95.25612273253009,38.950928908387546],[-95.25612327313989,38.95095086957495],[-95.25607405461555,38.95095160716613],[-95.25607693901203,38.95106904895653],[-95.25612615761803,38.951068311364125],[-95.256126645276,38.95108812818901],[-95.25607742665615,38.95108886578163],[-95.25608031221691,38.951206307597936],[-95.25612952976533,38.951205569976814],[-95.25613001742518,38.9512253868014],[-95.25610828359208,38.95122571235669],[-95.25605204955306,38.95131619354476],[-95.25608805587092,38.951329838602014],[-95.25608628328922,38.9513326877734],[-95.25608641523111,38.95133273775975],[-95.2560504480197,38.95139057415381],[-95.25610738371127,38.9514121622679],[-95.25610370429456,38.95141807823348],[-95.2561118254738,38.951421157059734],[-95.25610408750913,38.95143359825713],[-95.25622042945157,38.951477712464666],[-95.2562327171998,38.95145795375875],[-95.2562555497371,38.95146661143842],[-95.25623404673203,38.951501189866036],[-95.25636936677664,38.95155249871622],[-95.25639087088425,38.951517920290925],[-95.25646296172167,38.95154525618568],[-95.25644080270989,38.951580888877444],[-95.2565788243895,38.95163322301379],[-95.25660029641178,38.95159869606345],[-95.25662042767244,38.951606329044296],[-95.25659895565767,38.95164085599838],[-95.25673697872446,38.9516931899735],[-95.25675844953466,38.95165866296673],[-95.25677858079459,38.95166629682054],[-95.2567571100268,38.95170082293057],[-95.25689513217468,38.951753156689925]]],[[[-95.25655210954433,38.95089319943111],[-95.25655248142937,38.95090835959551],[-95.25664260483254,38.95090700899848],[-95.2566417670697,38.95087289409993],[-95.25670354649316,38.95087196863472],[-95.25670327667494,38.950860988055915],[-95.25675249512956,38.950860250197664],[-95.25674960846656,38.950742808394814],[-95.25669991432252,38.950743553018334],[-95.25669942647134,38.950723737095714],[-95.25674912060144,38.950722992472414],[-95.25674623510275,38.95060555069546],[-95.25669701686023,38.950606287650686],[-95.25669652904578,38.950586470827425],[-95.25674574727446,38.95058573387245],[-95.25674286178696,38.95046829209405],[-95.25669364360505,38.95046902994822],[-95.25669233149787,38.95041564288327],[-95.25672602345809,38.95038830483829],[-95.25682251728854,38.95038685882337],[-95.25682346115202,38.95042529038569],[-95.25697386168329,38.95042303702668],[-95.25697291777301,38.95038460456517],[-95.2569982948034,38.950384223560754],[-95.25699923988051,38.950422656049376],[-95.25714964040058,38.95042040246235],[-95.25714869524174,38.95038196997499],[-95.25717251672774,38.95038161251199],[-95.2571734902796,38.95042121726052],[-95.25732694876595,38.95041891682969],[-95.2573260589286,38.95038048385235],[-95.2574017349258,38.95037934965177],[-95.25739885947299,38.95026236507078],[-95.25739519641739,38.95026241990673],[-95.25739512853421,38.950259618201024],[-95.25732305914983,38.95026069802789],[-95.25732211389884,38.95022226554143],[-95.25716871125675,38.95022456547464],[-95.2571696305397,38.95026417074231],[-95.25714731036864,38.950264505143785],[-95.25714633683359,38.95022490039449],[-95.256992933027,38.95022720006791],[-95.25699390647617,38.950266804818476],[-95.25697153200382,38.950267140604986],[-95.25697055856719,38.950227535854275],[-95.25681715593724,38.950229834422025],[-95.25681812928796,38.95026943917407],[-95.25675206603528,38.950270429147636],[-95.2567515263885,38.95024846798924],[-95.25662221881484,38.95025040547975],[-95.25662256062857,38.95026428880078],[-95.25661358889582,38.950264423469214],[-95.25661369364026,38.950270943594106],[-95.25655041346505,38.95027189206474],[-95.25655199392747,38.950336174965116],[-95.2565518472765,38.95033617690211],[-95.25655192431508,38.95033933661134],[-95.25651188006726,38.9503399363963],[-95.25651436104404,38.95044090777611],[-95.25654248540494,38.95044048554023],[-95.25654324296704,38.950471282943845],[-95.2564940247809,38.95047202071332],[-95.25649691100838,38.95058946252511],[-95.2565461292762,38.950588724754446],[-95.25654661589545,38.95060854155101],[-95.25649739761386,38.95060927932189],[-95.25650365674474,38.95086397883745],[-95.2565513739153,38.950863264117196],[-95.25655210954433,38.95089319943111]]]]},"properties":{"SDE.FloorAll.FLOORLOCATION":"2"}},{"type":"Feature","geometry":{"type":"MultiPolygon","coordinates":[[[[-95.25689513217468,38.951753156689925],[-95.25691660407892,38.95171862968133],[-95.25698012939006,38.95174271644658],[-95.25698081747494,38.95174161070397],[-95.25698434580403,38.95174294778486],[-95.25705071011323,38.95163622878371],[-95.25698370662379,38.95161082328403],[-95.25700525838964,38.951576199015655],[-95.256867104528,38.95152381630154],[-95.25684491256621,38.95155950055695],[-95.25682349600551,38.951551380283355],[-95.25684499989069,38.95151680177386],[-95.25670994233624,38.9514655925222],[-95.2566881756685,38.95150007106271],[-95.25666534306743,38.95149141346823],[-95.25668684585864,38.9514568349606],[-95.25655152580165,38.95140552558009],[-95.25653002295995,38.951440104062776],[-95.25644393811243,38.95140744336804],[-95.25646544993158,38.9513728723227],[-95.25633011995791,38.95132155883635],[-95.25630860847247,38.95135614969273],[-95.25627239880457,38.9513424196839],[-95.25625649996033,38.95130656766733],[-95.2562814816489,38.95126639565948],[-95.25627993201329,38.95120331661749],[-95.25632915067568,38.95120257983934],[-95.25632626470184,38.951085138029185],[-95.25627704612113,38.951085874806104],[-95.25627657798891,38.95106602960583],[-95.25632577695319,38.951065292365215],[-95.25632289217839,38.950947879420895],[-95.25627517610151,38.95094859407449],[-95.2562739166306,38.95089736757625],[-95.25627379782398,38.950892518887024],[-95.25618367443224,38.950893869197415],[-95.25618451200928,38.950927983198824],[-95.25612273253009,38.950928908387546],[-95.25612327313989,38.95095086957495],[-95.25607405461555,38.95095160716613],[-95.25607693901203,38.95106904895653],[-95.25612615761803,38.951068311364125],[-95.256126645276,38.95108812818901],[-95.25607742665615,38.95108886578163],[-95.25608031221691,38.951206307597936],[-95.25612952976533,38.951205569976814],[-95.25613001742518,38.9512253868014],[-95.25610828359208,38.95122571235669],[-95.25605204955306,38.95131619354476],[-95.25608805587092,38.951329838602014],[-95.25608628328922,38.9513326877734],[-95.25608641523111,38.95133273775975],[-95.2560504480197,38.95139057415381],[-95.25610738371127,38.9514121622679],[-95.25610370429456,38.95141807823348],[-95.2561118254738,38.951421157059734],[-95.25610408750913,38.95143359825713],[-95.25622042945157,38.951477712464666],[-95.2562327171998,38.95145795375875],[-95.2562555497371,38.95146661143842],[-95.25623404673203,38.951501189866036],[-95.25636936677664,38.95155249871622],[-95.25639087088425,38.951517920290925],[-95.25646296172167,38.95154525618568],[-95.25644080270989,38.951580888877444],[-95.2565788243895,38.95163322301379],[-95.25660029641178,38.95159869606345],[-95.25662042767244,38.951606329044296],[-95.25659895565767,38.95164085599838],[-95.25673697872446,38.9516931899735],[-95.25675844953466,38.95165866296673],[-95.25677858079459,38.95166629682054],[-95.2567571100268,38.95170082293057],[-95.25689513217468,38.951753156689925]]],[[[-95.25655210954433,38.95089319943111],[-95.25655248142937,38.95090835959551],[-95.25664260483254,38.95090700899848],[-95.2566417670697,38.95087289409993],[-95.25670354649316,38.95087196863472],[-95.25670327667494,38.950860988055915],[-95.25675249512956,38.950860250197664],[-95.25674960846656,38.950742808394814],[-95.25669991432252,38.950743553018334],[-95.25669942647134,38.950723737095714],[-95.25674912060144,38.950722992472414],[-95.25674623510275,38.95060555069546],[-95.25669701686023,38.950606287650686],[-95.25669652904578,38.950586470827425],[-95.25674574727446,38.95058573387245],[-95.25674286178696,38.95046829209405],[-95.25669364360505,38.95046902994822],[-95.25669233149787,38.95041564288327],[-95.25672602345809,38.95038830483829],[-95.25682251728854,38.95038685882337],[-95.25682346115202,38.95042529038569],[-95.25697386168329,38.95042303702668],[-95.25697291777301,38.95038460456517],[-95.2569982948034,38.950384223560754],[-95.25699923988051,38.950422656049376],[-95.25714964040058,38.95042040246235],[-95.25714869524174,38.95038196997499],[-95.25717251672774,38.95038161251199],[-95.2571734902796,38.95042121726052],[-95.25732694876595,38.95041891682969],[-95.2573260589286,38.95038048385235],[-95.2574017349258,38.95037934965177],[-95.25739885947299,38.95026236507078],[-95.25739519641739,38.95026241990673],[-95.25739512853421,38.950259618201024],[-95.25732305914983,38.95026069802789],[-95.25732211389884,38.95022226554143],[-95.25716871125675,38.95022456547464],[-95.2571696305397,38.95026417074231],[-95.25714731036864,38.950264505143785],[-95.25714633683359,38.95022490039449],[-95.256992933027,38.95022720006791],[-95.25699390647617,38.950266804818476],[-95.25697153200382,38.950267140604986],[-95.25697055856719,38.950227535854275],[-95.25681715593724,38.950229834422025],[-95.25681812928796,38.95026943917407],[-95.25675206603528,38.950270429147636],[-95.2567515263885,38.95024846798924],[-95.25662221881484,38.95025040547975],[-95.25662256062857,38.95026428880078],[-95.25661358889582,38.950264423469214],[-95.25661369364026,38.950270943594106],[-95.25655041346505,38.95027189206474],[-95.25655199392747,38.950336174965116],[-95.2565518472765,38.95033617690211],[-95.25655192431508,38.95033933661134],[-95.25651188006726,38.9503399363963],[-95.25651436104404,38.95044090777611],[-95.25654248540494,38.95044048554023],[-95.25654324296704,38.950471282943845],[-95.2564940247809,38.95047202071332],[-95.25649691100838,38.95058946252511],[-95.2565461292762,38.950588724754446],[-95.25654661589545,38.95060854155101],[-95.25649739761386,38.95060927932189],[-95.25650365674474,38.95086397883745],[-95.2565513739153,38.950863264117196],[-95.25655210954433,38.95089319943111]]]]},"properties":{"SDE.FloorAll.FLOORLOCATION":"2"}},{"type":"Feature","geometry":{"type":"MultiPolygon","coordinates":[[[[-95.25716116312286,38.95181113506908],[-95.25717981846734,38.95178113671527],[-95.25719049439299,38.95178518433698],[-95.25719068640042,38.95178487615513],[-95.25720070260975,38.95178867385027],[-95.25720064603836,38.95178876353542],[-95.25720293569137,38.95178963150821],[-95.25720483997162,38.95178657004412],[-95.25720472396195,38.95178652584331],[-95.25722110811,38.95176018048146],[-95.25723575366067,38.9517657333265],[-95.25729355865688,38.95167277885376],[-95.25726832026662,38.951663209206444],[-95.25728423914369,38.951637609856775],[-95.25732845667996,38.95165437504455],[-95.25739547764444,38.951546600741246],[-95.2573511941881,38.951529810586415],[-95.25736094585776,38.95151412928725],[-95.25740522930663,38.951530919438376],[-95.25747227348305,38.951423105990465],[-95.25742805605725,38.951406340857154],[-95.25743783225697,38.95139062137988],[-95.25748204852212,38.95140738648214],[-95.2575490690184,38.95129961208794],[-95.25750485168662,38.951282846083416],[-95.2575146278522,38.951267126599504],[-95.25755884405834,38.951283891672624],[-95.25762586432053,38.95117611723296],[-95.25758158104149,38.95115932716558],[-95.2576061556947,38.951119808562545],[-95.25755142866406,38.95109905840038],[-95.25755045997838,38.95110061442843],[-95.25752937333174,38.95109261924669],[-95.25753034089962,38.951091062291106],[-95.25752506893303,38.95108906393849],[-95.25752250974,38.951093180567824],[-95.25752450250401,38.9510939360686],[-95.25751477552745,38.95110957831016],[-95.25751278161005,38.95110882278195],[-95.25750667108808,38.951118651166816],[-95.25744966926943,38.95109703784641],[-95.25744346156692,38.95110702074207],[-95.25739917837444,38.95109023060494],[-95.2573321590013,38.95119800494165],[-95.25737644109219,38.95121479507693],[-95.25736673003468,38.95123041244939],[-95.25732244681811,38.95121362138279],[-95.2572553631974,38.951321498701525],[-95.25729964531251,38.95133828976636],[-95.25728993425601,38.95135390623188],[-95.2572456509454,38.95133711603649],[-95.25717856709036,38.951444993309735],[-95.25722284929954,38.951461783503326],[-95.25721313817411,38.951477400862636],[-95.25716885480442,38.95146061063812],[-95.25710176956196,38.95156848783856],[-95.25714605298329,38.95158527808856],[-95.25711705992525,38.95163190185246],[-95.25707267263033,38.95164390320843],[-95.25698255208522,38.951609732524624],[-95.25700336663934,38.95157626060172],[-95.25686804612424,38.95152495159102],[-95.25684654340093,38.95155953013205],[-95.25682370960811,38.95155087254155],[-95.25684521233994,38.95151629400472],[-95.25670989320741,38.951464984836534],[-95.25668838927193,38.95149956332112],[-95.2566655555179,38.95149090569945],[-95.25668705946192,38.95145632721908],[-95.25655173940581,38.95140501783881],[-95.25653023656432,38.95143959632153],[-95.25644415171736,38.95140693562691],[-95.25646566353623,38.95137236458157],[-95.25633033356337,38.951321051095405],[-95.25630890209698,38.95135551316819],[-95.25627261241048,38.95134191194308],[-95.25625671356632,38.951306059926544],[-95.25628169525454,38.95126588791867],[-95.25628014561875,38.95120280887667],[-95.25632936428083,38.951202072098404],[-95.25632647830659,38.951084630288264],[-95.25627725972629,38.9510853670653],[-95.25627677314431,38.951065551168774],[-95.25632599174578,38.95106481349155],[-95.25632310578276,38.95094737168002],[-95.25627538855314,38.95094808630636],[-95.25627401142859,38.95089201114619],[-95.25621318471431,38.95089292198054],[-95.25621321307868,38.95089409424211],[-95.25618541769035,38.95089451066987],[-95.2561859288023,38.9509152995682],[-95.25618442751289,38.95091532261669],[-95.25618472561462,38.950927475458144],[-95.25612294613585,38.950928400647015],[-95.25612348555768,38.95095036270751],[-95.25607426822177,38.95095109942574],[-95.25607715261854,38.951068541216124],[-95.25612637122423,38.951067803623616],[-95.2561268588822,38.95108762044845],[-95.25607764026277,38.95108835804116],[-95.25608052467074,38.95120579983017],[-95.25612974337186,38.951205062236234],[-95.25613023103178,38.951224879060874],[-95.25610849719887,38.95122520461615],[-95.2560522347175,38.95131567521776],[-95.25608826458615,38.951329337955585],[-95.25605052968542,38.95139001642699],[-95.2561075973186,38.95141165452742],[-95.25610390539265,38.95141756569084],[-95.25611203908112,38.951420649319196],[-95.25610430108165,38.95143309141704],[-95.25622064305827,38.95147720472395],[-95.25623293080635,38.951457446018054],[-95.25625576334357,38.95146610369764],[-95.25623426033876,38.951500682125285],[-95.25636958034757,38.95155199187562],[-95.25639108448983,38.9515174125499],[-95.25646413075704,38.95154511081534],[-95.25644243581998,38.951579997462005],[-95.2565785466351,38.9516316068567],[-95.25660024152091,38.95159672018469],[-95.25662228479773,38.95160507793186],[-95.25660058876717,38.95163996458065],[-95.25673669981319,38.95169157378948],[-95.25675839579246,38.95165668711536],[-95.25678043795352,38.95166504480516],[-95.25675874313572,38.95169993151068],[-95.25689485441258,38.951751540533614],[-95.25691654917914,38.951716653802784],[-95.25697928398199,38.951740440683224],[-95.25696634028024,38.95176125459705],[-95.25708538471599,38.95180639165355],[-95.25709377869515,38.95179289436061],[-95.25710053048793,38.95179539457618],[-95.2571041779036,38.951789528292025],[-95.25716116312286,38.95181113506908]]],[[[-95.25753750602412,38.95103040014145],[-95.25754336562076,38.95103031164364],[-95.25754331077108,38.95102809604155],[-95.25756674789895,38.951027744721216],[-95.25756680274931,38.951029960323275],[-95.25762763071711,38.95102904880623],[-95.25762654975026,38.95098512557257],[-95.25767576824673,38.95098438822288],[-95.25767282211501,38.95086460189449],[-95.25762367760446,38.950865338287386],[-95.25762324857516,38.9508478669459],[-95.25767239310852,38.95084712965275],[-95.25766944698825,38.9507273433229],[-95.25762022978877,38.95072808159763],[-95.25761979964304,38.95071060932825],[-95.25766901798347,38.95070987108099],[-95.25766607187458,38.95059008474978],[-95.2576169275198,38.95059082204025],[-95.25761649737572,38.95057334977063],[-95.25766564283656,38.950572613408],[-95.25766269673909,38.95045282707538],[-95.25761355251461,38.95045356346403],[-95.25761285241445,38.95042511061716],[-95.25764090397854,38.950424689998094],[-95.25763836343013,38.950321374992896],[-95.25762208405935,38.950321618962285],[-95.25762140853794,38.9502889327514],[-95.25759586948614,38.950289415501786],[-95.2575950411644,38.95025572982458],[-95.25753176101595,38.95025667883067],[-95.25753161443083,38.95025010454668],[-95.25752407468686,38.95025021728422],[-95.25752370563872,38.95023521671054],[-95.25739139559609,38.95023720028993],[-95.25739196497827,38.95026033373399],[-95.25732179985222,38.95026138560966],[-95.25732085460193,38.95022295312323],[-95.25717045562548,38.950225207859994],[-95.25717139964092,38.95026364032035],[-95.25714602153664,38.95026402043499],[-95.2571450775349,38.9502255879744],[-95.25699467739415,38.95022784245591],[-95.25699562246722,38.950266274945],[-95.25697024436101,38.95026665502113],[-95.25696929930173,38.95022822253185],[-95.25681889914976,38.950230476785364],[-95.25681984412734,38.95026890927594],[-95.25675227963457,38.9502699214059],[-95.25675173998768,38.95024796024751],[-95.25662243241496,38.950249897738246],[-95.25662277422877,38.9502637810593],[-95.2566138024961,38.95026391572774],[-95.25661390724049,38.950270435852666],[-95.25655062706575,38.95027138432338],[-95.25655213791603,38.95033882886999],[-95.25651209366845,38.950339428655006],[-95.25651457464554,38.95044040003479],[-95.2565426989713,38.95043997869933],[-95.25654345653344,38.95047077610292],[-95.25649423838266,38.95047151297206],[-95.25649712461045,38.95058895478385],[-95.25654634287793,38.950588217013085],[-95.25653694331027,38.95060047472038],[-95.25654682949722,38.9506080338097],[-95.25649761121595,38.95060877158061],[-95.256500497455,38.95072621339107],[-95.25654971581797,38.950725475618874],[-95.25655020243916,38.950745292415185],[-95.25650098406237,38.9507460301876],[-95.25650387034756,38.95086347109624],[-95.25655158751782,38.95086275637585],[-95.25655269503197,38.95090785185416],[-95.25661352178966,38.95090693994138],[-95.25661349341866,38.95090576767987],[-95.2566412888089,38.95090535114948],[-95.25664077756309,38.950884562253194],[-95.25664227881681,38.9508845400992],[-95.25664197941369,38.95087232955158],[-95.25670376009455,38.95087146089309],[-95.25670348908831,38.950860451447056],[-95.25675270757752,38.95085974242867],[-95.25674982206726,38.95074230065308],[-95.2567006036947,38.950743038510225],[-95.2567001158084,38.95072319374768],[-95.25674933420214,38.95072248473069],[-95.25674644870304,38.950605042953725],[-95.25669723046094,38.95060577990904],[-95.25669674261144,38.95058596398622],[-95.25674596087477,38.950585226130706],[-95.2567430742338,38.95046778432508],[-95.25669385720532,38.95046852220664],[-95.25669254509799,38.95041513514167],[-95.25672623705788,38.95038779709659],[-95.25682273088768,38.950386351081534],[-95.25682367471629,38.95042478354423],[-95.25697407528139,38.95042252928453],[-95.25697313021796,38.95038409679575],[-95.25699850836632,38.95038371671899],[-95.2569994534785,38.95042214830717],[-95.25714985399748,38.95041989471991],[-95.25714890883852,38.9503814622325],[-95.2571742870199,38.950381081216875],[-95.25717523219264,38.95041951370406],[-95.25732563270039,38.95041725988884],[-95.2573247170869,38.95038005647103],[-95.25742466032084,38.95037855817834],[-95.25745873097767,38.95040416041363],[-95.25746003111391,38.950457037982105],[-95.25741238812877,38.95045775212091],[-95.25741527588096,38.950575193909984],[-95.25746291894521,38.95057447977],[-95.25746339841035,38.95059398186062],[-95.25741535231217,38.950594701787566],[-95.25741825489632,38.950712772979486],[-95.25746630110963,38.95071205215098],[-95.25746650851495,38.95073127833983],[-95.25741872693932,38.95073196036795],[-95.2574216295348,38.95085003155849],[-95.25746967584134,38.9508493107286],[-95.25747014789918,38.95086849811669],[-95.25742210157962,38.950869218946714],[-95.25742500422132,38.950987289235485],[-95.25747422272144,38.950986551971326],[-95.25747449265981,38.950997532548186],[-95.25753667523931,38.950996599951836],[-95.25753696612756,38.951008438988055],[-95.25753918107776,38.9510084057672],[-95.25753960879335,38.951025791462044],[-95.25753739384263,38.951025824682894],[-95.25753750602412,38.95103040014145]]]]},"properties":{"SDE.FloorAll.FLOORLOCATION":"3"}},{"type":"Feature","geometry":{"type":"MultiPolygon","coordinates":[[[[-95.25716116312286,38.95181113506908],[-95.25717981846734,38.95178113671527],[-95.25719049439299,38.95178518433698],[-95.25719068640042,38.95178487615513],[-95.25720070260975,38.95178867385027],[-95.25720064603836,38.95178876353542],[-95.25720293569137,38.95178963150821],[-95.25720483997162,38.95178657004412],[-95.25720472396195,38.95178652584331],[-95.25722110811,38.95176018048146],[-95.25723575366067,38.9517657333265],[-95.25729355865688,38.95167277885376],[-95.25726832026662,38.951663209206444],[-95.25728423914369,38.951637609856775],[-95.25732845667996,38.95165437504455],[-95.25739547764444,38.951546600741246],[-95.2573511941881,38.951529810586415],[-95.25736094585776,38.95151412928725],[-95.25740522930663,38.951530919438376],[-95.25747227348305,38.951423105990465],[-95.25742805605725,38.951406340857154],[-95.25743783225697,38.95139062137988],[-95.25748204852212,38.95140738648214],[-95.2575490690184,38.95129961208794],[-95.25750485168662,38.951282846083416],[-95.2575146278522,38.951267126599504],[-95.25755884405834,38.951283891672624],[-95.25762586432053,38.95117611723296],[-95.25758158104149,38.95115932716558],[-95.2576061556947,38.951119808562545],[-95.25755142866406,38.95109905840038],[-95.25755045997838,38.95110061442843],[-95.25752937333174,38.95109261924669],[-95.25753034089962,38.951091062291106],[-95.25752506893303,38.95108906393849],[-95.25752250974,38.951093180567824],[-95.25752450250401,38.9510939360686],[-95.25751477552745,38.95110957831016],[-95.25751278161005,38.95110882278195],[-95.25750667108808,38.951118651166816],[-95.25744966926943,38.95109703784641],[-95.25744346156692,38.95110702074207],[-95.25739917837444,38.95109023060494],[-95.2573321590013,38.95119800494165],[-95.25737644109219,38.95121479507693],[-95.25736673003468,38.95123041244939],[-95.25732244681811,38.95121362138279],[-95.2572553631974,38.951321498701525],[-95.25729964531251,38.95133828976636],[-95.25728993425601,38.95135390623188],[-95.2572456509454,38.95133711603649],[-95.25717856709036,38.951444993309735],[-95.25722284929954,38.951461783503326],[-95.25721313817411,38.951477400862636],[-95.25716885480442,38.95146061063812],[-95.25710176956196,38.95156848783856],[-95.25714605298329,38.95158527808856],[-95.25711705992525,38.95163190185246],[-95.25707267263033,38.95164390320843],[-95.25698255208522,38.951609732524624],[-95.25700336663934,38.95157626060172],[-95.25686804612424,38.95152495159102],[-95.25684654340093,38.95155953013205],[-95.25682370960811,38.95155087254155],[-95.25684521233994,38.95151629400472],[-95.25670989320741,38.951464984836534],[-95.25668838927193,38.95149956332112],[-95.2566655555179,38.95149090569945],[-95.25668705946192,38.95145632721908],[-95.25655173940581,38.95140501783881],[-95.25653023656432,38.95143959632153],[-95.25644415171736,38.95140693562691],[-95.25646566353623,38.95137236458157],[-95.25633033356337,38.951321051095405],[-95.25630890209698,38.95135551316819],[-95.25627261241048,38.95134191194308],[-95.25625671356632,38.951306059926544],[-95.25628169525454,38.95126588791867],[-95.25628014561875,38.95120280887667],[-95.25632936428083,38.951202072098404],[-95.25632647830659,38.951084630288264],[-95.25627725972629,38.9510853670653],[-95.25627677314431,38.951065551168774],[-95.25632599174578,38.95106481349155],[-95.25632310578276,38.95094737168002],[-95.25627538855314,38.95094808630636],[-95.25627401142859,38.95089201114619],[-95.25621318471431,38.95089292198054],[-95.25621321307868,38.95089409424211],[-95.25618541769035,38.95089451066987],[-95.2561859288023,38.9509152995682],[-95.25618442751289,38.95091532261669],[-95.25618472561462,38.950927475458144],[-95.25612294613585,38.950928400647015],[-95.25612348555768,38.95095036270751],[-95.25607426822177,38.95095109942574],[-95.25607715261854,38.951068541216124],[-95.25612637122423,38.951067803623616],[-95.2561268588822,38.95108762044845],[-95.25607764026277,38.95108835804116],[-95.25608052467074,38.95120579983017],[-95.25612974337186,38.951205062236234],[-95.25613023103178,38.951224879060874],[-95.25610849719887,38.95122520461615],[-95.2560522347175,38.95131567521776],[-95.25608826458615,38.951329337955585],[-95.25605052968542,38.95139001642699],[-95.2561075973186,38.95141165452742],[-95.25610390539265,38.95141756569084],[-95.25611203908112,38.951420649319196],[-95.25610430108165,38.95143309141704],[-95.25622064305827,38.95147720472395],[-95.25623293080635,38.951457446018054],[-95.25625576334357,38.95146610369764],[-95.25623426033876,38.951500682125285],[-95.25636958034757,38.95155199187562],[-95.25639108448983,38.9515174125499],[-95.25646413075704,38.95154511081534],[-95.25644243581998,38.951579997462005],[-95.2565785466351,38.9516316068567],[-95.25660024152091,38.95159672018469],[-95.25662228479773,38.95160507793186],[-95.25660058876717,38.95163996458065],[-95.25673669981319,38.95169157378948],[-95.25675839579246,38.95165668711536],[-95.25678043795352,38.95166504480516],[-95.25675874313572,38.95169993151068],[-95.25689485441258,38.951751540533614],[-95.25691654917914,38.951716653802784],[-95.25697928398199,38.951740440683224],[-95.25696634028024,38.95176125459705],[-95.25708538471599,38.95180639165355],[-95.25709377869515,38.95179289436061],[-95.25710053048793,38.95179539457618],[-95.2571041779036,38.951789528292025],[-95.25716116312286,38.95181113506908]]],[[[-95.25753750602412,38.95103040014145],[-95.25754336562076,38.95103031164364],[-95.25754331077108,38.95102809604155],[-95.25756674789895,38.951027744721216],[-95.25756680274931,38.951029960323275],[-95.25762763071711,38.95102904880623],[-95.25762654975026,38.95098512557257],[-95.25767576824673,38.95098438822288],[-95.25767282211501,38.95086460189449],[-95.25762367760446,38.950865338287386],[-95.25762324857516,38.9508478669459],[-95.25767239310852,38.95084712965275],[-95.25766944698825,38.9507273433229],[-95.25762022978877,38.95072808159763],[-95.25761979964304,38.95071060932825],[-95.25766901798347,38.95070987108099],[-95.25766607187458,38.95059008474978],[-95.2576169275198,38.95059082204025],[-95.25761649737572,38.95057334977063],[-95.25766564283656,38.950572613408],[-95.25766269673909,38.95045282707538],[-95.25761355251461,38.95045356346403],[-95.25761285241445,38.95042511061716],[-95.25764090397854,38.950424689998094],[-95.25763836343013,38.950321374992896],[-95.25762208405935,38.950321618962285],[-95.25762140853794,38.9502889327514],[-95.25759586948614,38.950289415501786],[-95.2575950411644,38.95025572982458],[-95.25753176101595,38.95025667883067],[-95.25753161443083,38.95025010454668],[-95.25752407468686,38.95025021728422],[-95.25752370563872,38.95023521671054],[-95.25739139559609,38.95023720028993],[-95.25739196497827,38.95026033373399],[-95.25732179985222,38.95026138560966],[-95.25732085460193,38.95022295312323],[-95.25717045562548,38.950225207859994],[-95.25717139964092,38.95026364032035],[-95.25714602153664,38.95026402043499],[-95.2571450775349,38.9502255879744],[-95.25699467739415,38.95022784245591],[-95.25699562246722,38.950266274945],[-95.25697024436101,38.95026665502113],[-95.25696929930173,38.95022822253185],[-95.25681889914976,38.950230476785364],[-95.25681984412734,38.95026890927594],[-95.25675227963457,38.9502699214059],[-95.25675173998768,38.95024796024751],[-95.25662243241496,38.950249897738246],[-95.25662277422877,38.9502637810593],[-95.2566138024961,38.95026391572774],[-95.25661390724049,38.950270435852666],[-95.25655062706575,38.95027138432338],[-95.25655213791603,38.95033882886999],[-95.25651209366845,38.950339428655006],[-95.25651457464554,38.95044040003479],[-95.2565426989713,38.95043997869933],[-95.25654345653344,38.95047077610292],[-95.25649423838266,38.95047151297206],[-95.25649712461045,38.95058895478385],[-95.25654634287793,38.950588217013085],[-95.25653694331027,38.95060047472038],[-95.25654682949722,38.9506080338097],[-95.25649761121595,38.95060877158061],[-95.256500497455,38.95072621339107],[-95.25654971581797,38.950725475618874],[-95.25655020243916,38.950745292415185],[-95.25650098406237,38.9507460301876],[-95.25650387034756,38.95086347109624],[-95.25655158751782,38.95086275637585],[-95.25655269503197,38.95090785185416],[-95.25661352178966,38.95090693994138],[-95.25661349341866,38.95090576767987],[-95.2566412888089,38.95090535114948],[-95.25664077756309,38.950884562253194],[-95.25664227881681,38.9508845400992],[-95.25664197941369,38.95087232955158],[-95.25670376009455,38.95087146089309],[-95.25670348908831,38.950860451447056],[-95.25675270757752,38.95085974242867],[-95.25674982206726,38.95074230065308],[-95.2567006036947,38.950743038510225],[-95.2567001158084,38.95072319374768],[-95.25674933420214,38.95072248473069],[-95.25674644870304,38.950605042953725],[-95.25669723046094,38.95060577990904],[-95.25669674261144,38.95058596398622],[-95.25674596087477,38.950585226130706],[-95.2567430742338,38.95046778432508],[-95.25669385720532,38.95046852220664],[-95.25669254509799,38.95041513514167],[-95.25672623705788,38.95038779709659],[-95.25682273088768,38.950386351081534],[-95.25682367471629,38.95042478354423],[-95.25697407528139,38.95042252928453],[-95.25697313021796,38.95038409679575],[-95.25699850836632,38.95038371671899],[-95.2569994534785,38.95042214830717],[-95.25714985399748,38.95041989471991],[-95.25714890883852,38.9503814622325],[-95.2571742870199,38.950381081216875],[-95.25717523219264,38.95041951370406],[-95.25732563270039,38.95041725988884],[-95.2573247170869,38.95038005647103],[-95.25742466032084,38.95037855817834],[-95.25745873097767,38.95040416041363],[-95.25746003111391,38.950457037982105],[-95.25741238812877,38.95045775212091],[-95.25741527588096,38.950575193909984],[-95.25746291894521,38.95057447977],[-95.25746339841035,38.95059398186062],[-95.25741535231217,38.950594701787566],[-95.25741825489632,38.950712772979486],[-95.25746630110963,38.95071205215098],[-95.25746650851495,38.95073127833983],[-95.25741872693932,38.95073196036795],[-95.2574216295348,38.95085003155849],[-95.25746967584134,38.9508493107286],[-95.25747014789918,38.95086849811669],[-95.25742210157962,38.950869218946714],[-95.25742500422132,38.950987289235485],[-95.25747422272144,38.950986551971326],[-95.25747449265981,38.950997532548186],[-95.25753667523931,38.950996599951836],[-95.25753696612756,38.951008438988055],[-95.25753918107776,38.9510084057672],[-95.25753960879335,38.951025791462044],[-95.25753739384263,38.951025824682894],[-95.25753750602412,38.95103040014145]]]]},"properties":{"SDE.FloorAll.FLOORLOCATION":"3"}},{"type":"Feature","geometry":{"type":"MultiPolygon","coordinates":[[[[-95.25716116312286,38.95181113506908],[-95.25719712960478,38.951753299232934],[-95.25719726158317,38.95175334831765],[-95.25719837435219,38.95175155958052],[-95.25723575484868,38.95176573245341],[-95.25729355980997,38.95167277888104],[-95.25726832026662,38.951663209206444],[-95.25728424029677,38.95163760988408],[-95.25732845667996,38.95165437504455],[-95.25739547764444,38.951546600741246],[-95.25735126015968,38.9515298355789],[-95.25736103642849,38.951514115207864],[-95.25740525271772,38.9515308812396],[-95.25747227348305,38.951423105990465],[-95.25742805605725,38.951406340857154],[-95.25743755167414,38.95139107076119],[-95.25748204967526,38.95140738650943],[-95.2575490690184,38.95129961208794],[-95.25750485168662,38.951282846083416],[-95.2575146278522,38.951267126599504],[-95.25755884521142,38.951283891699916],[-95.25762586432053,38.95117611723296],[-95.25758158219459,38.95115932719286],[-95.2576061556947,38.951119808562545],[-95.25755142866406,38.95109905840038],[-95.25755046113147,38.95110061445571],[-95.25752937333174,38.95109261924669],[-95.25753034089962,38.951091062291106],[-95.25752507008612,38.95108906396575],[-95.25752250974,38.951093180567824],[-95.25752450365708,38.95109393609588],[-95.25751477552745,38.95110957831016],[-95.25751278276313,38.95110882280924],[-95.25750667108808,38.951118651166816],[-95.25744966926943,38.95109703784641],[-95.25744346156692,38.95110702074207],[-95.25739917956246,38.951090229731804],[-95.2573321590013,38.95119800494165],[-95.25737644224532,38.951214795104214],[-95.25736673003468,38.95123041244939],[-95.25732244797123,38.95121362141007],[-95.2572553631974,38.951321498701525],[-95.2572996464656,38.95133828979362],[-95.25728992681339,38.951353919574146],[-95.25724564353771,38.95133712847835],[-95.25717856709036,38.951444993309735],[-95.2572228504526,38.951461783530604],[-95.25721313817411,38.951477400862636],[-95.25716885483934,38.951460609737694],[-95.25710177071504,38.95156848786581],[-95.25714747881413,38.95158580208683],[-95.2571181916483,38.951632896541],[-95.25707257144319,38.95164523192076],[-95.25698186417605,38.95161077428459],[-95.25700333365361,38.95157624810539],[-95.25686804612424,38.95152495159102],[-95.25684654340093,38.95155953013205],[-95.25682370960811,38.95155087254155],[-95.25684521349308,38.95151629403202],[-95.25670989320741,38.951464984836534],[-95.25668838927193,38.95149956332112],[-95.25666555667098,38.95149090572673],[-95.25668705946192,38.95145632721908],[-95.25655173940581,38.95140501783881],[-95.25653023656432,38.95143959632153],[-95.25644415171736,38.95140693562691],[-95.25646565329811,38.95137236073442],[-95.25633033356337,38.951321051095405],[-95.25630882207818,38.95135564195187],[-95.25627261241048,38.95134191194308],[-95.25625671356632,38.951306059926544],[-95.25628169640761,38.95126588794595],[-95.25628014561875,38.95120280887667],[-95.25632936428083,38.951202072098404],[-95.25632647830659,38.951084630288264],[-95.25632310578276,38.95094737168002],[-95.25627538970622,38.950948086333675],[-95.25627401142859,38.95089201114619],[-95.25621318471431,38.95089292198054],[-95.25621321307868,38.95089409424211],[-95.25618541769035,38.95089451066987],[-95.2561859288023,38.9509152995682],[-95.25618442751289,38.95091532261669],[-95.25618472561462,38.950927475458144],[-95.25612294728896,38.95092840067433],[-95.25612348671076,38.95095036273481],[-95.25607426822177,38.95095109942574],[-95.25607715377161,38.9510685412434],[-95.25612637122423,38.951067803623616],[-95.2561268588822,38.95108762044845],[-95.25607764026277,38.95108835804116],[-95.25608052582382,38.95120579985747],[-95.256129744525,38.95120506226352],[-95.25613023103178,38.951224879060874],[-95.25610849719887,38.95122520461615],[-95.25605226316048,38.95131568580437],[-95.25608826947814,38.95132933086155],[-95.25605053083851,38.95139001645431],[-95.25610758365613,38.951411649697896],[-95.25610390539265,38.95141756569084],[-95.25611203908112,38.951420649319196],[-95.25610430111661,38.95143309051665],[-95.25622064305827,38.95147720472395],[-95.25623293080635,38.951457446018054],[-95.25625576449664,38.95146610372492],[-95.25623426033876,38.951500682125285],[-95.25636958034757,38.95155199187562],[-95.25639108448983,38.9515174125499],[-95.25646413075704,38.95154511081534],[-95.25644243581998,38.951579997462005],[-95.2565785466351,38.9516316068567],[-95.25660024155586,38.951596719284304],[-95.25662228479773,38.95160507793186],[-95.25660058876717,38.95163996458065],[-95.25673670096629,38.95169157381675],[-95.25675839579246,38.95165668711536],[-95.25678043795352,38.95166504480516],[-95.25675874313572,38.95169993151068],[-95.25689485441258,38.951751540533614],[-95.2569165503322,38.95171665383008],[-95.25697928398199,38.951740440683224],[-95.25696634143334,38.951761254624316],[-95.25708538471599,38.95180639165355],[-95.25709377869515,38.95179289436061],[-95.25710053048793,38.95179539457618],[-95.25710424045091,38.95178955230236],[-95.25716116312286,38.95181113506908]]],[[[-95.25753750602412,38.95103040014145],[-95.25754336562076,38.95103031164364],[-95.25754332307629,38.95102858209176],[-95.25756676020434,38.9510282307714],[-95.25756680274931,38.951029960323275],[-95.25762763071711,38.95102904880623],[-95.25762655153285,38.95098516887342],[-95.25767576824673,38.95098438822288],[-95.25767282326808,38.95086460192177],[-95.25762367760446,38.950865338287386],[-95.25762324857516,38.9508478669459],[-95.25767239310852,38.95084712965275],[-95.25766944814131,38.95072734335019],[-95.25762030257305,38.95072807971445],[-95.25761987354544,38.95071060837269],[-95.25766901798347,38.95070987108099],[-95.25766607187458,38.95059008474978],[-95.2576169275198,38.95059082204025],[-95.25761649852886,38.95057334979791],[-95.25766564283656,38.950572613408],[-95.25766269677402,38.950452826175],[-95.25761355251461,38.95045356346403],[-95.25761285356752,38.95042511064444],[-95.25764090397854,38.950424689998094],[-95.25763836343013,38.950321374992896],[-95.25759681792523,38.95032199821972],[-95.2575950411644,38.95025572982458],[-95.25753177604092,38.950256678284894],[-95.25753161443083,38.95025010454668],[-95.25752407468686,38.95025021728422],[-95.25752370567365,38.950235215810174],[-95.25739139563102,38.95023719938952],[-95.25739196497827,38.95026033373399],[-95.25732179985222,38.95026138560966],[-95.25732085575504,38.9502229531505],[-95.25717045562548,38.950225207859994],[-95.25717139964092,38.95026364032035],[-95.2571460226897,38.95026402046226],[-95.2571450775349,38.9502255879744],[-95.25699467739415,38.95022784245591],[-95.25699562246722,38.950266274945],[-95.25697024436101,38.95026665502113],[-95.25696929930173,38.95022822253185],[-95.25681889914976,38.950230476785364],[-95.25681984412734,38.95026890927594],[-95.25675227963457,38.9502699214059],[-95.25675173998768,38.95024796024751],[-95.25662243356803,38.95024989776551],[-95.25662277422877,38.9502637810593],[-95.2566138024961,38.95026391572774],[-95.25661390724049,38.950270435852666],[-95.25655062706575,38.95027138432338],[-95.25655220752834,38.950335667223804],[-95.25655206087737,38.95033566916079],[-95.25655213791603,38.95033882886999],[-95.25651209366845,38.950339428655006],[-95.25651457464554,38.95044040003479],[-95.25654270012437,38.950439978726585],[-95.2565434565684,38.950470775202504],[-95.25649423838266,38.95047151297206],[-95.25649712461045,38.95058895478385],[-95.25654484159551,38.950588240066246],[-95.25654532821439,38.95060805686281],[-95.25649761121595,38.95060877158061],[-95.256500497455,38.95072621339107],[-95.25654971581797,38.950725475618874],[-95.25655020243916,38.950745292415185],[-95.25650098406237,38.9507460301876],[-95.25650387034756,38.95086347109624],[-95.25655158751782,38.95086275637585],[-95.25655269503197,38.95090785185416],[-95.25661352294273,38.950906939968654],[-95.25661349341866,38.95090576767987],[-95.2566412888089,38.95090535114948],[-95.25664077756309,38.950884562253194],[-95.25664227881681,38.9508845400992],[-95.25664197941369,38.95087232955158],[-95.25670376009455,38.95087146089309],[-95.2567034902763,38.95086048031429],[-95.25675270873064,38.95085974245597],[-95.25674982206726,38.95074230065308],[-95.2567006036947,38.950743038510225],[-95.25670011703139,38.950723221714526],[-95.25674933535521,38.95072248475798],[-95.25674644870304,38.950605042953725],[-95.25669723046094,38.95060577990904],[-95.25669674376456,38.950585964013506],[-95.25674596087477,38.950585226130706],[-95.25674307538686,38.95046778435236],[-95.25669385720532,38.95046852220664],[-95.25669254509799,38.95041513514167],[-95.25672623705788,38.95038779709659],[-95.25682273088768,38.950386351081534],[-95.25682367475122,38.95042478264386],[-95.25697407528139,38.95042252928453],[-95.25697313137107,38.95038409682304],[-95.25699850951939,38.95038371674625],[-95.2569994534785,38.95042214830717],[-95.25714985399748,38.95041989471991],[-95.25714890883852,38.9503814622325],[-95.2571742870199,38.950381081216875],[-95.25717523219264,38.95041951370406],[-95.25732563273532,38.950417258988395],[-95.25732471823996,38.950380056498304],[-95.25742466032084,38.95037855817834],[-95.25745873097767,38.95040416041363],[-95.25746003111391,38.950457037982105],[-95.25741238812877,38.95045775212091],[-95.25741527588096,38.950575193909984],[-95.25746291894521,38.95057447977],[-95.25746339841035,38.95059398186062],[-95.25741535231217,38.950594701787566],[-95.25741825489632,38.950712772979486],[-95.25746630110963,38.95071205215098],[-95.25746678176498,38.95073158310862],[-95.25741873553842,38.95073230393732],[-95.25742162956973,38.9508500306581],[-95.25746967699446,38.95084931075586],[-95.25747014789918,38.95086849811669],[-95.25742210157962,38.950869218946714],[-95.2574250053744,38.950987289262756],[-95.25747422272144,38.950986551971326],[-95.25747449265981,38.950997532548186],[-95.25753667523931,38.950996599951836],[-95.2575369661625,38.95100843808769],[-95.25753918226577,38.95100840489406],[-95.25753960994649,38.9510257914893],[-95.25753739384263,38.951025824682894],[-95.25753750602412,38.95103040014145]]]]},"properties":{"SDE.FloorAll.FLOORLOCATION":"4"}},{"type":"Feature","geometry":{"type":"MultiPolygon","coordinates":[[[[-95.25716116312286,38.95181113506908],[-95.25719712960478,38.951753299232934],[-95.25719726158317,38.95175334831765],[-95.25719837435219,38.95175155958052],[-95.25723575484868,38.95176573245341],[-95.25729355980997,38.95167277888104],[-95.25726832026662,38.951663209206444],[-95.25728424029677,38.95163760988408],[-95.25732845667996,38.95165437504455],[-95.25739547764444,38.951546600741246],[-95.25735126015968,38.9515298355789],[-95.25736103642849,38.951514115207864],[-95.25740525271772,38.9515308812396],[-95.25747227348305,38.951423105990465],[-95.25742805605725,38.951406340857154],[-95.25743755167414,38.95139107076119],[-95.25748204967526,38.95140738650943],[-95.2575490690184,38.95129961208794],[-95.25750485168662,38.951282846083416],[-95.2575146278522,38.951267126599504],[-95.25755884521142,38.951283891699916],[-95.25762586432053,38.95117611723296],[-95.25758158219459,38.95115932719286],[-95.2576061556947,38.951119808562545],[-95.25755142866406,38.95109905840038],[-95.25755046113147,38.95110061445571],[-95.25752937333174,38.95109261924669],[-95.25753034089962,38.951091062291106],[-95.25752507008612,38.95108906396575],[-95.25752250974,38.951093180567824],[-95.25752450365708,38.95109393609588],[-95.25751477552745,38.95110957831016],[-95.25751278276313,38.95110882280924],[-95.25750667108808,38.951118651166816],[-95.25744966926943,38.95109703784641],[-95.25744346156692,38.95110702074207],[-95.25739917956246,38.951090229731804],[-95.2573321590013,38.95119800494165],[-95.25737644224532,38.951214795104214],[-95.25736673003468,38.95123041244939],[-95.25732244797123,38.95121362141007],[-95.2572553631974,38.951321498701525],[-95.2572996464656,38.95133828979362],[-95.25728992681339,38.951353919574146],[-95.25724564353771,38.95133712847835],[-95.25717856709036,38.951444993309735],[-95.2572228504526,38.951461783530604],[-95.25721313817411,38.951477400862636],[-95.25716885483934,38.951460609737694],[-95.25710177071504,38.95156848786581],[-95.25714747881413,38.95158580208683],[-95.2571181916483,38.951632896541],[-95.25707257144319,38.95164523192076],[-95.25698186417605,38.95161077428459],[-95.25700333365361,38.95157624810539],[-95.25686804612424,38.95152495159102],[-95.25684654340093,38.95155953013205],[-95.25682370960811,38.95155087254155],[-95.25684521349308,38.95151629403202],[-95.25670989320741,38.951464984836534],[-95.25668838927193,38.95149956332112],[-95.25666555667098,38.95149090572673],[-95.25668705946192,38.95145632721908],[-95.25655173940581,38.95140501783881],[-95.25653023656432,38.95143959632153],[-95.25644415171736,38.95140693562691],[-95.25646565329811,38.95137236073442],[-95.25633033356337,38.951321051095405],[-95.25630882207818,38.95135564195187],[-95.25627261241048,38.95134191194308],[-95.25625671356632,38.951306059926544],[-95.25628169640761,38.95126588794595],[-95.25628014561875,38.95120280887667],[-95.25632936428083,38.951202072098404],[-95.25632647830659,38.951084630288264],[-95.25632310578276,38.95094737168002],[-95.25627538970622,38.950948086333675],[-95.25627401142859,38.95089201114619],[-95.25621318471431,38.95089292198054],[-95.25621321307868,38.95089409424211],[-95.25618541769035,38.95089451066987],[-95.2561859288023,38.9509152995682],[-95.25618442751289,38.95091532261669],[-95.25618472561462,38.950927475458144],[-95.25612294728896,38.95092840067433],[-95.25612348671076,38.95095036273481],[-95.25607426822177,38.95095109942574],[-95.25607715377161,38.9510685412434],[-95.25612637122423,38.951067803623616],[-95.2561268588822,38.95108762044845],[-95.25607764026277,38.95108835804116],[-95.25608052582382,38.95120579985747],[-95.256129744525,38.95120506226352],[-95.25613023103178,38.951224879060874],[-95.25610849719887,38.95122520461615],[-95.25605226316048,38.95131568580437],[-95.25608826947814,38.95132933086155],[-95.25605053083851,38.95139001645431],[-95.25610758365613,38.951411649697896],[-95.25610390539265,38.95141756569084],[-95.25611203908112,38.951420649319196],[-95.25610430111661,38.95143309051665],[-95.25622064305827,38.95147720472395],[-95.25623293080635,38.951457446018054],[-95.25625576449664,38.95146610372492],[-95.25623426033876,38.951500682125285],[-95.25636958034757,38.95155199187562],[-95.25639108448983,38.9515174125499],[-95.25646413075704,38.95154511081534],[-95.25644243581998,38.951579997462005],[-95.2565785466351,38.9516316068567],[-95.25660024155586,38.951596719284304],[-95.25662228479773,38.95160507793186],[-95.25660058876717,38.95163996458065],[-95.25673670096629,38.95169157381675],[-95.25675839579246,38.95165668711536],[-95.25678043795352,38.95166504480516],[-95.25675874313572,38.95169993151068],[-95.25689485441258,38.951751540533614],[-95.2569165503322,38.95171665383008],[-95.25697928398199,38.951740440683224],[-95.25696634143334,38.951761254624316],[-95.25708538471599,38.95180639165355],[-95.25709377869515,38.95179289436061],[-95.25710053048793,38.95179539457618],[-95.25710424045091,38.95178955230236],[-95.25716116312286,38.95181113506908]]],[[[-95.25753750602412,38.95103040014145],[-95.25754336562076,38.95103031164364],[-95.25754332307629,38.95102858209176],[-95.25756676020434,38.9510282307714],[-95.25756680274931,38.951029960323275],[-95.25762763071711,38.95102904880623],[-95.25762655153285,38.95098516887342],[-95.25767576824673,38.95098438822288],[-95.25767282326808,38.95086460192177],[-95.25762367760446,38.950865338287386],[-95.25762324857516,38.9508478669459],[-95.25767239310852,38.95084712965275],[-95.25766944814131,38.95072734335019],[-95.25762030257305,38.95072807971445],[-95.25761987354544,38.95071060837269],[-95.25766901798347,38.95070987108099],[-95.25766607187458,38.95059008474978],[-95.2576169275198,38.95059082204025],[-95.25761649852886,38.95057334979791],[-95.25766564283656,38.950572613408],[-95.25766269677402,38.950452826175],[-95.25761355251461,38.95045356346403],[-95.25761285356752,38.95042511064444],[-95.25764090397854,38.950424689998094],[-95.25763836343013,38.950321374992896],[-95.25759681792523,38.95032199821972],[-95.2575950411644,38.95025572982458],[-95.25753177604092,38.950256678284894],[-95.25753161443083,38.95025010454668],[-95.25752407468686,38.95025021728422],[-95.25752370567365,38.950235215810174],[-95.25739139563102,38.95023719938952],[-95.25739196497827,38.95026033373399],[-95.25732179985222,38.95026138560966],[-95.25732085575504,38.9502229531505],[-95.25717045562548,38.950225207859994],[-95.25717139964092,38.95026364032035],[-95.2571460226897,38.95026402046226],[-95.2571450775349,38.9502255879744],[-95.25699467739415,38.95022784245591],[-95.25699562246722,38.950266274945],[-95.25697024436101,38.95026665502113],[-95.25696929930173,38.95022822253185],[-95.25681889914976,38.950230476785364],[-95.25681984412734,38.95026890927594],[-95.25675227963457,38.9502699214059],[-95.25675173998768,38.95024796024751],[-95.25662243356803,38.95024989776551],[-95.25662277422877,38.9502637810593],[-95.2566138024961,38.95026391572774],[-95.25661390724049,38.950270435852666],[-95.25655062706575,38.95027138432338],[-95.25655220752834,38.950335667223804],[-95.25655206087737,38.95033566916079],[-95.25655213791603,38.95033882886999],[-95.25651209366845,38.950339428655006],[-95.25651457464554,38.95044040003479],[-95.25654270012437,38.950439978726585],[-95.2565434565684,38.950470775202504],[-95.25649423838266,38.95047151297206],[-95.25649712461045,38.95058895478385],[-95.25654484159551,38.950588240066246],[-95.25654532821439,38.95060805686281],[-95.25649761121595,38.95060877158061],[-95.256500497455,38.95072621339107],[-95.25654971581797,38.950725475618874],[-95.25655020243916,38.950745292415185],[-95.25650098406237,38.9507460301876],[-95.25650387034756,38.95086347109624],[-95.25655158751782,38.95086275637585],[-95.25655269503197,38.95090785185416],[-95.25661352294273,38.950906939968654],[-95.25661349341866,38.95090576767987],[-95.2566412888089,38.95090535114948],[-95.25664077756309,38.950884562253194],[-95.25664227881681,38.9508845400992],[-95.25664197941369,38.95087232955158],[-95.25670376009455,38.95087146089309],[-95.2567034902763,38.95086048031429],[-95.25675270873064,38.95085974245597],[-95.25674982206726,38.95074230065308],[-95.2567006036947,38.950743038510225],[-95.25670011703139,38.950723221714526],[-95.25674933535521,38.95072248475798],[-95.25674644870304,38.950605042953725],[-95.25669723046094,38.95060577990904],[-95.25669674376456,38.950585964013506],[-95.25674596087477,38.950585226130706],[-95.25674307538686,38.95046778435236],[-95.25669385720532,38.95046852220664],[-95.25669254509799,38.95041513514167],[-95.25672623705788,38.95038779709659],[-95.25682273088768,38.950386351081534],[-95.25682367475122,38.95042478264386],[-95.25697407528139,38.95042252928453],[-95.25697313137107,38.95038409682304],[-95.25699850951939,38.95038371674625],[-95.2569994534785,38.95042214830717],[-95.25714985399748,38.95041989471991],[-95.25714890883852,38.9503814622325],[-95.2571742870199,38.950381081216875],[-95.25717523219264,38.95041951370406],[-95.25732563273532,38.950417258988395],[-95.25732471823996,38.950380056498304],[-95.25742466032084,38.95037855817834],[-95.25745873097767,38.95040416041363],[-95.25746003111391,38.950457037982105],[-95.25741238812877,38.95045775212091],[-95.25741527588096,38.950575193909984],[-95.25746291894521,38.95057447977],[-95.25746339841035,38.95059398186062],[-95.25741535231217,38.950594701787566],[-95.25741825489632,38.950712772979486],[-95.25746630110963,38.95071205215098],[-95.25746678176498,38.95073158310862],[-95.25741873553842,38.95073230393732],[-95.25742162956973,38.9508500306581],[-95.25746967699446,38.95084931075586],[-95.25747014789918,38.95086849811669],[-95.25742210157962,38.950869218946714],[-95.2574250053744,38.950987289262756],[-95.25747422272144,38.950986551971326],[-95.25747449265981,38.950997532548186],[-95.25753667523931,38.950996599951836],[-95.2575369661625,38.95100843808769],[-95.25753918226577,38.95100840489406],[-95.25753960994649,38.9510257914893],[-95.25753739384263,38.951025824682894],[-95.25753750602412,38.95103040014145]]]]},"properties":{"SDE.FloorAll.FLOORLOCATION":"4"}},{"type":"Feature","geometry":{"type":"MultiPolygon","coordinates":[[[[-95.25716116312286,38.95181113506908],[-95.25719712963972,38.95175329833251],[-95.25719726158317,38.95175334831765],[-95.25719837435219,38.95175155958052],[-95.2572357536956,38.95176573242612],[-95.25729355869181,38.951672777953384],[-95.25726832030155,38.951663208306044],[-95.25728423917862,38.9516376089564],[-95.25732845667996,38.95165437504455],[-95.25739547764444,38.951546600741246],[-95.25735126019461,38.951529834678496],[-95.25736103527534,38.951514115180586],[-95.25740525275265,38.95153088033923],[-95.25747227348305,38.951423105990465],[-95.25742805609218,38.95140633995678],[-95.25743755167414,38.95139107076119],[-95.25748204852212,38.95140738648214],[-95.25754906905334,38.95129961118753],[-95.25750485168662,38.951282846083416],[-95.25751462669908,38.95126712657221],[-95.25755884405834,38.951283891672624],[-95.25762586432053,38.95117611723296],[-95.25758158107642,38.951159326265156],[-95.2576061556947,38.951119808562545],[-95.25755142754592,38.95109905747274],[-95.25755045997838,38.95110061442843],[-95.25752937336668,38.95109261834624],[-95.25753034089962,38.951091062291106],[-95.25752506896798,38.9510890630381],[-95.25752250862186,38.951093179640125],[-95.25752450253894,38.9510939351682],[-95.25751477552745,38.95110957831016],[-95.25751278161005,38.95110882278195],[-95.25750666996994,38.95111865023915],[-95.25744966926943,38.95109703784641],[-95.25744346160185,38.951107019841615],[-95.2573991784094,38.95109022970452],[-95.25733215788308,38.95119800401398],[-95.25737644109219,38.95121479507693],[-95.25736673006962,38.95123041154902],[-95.25732244681811,38.95121362138279],[-95.25725536204432,38.95132149867427],[-95.25729964534746,38.95133828886596],[-95.25728992569523,38.95135391864648],[-95.25724564238463,38.951337128451094],[-95.2571785659373,38.95144499328246],[-95.25722284929954,38.951461783503326],[-95.25721313820904,38.95147739996224],[-95.25716885483934,38.951460609737694],[-95.25710176959691,38.951568486938164],[-95.257147477661,38.95158580205956],[-95.2571181916483,38.951632896541],[-95.25707257029008,38.95164523189347],[-95.2569818630579,38.95161077335692],[-95.25700333365361,38.95157624810539],[-95.25686804612424,38.95152495159102],[-95.25684654224784,38.95155953010476],[-95.25682370964307,38.951550871641174],[-95.25684521233994,38.95151629400472],[-95.2567098920543,38.95146498480927],[-95.25668838927193,38.95149956332112],[-95.25666555555284,38.95149090479904],[-95.25668705830884,38.95145632719178],[-95.25655173940581,38.95140501783881],[-95.25653023544618,38.951439595393815],[-95.25646741063049,38.95141575926631],[-95.25640169320619,38.951521435223995],[-95.256464130792,38.95154510991494],[-95.25644243466684,38.95157999743474],[-95.256578545482,38.95163160682941],[-95.25660024155586,38.951596719284304],[-95.25662228367959,38.95160507700419],[-95.25660058876717,38.95163996458065],[-95.25673669981319,38.95169157378948],[-95.25675839467426,38.9516566861877],[-95.25678043795352,38.95166504480516],[-95.25675874198258,38.95169993148337],[-95.25689485441258,38.951751540533614],[-95.25691654921407,38.95171665290237],[-95.25697928401692,38.95174043978276],[-95.25696634031517,38.95176125369665],[-95.25708538471599,38.95180639165355],[-95.25709377754205,38.95179289433334],[-95.25710052936977,38.951795393648524],[-95.25710424048584,38.95178955140198],[-95.25716116312286,38.95181113506908]]],[[[-95.25753750605905,38.95103039924106],[-95.25754336446764,38.95103031161636],[-95.25754332195815,38.95102858116408],[-95.25756676023927,38.95102822987102],[-95.25756680274931,38.951029960323275],[-95.25762762959896,38.95102904787854],[-95.25762655037977,38.95098516884615],[-95.25767576828167,38.95098438732249],[-95.25767282214994,38.95086460099407],[-95.25762367760446,38.950865338287386],[-95.25762324745703,38.95084786601817],[-95.25767239195545,38.950847129625465],[-95.25766944702318,38.950727342422525],[-95.25762030257305,38.95072807971445],[-95.2576198724273,38.950710607445004],[-95.25766901683036,38.9507098710537],[-95.25766607187458,38.95059008474978],[-95.25761692755475,38.950590821139855],[-95.25761649737572,38.95057334977063],[-95.25766564171836,38.95057261248035],[-95.25766269677402,38.950452826175],[-95.25761355251461,38.95045356346403],[-95.25761285241445,38.95042511061716],[-95.25764090282549,38.95042468997084],[-95.257638362312,38.95032137406522],[-95.25759681680711,38.950321997292086],[-95.2575950411644,38.95025572982458],[-95.25753177488787,38.95025667825761],[-95.25753161327772,38.95025010451942],[-95.2575240735338,38.95025021725693],[-95.2575237045206,38.950235215782875],[-95.25739139563102,38.95023719938952],[-95.25739196386006,38.95026033280631],[-95.25732179988715,38.950261384709265],[-95.25732085460193,38.95022295312323],[-95.2571704545073,38.95022520693229],[-95.25717139967587,38.95026363942],[-95.25714602157159,38.95026401953461],[-95.25714507638185,38.95022558794711],[-95.25699467627604,38.9502278415282],[-95.25699562134908,38.950266274017324],[-95.25697024320795,38.95026665499386],[-95.25696929930173,38.95022822253185],[-95.25681889914976,38.950230476785364],[-95.25681984300921,38.9502689083482],[-95.25675227848146,38.95026992137862],[-95.25674989841893,38.950269956985544],[-95.25675274446027,38.95038576842068],[-95.25675278446916,38.950387384359274],[-95.2568227297695,38.95038635015383],[-95.25682367475122,38.95042478264386],[-95.25697407531635,38.95042252838413],[-95.25697313025289,38.95038409589536],[-95.25699850840127,38.9503837158186],[-95.2569994534785,38.95042214830717],[-95.2571498528793,38.9504198937922],[-95.25714890887346,38.95038146133215],[-95.2571742870199,38.950381081216875],[-95.25717523103957,38.950419513676785],[-95.25732563158226,38.95041725896113],[-95.2573247170869,38.95038005647103],[-95.25742466032084,38.95037855817834],[-95.25745873097767,38.95040416041363],[-95.25746003111391,38.950457037982105],[-95.25741238697569,38.95045775209364],[-95.25741527472789,38.95057519388272],[-95.25746291782701,38.95057447884235],[-95.25746339729216,38.950593980933],[-95.25741535115904,38.95059470176028],[-95.25741825493127,38.95071277207908],[-95.25746630110963,38.95071205215098],[-95.2574667806119,38.950731583081314],[-95.25741873442026,38.950732303009666],[-95.25742162956973,38.9508500306581],[-95.25746967584134,38.9508493107286],[-95.25747014789918,38.95086849811669],[-95.25742210161455,38.95086921804634],[-95.25742500422132,38.950987289235485],[-95.25747422275637,38.95098655107095],[-95.25747449269474,38.95099753164781],[-95.25753667408623,38.95099659992453],[-95.2575369661625,38.95100843808769],[-95.25753918111269,38.9510084048668],[-95.2575396088283,38.9510257905616],[-95.25753739272449,38.95102582375522],[-95.25753750605905,38.95103039924106]]]]},"properties":{"SDE.FloorAll.FLOORLOCATION":"5"}},{"type":"Feature","geometry":{"type":"MultiPolygon","coordinates":[[[[-95.25716116312286,38.95181113506908],[-95.25719712963972,38.95175329833251],[-95.25719726158317,38.95175334831765],[-95.25719837435219,38.95175155958052],[-95.2572357536956,38.95176573242612],[-95.25729355869181,38.951672777953384],[-95.25726832030155,38.951663208306044],[-95.25728423917862,38.9516376089564],[-95.25732845667996,38.95165437504455],[-95.25739547764444,38.951546600741246],[-95.25735126019461,38.951529834678496],[-95.25736103527534,38.951514115180586],[-95.25740525275265,38.95153088033923],[-95.25747227348305,38.951423105990465],[-95.25742805609218,38.95140633995678],[-95.25743755167414,38.95139107076119],[-95.25748204852212,38.95140738648214],[-95.25754906905334,38.95129961118753],[-95.25750485168662,38.951282846083416],[-95.25751462669908,38.95126712657221],[-95.25755884405834,38.951283891672624],[-95.25762586432053,38.95117611723296],[-95.25758158107642,38.951159326265156],[-95.2576061556947,38.951119808562545],[-95.25755142754592,38.95109905747274],[-95.25755045997838,38.95110061442843],[-95.25752937336668,38.95109261834624],[-95.25753034089962,38.951091062291106],[-95.25752506896798,38.9510890630381],[-95.25752250862186,38.951093179640125],[-95.25752450253894,38.9510939351682],[-95.25751477552745,38.95110957831016],[-95.25751278161005,38.95110882278195],[-95.25750666996994,38.95111865023915],[-95.25744966926943,38.95109703784641],[-95.25744346160185,38.951107019841615],[-95.2573991784094,38.95109022970452],[-95.25733215788308,38.95119800401398],[-95.25737644109219,38.95121479507693],[-95.25736673006962,38.95123041154902],[-95.25732244681811,38.95121362138279],[-95.25725536204432,38.95132149867427],[-95.25729964534746,38.95133828886596],[-95.25728992569523,38.95135391864648],[-95.25724564238463,38.951337128451094],[-95.2571785659373,38.95144499328246],[-95.25722284929954,38.951461783503326],[-95.25721313820904,38.95147739996224],[-95.25716885483934,38.951460609737694],[-95.25710176959691,38.951568486938164],[-95.257147477661,38.95158580205956],[-95.2571181916483,38.951632896541],[-95.25707257029008,38.95164523189347],[-95.2569818630579,38.95161077335692],[-95.25700333365361,38.95157624810539],[-95.25686804612424,38.95152495159102],[-95.25684654224784,38.95155953010476],[-95.25682370964307,38.951550871641174],[-95.25684521233994,38.95151629400472],[-95.2567098920543,38.95146498480927],[-95.25668838927193,38.95149956332112],[-95.25666555555284,38.95149090479904],[-95.25668705830884,38.95145632719178],[-95.25655173940581,38.95140501783881],[-95.25653023544618,38.951439595393815],[-95.25646741063049,38.95141575926631],[-95.25640169320619,38.951521435223995],[-95.256464130792,38.95154510991494],[-95.25644243466684,38.95157999743474],[-95.256578545482,38.95163160682941],[-95.25660024155586,38.951596719284304],[-95.25662228367959,38.95160507700419],[-95.25660058876717,38.95163996458065],[-95.25673669981319,38.95169157378948],[-95.25675839467426,38.9516566861877],[-95.25678043795352,38.95166504480516],[-95.25675874198258,38.95169993148337],[-95.25689485441258,38.951751540533614],[-95.25691654921407,38.95171665290237],[-95.25697928401692,38.95174043978276],[-95.25696634031517,38.95176125369665],[-95.25708538471599,38.95180639165355],[-95.25709377754205,38.95179289433334],[-95.25710052936977,38.951795393648524],[-95.25710424048584,38.95178955140198],[-95.25716116312286,38.95181113506908]]],[[[-95.25753750605905,38.95103039924106],[-95.25754336446764,38.95103031161636],[-95.25754332195815,38.95102858116408],[-95.25756676023927,38.95102822987102],[-95.25756680274931,38.951029960323275],[-95.25762762959896,38.95102904787854],[-95.25762655037977,38.95098516884615],[-95.25767576828167,38.95098438732249],[-95.25767282214994,38.95086460099407],[-95.25762367760446,38.950865338287386],[-95.25762324745703,38.95084786601817],[-95.25767239195545,38.950847129625465],[-95.25766944702318,38.950727342422525],[-95.25762030257305,38.95072807971445],[-95.2576198724273,38.950710607445004],[-95.25766901683036,38.9507098710537],[-95.25766607187458,38.95059008474978],[-95.25761692755475,38.950590821139855],[-95.25761649737572,38.95057334977063],[-95.25766564171836,38.95057261248035],[-95.25766269677402,38.950452826175],[-95.25761355251461,38.95045356346403],[-95.25761285241445,38.95042511061716],[-95.25764090282549,38.95042468997084],[-95.257638362312,38.95032137406522],[-95.25759681680711,38.950321997292086],[-95.2575950411644,38.95025572982458],[-95.25753177488787,38.95025667825761],[-95.25753161327772,38.95025010451942],[-95.2575240735338,38.95025021725693],[-95.2575237045206,38.950235215782875],[-95.25739139563102,38.95023719938952],[-95.25739196386006,38.95026033280631],[-95.25732179988715,38.950261384709265],[-95.25732085460193,38.95022295312323],[-95.2571704545073,38.95022520693229],[-95.25717139967587,38.95026363942],[-95.25714602157159,38.95026401953461],[-95.25714507638185,38.95022558794711],[-95.25699467627604,38.9502278415282],[-95.25699562134908,38.950266274017324],[-95.25697024320795,38.95026665499386],[-95.25696929930173,38.95022822253185],[-95.25681889914976,38.950230476785364],[-95.25681984300921,38.9502689083482],[-95.25675227848146,38.95026992137862],[-95.25674989841893,38.950269956985544],[-95.25675274446027,38.95038576842068],[-95.25675278446916,38.950387384359274],[-95.2568227297695,38.95038635015383],[-95.25682367475122,38.95042478264386],[-95.25697407531635,38.95042252838413],[-95.25697313025289,38.95038409589536],[-95.25699850840127,38.9503837158186],[-95.2569994534785,38.95042214830717],[-95.2571498528793,38.9504198937922],[-95.25714890887346,38.95038146133215],[-95.2571742870199,38.950381081216875],[-95.25717523103957,38.950419513676785],[-95.25732563158226,38.95041725896113],[-95.2573247170869,38.95038005647103],[-95.25742466032084,38.95037855817834],[-95.25745873097767,38.95040416041363],[-95.25746003111391,38.950457037982105],[-95.25741238697569,38.95045775209364],[-95.25741527472789,38.95057519388272],[-95.25746291782701,38.95057447884235],[-95.25746339729216,38.950593980933],[-95.25741535115904,38.95059470176028],[-95.25741825493127,38.95071277207908],[-95.25746630110963,38.95071205215098],[-95.2574667806119,38.950731583081314],[-95.25741873442026,38.950732303009666],[-95.25742162956973,38.9508500306581],[-95.25746967584134,38.9508493107286],[-95.25747014789918,38.95086849811669],[-95.25742210161455,38.95086921804634],[-95.25742500422132,38.950987289235485],[-95.25747422275637,38.95098655107095],[-95.25747449269474,38.95099753164781],[-95.25753667408623,38.95099659992453],[-95.2575369661625,38.95100843808769],[-95.25753918111269,38.9510084048668],[-95.2575396088283,38.9510257905616],[-95.25753739272449,38.95102582375522],[-95.25753750605905,38.95103039924106]]]]},"properties":{"SDE.FloorAll.FLOORLOCATION":"5"}},{"type":"Feature","geometry":{"type":"MultiPolygon","coordinates":[[[[-95.25716116312286,38.95181113506908],[-95.25719712963972,38.95175329833251],[-95.25719726158317,38.95175334831765],[-95.25719837435219,38.95175155958052],[-95.25723575484868,38.95176573245341],[-95.2572935598449,38.951672777980654],[-95.25726832030155,38.951663208306044],[-95.25728423917862,38.9516376089564],[-95.25732845667996,38.95165437504455],[-95.25739547764444,38.951546600741246],[-95.25735126019461,38.951529834678496],[-95.25736103642849,38.951514115207864],[-95.25740525275265,38.95153088033923],[-95.25747227348305,38.951423105990465],[-95.25742805605725,38.951406340857154],[-95.25743755167414,38.95139107076119],[-95.25748204852212,38.95140738648214],[-95.25754906905334,38.95129961118753],[-95.25750485168662,38.951282846083416],[-95.2575146278522,38.951267126599504],[-95.25755884521142,38.951283891699916],[-95.25762586432053,38.95117611723296],[-95.2575815822295,38.95115932629241],[-95.2576061556947,38.951119808562545],[-95.25755142869899,38.95109905750001],[-95.25755045997838,38.95110061442843],[-95.25752937336668,38.95109261834624],[-95.25753034089962,38.951091062291106],[-95.25752507012105,38.951089063065375],[-95.25752250977494,38.951093179667396],[-95.25752450365708,38.95109393609588],[-95.25751477552745,38.95110957831016],[-95.25751278276313,38.95110882280924],[-95.25750667112301,38.95111865026644],[-95.25744966926943,38.95109703784641],[-95.25744346156692,38.95110702074207],[-95.25739917956246,38.951090229731804],[-95.25733215903624,38.95119800404127],[-95.25737644224532,38.951214795104214],[-95.25736673006962,38.95123041154902],[-95.25732244681811,38.95121362138279],[-95.2572553631974,38.951321498701525],[-95.25729964534746,38.95133828886596],[-95.25728992684832,38.951353918673746],[-95.25724564353771,38.95133712847835],[-95.25717856709036,38.951444993309735],[-95.25722284929954,38.951461783503326],[-95.25721313817411,38.951477400862636],[-95.25716885483934,38.951460609737694],[-95.25710177074997,38.95156848696543],[-95.257147477661,38.95158580205956],[-95.2571181916483,38.951632896541],[-95.25707257144319,38.95164523192076],[-95.25699266715073,38.95161487810354],[-95.25692692820786,38.951720588981544],[-95.25697928401692,38.95174043978276],[-95.25696634031517,38.95176125369665],[-95.25708538471599,38.95180639165355],[-95.25709377869515,38.95179289436061],[-95.25710053048793,38.95179539457618],[-95.25710424045091,38.95178955230236],[-95.25716116312286,38.95181113506908]]],[[[-95.25753750605905,38.95103039924106],[-95.25754336562076,38.95103031164364],[-95.25754332307629,38.95102858209176],[-95.25756676023927,38.95102822987102],[-95.25756680274931,38.951029960323275],[-95.25762763075204,38.951029047905834],[-95.25762655153285,38.95098516887342],[-95.25767576828167,38.95098438732249],[-95.25767282330301,38.950864601021344],[-95.25762367760446,38.950865338287386],[-95.25762324861012,38.95084786604548],[-95.25767239310852,38.95084712965275],[-95.25766944698825,38.9507273433229],[-95.25762030257305,38.95072807971445],[-95.25761987354544,38.95071060837269],[-95.25766901798347,38.95070987108099],[-95.25766607187458,38.95059008474978],[-95.25761692755475,38.950590821139855],[-95.25761649852886,38.95057334979791],[-95.25766564287149,38.95057261250762],[-95.25766269677402,38.950452826175],[-95.25761355251461,38.95045356346403],[-95.25761285241445,38.95042511061716],[-95.25764090397854,38.950424689998094],[-95.25763836343013,38.950321374992896],[-95.25759681796016,38.95032199731936],[-95.2575950411644,38.95025572982458],[-95.25753177604092,38.950256678284894],[-95.25753161443083,38.95025010454668],[-95.25752407468686,38.95025021728422],[-95.25752370567365,38.950235215810174],[-95.25739139563102,38.95023719938952],[-95.25739196497827,38.95026033373399],[-95.25733377525177,38.95026120568741],[-95.25733669250656,38.9503798765485],[-95.25742466032084,38.95037855817834],[-95.25745873097767,38.95040416041363],[-95.25746003111391,38.950457037982105],[-95.25741238812877,38.95045775212091],[-95.25741527588096,38.950575193909984],[-95.25746291894521,38.95057447977],[-95.25746339841035,38.95059398186062],[-95.25741535231217,38.950594701787566],[-95.25741825493127,38.95071277207908],[-95.25746630110963,38.95071205215098],[-95.25746678176498,38.95073158310862],[-95.25741873557334,38.950732303036936],[-95.25742162956973,38.9508500306581],[-95.25746967584134,38.9508493107286],[-95.25747014789918,38.95086849811669],[-95.25742210161455,38.95086921804634],[-95.25742500422132,38.950987289235485],[-95.25747422275637,38.95098655107095],[-95.25747449269474,38.95099753164781],[-95.25753667523931,38.950996599951836],[-95.2575369661625,38.95100843808769],[-95.25753918226577,38.95100840489406],[-95.25753960879335,38.951025791462044],[-95.25753739384263,38.951025824682894],[-95.25753750605905,38.95103039924106]]]]},"properties":{"SDE.FloorAll.FLOORLOCATION":"6"}},{"type":"Feature","geometry":{"type":"MultiPolygon","coordinates":[[[[-95.25716116312286,38.95181113506908],[-95.25719712963972,38.95175329833251],[-95.25719726158317,38.95175334831765],[-95.25719837435219,38.95175155958052],[-95.25723575484868,38.95176573245341],[-95.2572935598449,38.951672777980654],[-95.25726832030155,38.951663208306044],[-95.25728423917862,38.9516376089564],[-95.25732845667996,38.95165437504455],[-95.25739547764444,38.951546600741246],[-95.25735126019461,38.951529834678496],[-95.25736103642849,38.951514115207864],[-95.25740525275265,38.95153088033923],[-95.25747227348305,38.951423105990465],[-95.25742805605725,38.951406340857154],[-95.25743755167414,38.95139107076119],[-95.25748204852212,38.95140738648214],[-95.25754906905334,38.95129961118753],[-95.25750485168662,38.951282846083416],[-95.2575146278522,38.951267126599504],[-95.25755884521142,38.951283891699916],[-95.25762586432053,38.95117611723296],[-95.2575815822295,38.95115932629241],[-95.2576061556947,38.951119808562545],[-95.25755142869899,38.95109905750001],[-95.25755045997838,38.95110061442843],[-95.25752937336668,38.95109261834624],[-95.25753034089962,38.951091062291106],[-95.25752507012105,38.951089063065375],[-95.25752250977494,38.951093179667396],[-95.25752450365708,38.95109393609588],[-95.25751477552745,38.95110957831016],[-95.25751278276313,38.95110882280924],[-95.25750667112301,38.95111865026644],[-95.25744966926943,38.95109703784641],[-95.25744346156692,38.95110702074207],[-95.25739917956246,38.951090229731804],[-95.25733215903624,38.95119800404127],[-95.25737644224532,38.951214795104214],[-95.25736673006962,38.95123041154902],[-95.25732244681811,38.95121362138279],[-95.2572553631974,38.951321498701525],[-95.25729964534746,38.95133828886596],[-95.25728992684832,38.951353918673746],[-95.25724564353771,38.95133712847835],[-95.25717856709036,38.951444993309735],[-95.25722284929954,38.951461783503326],[-95.25721313817411,38.951477400862636],[-95.25716885483934,38.951460609737694],[-95.25710177074997,38.95156848696543],[-95.257147477661,38.95158580205956],[-95.2571181916483,38.951632896541],[-95.25707257144319,38.95164523192076],[-95.25699266715073,38.95161487810354],[-95.25692692820786,38.951720588981544],[-95.25697928401692,38.95174043978276],[-95.25696634031517,38.95176125369665],[-95.25708538471599,38.95180639165355],[-95.25709377869515,38.95179289436061],[-95.25710053048793,38.95179539457618],[-95.25710424045091,38.95178955230236],[-95.25716116312286,38.95181113506908]]],[[[-95.25753750605905,38.95103039924106],[-95.25754336562076,38.95103031164364],[-95.25754332307629,38.95102858209176],[-95.25756676023927,38.95102822987102],[-95.25756680274931,38.951029960323275],[-95.25762763075204,38.951029047905834],[-95.25762655153285,38.95098516887342],[-95.25767576828167,38.95098438732249],[-95.25767282330301,38.950864601021344],[-95.25762367760446,38.950865338287386],[-95.25762324861012,38.95084786604548],[-95.25767239310852,38.95084712965275],[-95.25766944698825,38.9507273433229],[-95.25762030257305,38.95072807971445],[-95.25761987354544,38.95071060837269],[-95.25766901798347,38.95070987108099],[-95.25766607187458,38.95059008474978],[-95.25761692755475,38.950590821139855],[-95.25761649852886,38.95057334979791],[-95.25766564287149,38.95057261250762],[-95.25766269677402,38.950452826175],[-95.25761355251461,38.95045356346403],[-95.25761285241445,38.95042511061716],[-95.25764090397854,38.950424689998094],[-95.25763836343013,38.950321374992896],[-95.25759681796016,38.95032199731936],[-95.2575950411644,38.95025572982458],[-95.25753177604092,38.950256678284894],[-95.25753161443083,38.95025010454668],[-95.25752407468686,38.95025021728422],[-95.25752370567365,38.950235215810174],[-95.25739139563102,38.95023719938952],[-95.25739196497827,38.95026033373399],[-95.25733377525177,38.95026120568741],[-95.25733669250656,38.9503798765485],[-95.25742466032084,38.95037855817834],[-95.25745873097767,38.95040416041363],[-95.25746003111391,38.950457037982105],[-95.25741238812877,38.95045775212091],[-95.25741527588096,38.950575193909984],[-95.25746291894521,38.95057447977],[-95.25746339841035,38.95059398186062],[-95.25741535231217,38.950594701787566],[-95.25741825493127,38.95071277207908],[-95.25746630110963,38.95071205215098],[-95.25746678176498,38.95073158310862],[-95.25741873557334,38.950732303036936],[-95.25742162956973,38.9508500306581],[-95.25746967584134,38.9508493107286],[-95.25747014789918,38.95086849811669],[-95.25742210161455,38.95086921804634],[-95.25742500422132,38.950987289235485],[-95.25747422275637,38.95098655107095],[-95.25747449269474,38.95099753164781],[-95.25753667523931,38.950996599951836],[-95.2575369661625,38.95100843808769],[-95.25753918226577,38.95100840489406],[-95.25753960879335,38.951025791462044],[-95.25753739384263,38.951025824682894],[-95.25753750605905,38.95103039924106]]]]},"properties":{"SDE.FloorAll.FLOORLOCATION":"6"}}]}
