{"type":"FeatureCollection","features":[{"type":"Feature","geometry":{"type":"Polygon","coordinates":[[[-95.24823842872607,38.95885132080753],[-95.24843813825755,38.95850297927206],[-95.24837469555783,38.95848080588147],[-95.24837589305075,38.9584787173225],[-95.24835823964554,38.95847254765577],[-95.24835704215222,38.958474636214596],[-95.2483072910395,38.95845724877842],[-95.24830848853402,38.95845516022008],[-95.24829083514058,38.958448990543104],[-95.24828963764564,38.958451079101295],[-95.24822624626752,38.95842892396842],[-95.24809119047966,38.95866449279124],[-95.24802079659196,38.958639890349005],[-95.24805869098422,38.958573793582495],[-95.24801616204726,38.95855892963423],[-95.2480171205054,38.95855725898104],[-95.24775873811625,38.9584669551708],[-95.2477649635295,38.958456095378835],[-95.24775372948943,38.9584521688385],[-95.24776582231799,38.95843107612082],[-95.24774173373983,38.95842265735595],[-95.2477411324532,38.95842244751712],[-95.24773936334749,38.95842030296464],[-95.24773831468917,38.958418954172295],[-95.24773767908854,38.95841817304329],[-95.24773658660077,38.95841688269142],[-95.24773550049875,38.95841566549031],[-95.2477338595921,38.95841393403836],[-95.24773212873136,38.958412230191534],[-95.24773088882432,38.95841107963505],[-95.24772879901518,38.95840925641693],[-95.24772756527612,38.95840824389429],[-95.24772622125353,38.95840718819869],[-95.24772530960398,38.95840650055291],[-95.24772386039393,38.95840544866894],[-95.24772236882694,38.958404417408865],[-95.24772132798297,38.958403727597556],[-95.24772033811801,38.95840309216865],[-95.24771977018845,38.95840273712299],[-95.24771875208555,38.958402115443356],[-95.24771791606942,38.95840161975144],[-95.24771596001226,38.95840051167599],[-95.24771478650665,38.958399879097655],[-95.24771259547532,38.958398758234615],[-95.24771084032307,38.958397915382186],[-95.24770790734527,38.958396610180344],[-95.24770647603921,38.958396017444855],[-95.24770409840708,38.95839509402664],[-95.24770141266157,38.95839413896144],[-95.24769899153921,38.95839335420071],[-95.24769624000689,38.95839254717714],[-95.2476947024427,38.95839213396664],[-95.24769188289093,38.958391443388834],[-95.24769095258945,38.95839123475192],[-95.24768903820262,38.95839083512701],[-95.24768736423289,38.95839051601079],[-95.24768465553419,38.958390061481644],[-95.2476823149394,38.958389728343484],[-95.24767825897308,38.95838927968433],[-95.24767672874607,38.95838915233619],[-95.24767310335214,38.95838894010531],[-95.24767133841996,38.95838888198735],[-95.2476700026882,38.958388858390805],[-95.24766721379999,38.95838886248378],[-95.24766458498992,38.95838893526484],[-95.2476625506748,38.95838903657763],[-95.24766109943154,38.958389133706866],[-95.24765976902982,38.958389240013176],[-95.2476581517518,38.95838939178066],[-95.24765643602649,38.95838958176632],[-95.2476541969393,38.958389872882705],[-95.24765284786432,38.95839007337434],[-95.24764992325323,38.958390569017816],[-95.24762138549445,38.95838059544148],[-95.24760929263145,38.958401688144185],[-95.24759806315143,38.95839776349906],[-95.24759183771765,38.95840862328211],[-95.24733452574179,38.95831869178311],[-95.24733308917092,38.95832119823208],[-95.24728841622455,38.95830558465896],[-95.24725047043266,38.95837177099249],[-95.24718119425903,38.95834755865767],[-95.24731683333619,38.958110976380354],[-95.2472534425678,38.95808882071525],[-95.2472546400872,38.9580867321677],[-95.24723698687778,38.958080562330125],[-95.24723578935793,38.958082650877444],[-95.24718603879674,38.958065262959735],[-95.24718723631774,38.95806317441294],[-95.24716958312007,38.95805700456509],[-95.24716838563371,38.95805909221132],[-95.24710499950105,38.95803693837522],[-95.24690528352961,38.95838527850166],[-95.24695823991914,38.95840378627435],[-95.2469570423856,38.95840587481872],[-95.2469746956519,38.958412044698726],[-95.24697589318501,38.95840995615416],[-95.24704757557126,38.95843500980944],[-95.24704637919304,38.958437098382106],[-95.2470640324749,38.9584432682485],[-95.2470652288176,38.958441180576045],[-95.24711711938755,38.958459315996365],[-95.24715591354713,38.95839165290973],[-95.24722518860207,38.95841586523219],[-95.24718748174314,38.958481633644034],[-95.24723188259759,38.95849715247365],[-95.2472304460545,38.95849965802089],[-95.24744442688424,38.958574445177035],[-95.24743580521314,38.958589482022916],[-95.24748047840652,38.95860509463851],[-95.24747712604507,38.95861094241411],[-95.24748996009211,38.95861542787246],[-95.24748816440416,38.95861856026075],[-95.24749190984504,38.95861986943453],[-95.24748364733028,38.95863427944609],[-95.24749327687886,38.95863764431059],[-95.24748633198612,38.95864975683561],[-95.24753019895688,38.9586650880349],[-95.24756587837653,38.958602854660846],[-95.24756694882716,38.95860322884626],[-95.24756826529415,38.95860093133136],[-95.24759073340216,38.958608784446724],[-95.2475894169708,38.958611081061505],[-95.24759048626842,38.95861145521933],[-95.24755480686608,38.9586736886009],[-95.24759706817088,38.95868845894682],[-95.24760401189525,38.95867634638783],[-95.24761364142023,38.958679712142676],[-95.24762190276054,38.958665302094545],[-95.24762564705314,38.958666611236666],[-95.24762744388951,38.958663478873675],[-95.24764215467997,38.95866861989608],[-95.2476455069955,38.95866277301618],[-95.24768830355643,38.95867772997096],[-95.24769692399623,38.958662693979456],[-95.2479125103588,38.95873804106974],[-95.2479138279703,38.958735743578266],[-95.24795715868885,38.95875088794773],[-95.24799493428814,38.95868499926688],[-95.24806532821177,38.958709601724706],[-95.24802653590127,38.958777265141116],[-95.24807842577619,38.95879540100391],[-95.24807722942231,38.95879748958715],[-95.24809488288406,38.95880365929647],[-95.24809607923753,38.95880157071303],[-95.24816776357102,38.9588266237025],[-95.24816656606605,38.9588287122593],[-95.24818421954342,38.95883488195499],[-95.24818541704795,38.95883279339803],[-95.24823842872607,38.95885132080753]]]},"properties":{"SDE.FloorAll.FLOORLOCATION":"-1"}},{"type":"Feature","geometry":{"type":"Polygon","coordinates":[[[-95.24824174544989,38.95885836509184],[-95.2484414447181,38.958509961122715],[-95.24837799040888,38.958487789261014],[-95.24837918674865,38.958485700674615],[-95.24836153103503,38.95847953095368],[-95.24836033354164,38.95848161951253],[-95.24831057431562,38.95846423278662],[-95.24831177065697,38.9584621442009],[-95.24829411495512,38.95845597446968],[-95.24829291742512,38.95845806392823],[-95.24822951331932,38.95843590939653],[-95.24809443536165,38.95867157322673],[-95.24802402871028,38.95864697228625],[-95.2480619509981,38.95858081129253],[-95.24801941510185,38.95856594808168],[-95.24802037240677,38.95856427740108],[-95.24776194364902,38.95847397790551],[-95.24776816913254,38.9584631163126],[-95.2476012386116,38.95840478732731],[-95.24759501310758,38.95841564891128],[-95.24733765588151,38.958325722654386],[-95.2473362193106,38.958328229103394],[-95.24729153821652,38.958312617140635],[-95.24719060942476,38.958488697806295],[-95.2472350183919,38.95850421592601],[-95.24723358181367,38.95850672237371],[-95.24744760093445,38.9585815050251],[-95.2474389803463,38.95859654369935],[-95.24748740593964,38.95861346475154],[-95.24750177395518,38.95858840029724],[-95.24765907299808,38.95864336361976],[-95.24764470614528,38.95866842902117],[-95.24769152275125,38.95868478727829],[-95.24770014329644,38.958669748585415],[-95.24791576910361,38.958745091197954],[-95.2479170855619,38.95874279367906],[-95.24796042439307,38.95875793733854],[-95.2479982278879,38.95869198443053],[-95.24806863454006,38.95871658628701],[-95.24802981433405,38.958784313930636],[-95.2480817135108,38.95880244821009],[-95.2480805171569,38.95880453679337],[-95.24809817292716,38.95881070655692],[-95.24809937043383,38.95880861800083],[-95.2481710675311,38.95883366948859],[-95.24816987002613,38.9588357580454],[-95.24818752696524,38.958841927822704],[-95.24818872446974,38.958839839265686],[-95.24824174544989,38.95885836509184]]]},"properties":{"SDE.FloorAll.FLOORLOCATION":"-2"}},{"type":"Feature","geometry":{"type":"Polygon","coordinates":[[[-95.24823842876111,38.958851319907104],[-95.24837787796031,38.958607765786965],[-95.24838742899263,38.95861110257741],[-95.24839003709172,38.95860655110088],[-95.24838685759606,38.95860544013841],[-95.24839859751552,38.95858495812538],[-95.24840177701047,38.95858606908752],[-95.24840438626089,38.95858151763798],[-95.24839484662363,38.958578184724125],[-95.2484361146186,38.95850618647343],[-95.24837331398518,38.95848424281076],[-95.24837449917496,38.958482173786784],[-95.24836893507656,38.95848022937654],[-95.24837699823078,38.95846616154689],[-95.2483690495256,38.95846338368947],[-95.24836869408755,38.95846400430936],[-95.24831145760619,38.95844400502339],[-95.24831181304464,38.958443384403665],[-95.24830386319137,38.958440606514415],[-95.24829579999044,38.95845467523935],[-95.24829023474318,38.958452730798],[-95.24828904955145,38.95845479982114],[-95.24822624897428,38.95843285697915],[-95.24809224603958,38.95866664293309],[-95.2480225090347,38.95864227508032],[-95.24806027780612,38.95857638081104],[-95.24801814618493,38.95856165877375],[-95.24801909478632,38.95856000410864],[-95.24776312242263,38.95847056230443],[-95.24776928844949,38.95845980474352],[-95.2477549796577,38.95845480485754],[-95.24775723350155,38.95845087404055],[-95.24772755571485,38.95844050392793],[-95.24772575259668,38.95844364966152],[-95.24771607961998,38.95844498727989],[-95.24771325732276,38.95844991036986],[-95.24773352876427,38.958456993939535],[-95.24772226299453,38.958476648103904],[-95.24761938771977,38.95844070210439],[-95.2476311031221,38.95842026193971],[-95.24765117187012,38.95842727402191],[-95.24765354340806,38.958423136916345],[-95.24764837813075,38.95841661289895],[-95.24765015650452,38.95841350983784],[-95.2476204787492,38.95840313969781],[-95.24761824964646,38.958407027840785],[-95.24760394084093,38.95840202883657],[-95.24759777818339,38.95841278827168],[-95.24757605025614,38.95840519605789],[-95.24757628685826,38.958404781703564],[-95.24735582264543,38.95832774731418],[-95.24735558607736,38.958328160767735],[-95.24734180685057,38.958323346436934],[-95.2473408582365,38.958325001096526],[-95.24732840000623,38.958320648010194],[-95.24732863657442,38.95832023455676],[-95.24731167792042,38.958314308330365],[-95.2473114413521,38.95831472178383],[-95.24729766213098,38.9583099074478],[-95.24728853125106,38.95832583792535],[-95.24728800058881,38.958325652291464],[-95.2472648173294,38.958366099535],[-95.24726534683865,38.95836628514164],[-95.24726013806357,38.95837537200151],[-95.24719149615066,38.95835141175358],[-95.24719214259086,38.958350284347546],[-95.24719267213486,38.958350469054096],[-95.24720097326565,38.958335986979876],[-95.2472004437568,38.958335801373],[-95.24720684761476,38.95832462951566],[-95.24720737712356,38.95832481512248],[-95.2472473420826,38.958255093468466],[-95.24724681257423,38.9582549078618],[-95.24725369074262,38.958242908222175],[-95.24725422025092,38.95824309382883],[-95.24726240251326,38.95822881801286],[-95.24726187296993,38.9582286333066],[-95.24726851341181,38.95821704709204],[-95.24726904407319,38.958217232725985],[-95.2472824437933,38.95819385403274],[-95.2472819142853,38.95819366842623],[-95.24728968163362,38.95818011725666],[-95.24729021114157,38.95818030286315],[-95.24731796146352,38.958131890865396],[-95.24731743080261,38.958131705231615],[-95.24732531701524,38.95811794689633],[-95.24730716482475,38.958111607509004],[-95.24730740023918,38.95811119402821],[-95.24726765590587,38.958097306142086],[-95.24726741703164,38.95809771954064],[-95.24726251703638,38.95809600353188],[-95.24726370340532,38.95809393454657],[-95.24725813821483,38.95809199005559],[-95.24726620273404,38.958077921429734],[-95.24725825296301,38.958075143468726],[-95.24725789751717,38.958075764085216],[-95.2472006616292,38.95805576515078],[-95.24720101822868,38.958055144561854],[-95.2471930684627,38.95805236659636],[-95.24718500393185,38.958066435217155],[-95.24717943989887,38.958064490749834],[-95.24717825226952,38.958066562408106],[-95.24717288636934,38.95806468753282],[-95.24717312178443,38.958064274052255],[-95.2471330449766,38.95805027007789],[-95.24713280840814,38.95805068353099],[-95.24711545238192,38.95804461896397],[-95.24710772056211,38.958058116892495],[-95.24710718990235,38.95805793125777],[-95.24707922918253,38.95810670411019],[-95.24707975872447,38.95810688881728],[-95.24707418460501,38.95811661317336],[-95.24706464628149,38.958113279276944],[-95.2470620369621,38.95811783069653],[-95.247066011252,38.95811922012031],[-95.24705426861222,38.95813970464571],[-95.24705029669794,38.958138313475445],[-95.24704768737675,38.9581428648947],[-95.24705722689171,38.95814619791943],[-95.24705214510871,38.95815495793702],[-95.2470516144133,38.95815477320245],[-95.24698143664604,38.958277204777886],[-95.24698196615394,38.958277390385774],[-95.24697731829387,38.95828550010519],[-95.24697678759767,38.95828531537027],[-95.24695982980315,38.958314900101705],[-95.24696035934629,38.95831508480928],[-95.24695429424553,38.95832553019867],[-95.24695376358414,38.95832534456325],[-95.24692435337678,38.95837665326066],[-95.24692488403846,38.95837683889619],[-95.24691753150634,38.95838966539408],[-95.24697011337129,38.958408038997966],[-95.24696892698849,38.95841010798028],[-95.24698641633395,38.958416218991545],[-95.24698760156316,38.95841414998172],[-95.24698786689422,38.95841424279935],[-95.24698763028864,38.958414657152474],[-95.24705413944153,38.95843789727188],[-95.24705437716499,38.95843748384632],[-95.24705861683897,38.95843896518747],[-95.24705743045826,38.958441034170654],[-95.24707491981901,38.95844714516858],[-95.24707610504615,38.9584450761578],[-95.24712751178458,38.95846303876636],[-95.24713486432131,38.95845021135485],[-95.24713539383086,38.95845039696205],[-95.24716480391572,38.95839908821149],[-95.24716427440652,38.958398902604394],[-95.24716588432217,38.95839609475751],[-95.24723451389609,38.95842007635613],[-95.2472240183113,38.95843838610798],[-95.24722348880161,38.95843820050116],[-95.24720463264693,38.95847109545829],[-95.24720516331004,38.95847128109254],[-95.24719721761268,38.95848514255059],[-95.24721073149448,38.958489864981765],[-95.24721049492501,38.95849027843499],[-95.24722745361277,38.95849620467602],[-95.24722769021724,38.958495790322395],[-95.24724120410305,38.95850051275001],[-95.24723978115729,38.958502995188354],[-95.24725408992246,38.95850799513784],[-95.24725385331807,38.95850840949153],[-95.24743775052323,38.95857266717901],[-95.2474379871267,38.95857225282491],[-95.24745176637346,38.95857706804457],[-95.2474432275441,38.95859196356278],[-95.24746310157735,38.95859890796845],[-95.24746405019229,38.958597253307865],[-95.24747676926931,38.95860169728574],[-95.2474758206196,38.95860335284679],[-95.24748748406464,38.95860742749513],[-95.2474841638261,38.95861322105875],[-95.24749687832947,38.9586176640245],[-95.24749509994378,38.95862076708318],[-95.24752159828886,38.95863002626896],[-95.2475230212624,38.95862754292676],[-95.24752699558996,38.95862893233473],[-95.24753821539409,38.95862877871155],[-95.24754208048995,38.95862203557222],[-95.24760037714555,38.95864240467429],[-95.2475961777207,38.958649730181584],[-95.24760225100425,38.958655227630615],[-95.24760622536999,38.95865661613546],[-95.24760480239885,38.95865909947864],[-95.24763130077267,38.95866835863932],[-95.24763307918857,38.95866525467815],[-95.24764765334727,38.9586703473952],[-95.24765097354009,38.95866455472734],[-95.24769337051418,38.95867936881346],[-95.24770190933647,38.958664472376604],[-95.24791548528557,38.95873909942468],[-95.24791631501456,38.95873765192427],[-95.24795924279036,38.958752650643746],[-95.2479971305566,38.95868654923171],[-95.24806686874967,38.958710917127014],[-95.24802844614177,38.95877794944888],[-95.24807985336426,38.95879591163479],[-95.24807866700735,38.958797980628404],[-95.24809615654473,38.95880409147213],[-95.24809734174796,38.958802022451],[-95.24816835783788,38.95882683607609],[-95.2481671714831,38.95882890507056],[-95.24818466103572,38.95883501590093],[-95.2481858462369,38.95883294687891],[-95.24823842876111,38.958851319907104]]]},"properties":{"SDE.FloorAll.FLOORLOCATION":"1"}},{"type":"Feature","geometry":{"type":"Polygon","coordinates":[[[-95.24824174544989,38.95885836509184],[-95.24824964638378,38.95884458181192],[-95.2482480418327,38.95884402102083],[-95.24825546355324,38.958831072617876],[-95.24825706810411,38.95883163340888],[-95.24826030031186,38.95882599454848],[-95.24825869576105,38.95882543375753],[-95.2482661174777,38.95881248535388],[-95.24826772202822,38.958813046144705],[-95.24827095423429,38.95880740728401],[-95.24826934968382,38.958806846493204],[-95.24827677139655,38.95879389808884],[-95.24827830990154,38.958794435682734],[-95.24828532419544,38.95878219768761],[-95.24828371964549,38.95878163689702],[-95.24829174066213,38.958767644676556],[-95.24829334521188,38.95876820546703],[-95.24829609820418,38.95876340148311],[-95.24829449365456,38.95876284069265],[-95.24829988065692,38.958753442590144],[-95.24830148520638,38.958754003380534],[-95.24830713592952,38.95874414650421],[-95.24830553022706,38.958743585686534],[-95.24831332714984,38.95872998288303],[-95.24831493169891,38.958730543673234],[-95.24831814897219,38.958724932394944],[-95.24831654327001,38.95872437157742],[-95.24832408506477,38.9587112142323],[-95.24832568961345,38.95871177502234],[-95.2483291583038,38.95870572450524],[-95.24832755375517,38.95870516371523],[-95.24833378539392,38.95869429052393],[-95.2483353899423,38.958694851313865],[-95.248338862336,38.95868879457576],[-95.24833725663449,38.95868823375856],[-95.2483439810404,38.95867650348015],[-95.24834558558854,38.95867706426992],[-95.24834905682722,38.95867100750421],[-95.2483474522792,38.95867044671446],[-95.24835416441351,38.95865873507005],[-95.24835570745891,38.958659274573144],[-95.24835917869588,38.9586532178071],[-95.2483575741482,38.95865265701754],[-95.2483641487732,38.95864118634124],[-95.24836569751423,38.958641727781846],[-95.24836916990267,38.958635671042835],[-95.24836756420217,38.95863511022601],[-95.2483743876903,38.9586232065586],[-95.24837605943573,38.95862379057209],[-95.24838419939698,38.958609588479526],[-95.24838259485016,38.95860902769027],[-95.24839671990306,38.95858438454744],[-95.2483983256027,38.95858494536387],[-95.24840589711249,38.958571735546876],[-95.24840428687035,38.95857117282031],[-95.24841099024735,38.9585594780884],[-95.24841259594655,38.958560038904636],[-95.24841603746366,38.958554033702825],[-95.24841443176459,38.95855347288664],[-95.24842137533567,38.95854136027856],[-95.24842297988127,38.95854192106731],[-95.24842657120547,38.958535655361395],[-95.24842496665991,38.95853509457275],[-95.24843167003007,38.95852339983958],[-95.24843327915318,38.958523961637994],[-95.24844233297384,38.95850816623364],[-95.24842360903176,38.95850162420036],[-95.24842288833467,38.95850288052821],[-95.248407908729,38.95849764670826],[-95.24840862942635,38.95849639038048],[-95.24839819700465,38.9584927451838],[-95.2483974774604,38.95849400153886],[-95.2483835683118,38.95848914189351],[-95.24838428785623,38.95848788553851],[-95.24837893786173,38.958486015604244],[-95.24838013535462,38.958483927045144],[-95.24836248072444,38.9584777591525],[-95.2483612843844,38.95847984773875],[-95.24835646960004,38.95847816534261],[-95.24835574890201,38.95847942167005],[-95.24834077045955,38.958474187868816],[-95.24834149003965,38.9584729306137],[-95.24833319853018,38.95847003376765],[-95.24833247783177,38.95847129009495],[-95.24831749823954,38.95846605626331],[-95.24831821893811,38.95846479993608],[-95.24831153200854,38.95846246297825],[-95.24831272834983,38.958460374392516],[-95.24829507488462,38.958454206516954],[-95.24829387742479,38.95845629417475],[-95.24828799215645,38.958454238497474],[-95.24828727261064,38.958455494851826],[-95.24827175778152,38.95845007437513],[-95.24827247851586,38.95844881714784],[-95.24826498870651,38.95844620067853],[-95.24826427045379,38.95844745345861],[-95.24824929087167,38.958442219618156],[-95.24825000912456,38.958440966838225],[-95.24823048355896,38.95843414349145],[-95.24822107055616,38.958450565719474],[-95.24822267509818,38.95845112651095],[-95.2482154924567,38.958463657009716],[-95.24821388791452,38.95846309621811],[-95.2482104166744,38.95846915297991],[-95.24821202121673,38.95846971377156],[-95.24820639521404,38.958479528872346],[-95.24820479067151,38.958478968080634],[-95.24820143837597,38.95848481587725],[-95.24820304291853,38.95848537666898],[-95.24819633947914,38.95849707228933],[-95.24819473493635,38.95849651149747],[-95.24818575659584,38.958512175293954],[-95.24818736229217,38.95851273611329],[-95.24817491273673,38.958534455769446],[-95.24817330704002,38.95853389494992],[-95.24816397073305,38.95855018471155],[-95.24816557527684,38.958550745503835],[-95.24815887182504,38.95856244112193],[-95.24815726612782,38.95856188030218],[-95.24814852796997,38.95857712622068],[-95.24815013251423,38.95857768701316],[-95.2481434290573,38.958589382630336],[-95.24814182451284,38.95858882183782],[-95.24813835329547,38.95859487769697],[-95.24813995784004,38.958595438489574],[-95.24813325437977,38.9586071341062],[-95.24813164868179,38.958606573286104],[-95.24812805848106,38.958612839010215],[-95.248129663026,38.95861339980298],[-95.24812295959737,38.958625094518574],[-95.24812135389901,38.958624533698334],[-95.24811776369651,38.95863079942214],[-95.24811936824177,38.958631360214994],[-95.2481126647747,38.9586430558304],[-95.24811105907601,38.95864249501001],[-95.24810291909117,38.95865669618295],[-95.24810452479005,38.958657257003416],[-95.24809710306015,38.958670205396885],[-95.24809549736096,38.95866964457631],[-95.24809441995644,38.958671524194955],[-95.24802402354383,38.958646927102386],[-95.24803054747005,38.958635544461664],[-95.24802840768108,38.958634797027166],[-95.24803559037308,38.95862226654018],[-95.24803773016174,38.95862301397455],[-95.24804706650743,38.95860672422319],[-95.24804492675422,38.95860597588859],[-95.24805210944037,38.95859344540054],[-95.24805424922833,38.95859419283463],[-95.24806191112275,38.958580827469376],[-95.24804746677125,38.95857578024316],[-95.248046269267,38.95857786879875],[-95.24803128967332,38.958572634930235],[-95.24803248717795,38.958570546374766],[-95.2480193797693,38.958565966168756],[-95.24802033822746,38.95856429551556],[-95.2480053586386,38.958559061643626],[-95.24800392208657,38.95856156810086],[-95.2479889425346,38.95855633332646],[-95.247990379052,38.958553827769784],[-95.24797968019236,38.958550088792364],[-95.24797824363961,38.958552595249266],[-95.2479632640564,38.958547361371906],[-95.24796470060951,38.958544854915196],[-95.24795400171757,38.958541116835754],[-95.24795256519918,38.95854362239197],[-95.24793758561975,38.95853838851132],[-95.24793902217358,38.958535882054896],[-95.24792832213113,38.95853214394571],[-95.247926885577,38.958534650402015],[-95.24791190718958,38.95852941564501],[-95.24791334370914,38.95852691008931],[-95.24790264370445,38.958523171077346],[-95.24790120714958,38.95852567753335],[-95.2478862275777,38.958520443646044],[-95.24788766413306,38.95851793719027],[-95.24787696524922,38.9585141991037],[-95.24787552872863,38.958516704658976],[-95.24786054916062,38.95851147076836],[-95.2478619857167,38.958508964312884],[-95.24785128568239,38.95850522619659],[-95.24784985027922,38.958507732679315],[-95.24783487075005,38.95850249788498],[-95.24783630727181,38.958499992330204],[-95.24782560727526,38.95849625331117],[-95.24782417071815,38.958498759766165],[-95.24780919231094,38.95849352589629],[-95.24781062771524,38.958491019414076],[-95.24779992883958,38.95848728132042],[-95.2477984923168,38.95848978687476],[-95.24778351276015,38.95848455297415],[-95.24778494928334,38.95848204742001],[-95.24776194591662,38.958474008600994],[-95.24776817017683,38.95846314878151],[-95.24775372587028,38.958458101518644],[-95.24775600075638,38.95845413425089],[-95.24772604170178,38.95844366553639],[-95.24772422239963,38.9584468415275],[-95.24771445772285,38.95844819228986],[-95.24771160938478,38.95845316162532],[-95.24773207214731,38.95846031192127],[-95.24772069987279,38.95848015191348],[-95.24770826206912,38.95847580656392],[-95.2477074237055,38.95847726827752],[-95.24770581916705,38.95847670747892],[-95.24770557896558,38.95847712535298],[-95.24769646873635,38.95847394136237],[-95.24769670778466,38.95847352346097],[-95.24769563845351,38.95847315020451],[-95.2476965957648,38.95847147952656],[-95.24769502313076,38.95847092939861],[-95.24769406578437,38.95847260097691],[-95.24769299648825,38.95847222682006],[-95.24769275628672,38.95847264469412],[-95.24768364605865,38.95846946070252],[-95.24768388510701,38.95846904280109],[-95.24768281462278,38.95846866951717],[-95.24768377308759,38.9584669988667],[-95.24768136570388,38.958466157654605],[-95.24768040723905,38.95846782830508],[-95.24767933794308,38.958467454148085],[-95.24767909889468,38.95846787204948],[-95.24766971648658,38.95846459327568],[-95.24766995549994,38.958464176274674],[-95.24766888620414,38.95846380211759],[-95.24766984351595,38.95846213143988],[-95.24766827084726,38.958461582211946],[-95.24766731353543,38.95846325288968],[-95.24766624308639,38.95846287870518],[-95.24766600403794,38.95846329660655],[-95.24765689377726,38.958460113513254],[-95.24765713282571,38.95845969561189],[-95.24765606237683,38.958459321427306],[-95.24765702084213,38.958457650777085],[-95.24765461345905,38.958456809564446],[-95.24765365499373,38.95845848021465],[-95.24765258569803,38.9584581060574],[-95.2476523454963,38.95845852393135],[-95.24764293461108,38.95845523546708],[-95.24764317477778,38.95845481849355],[-95.24764210432897,38.95845444430885],[-95.24764306164136,38.95845277363136],[-95.24764149012628,38.958452224430424],[-95.24764053166069,38.95845389508057],[-95.24763946236519,38.9584535209232],[-95.2476392233166,38.9584539388245],[-95.24762955849235,38.95845056141834],[-95.24762979750592,38.958450144417455],[-95.24762872821054,38.958449770259996],[-95.2476295654222,38.958448308519564],[-95.24761685209414,38.95844386559562],[-95.24762867889503,38.95842323250974],[-95.2476489366573,38.95843031126374],[-95.2476513316842,38.95842613416063],[-95.24764611567326,38.95841954945795],[-95.24764791134922,38.95841641706719],[-95.2476179534798,38.95840594835211],[-95.24761570329962,38.95840987384622],[-95.2476012590149,38.95840482656434],[-95.24759503812373,38.95841568825781],[-95.24729304310057,38.958310164585065],[-95.24725419762736,38.958377934642684],[-95.2471849189647,38.9583537267573],[-95.24718604717683,38.95835175823031],[-95.24718444264532,38.958351197424506],[-95.2471918645089,38.95833824908912],[-95.24719346904016,38.958338809894805],[-95.2472008909008,38.95832586155881],[-95.24719928636979,38.958325300753195],[-95.2472067082279,38.9583123524168],[-95.24720831275874,38.958312913222336],[-95.24721154502637,38.95830727439085],[-95.24720994049571,38.95830671358538],[-95.24721736234997,38.95829376524831],[-95.24721896688041,38.95829432605367],[-95.24722219914635,38.95828868722192],[-95.24722059461601,38.9582881264166],[-95.24722789636459,38.958275387015355],[-95.24722950204787,38.95827594784796],[-95.24723273431219,38.9582703090159],[-95.24723112862894,38.95826974818331],[-95.24723867057716,38.958256590908285],[-95.24724027510695,38.9582571517134],[-95.247248176204,38.95824336760063],[-95.24724657167451,38.95824280679567],[-95.24725387341365,38.95823006739272],[-95.24725547909617,38.95823062822498],[-95.24726326008566,38.95821705304777],[-95.24726165440343,38.958216492215605],[-95.24727422428498,38.95819456372032],[-95.2472758288136,38.9581951245249],[-95.2472844481642,38.95818008763569],[-95.24728284363577,38.95817952683118],[-95.24728954719619,38.95816783126336],[-95.24729115172438,38.95816839206775],[-95.24729426387741,38.958162962170526],[-95.24729265934934,38.958162401366195],[-95.24729936290646,38.958150705797756],[-95.24730096858755,38.95815126662935],[-95.24730408073904,38.95814583673187],[-95.24730247621132,38.95814527592767],[-95.24730977793037,38.95813253652112],[-95.24731138245787,38.95813309732522],[-95.24732000179334,38.95811806043328],[-95.24725660853585,38.95809590921707],[-95.24725780490208,38.958093820642134],[-95.24724015165553,38.958087651705476],[-95.24723895413568,38.95808974025281],[-95.24718920227525,38.95807235591068],[-95.24719039864304,38.95807026733645],[-95.24717274540826,38.958064098389485],[-95.24717154788681,38.95806618693614],[-95.24710815472238,38.95804403563868],[-95.24709953992866,38.95805907352492],[-95.24710114445284,38.95805963433189],[-95.24709384266865,38.958072374625786],[-95.24709223699107,38.95807181379128],[-95.24708912482649,38.958077243683114],[-95.24709072935104,38.95807780449029],[-95.24708402580134,38.95808949914633],[-95.24708242124156,38.958088939239516],[-95.24707930907549,38.958094369131054],[-95.24708091360036,38.95809492993836],[-95.2470742100474,38.95810662459384],[-95.2470726009446,38.95810606277654],[-95.24706517908352,38.958119011104586],[-95.24706678360883,38.95811957191202],[-95.24705265815014,38.95814421579429],[-95.24705105247125,38.958143654959215],[-95.24704387080656,38.95815618541312],[-95.24704554252996,38.9581567694458],[-95.2470377615053,38.95817034460846],[-95.24703615582588,38.958169783773236],[-95.24703268449932,38.958175840499926],[-95.24703423325498,38.95817638105789],[-95.24702645222598,38.958189956219826],[-95.24702484769941,38.95818939541178],[-95.24702137637091,38.95819545213812],[-95.24702291827785,38.958195990731205],[-95.24701668522303,38.95820686652636],[-95.24701507954295,38.95820630569077],[-95.24701160821277,38.958212362416816],[-95.24701321273973,38.958212923225034],[-95.24700721628682,38.958223384666454],[-95.24700561175959,38.958222823858144],[-95.24700214042782,38.958228880583896],[-95.24700374495508,38.958229441392255],[-95.2469977435709,38.95823991082715],[-95.2469961390434,38.95823935001869],[-95.24699267022679,38.95824540139657],[-95.2469942747544,38.95824596220503],[-95.24698650237866,38.9582595222492],[-95.24698489785085,38.958258961440585],[-95.24698190461912,38.958264182365774],[-95.24698350914707,38.95826474317441],[-95.24697548904666,38.95827873623274],[-95.24697388451852,38.958278175424],[-95.24696823361167,38.95828803313611],[-95.24696983929323,38.95828859397232],[-95.24696445214941,38.958297992013456],[-95.24696284646774,38.95829743117719],[-95.246960093438,38.95830223422927],[-95.24696169796665,38.958302795038215],[-95.2469536778576,38.95831678809496],[-95.24695207332877,38.958316227285934],[-95.24694505888539,38.958328464300486],[-95.24694659737008,38.95832900191205],[-95.24693917546253,38.95834195023179],[-95.24693757093324,38.95834138942252],[-95.24693433864215,38.95834702824631],[-95.2469359431716,38.9583475890556],[-95.24692852126013,38.95836053737463],[-95.24692691673046,38.95835997656525],[-95.24692368443769,38.95836561538871],[-95.24692528896745,38.958366176198155],[-95.24691786705213,38.95837912451648],[-95.24691626136892,38.95837856367956],[-95.24690836134529,38.958392347796924],[-95.2469614396964,38.95841089541418],[-95.2469602433161,38.95841298398596],[-95.24697789665453,38.958419152064685],[-95.24697909418767,38.9584170635201],[-95.24698043108157,38.95841753145638],[-95.24698138956225,38.958415860811726],[-95.24699931050573,38.958422122659975],[-95.24699835317855,38.958423793332194],[-95.24700397076933,38.958425756202544],[-95.2470049280964,38.95842408553032],[-95.24702284904403,38.95843034737493],[-95.24702189168225,38.95843201894773],[-95.2470275093094,38.95843398091657],[-95.247028466636,38.958432310244135],[-95.24704638870595,38.958438573012906],[-95.24704543022649,38.9584402436581],[-95.24705078021724,38.958442112753566],[-95.24704958268579,38.95844420129889],[-95.24706723715798,38.9584503702918],[-95.24706843468901,38.958448281746236],[-95.24712032652339,38.95846641449134],[-95.24712822766722,38.95845263038704],[-95.24712662198067,38.95845206955303],[-95.24713404386546,38.95843912122144],[-95.24713564955172,38.95843968205534],[-95.247138881831,38.95843404322597],[-95.24713727614478,38.958433482392145],[-95.24714469917885,38.95842053408721],[-95.24714630371165,38.9584210948936],[-95.24714953598917,38.95841545606388],[-95.24714793030329,38.95841489523017],[-95.24715535333345,38.958401946924546],[-95.24715695786591,38.95840250773077],[-95.24715906077498,38.95839883740016],[-95.24722833947298,38.95842304530086],[-95.24719069140387,38.95848872678941],[-95.24723188445127,38.95850312133371],[-95.24723044790804,38.95850562688098],[-95.24744764646685,38.95858152142683],[-95.24743902710208,38.95859655832773],[-95.247459089067,38.95860356757763],[-95.2474600463857,38.95860189690162],[-95.24747288616105,38.95860638339916],[-95.24747192768938,38.95860805404791],[-95.24748370155902,38.95861216826823],[-95.2474803503507,38.95861801607132],[-95.24749318558756,38.95862250065633],[-95.24749138989951,38.95862563304459],[-95.24751813760878,38.95863498016242],[-95.24751957417953,38.95863247371123],[-95.24752358726076,38.958633875755204],[-95.24753491330152,38.95863372104941],[-95.24753953266814,38.95862566019982],[-95.24751786614877,38.958618090162666],[-95.24752935863887,38.95859804035332],[-95.24754000282897,38.95860176005035],[-95.24754096129901,38.958600089401116],[-95.24754203059621,38.95860046355937],[-95.24754226964585,38.95860004565828],[-95.24755193452138,38.95860342217126],[-95.24755169547178,38.95860384007239],[-95.24755276476914,38.95860421423053],[-95.24755180745258,38.958605884907286],[-95.24755338012358,38.9586064341368],[-95.24755433744008,38.95860476346003],[-95.24755540677249,38.958605136717786],[-95.24755564694027,38.958604719744464],[-95.24756505784134,38.95860800821573],[-95.24756481882687,38.95860842521651],[-95.24756588812438,38.95860879937453],[-95.24756493080805,38.95861047005137],[-95.24756733819528,38.95861131126589],[-95.24756829551154,38.95860964058902],[-95.24756936596225,38.95861001477441],[-95.24756960501173,38.95860959687325],[-95.24757871644101,38.95861278000075],[-95.24757847623835,38.95861319787457],[-95.2475795466892,38.95861357205986],[-95.24757858821994,38.958615242709435],[-95.24758016089135,38.958615791938556],[-95.24758111820732,38.9586141212616],[-95.24758218865819,38.95861449544686],[-95.24758242770764,38.95861407754567],[-95.2475918101666,38.95861735542608],[-95.2475915711172,38.958617773327276],[-95.24759264041498,38.95861814748507],[-95.24759168309917,38.958619818162155],[-95.24759409048704,38.958620659376066],[-95.24759504780275,38.95861898869901],[-95.24759611828881,38.95861936198375],[-95.24759635730314,38.958618944982916],[-95.24760546873486,38.95862212810833],[-95.24760522853231,38.958622545982195],[-95.24760629901843,38.95862291926686],[-95.24760534166786,38.95862459084441],[-95.24760691318643,38.95862514004581],[-95.24760787050197,38.95862346936858],[-95.24760894098817,38.958623842653246],[-95.2476091800375,38.95862342475198],[-95.24761829143522,38.958626608776754],[-95.24761805238597,38.95862702667804],[-95.24761965692716,38.958627587477864],[-95.24761869961186,38.95862925815513],[-95.24763153824904,38.958633744607724],[-95.24762004697035,38.95865379355412],[-95.24759838046882,38.958646222631586],[-95.2475934231391,38.958654870269314],[-95.24759955327332,38.95866041953661],[-95.24760356520449,38.95866182155041],[-95.24760212863613,38.958664328002634],[-95.24762887756302,38.958673674221885],[-95.24763067324619,38.95867054183148],[-95.24764538522665,38.95867568198046],[-95.24764873642404,38.958669834172625],[-95.24765863358964,38.95867329279463],[-95.24765959205777,38.958671622144415],[-95.24767243070522,38.958676108592435],[-95.24767147339053,38.95867777927018],[-95.24769153536646,38.95868478938021],[-95.24770015353512,38.958669752433345],[-95.2477167376679,38.95867554714308],[-95.2477180552846,38.95867324965386],[-95.24773303372312,38.95867848353543],[-95.24773171726001,38.95868078105216],[-95.24774081161789,38.958683958353944],[-95.24774212919888,38.95868166176484],[-95.24775710764101,38.95868689564333],[-95.24775579117856,38.95868919316038],[-95.2477648855386,38.958692370460284],[-95.24776620315404,38.95869007297048],[-95.24778118159972,38.958695306845854],[-95.2477798651379,38.95869760436318],[-95.24778895946505,38.95870078256153],[-95.2477902759266,38.9586984850441],[-95.2478052555291,38.958703718943724],[-95.24780393906786,38.95870601646133],[-95.24781303343222,38.95870919375744],[-95.24781434985815,38.95870689714017],[-95.2478293294642,38.95871213103661],[-95.2478280130036,38.958714428554494],[-95.24783710737013,38.95871760584869],[-95.24783842383049,38.95871530833071],[-95.24785340340497,38.95872054312454],[-95.24785208698013,38.95872283974226],[-95.24786118131375,38.95872601793495],[-95.2478624977735,38.95872372041676],[-95.24787747738662,38.95872895430698],[-95.24787616092728,38.95873125182541],[-95.24788525526313,38.95873443001627],[-95.24788657172218,38.95873213249774],[-95.24790155133891,38.958737366384916],[-95.24790023488019,38.95873966390355],[-95.24791574859111,38.958745084402494],[-95.24791706504944,38.95874278688365],[-95.24793177703069,38.958747927896646],[-95.24793273549341,38.95874625724417],[-95.2479477139633,38.958751491098],[-95.24794675665412,38.95875316177795],[-95.24796039818463,38.95875792860544],[-95.2479697952103,38.9587415339553],[-95.2479665861172,38.95874041236535],[-95.24797233230939,38.95873038743872],[-95.24797554140211,38.958731509028524],[-95.24798422012529,38.958716368055825],[-95.2479810110331,38.958715246466255],[-95.24798675606797,38.95870522151151],[-95.24798996631301,38.95870634312828],[-95.24799804687032,38.95869224599549],[-95.24806844328396,38.958716844004165],[-95.24806640857204,38.958720394303505],[-95.24806801311888,38.95872095509712],[-95.24806059137562,38.95873390348821],[-95.24805898682848,38.958733342694515],[-95.24805575460896,38.958738981549324],[-95.24805735915615,38.9587395423431],[-95.24804993740898,38.95875249073347],[-95.2480483328615,38.9587519299396],[-95.24804510064028,38.958757568794184],[-95.24804670518779,38.958758129588084],[-95.24803928343667,38.95877107797775],[-95.24803767888892,38.95877051718373],[-95.24802977788687,38.95878430134963],[-95.24808167021439,38.958802433664125],[-95.2480804738956,38.958804521347],[-95.24809812739446,38.958810690155424],[-95.24809932490115,38.95880860159934],[-95.24810467491264,38.95881047154652],[-95.24810563221885,38.958808800865214],[-95.24812355451473,38.95881506256697],[-95.24812259605562,38.95881673322103],[-95.24812821370878,38.95881869603688],[-95.24812917101458,38.95881702535543],[-95.2481470933146,38.958823287053505],[-95.24814613600917,38.958824957735104],[-95.24815175251042,38.95882692052246],[-95.24815270981581,38.95882524984081],[-95.24817063208492,38.958831512435644],[-95.2481696747799,38.95883318311746],[-95.24817101172458,38.95883365013959],[-95.2481698142196,38.958835738696415],[-95.24818746888731,38.95884190751857],[-95.24818866639187,38.95883981896153],[-95.24824174544989,38.95885836509184]]]},"properties":{"SDE.FloorAll.FLOORLOCATION":"2"}},{"type":"Feature","geometry":{"type":"Polygon","coordinates":[[[-95.24823842987927,38.95885132083488],[-95.24843626544742,38.95850616662095],[-95.24822636220276,38.958432824518674],[-95.24809257349803,38.95866623704271],[-95.24802282391329,38.958641866187904],[-95.24806131213009,38.9585747182667],[-95.24776315572925,38.95847053695949],[-95.24776929826744,38.95845981939621],[-95.24760392560376,38.95840203478344],[-95.24759778189232,38.9584127523107],[-95.24734255647823,38.95832357061433],[-95.24734160782911,38.958325226174345],[-95.24729761342364,38.95830985402037],[-95.24726007331255,38.95837534522988],[-95.24719143119331,38.95835136064398],[-95.24732527310016,38.9581178593361],[-95.24711537331402,38.95804451524818],[-95.24691753147125,38.9583896662945],[-95.24697000626725,38.95840800310955],[-95.24696882103763,38.95841007211925],[-95.24707483095574,38.958447115120705],[-95.24707601733613,38.958445046137335],[-95.24712743319498,38.95846301166609],[-95.24716581195459,38.958396056089114],[-95.24723445407345,38.95842004159051],[-95.24719715041492,38.95848511932579],[-95.24724114602573,38.95850049244539],[-95.24723972311497,38.95850297398336],[-95.24745174596629,38.95857705854785],[-95.24744320462011,38.95859195941368],[-95.24748640889634,38.95860705590062],[-95.24748308750449,38.95861284943686],[-95.24764846056249,38.95867063422085],[-95.24765178194356,38.95866484067995],[-95.24769339085132,38.95867938011093],[-95.247701930932,38.95866448100023],[-95.24791554444644,38.95873912155707],[-95.2479168496843,38.95873684540135],[-95.24795978427385,38.95875184698602],[-95.24799720509489,38.9586865618156],[-95.24806695467984,38.95871093358614],[-95.24802852585023,38.95877797747629],[-95.24807994100503,38.95879594345533],[-95.24807875580139,38.9587980124763],[-95.2480943925086,38.958803476425025],[-95.24809510342796,38.958802234286544],[-95.24816798713024,38.95882770056503],[-95.24816727505865,38.958828942676575],[-95.24818476688269,38.95883505446207],[-95.24818595323704,38.95883298546738],[-95.24823842987927,38.95885132083488]]]},"properties":{"SDE.FloorAll.FLOORLOCATION":"3"}},{"type":"Feature","geometry":{"type":"Polygon","coordinates":[[[-95.24823842987927,38.95885132083488],[-95.24843626544742,38.95850616662095],[-95.24822636220276,38.958432824518674],[-95.24809257349803,38.95866623704271],[-95.24802282391329,38.958641866187904],[-95.24806131213009,38.9585747182667],[-95.24776315572925,38.95847053695949],[-95.24776929826744,38.95845981939621],[-95.24760392560376,38.95840203478344],[-95.24759778189232,38.9584127523107],[-95.24734255647823,38.95832357061433],[-95.24734160782911,38.958325226174345],[-95.24729761342364,38.95830985402037],[-95.24726007331255,38.95837534522988],[-95.24719143119331,38.95835136064398],[-95.24732527310016,38.9581178593361],[-95.24711537331402,38.95804451524818],[-95.24691753147125,38.9583896662945],[-95.24697000626725,38.95840800310955],[-95.24696882103763,38.95841007211925],[-95.24707483095574,38.958447115120705],[-95.24707601733613,38.958445046137335],[-95.24712743319498,38.95846301166609],[-95.24716581195459,38.958396056089114],[-95.24723445407345,38.95842004159051],[-95.24719715041492,38.95848511932579],[-95.24724114602573,38.95850049244539],[-95.24723972311497,38.95850297398336],[-95.24745174596629,38.95857705854785],[-95.24744320462011,38.95859195941368],[-95.24748640889634,38.95860705590062],[-95.24748308750449,38.95861284943686],[-95.24764846056249,38.95867063422085],[-95.24765178194356,38.95866484067995],[-95.24769339085132,38.95867938011093],[-95.247701930932,38.95866448100023],[-95.24791554444644,38.95873912155707],[-95.2479168496843,38.95873684540135],[-95.24795978427385,38.95875184698602],[-95.24799720509489,38.9586865618156],[-95.24806695467984,38.95871093358614],[-95.24802852585023,38.95877797747629],[-95.24807994100503,38.95879594345533],[-95.24807875580139,38.9587980124763],[-95.2480943925086,38.958803476425025],[-95.24809510342796,38.958802234286544],[-95.24816798713024,38.95882770056503],[-95.24816727505865,38.958828942676575],[-95.24818476688269,38.95883505446207],[-95.24818595323704,38.95883298546738],[-95.24823842987927,38.95885132083488]]]},"properties":{"SDE.FloorAll.FLOORLOCATION":"4"}},{"type":"Feature","geometry":{"type":"Polygon","coordinates":[[[-95.24824174544989,38.95885836509184],[-95.24827548310401,38.958799504677295],[-95.24827690601943,38.95879702222631],[-95.24837667706413,38.95862295807795],[-95.24837809997237,38.958620475625665],[-95.24844523915124,38.9585033406475],[-95.24838369344226,38.95848183592762],[-95.24838487978488,38.95847976693084],[-95.24828144048053,38.95844362429131],[-95.2482802541355,38.95844569328698],[-95.24822265441207,38.95842556727501],[-95.24815551724475,38.95854270217978],[-95.24815409433025,38.95854518462933],[-95.24808675997298,38.95866266449388],[-95.2480249659539,38.95864107348211],[-95.2480634479114,38.95857393802883],[-95.24796373360157,38.95853909656563],[-95.24796055411562,38.958537985591505],[-95.2478590657121,38.958502523340286],[-95.24785588622946,38.95850141236331],[-95.24776534273907,38.95846977506644],[-95.24777148524181,38.958459058403356],[-95.24760296154852,38.95840017339847],[-95.24759681906042,38.95841088915232],[-95.24750632364055,38.958379268109425],[-95.24750314416899,38.95837815712276],[-95.24740165618925,38.95834269537122],[-95.24739847672097,38.95834158438164],[-95.24734163803328,38.95832172382824],[-95.24734068941923,38.958323378487805],[-95.24729670301741,38.95830800832594],[-95.24725916909328,38.958373488867345],[-95.24719848935555,38.95835228524884],[-95.2473344426606,38.95811510208551],[-95.24727684232255,38.95809497557585],[-95.24727802869113,38.958092906590366],[-95.24717459055357,38.958056762062114],[-95.24717340418265,38.95805883104655],[-95.24711185924745,38.95803732565094],[-95.24690836019204,38.95839234776954],[-95.24696082705546,38.95841068079551],[-95.24695964067233,38.95841274977773],[-95.24698984903195,38.95842330482173],[-95.24699103426117,38.95842123581185],[-95.24704933055747,38.95844160609169],[-95.24704814417635,38.95844367507479],[-95.24707835256245,38.95845423009572],[-95.2470795377896,38.95845216108492],[-95.24713094453406,38.958470123691946],[-95.24717145091499,38.958399456012096],[-95.24723213183836,38.95842065967203],[-95.24719483551738,38.95848572676609],[-95.24723882204265,38.95850109606602],[-95.24723739906173,38.95850357940475],[-95.24726932934547,38.95851473581751],[-95.2472725088195,38.958515846810606],[-95.24734246415778,38.95854028970142],[-95.24734564478732,38.95854140071992],[-95.24741533480889,38.95856575165031],[-95.24741851428752,38.95856686263939],[-95.2474493855356,38.95857764959152],[-95.24744084544723,38.95859254778331],[-95.24748404175601,38.958607641378364],[-95.24748072155225,38.95861343404151],[-95.24764924561691,38.958672320123355],[-95.24765256584476,38.95866652655502],[-95.24769416793958,38.958681063120316],[-95.24770270672683,38.958666167583765],[-95.24773521905196,38.958677527839406],[-95.24773839854066,38.95867863881975],[-95.24780808883273,38.95870298951385],[-95.24781126832369,38.95870410049219],[-95.24788122396437,38.958728544858445],[-95.24788440345763,38.95872965583472],[-95.24791628268197,38.95874079463037],[-95.24791758676659,38.95873851844721],[-95.24796051450814,38.958753518066615],[-95.24799792795437,38.95868824443684],[-95.24805971627535,38.95870983442571],[-95.24805432057592,38.95871924763223],[-95.24805289765426,38.958721730080526],[-95.24801915985194,38.95878059043068],[-95.24807056707394,38.95879855262073],[-95.24806938071676,38.95880062161421],[-95.24818809272094,38.95884210166805],[-95.24818927907533,38.9588400326733],[-95.24824174544989,38.95885836509184]]]},"properties":{"SDE.FloorAll.FLOORLOCATION":"ROOF"}}]}
