{"type":"FeatureCollection","features":[{"type":"Feature","geometry":{"type":"Polygon","coordinates":[[[-95.25027631797914,38.964278155510605],[-95.25027564142523,38.96429554480774],[-95.25034829051235,38.964297267548716],[-95.25035154704638,38.96421356337722],[-95.25034451649773,38.96421339666254],[-95.25034449870245,38.96421385406242],[-95.2502870825559,38.96421249254321],[-95.25028710035157,38.96421203514335],[-95.25027889804517,38.96421184063829],[-95.25027631797914,38.964278155510605]]]},"properties":{"SDE.FloorAll.FLOORLOCATION":"1"}},{"type":"Feature","geometry":{"type":"Polygon","coordinates":[[[-95.2503862084711,38.9643476114418],[-95.25041784600081,38.96434836164315],[-95.2504189136915,38.96432091765206],[-95.25039284203358,38.96432029943144],[-95.25039437271853,38.96428095494089],[-95.25039491515024,38.96426701234899],[-95.25034921654937,38.96426592871301],[-95.25035125407182,38.96421355733123],[-95.25027889801012,38.964211841538706],[-95.25027564142523,38.96429554480774],[-95.25038813033584,38.964298212258335],[-95.2503862084711,38.9643476114418]]]},"properties":{"SDE.FloorAll.FLOORLOCATION":"2"}},{"type":"Feature","geometry":{"type":"MultiPolygon","coordinates":[[[[-95.25038727617405,38.96432016745099],[-95.2503862084711,38.9643476114418],[-95.25040202723585,38.96434798654355],[-95.25041784600081,38.96434836164315],[-95.2504189136915,38.96432091765206],[-95.25040309493271,38.9643205425526],[-95.25039284203358,38.96432029943144],[-95.25039430567206,38.9642826782939],[-95.25039491515024,38.96426701234899],[-95.2503978445478,38.96426708181222],[-95.25040077394534,38.96426715127538],[-95.25040370334293,38.964267220738456],[-95.25040386349721,38.96426310413983],[-95.2504009340998,38.964263034676755],[-95.25039800470246,38.964262965213614],[-95.25039507530506,38.96426289575037],[-95.25039495963769,38.964265868849374],[-95.25039435523526,38.964265856319926],[-95.25039429183846,38.96426585391542],[-95.25039422844164,38.96426585151092],[-95.25039416500984,38.9642658500068],[-95.25039410154294,38.96426584940303],[-95.25034926103756,38.96426478521344],[-95.25034962584063,38.964255408516614],[-95.2503500974152,38.96424328742077],[-95.2503650373375,38.964243641688235],[-95.25036485048822,38.96424844438661],[-95.25037041634201,38.96424857636814],[-95.25037235597516,38.96419872068505],[-95.25034481966536,38.96419806772171],[-95.25034465061013,38.9642024130202],[-95.25033000363617,38.9642020656966],[-95.25032957654692,38.96421304329287],[-95.25031507604058,38.964212699440594],[-95.25027889801012,38.964211841538706],[-95.25027847984576,38.964222589534394],[-95.25027817731846,38.964230365331574],[-95.25027781695498,38.96423962767822],[-95.25027726973617,38.96425369272307],[-95.25027672251713,38.96426775776797],[-95.25027636215326,38.96427702011455],[-95.25027605962549,38.96428479591169],[-95.25027564142523,38.96429554480774],[-95.25031181949845,38.96429640271064],[-95.25034499666876,38.96429718944219],[-95.25038813033584,38.964298212258335],[-95.25038727617405,38.96432016745099]]],[[[-95.25039509310004,38.964262438350474],[-95.25039802249742,38.96426250781371],[-95.25040095189475,38.964262577276884],[-95.25040388129214,38.96426264673995],[-95.25040422829305,38.964253727442866],[-95.25040481417243,38.96425374133546],[-95.25040498322407,38.96424939603685],[-95.25039443739558,38.96424914596953],[-95.25039426834329,38.96425349126811],[-95.25039544010205,38.96425351905344],[-95.25039509310004,38.964262438350474]]]]},"properties":{"SDE.FloorAll.FLOORLOCATION":"ROOF"}}]}
