{"type":"FeatureCollection","features":[{"type":"Feature","geometry":{"type":"Polygon","coordinates":[[[-95.24960264751695,38.955836250248424],[-95.24961026728865,38.95583623273612],[-95.24961010348048,38.95579241760329],[-95.24961028700926,38.95579241745088],[-95.24961027364498,38.95578875635822],[-95.24961009011615,38.95578875651063],[-95.24960995361735,38.955752396958026],[-95.24961021793783,38.95575239691971],[-95.24961021510182,38.95575175788399],[-95.25016408743619,38.955750495816254],[-95.2501640782172,38.95574779552821],[-95.25020129394369,38.955747710264994],[-95.25020130516553,38.955750685474044],[-95.25020863059004,38.95575066815135],[-95.25020822489832,38.955642239390194],[-95.25020089952007,38.9556422558124],[-95.25020090313954,38.95564317154261],[-95.25016397953416,38.95564325562175],[-95.25016352485216,38.955521638975014],[-95.25015707791941,38.955521653698],[-95.25015713257008,38.955536329637184],[-95.25011727934876,38.955536419919866],[-95.25011724536877,38.95552723563336],[-95.25011138483808,38.95552724894123],[-95.25011141889017,38.95553640168655],[-95.25007156566878,38.95553649195356],[-95.25007153158677,38.955527340108596],[-95.25006567105605,38.955527353414084],[-95.25006570513726,38.955536505259104],[-95.25002585188074,38.95553659641075],[-95.25002581780468,38.95552744456575],[-95.25001995727395,38.95552745786898],[-95.25001999134925,38.95553660971396],[-95.24998013809255,38.955536700849954],[-95.24998010405744,38.95552754810453],[-95.24997424349166,38.955527562305825],[-95.24997427756104,38.95553671415081],[-95.24993500955372,38.95553680383205],[-95.24993497552441,38.95552765108661],[-95.24992852859114,38.955527665796886],[-95.24992856377276,38.955536818569705],[-95.24988871055086,38.95553690877382],[-95.24988867533939,38.955527756901446],[-95.24988281480864,38.95552777019773],[-95.24988284886616,38.955536922042754],[-95.24984270357852,38.95553701341438],[-95.24984266804583,38.95552763262312],[-95.24983592789376,38.95552764848406],[-95.24983596349558,38.955537027474556],[-95.24979698870673,38.95553711595323],[-95.24979695212909,38.955527050206086],[-95.24973951613207,38.955527181106056],[-95.24973966067104,38.95556594621757],[-95.24932794216618,38.955566882031796],[-95.24932822776422,38.955643303676865],[-95.2492822207218,38.95564340809507],[-95.2492822511385,38.955651554088554],[-95.24928545904312,38.95565154638207],[-95.2492855251649,38.95566939310757],[-95.24928231725944,38.95566940081406],[-95.24928248058707,38.95571319341057],[-95.24932819449033,38.9557130892464],[-95.24932820530876,38.955715895917784],[-95.24928943012858,38.955715983556495],[-95.24928956246842,38.95575443295562],[-95.24932834895606,38.9557543518932],[-95.24932862324945,38.95582794973094],[-95.24960261501006,38.955827326449345],[-95.24960264751695,38.955836250248424]]]},"properties":{"SDE.FloorAll.FLOORLOCATION":"1"}},{"type":"Feature","geometry":{"type":"Polygon","coordinates":[[[-95.249602647552,38.95583624934804],[-95.24961023730626,38.955836232024865],[-95.24961010348048,38.95579241760329],[-95.24961028704428,38.95579241655045],[-95.24961027364498,38.95578875635822],[-95.24961009011615,38.95578875651063],[-95.24960995361735,38.955752396958026],[-95.24961021797286,38.955752396019335],[-95.2496102152189,38.95575163622139],[-95.25016423414466,38.95575037402556],[-95.25016422107984,38.95574694185181],[-95.25020143677092,38.95574685748895],[-95.25020145179289,38.95575068444545],[-95.25020863059004,38.95575066815135],[-95.25020822493335,38.95564223848982],[-95.25020089952007,38.9556422558124],[-95.25020090317459,38.95564317064222],[-95.2501639795692,38.95564325472135],[-95.250163575993,38.95553536674248],[-95.24984269992862,38.95553609858456],[-95.24984266804583,38.95552763262312],[-95.24979695429825,38.955527736089685],[-95.24979695212909,38.955527050206086],[-95.24973951613207,38.955527181106056],[-95.24973966070608,38.95556594531719],[-95.24932765013541,38.9555668823133],[-95.24932793458,38.95564330393102],[-95.24928222075684,38.9556434071947],[-95.2492824806221,38.955713192510174],[-95.24932819449033,38.9557130892464],[-95.2493286232845,38.955827948830496],[-95.2496026150451,38.95582732554898],[-95.249602647552,38.95583624934804]]]},"properties":{"SDE.FloorAll.FLOORLOCATION":"2"}},{"type":"Feature","geometry":{"type":"Polygon","coordinates":[[[-95.249602647552,38.95583624934804],[-95.24961023730626,38.955836232024865],[-95.24960995086343,38.95575163716011],[-95.25020130324523,38.9557502897908],[-95.25020130520055,38.955750684573644],[-95.25020863059004,38.95575066815135],[-95.25020822493335,38.95564223848982],[-95.25020089952007,38.9556422558124],[-95.25020090317459,38.95564317064222],[-95.2501639795692,38.95564325472135],[-95.250163575993,38.95553536674248],[-95.24984269992862,38.95553609858456],[-95.24984266804583,38.95552763262312],[-95.24979695429825,38.955527736089685],[-95.24979695212909,38.955527050206086],[-95.24973951613207,38.955527181106056],[-95.24973966070608,38.95556594531719],[-95.24932765013541,38.9555668823133],[-95.24932793458,38.95564330393102],[-95.24928222075684,38.9556434071947],[-95.2492824806221,38.955713192510174],[-95.24932819449033,38.9557130892464],[-95.2493286232845,38.955827948830496],[-95.2496026150451,38.95582732554898],[-95.249602647552,38.95583624934804]]]},"properties":{"SDE.FloorAll.FLOORLOCATION":"3"}},{"type":"Feature","geometry":{"type":"Polygon","coordinates":[[[-95.249602647552,38.95583624934804],[-95.24961026732369,38.95583623183574],[-95.24961021417687,38.95575157401212],[-95.25020130269301,38.95575021497605],[-95.25020130520055,38.955750684573644],[-95.25020863059004,38.95575066815135],[-95.25020822493335,38.95564223848982],[-95.25016375330358,38.95564325566351],[-95.2501633506569,38.95553552181609],[-95.24984270223834,38.95553678086658],[-95.24984266747059,38.955527439747364],[-95.24979695372316,38.955527543213925],[-95.24979695212909,38.955527050206086],[-95.24973951613207,38.955527181106056],[-95.24973966070608,38.95556594531719],[-95.24932765013541,38.9555668823133],[-95.24932793458,38.95564330393102],[-95.24928222075684,38.9556434071947],[-95.24928248058707,38.95571319341057],[-95.24932819480883,38.95571305140249],[-95.2493286232845,38.955827948830496],[-95.24960261501006,38.955827326449345],[-95.249602647552,38.95583624934804]]]},"properties":{"SDE.FloorAll.FLOORLOCATION":"4"}},{"type":"Feature","geometry":{"type":"Polygon","coordinates":[[[-95.2496026273907,38.95575204922773],[-95.24961021407866,38.95575116124878],[-95.25020130138188,38.9557496552844],[-95.25020130516553,38.955750685474044],[-95.25020863174318,38.95575066817872],[-95.25020822660645,38.95564228449194],[-95.25020090007504,38.95564230088681],[-95.25020090372954,38.95564321571663],[-95.25016398124227,38.95564330072352],[-95.25016357766604,38.9555354127446],[-95.24984270048336,38.95553614365896],[-95.24984266806035,38.95552748392132],[-95.2497969542778,38.95552758828831],[-95.2497969526838,38.9555270952805],[-95.24973951783988,38.955527226207806],[-95.24973967384383,38.95556913776742],[-95.24974143189931,38.95556913350786],[-95.24974171354849,38.95564442220793],[-95.24960955296103,38.955644722617706],[-95.24960954553912,38.95564277759825],[-95.24960222012568,38.95564279488306],[-95.24960231621237,38.95566853524532],[-95.24955660233826,38.95566863951751],[-95.24955675685197,38.955710052666696],[-95.24960247071782,38.95570994929481],[-95.2496026273907,38.95575204922773]]]},"properties":{"SDE.FloorAll.FLOORLOCATION":"5"}},{"type":"Feature","geometry":{"type":"Polygon","coordinates":[[[-95.24973951863657,38.95552765070363],[-95.24973999366608,38.955654866260964],[-95.24984314244335,38.95565463186664],[-95.24984266722828,38.95552741630974],[-95.24973951863657,38.95552765070363]]]},"properties":{"SDE.FloorAll.FLOORLOCATION":"6"}},{"type":"Feature","geometry":{"type":"Polygon","coordinates":[[[-95.24932103523753,38.95583601952237],[-95.24960264561297,38.95583537962001],[-95.24960264925974,38.955836294449796],[-95.24961026787828,38.95583627691014],[-95.24961023418224,38.95582735398411],[-95.24960996312247,38.955754822379795],[-95.24972615369961,38.955754558603914],[-95.25021098650322,38.95575345383619],[-95.25021056379289,38.95564044825223],[-95.25016726019904,38.9556405468435],[-95.25016685754696,38.955532812996054],[-95.2500788791314,38.95553301365273],[-95.25007594942485,38.95553302076959],[-95.24992825750344,38.95553335781154],[-95.24992532783193,38.95553336402418],[-95.24984459629685,38.9555335480391],[-95.24984455589346,38.95552286846726],[-95.24973422734608,38.95552312000103],[-95.24973434944275,38.95555593559477],[-95.24931618402498,38.955556886966775],[-95.2493164963785,38.95564062899664],[-95.24927869430378,38.95564071538435],[-95.24927897511635,38.95571595360831],[-95.2493205865341,38.95571585846014],[-95.24932103523753,38.95583601952237]]]},"properties":{"SDE.FloorAll.FLOORLOCATION":"ROOF"}}]}
