{"type":"FeatureCollection","features":[{"type":"Feature","geometry":{"type":"MultiPolygon","coordinates":[[[[-95.24910296863068,38.964608746808885],[-95.24910269814599,38.96469111590739],[-95.24929788696568,38.96469150784349],[-95.24929815725794,38.96460913784409],[-95.24910296863068,38.964608746808885]]],[[[-95.24965719538682,38.963985587899984],[-95.24971876041764,38.964045588965334],[-95.24975993203063,38.96401984057822],[-95.24969836702238,38.96395983863417],[-95.24965719538682,38.963985587899984]]],[[[-95.24935877689724,38.964046568008555],[-95.24939502898147,38.96407648703467],[-95.24946656528346,38.96402365535851],[-95.24943031319607,38.96399373635466],[-95.24935877689724,38.964046568008555]]],[[[-95.2491397714108,38.96411229452175],[-95.24916575917771,38.96414813539254],[-95.24925145369461,38.96411026118479],[-95.24922546589822,38.96407442033302],[-95.2491397714108,38.96411229452175]]],[[[-95.24980271200052,38.96417142276012],[-95.24981573935841,38.96424762563144],[-95.24986802843733,38.96424217780002],[-95.24985500217743,38.96416597496187],[-95.24980271200052,38.96417142276012]]],[[[-95.24927417310873,38.96428361442367],[-95.24932642138751,38.96428930139519],[-95.24934001774247,38.96421315864062],[-95.24928776948389,38.96420747257562],[-95.24927417310873,38.96428361442367]]],[[[-95.24899494247684,38.964209439759784],[-95.24899468934925,38.96428631811492],[-95.24904744343357,38.96428642421367],[-95.24904769650384,38.96420954585839],[-95.24899494247684,38.964209439759784]]],[[[-95.2490976756268,38.964332370721436],[-95.24909753980533,38.964373555258085],[-95.24919601277355,38.96437375274744],[-95.24919614853766,38.964332568210736],[-95.2490976756268,38.964332370721436]]],[[[-95.24980453380961,38.9643860168142],[-95.24980428156168,38.96446289516996],[-95.24985703577903,38.96446300090048],[-95.24985728796958,38.96438612254458],[-95.24980453380961,38.9643860168142]]],[[[-95.24970088890606,38.96465823549077],[-95.24974574365501,38.964679913063215],[-95.24979757576033,38.9646145455393],[-95.24975272103694,38.96459286798674],[-95.24970088890606,38.96465823549077]]],[[[-95.24898757495676,38.96466565584684],[-95.24898732297278,38.964742534226346],[-95.2490400762793,38.96474263940066],[-95.24904032935918,38.96466576104839],[-95.24898757495676,38.96466565584684]]],[[[-95.24944413021709,38.96476964153444],[-95.24953288489485,38.9648029453882],[-95.24955573745294,38.964765825280885],[-95.249466982811,38.964732521444446],[-95.24944413021709,38.96476964153444]]]]},"properties":{"SDE.FloorAll.FLOORLOCATION":"-1"}},{"type":"Feature","geometry":{"type":"MultiPolygon","coordinates":[[[[-95.24960512589095,38.964700756759775],[-95.24969483652987,38.964744112888994],[-95.24979757460704,38.96461454551194],[-95.2497078652228,38.96457118948911],[-95.24960512589095,38.964700756759775]]],[[[-95.24935877574396,38.9640465679812],[-95.24943128109635,38.964106406049304],[-95.24957307595774,38.96400168562534],[-95.24950057059272,38.96394184764527],[-95.24935877574396,38.9640465679812]]],[[[-95.24961602144973,38.964011336196],[-95.2497380527356,38.96413026775538],[-95.24982039720453,38.96407877008011],[-95.24969836586904,38.96395983860681],[-95.24961602144973,38.964011336196]]],[[[-95.24902980990124,38.96411356648572],[-95.24908159392774,38.96418533204942],[-95.24925165409572,38.964110539910976],[-95.24919986998647,38.96403877352234],[-95.24902980990124,38.96411356648572]]],[[[-95.24927417195545,38.96428361439632],[-95.24937866855639,38.964294987415386],[-95.24940561886119,38.964144062401324],[-95.24930112247894,38.96413268940644],[-95.24927417195545,38.96428361439632]]],[[[-95.24975042181556,38.964176870534814],[-95.24977624193643,38.96432791618504],[-95.24988082139953,38.96431701966123],[-95.24985500102414,38.9641659749345],[-95.24975042181556,38.964176870534814]]],[[[-95.24894218845004,38.964209333637186],[-95.24894168701879,38.9643617178991],[-95.24904719302846,38.96436192916565],[-95.2490476953856,38.964209544930625],[-95.24894218845004,38.964209333637186]]],[[[-95.24909767450856,38.96433236979369],[-95.24909740398377,38.96441473979454],[-95.24929259092207,38.964415130811844],[-95.24929286233775,38.96433276173824],[-95.24909767450856,38.96433236979369]]],[[[-95.24975177964977,38.9643859110598],[-95.24975127996233,38.96453829532295],[-95.2498567862379,38.96453850585305],[-95.24985728685125,38.964386121616855],[-95.24975177964977,38.9643859110598]]],[[[-95.24910296751241,38.96460874588111],[-95.2491026969927,38.96469111588002],[-95.24929788584737,38.96469150691577],[-95.24929815610466,38.964609137816744],[-95.24910296751241,38.96460874588111]]],[[[-95.24935695934363,38.96473693303837],[-95.24953288377658,38.96480294446048],[-95.24957858886872,38.96472870424119],[-95.24940266457787,38.96466269288798],[-95.24935695934363,38.96473693303837]]],[[[-95.24893482058951,38.964665549720884],[-95.24893431917417,38.96481793307646],[-95.24903982698291,38.96481814527741],[-95.24904032820588,38.964665761021045],[-95.24893482058951,38.964665549720884]]]]},"properties":{"SDE.FloorAll.FLOORLOCATION":"1"}},{"type":"Feature","geometry":{"type":"MultiPolygon","coordinates":[[[[-95.24908258975859,38.96418498617233],[-95.24908345282712,38.9641861827455],[-95.24912864895296,38.964166305098274],[-95.24913469057738,38.96417467750652],[-95.2491355536467,38.96417587407929],[-95.24921675323372,38.96414016164283],[-95.24921589012841,38.96413896597102],[-95.24920984849743,38.964130593567035],[-95.2492550445522,38.96411071587047],[-95.24925418148163,38.96410951929851],[-95.24922828997208,38.96407363657159],[-95.24920239733552,38.96403775381144],[-95.2492015342668,38.96403655723912],[-95.2490299426646,38.96411202403547],[-95.2490308057314,38.96411322060908],[-95.24905669715515,38.96414910337996],[-95.24908258975859,38.96418498617233]]],[[[-95.24943240328486,38.964106194745355],[-95.24943361233575,38.96410719224121],[-95.24947129698609,38.96407936142285],[-95.24947975580058,38.96408634198058],[-95.2494809636985,38.96408733944859],[-95.24954866813653,38.96403733769758],[-95.24954745908519,38.96403634020293],[-95.24953900026999,38.96402935965008],[-95.24957668487234,38.96400152789692],[-95.24957547693953,38.96400053133029],[-95.24953922369963,38.96397061143265],[-95.24950297045538,38.96394069242399],[-95.24950176255963,38.963939694956196],[-95.24935869003619,38.96404535920865],[-95.24935989793173,38.96404635667791],[-95.24939615116962,38.96407627573099],[-95.24943240328486,38.964106194745355]]],[[[-95.24973899128187,38.96413097855135],[-95.24974036373136,38.96413012069374],[-95.24978153538576,38.96410437229915],[-95.24982270819845,38.96407862301687],[-95.24982408068098,38.96407776425788],[-95.24970095048914,38.96395776220636],[-95.24969957804247,38.963958620063465],[-95.24965840525478,38.963984369302366],[-95.24961723362547,38.964010117653515],[-95.24961586114172,38.96401097641005],[-95.24964829245783,38.96404258374572],[-95.2496386852094,38.964048591441895],[-95.24963731272517,38.96404945019866],[-95.24969558018381,38.964106236799275],[-95.2496969526334,38.9641053789422],[-95.24970655991967,38.96409937034084],[-95.24973899128187,38.96413097855135]]],[[[-95.24927406978559,38.9642834218143],[-95.24927581126188,38.96428361182787],[-95.24932805957583,38.96428929789824],[-95.24938030786313,38.964294984845424],[-95.24938204937503,38.964295173956984],[-95.249389212586,38.96425506365467],[-95.24940140305773,38.96425639013534],[-95.24940314568703,38.96425658017438],[-95.24941601295522,38.96418451618273],[-95.24941427144596,38.964184327071656],[-95.24940208098643,38.964183000592314],[-95.24940924305636,38.964142889360616],[-95.24940750158319,38.96414269934904],[-95.24935525337122,38.9641370133144],[-95.2493030052027,38.964131326355805],[-95.249301263695,38.96413113724304],[-95.24927406978559,38.9642834218143]]],[[[-95.2497763769609,38.96432809512622],[-95.24977812018868,38.96432791386935],[-95.24983040932992,38.96432246605494],[-95.24988269965145,38.96431701734389],[-95.24988444287868,38.96431683608541],[-95.24985838920574,38.96416442948405],[-95.24985664594716,38.964164611642545],[-95.24980435577137,38.96417005944153],[-95.2497520667409,38.96417550724429],[-95.24975032348178,38.96417568940118],[-95.24975718599576,38.964215831375114],[-95.24974498446835,38.96421710289906],[-95.24974324120818,38.96421728505583],[-95.24975557081193,38.964289405963015],[-95.24975731407385,38.96428922380605],[-95.24976951446014,38.964287952253464],[-95.2497763769609,38.96432809512622]]],[[[-95.24894168701879,38.9643617178991],[-95.24894344616588,38.96436172088217],[-95.2489961991531,38.96436182697685],[-95.24904895214046,38.96436193304753],[-95.24905071128754,38.96436193602896],[-95.24905121742098,38.964208179318845],[-95.24904945831277,38.96420817543705],[-95.24899670540503,38.964208070266984],[-95.24894395253254,38.96420796417256],[-95.24894219342433,38.9642079602891],[-95.24894205996465,38.96424845905233],[-95.2489297507082,38.964248434678],[-95.24892799275226,38.964248430821655],[-95.24892775325208,38.9643211909056],[-95.24892951120977,38.96432119476192],[-95.2489418204789,38.96432121913628],[-95.24894168701879,38.9643617178991]]],[[[-95.24915012336885,38.96442514150997],[-95.24915011955189,38.96442651488541],[-95.24924331752459,38.964426701648684],[-95.24924332133972,38.96442532827324],[-95.24924335248382,38.96441571925651],[-95.2492952271084,38.964415823303035],[-95.24929523207587,38.964414449954965],[-95.24929536778225,38.96437326541825],[-95.24929550237017,38.964332079953635],[-95.2492955073026,38.964330707505944],[-95.2490985614861,38.964330312612496],[-95.24909855654984,38.96433168506018],[-95.24909842184718,38.96437287052459],[-95.24909828602607,38.96441405506104],[-95.24909828105476,38.96441542840915],[-95.24915015452562,38.96441553249322],[-95.24915012336885,38.96442514150997]]],[[[-95.24975127996233,38.96453829532295],[-95.2497530391138,38.96453829829373],[-95.24980579223404,38.96453840402019],[-95.2498585453544,38.96453850972268],[-95.2498603045059,38.96453851269183],[-95.2498608088798,38.96438475598053],[-95.24985904973211,38.96438475301138],[-95.2498062967265,38.96438464730912],[-95.24975354372104,38.96438454158289],[-95.24975178460839,38.96438453771166],[-95.24975165161209,38.96442503647526],[-95.2497393423246,38.96442501218684],[-95.2497375843643,38.964425008342786],[-95.24973734569669,38.964497768427286],[-95.24973910365885,38.96449777227135],[-95.24975141295901,38.964497796559776],[-95.24975127996233,38.96453829532295]]],[[[-95.2491707984567,38.96460682315085],[-95.24910385449323,38.96460668869994],[-95.24910384955713,38.9646080611476],[-95.24910371485697,38.96464924661101],[-95.2491035790384,38.96469043114655],[-95.24910357406723,38.96469180449456],[-95.24930052089081,38.96469219937952],[-95.24930052585816,38.964690826031465],[-95.24930066156199,38.964649641495654],[-95.24930079730069,38.96460845605942],[-95.2493008010797,38.96460708358436],[-95.24923385826904,38.96460694923582],[-95.24923388944954,38.96459733931886],[-95.24923389322984,38.96459596684378],[-95.24917083461563,38.96459583988584],[-95.24917082964578,38.9645972132339],[-95.2491707984567,38.96460682315085]]],[[[-95.24962027295017,38.96465972010083],[-95.24962176862213,38.9646604423096],[-95.249632234727,38.96466550128983],[-95.24960493043429,38.96469993561455],[-95.2496064249537,38.96470065779615],[-95.24965127966558,38.96472233630544],[-95.24969613444,38.96474401389697],[-95.24969763011458,38.96474473610474],[-95.24980129437837,38.96461400197741],[-95.24979979874053,38.9646132788706],[-95.24975494401727,38.9645916013189],[-95.24971008932151,38.964569923749856],[-95.24970859368554,38.96456920064182],[-95.24968128946719,38.96460363498485],[-95.24967082333295,38.964598576909395],[-95.24966932881502,38.964597854728616],[-95.24962027295017,38.96465972010083]]],[[[-95.24938078058034,38.96469883197804],[-95.24935792795203,38.9647359520511],[-95.24935716638953,38.96473718939138],[-95.24953467570029,38.96480379626377],[-95.24953543726036,38.96480255892243],[-95.24955828981699,38.964765438814545],[-95.24958114234956,38.964728318702086],[-95.24958190390804,38.96472708136035],[-95.24953514980658,38.96470953764895],[-95.24954048187273,38.964700876286265],[-95.24954124343164,38.96469963894477],[-95.2494572435694,38.96466811965157],[-95.24945648197436,38.96466935789288],[-95.2494511499353,38.96467801835134],[-95.24940439474545,38.964660474559764],[-95.2494036331846,38.96466171190034],[-95.24938078058034,38.96469883197804]]],[[[-95.24893431917417,38.96481793307646],[-95.24893607829756,38.96481793696005],[-95.24898883162524,38.964818043058045],[-95.24904158614137,38.96481814825906],[-95.24904334411148,38.96481815211363],[-95.24904385026416,38.96466439540955],[-95.24904209229787,38.96466439155497],[-95.24898933789649,38.96466428635419],[-95.24893658468353,38.964664180256406],[-95.248934825564,38.96466417637286],[-95.24893469213424,38.96470467423408],[-95.24892238395171,38.96470464988632],[-95.24892062479609,38.96470464690292],[-95.24892038528672,38.964777406984055],[-95.24892214444415,38.96477740996743],[-95.24893445263942,38.96477743431519],[-95.24893431917417,38.96481793307646]]]]},"properties":{"SDE.FloorAll.FLOORLOCATION":"ROOF"}}]}
