{"type":"FeatureCollection","features":[{"type":"Feature","geometry":{"type":"Polygon","coordinates":[[[-95.25861979645083,38.956479654018985],[-95.25862499910282,38.956479135360844],[-95.25862474067804,38.95647755481554],[-95.25867157146092,38.956472887045344],[-95.25867182988678,38.95647446759058],[-95.25867587614482,38.95647406398183],[-95.2586756177189,38.95647248343665],[-95.2586952753543,38.95647052482678],[-95.25869553381558,38.95647210447149],[-95.25869958122652,38.95647170088923],[-95.25869932276515,38.95647012124448],[-95.25871514971617,38.956468543399815],[-95.25871230793098,38.956451163733604],[-95.25869265026652,38.956453123246746],[-95.25869024428867,38.9564384052794],[-95.25869407385198,38.95643802358331],[-95.25869400873849,38.956437619197516],[-95.2587408383372,38.95643295137209],[-95.25874039512439,38.956430242634184],[-95.25868972740156,38.956435245089445],[-95.25868393389257,38.956399809041756],[-95.25868776345378,38.9563994273459],[-95.25868724656706,38.956396267155895],[-95.25873407729199,38.956391599360465],[-95.25873459418078,38.95639475955024],[-95.2587386404339,38.95639435593927],[-95.25873861156443,38.956394177715964],[-95.2587568231275,38.956392362447296],[-95.25875700791318,38.95639349064013],[-95.25875989889259,38.956393203008716],[-95.25875952935601,38.95639094572261],[-95.25875837296428,38.95639106077517],[-95.25875165671994,38.9563499819929],[-95.25875281311099,38.95634986694037],[-95.25875244357485,38.95634760965421],[-95.25875128718384,38.956347724706745],[-95.25874286174484,38.956296193693824],[-95.25875008865928,38.95629547325169],[-95.25874153813838,38.95624317955073],[-95.25873344453116,38.956243985844985],[-95.2586753576761,38.95588872235365],[-95.25865801293439,38.95589045175748],[-95.25865336323737,38.955862011900685],[-95.2585735802976,38.95586996502633],[-95.25857822999804,38.95589840398593],[-95.25854354053915,38.955901861861605],[-95.25860177409378,38.95625802832235],[-95.25858096124324,38.95626010289491],[-95.2585960431507,38.95635234360473],[-95.2585763855105,38.95635430309823],[-95.25858502071263,38.9564071188209],[-95.25860756938272,38.95640487079794],[-95.25861979645083,38.956479654018985]]]},"properties":{"SDE.FloorAll.FLOORLOCATION":"-1"}},{"type":"Feature","geometry":{"type":"Polygon","coordinates":[[[-95.25870522800986,38.9567865438636],[-95.25878501312225,38.95677859067526],[-95.25878036328083,38.95675015172603],[-95.25879544404383,38.95674864905303],[-95.25877826563058,38.95664358218768],[-95.2587834196502,38.95664306777969],[-95.2588174350599,38.9566396777017],[-95.25881513704933,38.95662562739239],[-95.2588588834048,38.95662126693705],[-95.25887277338236,38.956706216469655],[-95.25905732186921,38.956687821734306],[-95.25902029437646,38.95646135249196],[-95.25904128804265,38.95645925958355],[-95.25903361146624,38.95641231279301],[-95.2590139909328,38.95641426783067],[-95.25898118219895,38.956213611065486],[-95.25879501845952,38.95623216843518],[-95.25879608020111,38.95623866070753],[-95.25873359303701,38.956244888775814],[-95.2586753576761,38.95588872235365],[-95.25865801408754,38.955890451784754],[-95.25865336439053,38.955862011927934],[-95.2585735802976,38.95586996502633],[-95.25857822999804,38.95589840398593],[-95.2585435416923,38.95590186188886],[-95.25860162674269,38.95625712541858],[-95.25858052535412,38.95625922921763],[-95.25858137321525,38.95626442047779],[-95.25858455391656,38.956264102751035],[-95.25859896383714,38.95635224233153],[-95.25857656121757,38.95635447488007],[-95.2585852151183,38.95640740369766],[-95.25860761778931,38.95640517024699],[-95.25861988886017,38.95648021766533],[-95.25866588951348,38.956761561950074],[-95.25870057819999,38.956758104911174],[-95.25870522800986,38.9567865438636]]]},"properties":{"SDE.FloorAll.FLOORLOCATION":"1"}},{"type":"Feature","geometry":{"type":"Polygon","coordinates":[[[-95.25870513810611,38.95678689772075],[-95.25878492321891,38.95677894453243],[-95.25878023597977,38.9567502793935],[-95.25879772574119,38.956748536271945],[-95.25878058472225,38.956643695596654],[-95.25881975299832,38.95663979108262],[-95.25881359102118,38.95660209778341],[-95.25877442045926,38.95660600224086],[-95.25873952703978,38.95639259608653],[-95.25876019623182,38.956390536112664],[-95.25875936593648,38.9563854570211],[-95.25875763246731,38.95638563052763],[-95.25874322115406,38.95629749184023],[-95.25875145849483,38.9562966700178],[-95.25874280444826,38.956243742112555],[-95.25873355445162,38.956244663459195],[-95.25867535648798,38.95588872322673],[-95.25865786924257,38.95589046638449],[-95.2586531809257,38.95586180211139],[-95.25857339802113,38.95586975433657],[-95.25857808511805,38.95589841948597],[-95.25854325084907,38.95590189106079],[-95.25860144927678,38.956257832286816],[-95.25858077896571,38.956259892205146],[-95.25858162913325,38.9562650835198],[-95.25858336371819,38.95626491094357],[-95.25859775612707,38.95635293655616],[-95.25857650759234,38.95635505399921],[-95.2585851614931,38.9564079828168],[-95.25860742047138,38.95640576399309],[-95.25866561848368,38.95676170514483],[-95.25870045089877,38.956758232578565],[-95.25870513810611,38.95678689772075]]]},"properties":{"SDE.FloorAll.FLOORLOCATION":"2"}},{"type":"Feature","geometry":{"type":"Polygon","coordinates":[[[-95.25870513925932,38.956786897748],[-95.25878492437214,38.956778944559694],[-95.25878023713294,38.95675027942077],[-95.25879772689436,38.956748536299216],[-95.25873952819296,38.956392596113794],[-95.25876019738504,38.95639053613992],[-95.25875936708971,38.95638545704836],[-95.25875763246731,38.95638563052763],[-95.25874322115406,38.95629749184023],[-95.25875145964804,38.95629667004506],[-95.25874280560146,38.95624374213981],[-95.25873355560479,38.956244663486466],[-95.25867535879433,38.95588872328126],[-95.25865786924257,38.95589046638449],[-95.25865318323208,38.955861802165956],[-95.2585733991743,38.95586975436381],[-95.25857808511805,38.95589841948597],[-95.25854325200228,38.95590189108804],[-95.25860144927678,38.956257832286816],[-95.25858078011888,38.95625989223242],[-95.25858162913325,38.9562650835198],[-95.25858336371819,38.95626491094357],[-95.25859775612707,38.95635293655616],[-95.25857650874555,38.9563550540265],[-95.25858516264633,38.95640798284404],[-95.2586074216246,38.95640576402033],[-95.25866561848368,38.95676170514483],[-95.25870045205194,38.95675823260583],[-95.25870513925932,38.956786897748]]]},"properties":{"SDE.FloorAll.FLOORLOCATION":"3"}},{"type":"Feature","geometry":{"type":"Polygon","coordinates":[[[-95.25870513925932,38.956786897748],[-95.25878492437214,38.956778944559694],[-95.25878023713294,38.95675027942077],[-95.25879772689436,38.956748536299216],[-95.25873952819296,38.956392596113794],[-95.25876019738504,38.95639053613992],[-95.25875936708971,38.95638545704836],[-95.25875763246731,38.95638563052763],[-95.25874322115406,38.95629749184023],[-95.25875145964804,38.95629667004506],[-95.25874280560146,38.95624374213981],[-95.25873355560479,38.956244663486466],[-95.25867535879433,38.95588872328126],[-95.25865786924257,38.95589046638449],[-95.25865318323208,38.955861802165956],[-95.2585733991743,38.95586975436381],[-95.25857808511805,38.95589841948597],[-95.25854325200228,38.95590189108804],[-95.25860144927678,38.956257832286816],[-95.25858078011888,38.95625989223242],[-95.25858162913325,38.9562650835198],[-95.25858336371819,38.95626491094357],[-95.25859775612707,38.95635293655616],[-95.25857650874555,38.9563550540265],[-95.25858516264633,38.95640798284404],[-95.2586074216246,38.95640576402033],[-95.25866561848368,38.95676170514483],[-95.25870045205194,38.95675823260583],[-95.25870513925932,38.956786897748]]]},"properties":{"SDE.FloorAll.FLOORLOCATION":"4"}},{"type":"Feature","geometry":{"type":"Polygon","coordinates":[[[-95.25870513925932,38.956786897748],[-95.25878492437214,38.956778944559694],[-95.25878023713294,38.95675027942077],[-95.25879772689436,38.956748536299216],[-95.25873952819296,38.956392596113794],[-95.25876019738504,38.95639053613992],[-95.25875936708971,38.95638545704836],[-95.25875763246731,38.95638563052763],[-95.25874322115406,38.95629749184023],[-95.25875145964804,38.95629667004506],[-95.25874280560146,38.95624374213981],[-95.25873355560479,38.956244663486466],[-95.25867535879433,38.95588872328126],[-95.25865786924257,38.95589046638449],[-95.25865318323208,38.955861802165956],[-95.2585733991743,38.95586975436381],[-95.25857808511805,38.95589841948597],[-95.25854325200228,38.95590189108804],[-95.25860144927678,38.956257832286816],[-95.25858078011888,38.95625989223242],[-95.25858162913325,38.9562650835198],[-95.25858336371819,38.95626491094357],[-95.25859775612707,38.95635293655616],[-95.25857650874555,38.9563550540265],[-95.25858516264633,38.95640798284404],[-95.2586074216246,38.95640576402033],[-95.25866561848368,38.95676170514483],[-95.25870045205194,38.95675823260583],[-95.25870513925932,38.956786897748]]]},"properties":{"SDE.FloorAll.FLOORLOCATION":"5"}},{"type":"Feature","geometry":{"type":"Polygon","coordinates":[[[-95.25870513925932,38.956786897748],[-95.25878492437214,38.956778944559694],[-95.25878023713294,38.95675027942077],[-95.25879772689436,38.956748536299216],[-95.25873952819296,38.956392596113794],[-95.25876019738504,38.95639053613992],[-95.25875936708971,38.95638545704836],[-95.25875763246731,38.95638563052763],[-95.25874322115406,38.95629749184023],[-95.25875145964804,38.95629667004506],[-95.25874280560146,38.95624374213981],[-95.25873355560479,38.956244663486466],[-95.25867535879433,38.95588872328126],[-95.25865786924257,38.95589046638449],[-95.25865318323208,38.955861802165956],[-95.2585733991743,38.95586975436381],[-95.25857808511805,38.95589841948597],[-95.25854325200228,38.95590189108804],[-95.25860144927678,38.956257832286816],[-95.25858078011888,38.95625989223242],[-95.25858162913325,38.9562650835198],[-95.25858336371819,38.95626491094357],[-95.25859775612707,38.95635293655616],[-95.25857650874555,38.9563550540265],[-95.25858516264633,38.95640798284404],[-95.2586074216246,38.95640576402033],[-95.25866561848368,38.95676170514483],[-95.25870045205194,38.95675823260583],[-95.25870513925932,38.956786897748]]]},"properties":{"SDE.FloorAll.FLOORLOCATION":"6"}},{"type":"Feature","geometry":{"type":"Polygon","coordinates":[[[-95.25870513925932,38.956786897748],[-95.25878492437214,38.956778944559694],[-95.25878023713294,38.95675027942077],[-95.25879772689436,38.956748536299216],[-95.25873952819296,38.956392596113794],[-95.25876019738504,38.95639053613992],[-95.25875936708971,38.95638545704836],[-95.25875763246731,38.95638563052763],[-95.25874322115406,38.95629749184023],[-95.25875145964804,38.95629667004506],[-95.25874280560146,38.95624374213981],[-95.25873355560479,38.956244663486466],[-95.25867535879433,38.95588872328126],[-95.25865786924257,38.95589046638449],[-95.25865318323208,38.955861802165956],[-95.2585733991743,38.95586975436381],[-95.25857808511805,38.95589841948597],[-95.25854325200228,38.95590189108804],[-95.25860144927678,38.956257832286816],[-95.25858078011888,38.95625989223242],[-95.25858162913325,38.9562650835198],[-95.25858336371819,38.95626491094357],[-95.25859775612707,38.95635293655616],[-95.25857650874555,38.9563550540265],[-95.25858516264633,38.95640798284404],[-95.2586074216246,38.95640576402033],[-95.25866561848368,38.95676170514483],[-95.25870045205194,38.95675823260583],[-95.25870513925932,38.956786897748]]]},"properties":{"SDE.FloorAll.FLOORLOCATION":"7"}},{"type":"Feature","geometry":{"type":"MultiPolygon","coordinates":[[[[-95.25868443201496,38.95624967540803],[-95.2586887672287,38.95627619543289],[-95.25869310356394,38.95630271638521],[-95.2587516418912,38.956296881634934],[-95.25874296918073,38.956243839734434],[-95.25868443201496,38.95624967540803]]],[[[-95.25857668983518,38.956355265589345],[-95.25858534377105,38.95640819350649],[-95.25863188481847,38.956403554951585],[-95.2586275578318,38.95637709099486],[-95.25862323088327,38.95635062613748],[-95.25857668983518,38.956355265589345]]]]},"properties":{"SDE.FloorAll.FLOORLOCATION":"8"}},{"type":"Feature","geometry":{"type":"MultiPolygon","coordinates":[[[[-95.25870532038537,38.95678710841025],[-95.25878510549839,38.95677915522184],[-95.25878416408678,38.956773399389576],[-95.25878748843381,38.956773068830955],[-95.25878793168549,38.95677577666822],[-95.25878830122494,38.95677803395415],[-95.25878867076446,38.95678029124008],[-95.25878903915084,38.95678254849876],[-95.2587894075721,38.95678480485705],[-95.2587897771117,38.956787062143015],[-95.258807120882,38.95678533359266],[-95.25880675249509,38.956783076334055],[-95.25880638295497,38.95678081904818],[-95.25880601341487,38.9567785617623],[-95.25880564499312,38.956776305404055],[-95.25880527545307,38.95677404811816],[-95.25880092150112,38.9567474141035],[-95.2587977419322,38.956747731863416],[-95.25879613627134,38.95673791293843],[-95.25880307353708,38.95673722169284],[-95.25878540527466,38.95662916020228],[-95.2587466465505,38.95639211553379],[-95.25876037851023,38.95639074680214],[-95.25874508822123,38.95629753418106],[-95.25875164077297,38.956296880707235],[-95.25874298672625,38.95624395280206],[-95.25874067391257,38.95624418380731],[-95.25868424881212,38.95589907673067],[-95.25867731047431,38.95589976794192],[-95.25867553876482,38.95588893391637],[-95.25865805036618,38.955890677046824],[-95.25865336320243,38.95586201280107],[-95.25857357914444,38.95586996499908],[-95.25857826285174,38.95589862826585],[-95.25854343312558,38.95590210175057],[-95.25854520481515,38.95591293577813],[-95.25853826643969,38.95591362788145],[-95.25859469202732,38.956258734155526],[-95.25858096124324,38.95626010289491],[-95.25859620266459,38.95635331979508],[-95.2585766898701,38.95635526468894],[-95.25858534377105,38.95640819350649],[-95.25860066436105,38.95640666588943],[-95.25865709061179,38.95675177301947],[-95.25866402788024,38.95675108178219],[-95.25866579960956,38.95676191580717],[-95.25870063317795,38.95675844326809],[-95.25870532038537,38.95678710841025]]],[[[-95.25876130542741,38.95635434582544],[-95.25876231858591,38.956360543150936],[-95.25879041051874,38.9563577430254],[-95.25878939735773,38.95635154570007],[-95.25876130542741,38.95635434582544]]],[[[-95.25903063410608,38.95639976678993],[-95.25903050792051,38.95639977642391],[-95.259030382539,38.956399795089155],[-95.25903026030274,38.95639982193973],[-95.25903014121182,38.95639985697571],[-95.25903002641934,38.956399900224234],[-95.25902991711348,38.95639995081231],[-95.25902981444739,38.956400008767076],[-95.25902971842105,38.9564000740886],[-95.25902962910432,38.95640014497611],[-95.25902954880348,38.95640022148405],[-95.25902947751868,38.9564003036125],[-95.25902941528467,38.956400390460985],[-95.25902936328968,38.95640048115646],[-95.25902932156856,38.95640057479842],[-95.25902929015626,38.9564006704866],[-95.25902927017101,38.956400769148544],[-95.25902926056436,38.95640086805586],[-95.25902926248958,38.956400967235815],[-95.2590292748283,38.95640106576071],[-95.25902929873375,38.95640116365782],[-95.25902933312258,38.95640125909913],[-95.25902937802968,38.95640135118417],[-95.25902943342024,38.95640144081339],[-95.25902949821072,38.95640152615874],[-95.25902957240135,38.95640160722019],[-95.25902965606171,38.95640168219695],[-95.25902974688564,38.956401751034505],[-95.25902984487303,38.95640181373288],[-95.25902995005887,38.95640186939165],[-95.25903006128998,38.95640191798351],[-95.25903017741304,38.9564019594813],[-95.25903029734488,38.95640199205688],[-95.25903042108534,38.956402015710296],[-95.25903054625839,38.95640203218775],[-95.25903067293375,38.95640203968858],[-95.25903079995825,38.956402038185395],[-95.2590309261787,38.956402027651],[-95.25903105152537,38.95640200988617],[-95.25903117376156,38.956401983035576],[-95.25903129288743,38.95640194709922],[-95.25903140652672,38.95640190382342],[-95.25903151583256,38.956401853235334],[-95.25903161965184,38.95640179530782],[-95.25903171564326,38.956401730886704],[-95.25903180380686,38.95640165997196],[-95.25903188414257,38.95640158256359],[-95.2590319565806,38.95640150046241],[-95.25903201881455,38.956401413613925],[-95.25903207077465,38.95640132381888],[-95.25903211249572,38.95640123017687],[-95.25903214394299,38.95640113358832],[-95.25903216389332,38.95640103582674],[-95.2590321734999,38.956400936919394],[-95.25903217157476,38.95640083773945],[-95.25903215927094,38.956400738314166],[-95.25903213533051,38.956400641317465],[-95.25903210094174,38.9564005458762],[-95.25903205606949,38.956400452890755],[-95.259032000679,38.95640036326153],[-95.25903193473528,38.95640027788892],[-95.25903186050981,38.95640019772788],[-95.25903177800252,38.956400122778334],[-95.25903168721355,38.9564000530404],[-95.25903158807296,38.956399990314786],[-95.25903148288712,38.95639993465602],[-95.25903137280926,38.95639988609139],[-95.25903125665123,38.956399845494026],[-95.25903113671944,38.956399812918434],[-95.25903101301382,38.956399788364614],[-95.25903088780593,38.95639977278755],[-95.25903076113059,38.95639976528673],[-95.25903063410608,38.95639976678993]]],[[[-95.25904214779888,38.956470187398736],[-95.25904202161317,38.95647019703278],[-95.2590418973847,38.956470215725275],[-95.25904177514832,38.95647024257587],[-95.2590416560573,38.956470277611814],[-95.25904154126472,38.95647032086037],[-95.25904143195874,38.95647037144844],[-95.25904132929254,38.95647042940323],[-95.25904123211299,38.95647049469753],[-95.25904114394932,38.95647056561225],[-95.25904106364847,38.95647064212024],[-95.25904099236355,38.95647072424865],[-95.25904093012956,38.95647081109716],[-95.25904087813448,38.95647090179265],[-95.25904083641333,38.95647099543461],[-95.259040805001,38.95647109112281],[-95.25904078386256,38.95647118975746],[-95.25904077540913,38.95647128869205],[-95.25904077618114,38.95647138784474],[-95.2590407896731,38.95647148639689],[-95.2590408135786,38.95647158429399],[-95.25904084796748,38.956471679735294],[-95.25904089283979,38.956471772720775],[-95.25904094826525,38.95647186144957],[-95.25904101305589,38.956471946794935],[-95.25904108724652,38.95647202785635],[-95.25904116975386,38.95647210280582],[-95.25904126173103,38.95647217167065],[-95.25904135971855,38.956472234369],[-95.25904146486955,38.95647229092813],[-95.2590415761357,38.95647233861961],[-95.2590416922589,38.956472380117376],[-95.25904181219086,38.95647241269296],[-95.25904193474338,38.956472437219475],[-95.25904205995145,38.956472452796596],[-95.2590421877801,38.95647246032462],[-95.25904231480472,38.956472458821445],[-95.25904244099038,38.95647244918739],[-95.2590425652189,38.9564724304949],[-95.25904268745525,38.95647240364431],[-95.25904280658123,38.956472367707924],[-95.25904292133885,38.956472325359755],[-95.25904303067973,38.956472273871334],[-95.25904313334594,38.95647221591651],[-95.25904323049066,38.95647215152265],[-95.25904331865429,38.95647208060788],[-95.25904339899007,38.956472003199565],[-95.25904347027496,38.95647192107111],[-95.25904353247405,38.95647183512299],[-95.25904358446907,38.95647174442749],[-95.2590436261902,38.956471650785495],[-95.25904365763745,38.956471554196966],[-95.259043678741,38.95647145646263],[-95.25904368719442,38.95647135752805],[-95.25904368642242,38.95647125837538],[-95.25904367296536,38.95647115892285],[-95.25904364902493,38.95647106192611],[-95.25904361463604,38.95647096648485],[-95.2590435697638,38.9564708734994],[-95.25904351437325,38.95647078387019],[-95.2590434495826,38.95647069852484],[-95.25904337535705,38.95647061836381],[-95.25904329284973,38.956470543414326],[-95.25904320090741,38.9564704736491],[-95.25904310291989,38.956470410950736],[-95.25904299773397,38.956470355292005],[-95.25904288650281,38.95647030670011],[-95.25904277034464,38.95647026610278],[-95.25904265041272,38.95647023352722],[-95.25904252786016,38.95647020900067],[-95.25904240265213,38.95647019342358],[-95.25904227597665,38.95647018592281],[-95.25904214779888,38.956470187398736]]],[[[-95.25884358082396,38.956618727799764],[-95.2588475410947,38.956622000039204],[-95.25884990580168,38.95662370518222],[-95.25884688191857,38.95662753868652],[-95.25884429729913,38.9566315637215],[-95.2588421716165,38.956635749209525],[-95.25884052111923,38.95664006309082],[-95.25883935859622,38.9566444732237],[-95.25883869344689,38.956648945584064],[-95.25883852930441,38.956653446011295],[-95.25883886746104,38.956657941190755],[-95.25883970700701,38.956662395052014],[-95.25884104109248,38.956666775890355],[-95.25884285835926,38.95667104919083],[-95.25884514507311,38.95667518218465],[-95.25884788512347,38.95667914384942],[-95.25885105775224,38.95668290395396],[-95.25885463751862,38.95668643395889],[-95.2588585966056,38.956689707071064],[-95.25886098539232,38.95669141638797],[-95.25885794525757,38.95669525221201],[-95.25885536067119,38.95669927634681],[-95.25885323498719,38.95670346183503],[-95.25885158560725,38.95670777664413],[-95.25885109220354,38.95670960617571],[-95.25885051937857,38.95671172762803],[-95.25907014185822,38.95668985064181],[-95.25906889317442,38.956687910532075],[-95.25906755191667,38.95668582764325],[-95.25906452286287,38.95668199613761],[-95.25906107779656,38.9566783855101],[-95.25905724334676,38.95667502342685],[-95.25905676315587,38.956674666906984],[-95.25905349610397,38.95667224018711],[-95.25905583166005,38.95666927991154],[-95.25905651997779,38.95666840667744],[-95.2590591045865,38.95666438163775],[-95.25906123025713,38.956660196145776],[-95.25906288074141,38.95665588226134],[-95.2590640432506,38.9566514721262],[-95.25906470953896,38.95664699979184],[-95.25906487366701,38.956642499364264],[-95.25906453430801,38.956638005058615],[-95.259063694783,38.956633550298584],[-95.2590623618376,38.95662916949004],[-95.25906054337054,38.95662489706614],[-95.25905825664572,38.95662076407652],[-95.25905551658585,38.95661680241674],[-95.25905234510233,38.95661304234503],[-95.25904876532985,38.95660951234617],[-95.25904567296683,38.95660695637489],[-95.25904480508535,38.95660623921318],[-95.25904243254644,38.95660452758051],[-95.25904476813562,38.95660156640478],[-95.25904545641791,38.956600694071135],[-95.2590480410248,38.95659666903167],[-95.25905016669402,38.956592483539836],[-95.25905181717741,38.956588169655554],[-95.25905297968623,38.9565837595205],[-95.25905364482145,38.95657928715892],[-95.25905380895001,38.956574786731345],[-95.25905346962695,38.95657029152525],[-95.25905263122175,38.95656583769275],[-95.2590512971251,38.9565614568568],[-95.25904947984854,38.95655718355952],[-95.25904719197338,38.95655305054246],[-95.25904445191676,38.95654908888235],[-95.25904128043689,38.956545328810336],[-95.25903770066836,38.9565417988111],[-95.25903460942698,38.95653924376715],[-95.25903374158133,38.956538525705014],[-95.25903136785688,38.95653681494524],[-95.25903370347925,38.95653385286927],[-95.25903439294909,38.95653297966259],[-95.25903697762395,38.956528952822566],[-95.25903910336166,38.95652476553011],[-95.25904075391396,38.95652044984515],[-95.25904191533897,38.956516037882146],[-95.2590425805092,38.95651156462019],[-95.25904274355496,38.95650706236456],[-95.25904240426784,38.95650256625797],[-95.25904156366249,38.95649810966968],[-95.2590402296027,38.956493727933136],[-95.25903841005714,38.95648945368083],[-95.25903612106657,38.95648531973584],[-95.25903337989489,38.956481357147794],[-95.25903020614723,38.95647759612053],[-95.25902662526437,38.95647406519326],[-95.25902355635677,38.956471529602595],[-95.25902266275708,38.95647079110457],[-95.25902031042185,38.956469094368494],[-95.25902263992738,38.95646614116045],[-95.25902333432366,38.95646525995927],[-95.25902583513343,38.95646137172753],[-95.25902591777366,38.95646123489297],[-95.259028042287,38.95645704937427],[-95.25902969165026,38.95645273456258],[-95.25903085300507,38.95644832440041],[-95.25903151814036,38.95644385203891],[-95.25903168111682,38.95643935158409],[-95.25903134060782,38.95643485725102],[-95.2590305010873,38.956430402490604],[-95.2590291658065,38.95642602252752],[-95.25902734738155,38.9564217492026],[-95.2590250594772,38.95641761708543],[-95.25902231827385,38.956413655397505],[-95.25901914561312,38.956409896197954],[-95.25901556585251,38.956406366198024],[-95.25901248013938,38.95640381759254],[-95.25901160443291,38.95640309393698],[-95.25900923972941,38.95640138879724],[-95.25901157412525,38.956398428495234],[-95.25901226488688,38.95639755171433],[-95.25901485074613,38.95639352400158],[-95.25901697539774,38.95638933488144],[-95.25901862601806,38.95638501739599],[-95.25901978747714,38.95638060453272],[-95.25902045275222,38.95637612856967],[-95.25902061471574,38.95637162448597],[-95.25902027431243,38.95636712745164],[-95.25901943259186,38.95636266993549],[-95.25901809745267,38.956358286370595],[-95.25901627679363,38.95635401119017],[-95.25901398672535,38.95634987541662],[-95.25901124328874,38.9563459118731],[-95.25900806843002,38.95634214991753],[-95.25900448528374,38.956338618034664],[-95.25900143430995,38.95633609638549],[-95.25900117399881,38.95633587393822],[-95.2590005216668,38.95633534301751],[-95.25899818953518,38.95633366117804],[-95.25900051676575,38.95633070701544],[-95.25900121234905,38.956329824941285],[-95.25900379474695,38.95632579714701],[-95.25900591932732,38.956321609827825],[-95.25900756757059,38.956317294088755],[-95.25900872668792,38.95631288207147],[-95.25900939074008,38.95630840788194],[-95.25900955148111,38.95630390557179],[-95.25900920989075,38.95629940941053],[-95.25900836694862,38.956294953667765],[-95.25900703058839,38.95629057187626],[-95.25900520986193,38.956286298496465],[-95.25900291972673,38.95628216452349],[-95.25900017622347,38.956278202780446],[-95.25899700129861,38.95627444262539],[-95.25899341808648,38.956270912542905],[-95.25899036365647,38.95626839081169],[-95.25898945436906,38.95626764022655],[-95.25898711888519,38.95626595560388],[-95.25898944726715,38.956263001468734],[-95.25899014162692,38.95626212116817],[-95.25899272622456,38.95625809612981],[-95.25899485073371,38.95625391061161],[-95.25899650009431,38.95624959580035],[-95.25899766144785,38.95624518563845],[-95.25899832658335,38.95624071327705],[-95.25899848956145,38.9562362128222],[-95.25899814905553,38.95623171848894],[-95.25899730838631,38.95622726370102],[-95.2589959742646,38.95622288376466],[-95.25899415584686,38.95621861043918],[-95.25899186795104,38.956214478321264],[-95.25898912675741,38.9562105166325],[-95.25898595410759,38.956206757432014],[-95.25898237320577,38.956203227403684],[-95.25897932132986,38.956200699423874],[-95.25897841295219,38.95619995516875],[-95.25897604825633,38.956198250028265],[-95.25897836681756,38.956195310981975],[-95.25897907211409,38.956194416520496],[-95.25898165670986,38.956190391482366],[-95.25898378237085,38.95618620599161],[-95.2589854328488,38.95618189210813],[-95.25898592628026,38.95618006167548],[-95.2589864979437,38.95617794019514],[-95.2587668781814,38.956199817051186],[-95.25876812684832,38.956201757164216],[-95.25876946693488,38.95620384002938],[-95.25877249595217,38.95620767154283],[-95.25877594213397,38.956211282206326],[-95.25877977654531,38.956214644299045],[-95.25878352375307,38.9562174275477],[-95.2587835055824,38.95621744964867],[-95.25878049873052,38.956221261023124],[-95.25877791412219,38.95622528605672],[-95.25877578844785,38.95622947154371],[-95.25877413910916,38.956233785451445],[-95.25877297658872,38.95623819558387],[-95.25877231028578,38.956242667916726],[-95.25877214614007,38.95624716834398],[-95.25877248547857,38.95625166265062],[-95.25877332498068,38.95625611741295],[-95.25877465790121,38.95626049822497],[-95.25877647518844,38.95626477062616],[-95.25877876303845,38.956268903648706],[-95.25878150303441,38.95627286621558],[-95.25878467448825,38.9562766262948],[-95.25878825423071,38.95628015630191],[-95.25879221447998,38.95628342854332],[-95.25879458700207,38.95628514018115],[-95.25879156313044,38.956288973684096],[-95.25878897852026,38.95629299871794],[-95.25878685284455,38.9562971842051],[-95.25878520235175,38.956301498085715],[-95.25878403983091,38.95630590821822],[-95.25878337468122,38.956310380578365],[-95.25878321053605,38.95631488100562],[-95.25878354868749,38.95631937618536],[-95.25878438819112,38.95632383094754],[-95.25878572230168,38.95632821088627],[-95.25878753955641,38.9563324841877],[-95.25878982625602,38.956336617182764],[-95.25879256629021,38.95634057884894],[-95.25879573890084,38.95634433895508],[-95.25879931749412,38.956347868934536],[-95.25880327771273,38.95635114207602],[-95.2588056468826,38.95635285093061],[-95.25880262636348,38.95635668721676],[-95.2588000417514,38.9563607122509],[-95.25879791610923,38.956364896837776],[-95.25879626558066,38.956369211618956],[-95.25879510305936,38.95637362175152],[-95.25879443790976,38.95637809411169],[-95.2587942737651,38.95638259453894],[-95.25879461310569,38.95638708884551],[-95.25879545261081,38.95639154360757],[-95.25879678557014,38.956395923518905],[-95.25879860282727,38.95640019682015],[-95.25880089068295,38.95640432984223],[-95.25880363072037,38.956408291508076],[-95.25880680218141,38.95641205158665],[-95.25881038193188,38.95641558159303],[-95.25881434215479,38.95641885473408],[-95.25881671468201,38.95642056637143],[-95.25881369080578,38.95642439987489],[-95.25881110619189,38.95642842490922],[-95.25880898051341,38.95643261039671],[-95.25880733001884,38.95643692427761],[-95.25880616749711,38.95644133441025],[-95.25880550119437,38.956445806743204],[-95.25880533705029,38.956450307170456],[-95.25880567635696,38.956454802377316],[-95.2588065158985,38.956459256238915],[-95.25880784997808,38.95646363707775],[-95.25880966727254,38.95646790947842],[-95.25881195394295,38.95647204337335],[-95.25881469398358,38.95647600503893],[-95.25881502174315,38.95647639310372],[-95.25881786660145,38.956479765144444],[-95.2588214452027,38.956483295123164],[-95.25882540542996,38.956486568263855],[-95.25882777359138,38.95648827348916],[-95.25882473702788,38.95649210669299],[-95.258822154509,38.95649613718442],[-95.25882002977278,38.95650032810177],[-95.25881838252735,38.95650464746692],[-95.25881722325525,38.95650906308384],[-95.25881656023753,38.95651354000063],[-95.25881640049722,38.956518045939305],[-95.25881674427802,38.95652254485677],[-95.25881758825919,38.956527003329285],[-95.25881892796694,38.95653138790586],[-95.25882075089004,38.9565356640442],[-95.25882304441257,38.95653979990329],[-95.2588257912708,38.95654376443339],[-95.2588275890406,38.95654589146351],[-95.25882756465003,38.956545925133334],[-95.25882747061804,38.9565460878338],[-95.25882739482749,38.95654625637293],[-95.25882733961961,38.95654642990475],[-95.25882730279285,38.95654660567364],[-95.25882728546551,38.95654678460716],[-95.25882728893029,38.956546963131025],[-95.25882730766503,38.95654710506583],[-95.25882731206909,38.956547140317625],[-95.25882735372866,38.95654731613962],[-95.25882741632013,38.95654748795042],[-95.25882749757204,38.956547654795024],[-95.25882759751926,38.956547815773085],[-95.25882771392537,38.956547969029295],[-95.25882784794346,38.95654811459091],[-95.25882799737198,38.95654824970213],[-95.25882816105772,38.956548374335824],[-95.25882833788242,38.95654848756421],[-95.25882852791594,38.95654858758661],[-95.25882872766371,38.956548675221505],[-95.2588289360425,38.956548748640955],[-95.25882915193404,38.95654880691724],[-95.25882937415012,38.95654885092346],[-95.25882959926624,38.95654887967749],[-95.25882982728227,38.956548893179324],[-95.25883005708006,38.95654889050125],[-95.25883024001632,38.95654887590063],[-95.2588302840119,38.95654887243471],[-95.2588303293003,38.95654886539442],[-95.25883255619608,38.95655105844573],[-95.2588365233118,38.95655433264996],[-95.25883883884744,38.95655599607574],[-95.25883581248571,38.95655983402723],[-95.25883322902126,38.95656385908923],[-95.25883110449324,38.95656804460436],[-95.25882945511512,38.956572359413165],[-95.25882829259254,38.95657676954598],[-95.25882762859628,38.95658124193355],[-95.2588274656065,38.95658574238808],[-95.25882780495014,38.956590236694424],[-95.25882864561294,38.95659469148344],[-95.25882997973135,38.95659907142157],[-95.2588317981838,38.956603343849075],[-95.25883408720121,38.95660747689772],[-95.25883682724832,38.956611438562746],[-95.25883999990839,38.95661519776723],[-95.2588402767505,38.95661547017285],[-95.25884018655856,38.956615504089406],[-95.25883998908728,38.956615595851524],[-95.25883980381221,38.95661570051911],[-95.25883963076826,38.95661581719172],[-95.25883947114345,38.956615944996244],[-95.25883932612597,38.9566160830596],[-95.25883919686898,38.95661623140901],[-95.25883908581852,38.95661638649736],[-95.25883899175152,38.956616550098296],[-95.25883891596092,38.956616718637385],[-95.25883885963478,38.956616891241566],[-95.2588388239263,38.95661706793812],[-95.25883880663383,38.95661724597121],[-95.2588388100987,38.95661742449514],[-95.25883882764532,38.956617567303056],[-95.25883883204942,38.95661760255485],[-95.25883887486224,38.95661777840411],[-95.25883893745377,38.95661795021491],[-95.2588390187058,38.95661811705952],[-95.2588391175,38.95661827801028],[-95.25883923505941,38.95661843129372],[-95.25883936911258,38.9566185759549],[-95.25883951850638,38.95661871196658],[-95.25883968219226,38.956618836600214],[-95.25883985905206,38.95661894892822],[-95.25884004905089,38.95661904985098],[-95.25884024764571,38.95661913745859],[-95.25884045721281,38.95661921000488],[-95.2588406730696,38.95661926918152],[-95.25884089413279,38.956619313160495],[-95.25884112040228,38.95661934194178],[-95.25884134841856,38.956619355443536],[-95.25884157706342,38.95661935273824],[-95.25884175999985,38.95661933813754],[-95.25884180514866,38.95661933469889],[-95.25884203036794,38.95661930127098],[-95.25884225041494,38.95661925240006],[-95.25884246406655,38.956619189859566],[-95.25884267023953,38.95661911182153],[-95.25884286655759,38.95661902003215],[-95.25884305179775,38.95661891626498],[-95.2588432259949,38.95661879961962],[-95.25884338565467,38.956618670914665],[-95.25884345519313,38.956618604065845],[-95.25884358082396,38.956618727799764]]]]},"properties":{"SDE.FloorAll.FLOORLOCATION":"ROOF"}}]}
