{"type":"FeatureCollection","features":[{"type":"Feature","geometry":{"type":"Polygon","coordinates":[[[-95.24408123670456,38.9562823086308],[-95.24413209931905,38.95640147193821],[-95.24425553756123,38.95636935179227],[-95.24419975993257,38.95623867390812],[-95.2442147730749,38.95623476794782],[-95.24420115285524,38.9562028580273],[-95.2441861396838,38.956206764886204],[-95.24417337740945,38.95617683011457],[-95.24414559594308,38.95615391759174],[-95.24410799203007,38.95614231089258],[-95.2441138083947,38.9561308206181],[-95.24407374781156,38.95611845616193],[-95.2440679302882,38.95612994640702],[-95.24390386960064,38.95607931078674],[-95.24388609422599,38.95611442090468],[-95.24386429218518,38.95610769138364],[-95.24388233646017,38.95607204962866],[-95.24384418287991,38.956060273863244],[-95.24381385692747,38.956120173066985],[-95.24385201049991,38.956131949742684],[-95.24385265703523,38.956130672752934],[-95.24387445911712,38.95613740137571],[-95.24385603833083,38.956173788506206],[-95.24400563287256,38.95621995991727],[-95.244013418355,38.95622638056722],[-95.24400325670558,38.956233892274],[-95.24400260938828,38.95625232950135],[-95.24399877886012,38.956255161126116],[-95.24403585233706,38.9562857314777],[-95.24403968286542,38.95628289985174],[-95.24406329742123,38.956283405291664],[-95.24407345907136,38.95627589357964],[-95.24408123670456,38.9562823086308]]]},"properties":{"SDE.FloorAll.FLOORLOCATION":"-1"}},{"type":"Feature","geometry":{"type":"Polygon","coordinates":[[[-95.24400798706758,38.95622189583588],[-95.24408123666946,38.95628230953118],[-95.24413209931905,38.95640147193821],[-95.24425553756123,38.95636935179227],[-95.24419975989747,38.95623867480849],[-95.2442147730749,38.95623476794782],[-95.24420115282012,38.95620285892765],[-95.24418614083696,38.95620676491358],[-95.24417337740945,38.95617683011457],[-95.24414557469986,38.95615389996349],[-95.24410799199495,38.95614231179297],[-95.24411380954785,38.956130820645505],[-95.24410876730208,38.956129265140184],[-95.24410762050078,38.95613153150291],[-95.24407764206539,38.956122278904175],[-95.2440787888675,38.956120012541746],[-95.24407374781156,38.95611845616193],[-95.24406658342625,38.956132607257324],[-95.24406889981891,38.95613332201546],[-95.2440532254359,38.95616428238154],[-95.2440510459134,38.95616360962927],[-95.2440491063523,38.95616743970148],[-95.24405128702814,38.956168112481166],[-95.24404137636483,38.956187689469786],[-95.24403919572362,38.9561870157895],[-95.24403833406471,38.95618871845308],[-95.24402661525838,38.956185101752475],[-95.24400798706758,38.95622189583588]]]},"properties":{"SDE.FloorAll.FLOORLOCATION":"-2"}},{"type":"Feature","geometry":{"type":"Polygon","coordinates":[[[-95.24408123670456,38.9562823086308],[-95.2441321004722,38.95640147196563],[-95.24425553871441,38.95636935181968],[-95.24419976108574,38.95623867393552],[-95.2442147730749,38.95623476794782],[-95.24420115285524,38.9562028580273],[-95.24418614083696,38.95620676491358],[-95.24417335620126,38.95617681158594],[-95.24414557469986,38.95615389996349],[-95.24410797573992,38.95614234385077],[-95.24411380954785,38.956130820645505],[-95.24407374781156,38.95611845616193],[-95.24406771357292,38.9561298799723],[-95.24390386960064,38.95607931078674],[-95.24388544772651,38.95611569699427],[-95.24388490254961,38.95611552902363],[-95.24386364565028,38.9561089683735],[-95.24386434594945,38.95610758541573],[-95.24388233646017,38.95607204962866],[-95.24384418287991,38.956060273863244],[-95.24381326530906,38.95612134411605],[-95.24385141891713,38.956133119891525],[-95.24385265818839,38.95613067278033],[-95.24387445911712,38.95613740137571],[-95.24385603833083,38.956173788506206],[-95.24396395957709,38.956207097463704],[-95.24400563287256,38.95621995991727],[-95.24400979176589,38.95622338970891],[-95.24399963011648,38.956230901415374],[-95.24400325670558,38.956233892274],[-95.24400261054143,38.95625232952878],[-95.24399878001327,38.95625516115352],[-95.24400844979164,38.95626313614864],[-95.24400930902331,38.956262502282335],[-95.24400991288441,38.95626300059497],[-95.24401076386837,38.956262371038704],[-95.24401136888264,38.956262869378705],[-95.24401221983146,38.9562622407229],[-95.24402753134665,38.956274868571775],[-95.24402668036268,38.95627549812815],[-95.244027284224,38.95627599644067],[-95.24402643324002,38.95627662599703],[-95.24402703710138,38.95627712430957],[-95.24402618258763,38.95627775558451],[-95.24403585349023,38.956285731505126],[-95.24403968401859,38.95628289987916],[-95.24406329742123,38.956283405291664],[-95.24406692401568,38.95628639614825],[-95.24407708566586,38.95627888443595],[-95.24408123670456,38.9562823086308]]]},"properties":{"SDE.FloorAll.FLOORLOCATION":"1"}},{"type":"Feature","geometry":{"type":"Polygon","coordinates":[[[-95.24408123670456,38.9562823086308],[-95.2441321004722,38.95640147196563],[-95.24425553871441,38.95636935181968],[-95.24419976108574,38.95623867393552],[-95.2442147730749,38.95623476794782],[-95.24420115285524,38.9562028580273],[-95.24418614083696,38.95620676491358],[-95.24417335620126,38.95617681158594],[-95.24414559709629,38.95615391761913],[-95.24410799203007,38.95614231089258],[-95.24411380954785,38.956130820645505],[-95.24407374781156,38.95611845616193],[-95.2440679302882,38.95612994640702],[-95.24390386960064,38.95607931078674],[-95.24388544772651,38.95611569699427],[-95.2438636468035,38.95610896840092],[-95.24388233646017,38.95607204962866],[-95.24384418287991,38.956060273863244],[-95.24381326530906,38.95612134411605],[-95.24385141891713,38.956133119891525],[-95.24385265818839,38.95613067278033],[-95.24387445911712,38.95613740137571],[-95.24385603833083,38.956173788506206],[-95.24400563287256,38.95621995991727],[-95.24400979176589,38.95622338970891],[-95.24399963011648,38.956230901415374],[-95.24400325670558,38.956233892274],[-95.24400261054143,38.95625232952878],[-95.24399878001327,38.95625516115352],[-95.24403585349023,38.956285731505126],[-95.24403968401859,38.95628289987916],[-95.24406329742123,38.956283405291664],[-95.24406692401568,38.95628639614825],[-95.24407708566586,38.95627888443595],[-95.24408123670456,38.9562823086308]]]},"properties":{"SDE.FloorAll.FLOORLOCATION":"2"}},{"type":"Feature","geometry":{"type":"Polygon","coordinates":[[[-95.24408123670456,38.9562823086308],[-95.2441321004722,38.95640147196563],[-95.24425553871441,38.95636935181968],[-95.24419976108574,38.95623867393552],[-95.2442147730749,38.95623476794782],[-95.24420115285524,38.9562028580273],[-95.24418614083696,38.95620676491358],[-95.24417337740945,38.95617683011457],[-95.24414557469986,38.95615389996349],[-95.24410799203007,38.95614231089258],[-95.24411380954785,38.956130820645505],[-95.24407374781156,38.95611845616193],[-95.2440679302882,38.95612994640702],[-95.24390386960064,38.95607931078674],[-95.24388544772651,38.95611569699427],[-95.24386364565028,38.9561089683735],[-95.24388233646017,38.95607204962866],[-95.24384418287991,38.956060273863244],[-95.24381326530906,38.95612134411605],[-95.24385141891713,38.956133119891525],[-95.24385265818839,38.95613067278033],[-95.24387445911712,38.95613740137571],[-95.24385603833083,38.956173788506206],[-95.24400563287256,38.95621995991727],[-95.244013418355,38.95622638056722],[-95.24400325670558,38.956233892274],[-95.24400261054143,38.95625232952878],[-95.24399878001327,38.95625516115352],[-95.24403585349023,38.956285731505126],[-95.24403968401859,38.95628289987916],[-95.24406329742123,38.956283405291664],[-95.24407345907136,38.95627589357964],[-95.24408123670456,38.9562823086308]]]},"properties":{"SDE.FloorAll.FLOORLOCATION":"3"}},{"type":"Feature","geometry":{"type":"Polygon","coordinates":[[[-95.244132342445,38.9564008017972],[-95.2442554678297,38.9563686534868],[-95.2442426815803,38.956338799265126],[-95.24424600732789,38.956337931123215],[-95.2442031068947,38.95623776481532],[-95.2442147551911,38.956234723362634],[-95.24420098401825,38.95620257012788],[-95.24418934275094,38.95620560904247],[-95.24417630474657,38.95617516753671],[-95.24414750603964,38.95615146479308],[-95.2441092324074,38.9561396871647],[-95.24411373799167,38.956130761266195],[-95.24407374784666,38.95611845526154],[-95.24406924589316,38.95612737673881],[-95.2439435635756,38.95608870245389],[-95.24394227763867,38.95609125119656],[-95.24390419223982,38.956079532046964],[-95.24388585945165,38.95611585368143],[-95.24386409654258,38.95610915663358],[-95.24388269704313,38.95607230423507],[-95.24384461281757,38.95606058509334],[-95.24381384266387,38.956121545296064],[-95.24385192807038,38.956133264475305],[-95.24385316140025,38.956130821728934],[-95.2438749243149,38.956137518778924],[-95.24385659034351,38.95617384038117],[-95.24389467693842,38.956185559573726],[-95.24389338984481,38.95618810828844],[-95.24400281823281,38.95622178108199],[-95.24401078760458,38.956228340386026],[-95.24399950334102,38.95623669869617],[-95.24399877821371,38.95625816760263],[-95.24400612244978,38.95626421186636],[-95.24400707688436,38.95626350456008],[-95.24402559121417,38.95627874279017],[-95.24402463677956,38.956279450096666],[-95.24403197986686,38.95628549433139],[-95.24405947608095,38.95628606049641],[-95.24407057256205,38.95627784101189],[-95.24407892107666,38.95628471213514],[-95.24411622811448,38.956371817446275],[-95.24411955620666,38.95637094846242],[-95.244132342445,38.9564008017972]]]},"properties":{"SDE.FloorAll.FLOORLOCATION":"ROOF"}}]}
