{"type":"FeatureCollection","features":[{"type":"Feature","geometry":{"type":"Polygon","coordinates":[[[-95.24213395319889,38.95627083481379],[-95.24213392238431,38.95637013579372],[-95.24221655990756,38.95637015116079],[-95.24221657313204,38.95632667898291],[-95.24224822227004,38.956326684659324],[-95.24224823475173,38.95628435522006],[-95.24224823871505,38.95627268622568],[-95.24221659075435,38.95627268057669],[-95.24221659060605,38.95627085018086],[-95.24217351342816,38.956270842133875],[-95.24217351483547,38.95626672355934],[-95.24215241660464,38.956266719189564],[-95.2421524151961,38.956270837764094],[-95.24213395319889,38.95627083481379]]]},"properties":{"SDE.FloorAll.FLOORLOCATION":"-1"}},{"type":"Feature","geometry":{"type":"Polygon","coordinates":[[[-95.24213392238431,38.95637013579372],[-95.24221655987242,38.95637015206117],[-95.24221657313204,38.95632667898291],[-95.24224822227004,38.956326684659324],[-95.24224823867993,38.95627268712606],[-95.24221659075435,38.95627268057669],[-95.24221659060605,38.95627085018086],[-95.24217351342816,38.956270842133875],[-95.24217351483547,38.95626672355934],[-95.2421524165695,38.956266720089985],[-95.2421524151961,38.956270837764094],[-95.24213395319889,38.95627083481379],[-95.24213394442923,38.956298749214845],[-95.24213393569475,38.956326662715455],[-95.24211225107186,38.95632665881025],[-95.24211223956226,38.95636372510793],[-95.24213392416144,38.95636372991351],[-95.24213392238431,38.95637013579372]]]},"properties":{"SDE.FloorAll.FLOORLOCATION":"1"}},{"type":"Feature","geometry":{"type":"Polygon","coordinates":[[[-95.24213216308429,38.95637082213779],[-95.2421752403231,38.95637083020014],[-95.24221831756194,38.9563708382465],[-95.24224644976613,38.95637084318302],[-95.24224646276178,38.95632805683392],[-95.2422493933742,38.956328057145406],[-95.24224940194904,38.95629831234866],[-95.24225467679739,38.95629831344386],[-95.24225468051418,38.95628733117871],[-95.2422546823726,38.95628184004611],[-95.24224940752545,38.95628183895092],[-95.24224941073011,38.95627131359568],[-95.24221834795551,38.95627130834763],[-95.2422183487496,38.95627016380809],[-95.24217527157212,38.95627015576174],[-95.24213219439463,38.95627014769942],[-95.24213217749347,38.95632643343885],[-95.24211107805654,38.95632642993451],[-95.24211106663674,38.95636441097986],[-95.24213216489672,38.95636441535715],[-95.24213216308429,38.95637082213779]]]},"properties":{"SDE.FloorAll.FLOORLOCATION":"ROOF"}}]}
