{"type":"FeatureCollection","features":[{"type":"Feature","geometry":{"type":"Polygon","coordinates":[[[-95.25362241645811,38.954733500774864],[-95.25365534560522,38.95473378241372],[-95.25365630254568,38.95466560226819],[-95.2536367062385,38.954665426469276],[-95.25363774150132,38.954591755219404],[-95.25362312367868,38.95459162975492],[-95.25362385910742,38.9545392518265],[-95.25360287559612,38.954539072901504],[-95.25360250001924,38.954565879919116],[-95.25358140230334,38.95456569918633],[-95.25358104326656,38.954591278227824],[-95.25352829953476,38.95459082639256],[-95.25352694930866,38.95468691894035],[-95.2536230597647,38.95468774195599],[-95.25362241645811,38.954733500774864]]]},"properties":{"SDE.FloorAll.FLOORLOCATION":"-1"}},{"type":"Feature","geometry":{"type":"Polygon","coordinates":[[[-95.2536324498336,38.95481154559846],[-95.25363948127689,38.95481160581278],[-95.2536398868765,38.954782778062075],[-95.25376998697715,38.95478389238576],[-95.25376958258373,38.95481272016427],[-95.25377661402725,38.954812780370204],[-95.25377694768534,38.954789100508755],[-95.25383086268144,38.95478956284672],[-95.25383064146823,38.954805298380506],[-95.25395993625767,38.95480640513142],[-95.25396137655129,38.954703849347986],[-95.25398408505333,38.954704043828585],[-95.25398421635353,38.95469466249628],[-95.25402478032899,38.95469501040379],[-95.25402498870868,38.9546801983208],[-95.25402434832506,38.95468019306716],[-95.25402464023945,38.95465942767661],[-95.25403152630098,38.95465948622664],[-95.25403159298087,38.95465473925842],[-95.25403525524999,38.95465477012088],[-95.25403530314944,38.954651338494386],[-95.25402475485473,38.954651248181506],[-95.25402602514342,38.95456082064495],[-95.25403415614291,38.95456089065616],[-95.25403942822577,38.954185439562586],[-95.25390759042112,38.95418431049206],[-95.25390724964238,38.95421245304524],[-95.25384483718219,38.954211918335965],[-95.25384461726942,38.95422759081554],[-95.25335388802854,38.95422338699598],[-95.25335020169062,38.95448575498971],[-95.25337466856767,38.95448596421106],[-95.25337321410285,38.9545894866866],[-95.25333980964665,38.954589200915585],[-95.25333707217668,38.954783988776974],[-95.25359734624865,38.95478621790527],[-95.25359737117506,38.95478438811022],[-95.2536328270796,38.95478469536231],[-95.2536324498336,38.95481154559846]]]},"properties":{"SDE.FloorAll.FLOORLOCATION":"1"}},{"type":"Feature","geometry":{"type":"Polygon","coordinates":[[[-95.25361077267983,38.95483174223652],[-95.25379039298375,38.954833280637544],[-95.25379098045794,38.95479145163614],[-95.25382914568387,38.954791778842065],[-95.2538288788394,38.95481076851512],[-95.25395919938664,38.95481188424189],[-95.2539606807508,38.95470639955303],[-95.25401906449947,38.95470689915398],[-95.25401903488998,38.95470902804421],[-95.25402856205949,38.95470910949355],[-95.25402866413162,38.95470178766632],[-95.25402608994658,38.95470176545105],[-95.25402631710863,38.95468557854558],[-95.25402680550528,38.95465131747806],[-95.2540247540141,38.954651299531356],[-95.25402603891615,38.954559782761464],[-95.25403028844808,38.95455981942214],[-95.25403494705398,38.95422802980257],[-95.25402718296739,38.95422796397449],[-95.25402710332398,38.95423360915592],[-95.25378126329488,38.95423150384149],[-95.25378141649048,38.95422057923069],[-95.25377438395269,38.95422051899767],[-95.25377422998643,38.95423146341719],[-95.25376382827392,38.9542313747487],[-95.25376379984888,38.9542334135448],[-95.25370812680178,38.95423293746009],[-95.25370817927215,38.954229210340145],[-95.25364430143166,38.954228663342995],[-95.25364443140778,38.95421940634711],[-95.25363703311385,38.95421934284917],[-95.25363688603369,38.954229753006366],[-95.25335625024847,38.95422734886212],[-95.25335311381737,38.95445055458194],[-95.25335091577756,38.95445053585509],[-95.25335051601836,38.95447903209622],[-95.25335271290594,38.95447905079579],[-95.25335265564702,38.95448313829207],[-95.25337756211734,38.95448335161832],[-95.2533760364812,38.95459191385412],[-95.25334131439239,38.95459161579453],[-95.25333862219365,38.95478318916155],[-95.25337510283066,38.95478350184293],[-95.25337509196214,38.954784256811045],[-95.25359661347456,38.95478615458491],[-95.2535966243407,38.95478539961677],[-95.25361142220014,38.95478552664462],[-95.25361077267983,38.95483174223652]]]},"properties":{"SDE.FloorAll.FLOORLOCATION":"2"}},{"type":"Feature","geometry":{"type":"MultiPolygon","coordinates":[[[[-95.2536073947919,38.95483689833157],[-95.25361091397424,38.954836928521495],[-95.25370373276394,38.954837723060045],[-95.25379405147622,38.95483863765018],[-95.25379435684904,38.954816874021766],[-95.25379436210493,38.95481653078002],[-95.2537734858591,38.95481635172489],[-95.25377351926147,38.95481394714992],[-95.25377353356274,38.954812895760604],[-95.25377355971143,38.95481097497094],[-95.25377502457842,38.95470384245014],[-95.25377541683787,38.954675148666375],[-95.25378148144647,38.95423156308218],[-95.25378151895112,38.954228815238025],[-95.25378163111512,38.95422058070954],[-95.25377437472753,38.95422051877915],[-95.25377425910324,38.95422875322572],[-95.2536443146502,38.95422763986585],[-95.25364433855549,38.954225955143556],[-95.25364443028964,38.9542194054194],[-95.25363695005251,38.95421934178284],[-95.25363685835265,38.95422589060662],[-95.25363683441222,38.954227576229286],[-95.25363679574885,38.95423032404606],[-95.25363056407397,38.95467390839046],[-95.25363034838938,38.9546892628384],[-95.25352415809077,38.954688353357696],[-95.25334463851995,38.954686816020654],[-95.25334116781248,38.95468678606968],[-95.2533392686064,38.95468676991607],[-95.25333574943164,38.95468673971794],[-95.25333546373034,38.954707072671226],[-95.25333542505494,38.954709820487814],[-95.25333427323487,38.9547918298074],[-95.2536079952034,38.95479417471978],[-95.2536079773624,38.95479540627006],[-95.2536073947919,38.95483689833157]]],[[[-95.25361816532715,38.95442702183452],[-95.25361806945307,38.95443388598765],[-95.2536268593043,38.954433960819955],[-95.2536269562957,38.95442709759454],[-95.25361816532715,38.95442702183452]]],[[[-95.25360997907805,38.95445980369778],[-95.25360988204999,38.954466667823574],[-95.25361867305848,38.95446674268385],[-95.25361876889751,38.954459879431106],[-95.25360997907805,38.95445980369778]]],[[[-95.25360388775013,38.95449481254198],[-95.2536037907564,38.954501675767354],[-95.25361434018144,38.954501766145874],[-95.25361443602097,38.95449490289314],[-95.25360388775013,38.95449481254198]]],[[[-95.25353143102879,38.95454320510501],[-95.253531333993,38.95455006923068],[-95.25354012501172,38.954550144096935],[-95.25354022204667,38.95454327997125],[-95.25353143102879,38.95454320510501]]],[[[-95.25343958415941,38.954541972918214],[-95.25343948826784,38.95454883707115],[-95.25344827813316,38.954548911917016],[-95.25344837514203,38.95454204869178],[-95.25343958415941,38.954541972918214]]],[[[-95.25359240620166,38.95452293091812],[-95.25359236764136,38.954525676033676],[-95.25359198189803,38.9545531307905],[-95.2536060470395,38.95455325127814],[-95.25360608559929,38.954550506162626],[-95.25360627846824,38.9545367787842],[-95.25360647133706,38.954523051405744],[-95.25359240620166,38.95452293091812]]],[[[-95.25333706871177,38.95459284632063],[-95.25333706685457,38.95459295352227],[-95.25333777530818,38.95459295949108],[-95.25336986206479,38.95459323477443],[-95.25336986853453,38.954593127682045],[-95.25333706871177,38.95459284632063]]],[[[-95.25360576859819,38.95458896558909],[-95.25360557572905,38.95460269296747],[-95.25361964088036,38.95460281345344],[-95.25361983374681,38.954589086075046],[-95.25360576859819,38.95458896558909]]],[[[-95.25355293965305,38.95465344582364],[-95.25355278533539,38.95466442808632],[-95.2535633336314,38.95466451844214],[-95.25356348794749,38.954653536179414],[-95.25355293965305,38.95465344582364]]],[[[-95.25351646389883,38.95466554496675],[-95.25351636801454,38.954672409119674],[-95.25352515789534,38.95467248395971],[-95.25352525489691,38.95466562073447],[-95.25351646389883,38.95466554496675]]],[[[-95.25377498547958,38.95470960214617],[-95.25395881874925,38.95481256105776],[-95.25396024194555,38.95471118817613],[-95.25377498547958,38.95470960214617]]]]},"properties":{"SDE.FloorAll.FLOORLOCATION":"ROOF"}}]}
