{"type":"FeatureCollection","features":[{"type":"Feature","geometry":{"type":"Polygon","coordinates":[[[-95.24427065789837,38.95594066517045],[-95.24435495570593,38.955883157151014],[-95.24434888248128,38.955877729816095],[-95.24433119262986,38.95586192092878],[-95.2443342815771,38.9558598133776],[-95.24423180434736,38.95576823377009],[-95.24422871540109,38.955770341318555],[-95.2442049512477,38.95574910504289],[-95.24412065347796,38.95580661295393],[-95.24414446556156,38.95582789274386],[-95.24414137545692,38.95583000026258],[-95.24424375675119,38.95592149385594],[-95.24424684573874,38.95591938540667],[-95.24427065789837,38.95594066517045]]]},"properties":{"SDE.FloorAll.FLOORLOCATION":"-1"}},{"type":"Feature","geometry":{"type":"Polygon","coordinates":[[[-95.24427065674521,38.95594066514303],[-95.24435495570593,38.955883157151014],[-95.24433119147665,38.95586192090137],[-95.2443342815771,38.9558598133776],[-95.24429248956305,38.955822466397834],[-95.24429359352474,38.95582171307584],[-95.24429050836928,38.955818956796534],[-95.24428730915922,38.95582113923132],[-95.24427458382654,38.95580976791016],[-95.2442777830716,38.955807584575325],[-95.24427469795255,38.95580482739518],[-95.24427359514411,38.955805580744425],[-95.24423180434736,38.95576823377009],[-95.24422871424791,38.95577034129116],[-95.2442049512477,38.95574910504289],[-95.24419943388688,38.95575286810181],[-95.24417186304188,38.955728228429464],[-95.24409859889016,38.9557782092813],[-95.24412616972904,38.955802848970976],[-95.24412065235987,38.955806612026166],[-95.24414446444351,38.9558278918161],[-95.24414137549202,38.95582999936223],[-95.24424375563315,38.95592149292813],[-95.24424684573874,38.95591938540667],[-95.24427065674521,38.95594066514303]]]},"properties":{"SDE.FloorAll.FLOORLOCATION":"1"}},{"type":"Feature","geometry":{"type":"Polygon","coordinates":[[[-95.24427065789837,38.95594066517045],[-95.24435495570593,38.955883157151014],[-95.24433119262986,38.95586192092878],[-95.2443342815771,38.9558598133776],[-95.24423180434736,38.95576823377009],[-95.24422871540109,38.955770341318555],[-95.2442049512477,38.95574910504289],[-95.24412065347796,38.95580661295393],[-95.24414446556156,38.95582789274386],[-95.24414137545692,38.95583000026258],[-95.24419545766236,38.95587833157428],[-95.2441977746647,38.95587675092046],[-95.24420548749828,38.95588364297536],[-95.2442031704959,38.95588522362933],[-95.24424375675119,38.95592149385594],[-95.24424684573874,38.95591938540667],[-95.24427065789837,38.95594066517045]]]},"properties":{"SDE.FloorAll.FLOORLOCATION":"2"}},{"type":"Feature","geometry":{"type":"MultiPolygon","coordinates":[[[[-95.24424482382427,38.95582611988337],[-95.24426256161888,38.95584197138057],[-95.24427756754184,38.95583173502735],[-95.2442598297816,38.95581588263209],[-95.24424482382427,38.95582611988337]]],[[[-95.24422616744563,38.95579942822637],[-95.24422620008347,38.95579903516612],[-95.24422550417168,38.95579858874022],[-95.24422616744563,38.95579942822637]]],[[[-95.24409904001409,38.955777907942256],[-95.24412661085306,38.955802547631826],[-95.24412771478106,38.955801795211805],[-95.24410110759356,38.95577801747015],[-95.24417128164394,38.955730144136254],[-95.24419788999016,38.95575392188936],[-95.24419899276349,38.95575316944127],[-95.24417142191857,38.95572852976878],[-95.24409904001409,38.955777907942256]]],[[[-95.24418094921465,38.955829772005224],[-95.2441813799722,38.95582979576225],[-95.24418054440271,38.95582926040007],[-95.24418094921465,38.955829772005224]]],[[[-95.24430780965585,38.95586178513981],[-95.24430695279547,38.95586070042557],[-95.2443060405757,38.95586065080602],[-95.24430780965585,38.95586178513981]]],[[[-95.2441980403472,38.955858035155],[-95.24421577813928,38.95587388665928],[-95.24423078407585,38.95586365031216],[-95.24421304631807,38.95584779790979],[-95.2441980403472,38.955858035155]]],[[[-95.24424782897547,38.95590929431119],[-95.24424905413457,38.95591008046149],[-95.24424788595248,38.95590860262225],[-95.24424782897547,38.95590929431119]]]]},"properties":{"SDE.FloorAll.FLOORLOCATION":"ROOF"}}]}
