{"type":"FeatureCollection","features":[{"type":"Feature","geometry":{"type":"Polygon","coordinates":[[[-95.24275817193588,38.95690912014234],[-95.24281970950663,38.95690945250289],[-95.24281972748922,38.95690739362706],[-95.24283144876458,38.95690745696908],[-95.24283143078232,38.956909515844885],[-95.24289296835377,38.95690984816656],[-95.24289357220356,38.956841665787266],[-95.24289417089555,38.956773941108246],[-95.2428942591062,38.9567640747715],[-95.24290129280081,38.95676411225406],[-95.2429013848322,38.95675364488987],[-95.24289435232693,38.95675360653437],[-95.24289453964036,38.956732499748945],[-95.24290157214352,38.95673253810445],[-95.242901665328,38.95672207076762],[-95.24289463167271,38.95672203238472],[-95.24289472388665,38.956711708319915],[-95.24287769076318,38.95671161600092],[-95.24287773873552,38.95670612506504],[-95.24286433265674,38.95670605230398],[-95.2428642846834,38.956711543239834],[-95.24285721524545,38.956711504904966],[-95.2428575465852,38.95667398209133],[-95.24276670438053,38.956673491793715],[-95.24276637414577,38.956711014634514],[-95.24275992669338,38.95671098027027],[-95.2427588670257,38.95683064251168],[-95.2426653877384,38.956830137192284],[-95.24266472766975,38.95690472596227],[-95.24275820590249,38.956905231254744],[-95.24275817193588,38.95690912014234]]]},"properties":{"SDE.FloorAll.FLOORLOCATION":"-1"}},{"type":"Feature","geometry":{"type":"Polygon","coordinates":[[[-95.24276696038262,38.95671101776098],[-95.24275992788168,38.95671097939735],[-95.24275886505866,38.95683087047534],[-95.24275817193588,38.95690912014234],[-95.24289296950691,38.95690984819399],[-95.24289472392178,38.95671170741956],[-95.24285662900857,38.95671150177895],[-95.24285695749815,38.956674436720775],[-95.24276728895431,38.956673951802706],[-95.24276696038262,38.95671101776098]]]},"properties":{"SDE.FloorAll.FLOORLOCATION":"1"}},{"type":"Feature","geometry":{"type":"Polygon","coordinates":[[[-95.24275817193588,38.95690912014234],[-95.24289296835377,38.95690984816656],[-95.24289472392178,38.95671170741956],[-95.24285721524545,38.956711504904966],[-95.24285754773837,38.95667398211876],[-95.24276729177028,38.95667349494762],[-95.24276696038262,38.95671101776098],[-95.24275992672851,38.956710979369916],[-95.24275886505866,38.95683087047534],[-95.24266567885485,38.95683036761986],[-95.24266502279147,38.956904498661764],[-95.24275820793979,38.956905001490355],[-95.24275817193588,38.95690912014234]]]},"properties":{"SDE.FloorAll.FLOORLOCATION":"2"}},{"type":"Feature","geometry":{"type":"Polygon","coordinates":[[[-95.24275817193588,38.95690912014234],[-95.24287714456146,38.95690976297674],[-95.24287717170269,38.956906788672214],[-95.2428765854642,38.956906785546295],[-95.2428766725887,38.95689694712186],[-95.24288253266648,38.956896978326235],[-95.2428826369223,38.95688530991738],[-95.2428767757274,38.95688527778521],[-95.24287694797448,38.95686582980029],[-95.24288280916772,38.95686586193244],[-95.2428829123054,38.95685419259577],[-95.24287705107795,38.956854161364014],[-95.24287728361256,38.9568280781779],[-95.24292533998428,38.95682833773955],[-95.24292651246002,38.95682834399096],[-95.24292682093238,38.95679356667288],[-95.24292564845729,38.956793560421495],[-95.24287817604042,38.95679330393101],[-95.24287818204576,38.95679261733897],[-95.24287759580817,38.956792614212986],[-95.24287781317682,38.95676813304756],[-95.24288367439709,38.9567681642793],[-95.24288377749937,38.95675649584293],[-95.24287791631514,38.95675646371078],[-95.24287809256512,38.956736557997615],[-95.24288395374771,38.95673659012971],[-95.24288405688502,38.95672492079292],[-95.24287819566828,38.95672488956121],[-95.24287828794905,38.956714593435954],[-95.2428788730328,38.956714596534454],[-95.24287890017386,38.956711622229925],[-95.24277633667789,38.9567110686026],[-95.24277622354745,38.95672388135907],[-95.24277036348404,38.956723850149324],[-95.24277025920995,38.95673551855822],[-95.24277612042751,38.95673554979537],[-95.24277594414879,38.95675545550845],[-95.2427700829296,38.95675542427127],[-95.24276997980857,38.95676709270752],[-95.24277584099363,38.9567671248451],[-95.24277561958549,38.95679206373842],[-95.24276975955156,38.95679203162827],[-95.24276965524214,38.95680370093744],[-95.24277551646536,38.95680373217466],[-95.24277545531916,38.95681059626718],[-95.24277076657077,38.95681057128296],[-95.24277068543803,38.956819723115295],[-95.24275896417728,38.956819659767135],[-95.24275886502355,38.9568308713757],[-95.24266568000802,38.95683036764726],[-95.24266502279147,38.956904498661764],[-95.24275820905783,38.95690500241816],[-95.24275817193588,38.95690912014234]]]},"properties":{"SDE.FloorAll.FLOORLOCATION":"3"}},{"type":"Feature","geometry":{"type":"Polygon","coordinates":[[[-95.24275172561865,38.95690908580513],[-95.24275167848536,38.95691434784945],[-95.24276662407385,38.956914428394064],[-95.24276667005284,38.95690916632237],[-95.24282586382277,38.956909486201084],[-95.24288505762837,38.95690980514918],[-95.2428850104699,38.95691506809391],[-95.24289995490551,38.956915148593936],[-95.24290000202772,38.95690988654956],[-95.24290053476332,38.956849711682565],[-95.24292837289198,38.956849862664704],[-95.24293071784409,38.95684987516738],[-95.2429307649991,38.95684461222259],[-95.2429310643099,38.95681075033323],[-95.24293136365549,38.95677688754339],[-95.24293141077528,38.956771625498945],[-95.24292906582578,38.95677161299625],[-95.24290122772791,38.95677146201428],[-95.24290176042629,38.956711288046954],[-95.24290180754825,38.95670602600251],[-95.24288686200362,38.95670594547526],[-95.24288681603372,38.95671120754713],[-95.24286220107429,38.9567110746211],[-95.24286256555855,38.95666989091082],[-95.24276293330591,38.95666935290163],[-95.24276277850281,38.95668684383738],[-95.24276276903655,38.956687885430576],[-95.24275778717798,38.95668785888254],[-95.24275798663851,38.95666543569256],[-95.24278435910313,38.95666557889292],[-95.24278436310726,38.956665121164875],[-95.24278377802395,38.95666511806588],[-95.24278384602431,38.95665733848976],[-95.24278443226073,38.95665734161616],[-95.24278443626486,38.956656883888094],[-95.24274692761796,38.95665668133787],[-95.24274647191959,38.9567081612004],[-95.24275350557348,38.95670819959226],[-95.24275348558683,38.95671048733216],[-95.24275244874615,38.95682740407815],[-95.24266600312876,38.95682693715083],[-95.24266613541957,38.95681206554619],[-95.2426655491819,38.95681206241917],[-95.24266554521203,38.95681251924682],[-95.24265646083394,38.95681247083274],[-95.24265646483896,38.95681201310473],[-95.24265587860123,38.956812009977654],[-95.24265508222454,38.95690192808027],[-95.24266094460904,38.95690195935068],[-95.24266089227574,38.956907679995965],[-95.24275173362736,38.95690817034904],[-95.24275172561865,38.95690908580513]]]},"properties":{"SDE.FloorAll.FLOORLOCATION":"ROOF"}}]}
