{"type":"FeatureCollection","features":[{"type":"Feature","geometry":{"type":"Polygon","coordinates":[[[-95.24823648630166,38.953821055986324],[-95.24832615453909,38.95382103747487],[-95.24832614454917,38.953792207936615],[-95.24849580979398,38.953792173702546],[-95.2484957968544,38.95375327740816],[-95.2487340323955,38.953753228113385],[-95.24873402206325,38.953723483827154],[-95.24849578781055,38.95372353224889],[-95.24849574778287,38.953604324410875],[-95.24850278036696,38.95360432278207],[-95.24850277575705,38.95358899282827],[-95.24849574317447,38.95358899445712],[-95.2484956988495,38.95345628706013],[-95.2483207597041,38.95345632227575],[-95.24832082677138,38.9536617897575],[-95.2481719675507,38.953661820089565],[-95.24816845069678,38.95366182043006],[-95.24816846031999,38.95368881957241],[-95.24808846220462,38.95368883587297],[-95.24808847788243,38.95373551251796],[-95.24810254307666,38.95373550930929],[-95.24810254967583,38.95375472900149],[-95.24823646439987,38.95375470183903],[-95.24823648630166,38.953821055986324]]]},"properties":{"SDE.FloorAll.FLOORLOCATION":"-1"}},{"type":"Feature","geometry":{"type":"Polygon","coordinates":[[[-95.24816539021535,38.95415535530172],[-95.24873504717033,38.95415524014377],[-95.24873498935317,38.95398523703622],[-95.24872824990861,38.953985238426526],[-95.24872825054904,38.95398729774158],[-95.2486673000623,38.953987310434286],[-95.24866729011642,38.953957794167174],[-95.24869014696745,38.95395778953393],[-95.24869014535798,38.95395504346219],[-95.24868721480891,38.953955044213814],[-95.24868717255586,38.95382645547841],[-95.2486901019465,38.95382645469937],[-95.24869010145511,38.95382370955532],[-95.24865656477014,38.95382371579158],[-95.24865654854231,38.95377612439915],[-95.24867484736653,38.953776120651895],[-95.24868715247216,38.953766508195386],[-95.2486871478147,38.9537527797191],[-95.24873344654877,38.95375277080817],[-95.24873340887173,38.95363951202432],[-95.24857106860367,38.95363954469354],[-95.24857107451024,38.953657391800135],[-95.24850045439283,38.953657405634054],[-95.24850045294048,38.95365397373319],[-95.24849576453612,38.95365397511914],[-95.24849574910898,38.95360523918614],[-95.24849926480697,38.95360523880831],[-95.24849926847145,38.95361667905073],[-95.24849692428802,38.95361667929353],[-95.24849692510651,38.95361805187923],[-95.24849926928998,38.9536180516365],[-95.24849926992373,38.95362011095161],[-95.24853208978647,38.95362010397339],[-95.24853208915178,38.9536180446583],[-95.24853648434284,38.95361804442335],[-95.2485364835586,38.95361667093727],[-95.24853208833261,38.95361667207258],[-95.24853208711765,38.953613589852836],[-95.24850892316184,38.953595512187015],[-95.24850277817777,38.95359551325163],[-95.24850277626459,38.953588535017836],[-95.24849574252896,38.9535885366193],[-95.24849569935708,38.95345582924967],[-95.24825482749964,38.95345587764377],[-95.24825482861809,38.95345908062571],[-95.24829350942814,38.95345907313393],[-95.24829352978932,38.95352268121092],[-95.24811448843477,38.95352271699003],[-95.24811452170674,38.95362384880335],[-95.248142065664,38.95362384378067],[-95.24814207712727,38.95365862234567],[-95.24814574060412,38.95365862097993],[-95.24814575065382,38.953688366166745],[-95.24806853648894,38.95368838184117],[-95.24806855169984,38.95373391391895],[-95.24810459414348,38.953733906947846],[-95.24810459069002,38.953724982930666],[-95.24814590900884,38.953724975002245],[-95.24814592483813,38.953774168772654],[-95.2481679021354,38.953774164095336],[-95.2481679065584,38.95378697692337],[-95.2481658555108,38.95378697780865],[-95.24816585641781,38.9537924689972],[-95.24816702908902,38.95379246889283],[-95.24816703774661,38.9538187812781],[-95.24814593881234,38.95381878517441],[-95.24814599502477,38.953989475014],[-95.24816533501587,38.953989470823984],[-95.24816539021535,38.95415535530172]]]},"properties":{"SDE.FloorAll.FLOORLOCATION":"1"}},{"type":"Feature","geometry":{"type":"Polygon","coordinates":[[[-95.24816539021535,38.95415535530172],[-95.24835205216675,38.95415531732106],[-95.24835205342568,38.95415943595112],[-95.2483819429812,38.95415942975855],[-95.2483819416855,38.95415531202887],[-95.24843585967821,38.954155301111314],[-95.24843586097707,38.95415941884099],[-95.24846575049747,38.954159413527194],[-95.24846574923194,38.95415529489716],[-95.24851966722464,38.95415528394062],[-95.24851966849332,38.95415940257068],[-95.24854955804877,38.95415939633491],[-95.2485495567784,38.954155277704835],[-95.24860435427021,38.95415526685283],[-95.24860435554382,38.954159385482924],[-95.24863424509925,38.95415937922534],[-95.24863424267078,38.95415526056788],[-95.24873504717033,38.95415524014377],[-95.24873500257188,38.954023447500916],[-95.24873353671931,38.95402344786362],[-95.24873353607877,38.95402138854856],[-95.24873500193125,38.954021388185865],[-95.24873500096714,38.95401909995191],[-95.24873353626779,38.95401910034197],[-95.2487335275754,38.95399370270504],[-95.24875814227919,38.95399369831613],[-95.24875813293669,38.95396624136404],[-95.24876399288267,38.953966239829704],[-95.24876398561526,38.95394267351659],[-95.2487581245531,38.95394267412318],[-95.24875811119254,38.953900345055466],[-95.24876397109804,38.95390034442153],[-95.24876396386568,38.95387677720787],[-95.24875810280898,38.95387677781444],[-95.24875808793664,38.95383422070063],[-95.24876394902486,38.95383421919366],[-95.24876394063934,38.95381065195251],[-95.24875808070625,38.95381065348687],[-95.24875806619258,38.95376832439134],[-95.24876392727533,38.953768322884365],[-95.24876391888984,38.95374475564309],[-95.24875805780908,38.95374475715004],[-95.24875804427224,38.95370151333375],[-95.24876390419627,38.95370151179944],[-95.24876389696396,38.95367794458536],[-95.24875803588876,38.95367794609235],[-95.24875802801117,38.953653921040406],[-95.24869707665869,38.95365393372141],[-95.24869707588603,38.95364935728075],[-95.2486830107089,38.953649360561506],[-95.24868301148074,38.95365393700223],[-95.24865488115977,38.953653942658285],[-95.24865487923665,38.95364936619019],[-95.2486408140596,38.953649369465836],[-95.24864081486372,38.95365394500614],[-95.24861268454275,38.95365395065195],[-95.24861268258732,38.95364937508428],[-95.24859861744531,38.953649377454454],[-95.2485986182116,38.95365395389509],[-95.24857048789067,38.95365395953067],[-95.24857048597303,38.95364938306264],[-95.24855642079596,38.95364938632804],[-95.24855642271264,38.95365396279609],[-95.24852829123856,38.95365396839408],[-95.24852828932369,38.95364939192605],[-95.24851422414656,38.953649395186325],[-95.24851422609561,38.95365397075398],[-95.24849576453612,38.95365397511914],[-95.24849574829052,38.953603866600425],[-95.24850278087453,38.953603864971605],[-95.24850277511148,38.953588534990466],[-95.24850043092897,38.95358853523333],[-95.24850039987179,38.9534933515733],[-95.24831930639941,38.953493388532415],[-95.24831931971555,38.9535318279176],[-95.24831345865245,38.953531829402046],[-95.24831346279561,38.953542811834104],[-95.24831932270654,38.953542810322226],[-95.24831935973612,38.95365446762982],[-95.24831730869242,38.95365446851776],[-95.24831730916934,38.9536572136619],[-95.2482191438585,38.95365723416224],[-95.24821914328615,38.95365357246943],[-95.24818896076846,38.95365357887128],[-95.24818896252744,38.95365723969107],[-95.24814090479984,38.95365724989144],[-95.24814091187952,38.95367921472784],[-95.24813563715632,38.95367921570111],[-95.24813564533237,38.95370278294257],[-95.24814092005727,38.953702781969305],[-95.24814093304838,38.9537451110378],[-95.2481356594734,38.9537451120384],[-95.24813566649634,38.95376867925233],[-95.24814094122617,38.95376867827907],[-95.24814095537039,38.95381100737467],[-95.24813568063742,38.95381100834793],[-95.2481356888485,38.95383457468876],[-95.24814096243014,38.953834573688106],[-95.2481409765744,38.9538769027835],[-95.24813570183643,38.953876903756765],[-95.24813571001256,38.953900470997816],[-95.24814098475223,38.953900470024536],[-95.24814099889649,38.95394279911968],[-95.2481357241537,38.95394280009295],[-95.24813573117665,38.95396636730653],[-95.24814100592123,38.95396636633326],[-95.24814101470247,38.95399359436645],[-95.24816680211583,38.95399358909855],[-95.24816681060467,38.954018986735534],[-95.24816534475221,38.954018987091054],[-95.24816534637635,38.95402173226245],[-95.24816681107568,38.95402173187954],[-95.24816681137807,38.95402356227569],[-95.24816534667868,38.95402356265858],[-95.24816539021535,38.95415535530172]]]},"properties":{"SDE.FloorAll.FLOORLOCATION":"2"}},{"type":"Feature","geometry":{"type":"Polygon","coordinates":[[[-95.24823426013764,38.954043234536265],[-95.24823427919364,38.95410272398017],[-95.24840892679558,38.95410268824643],[-95.24840890759268,38.95404319880253],[-95.24823426013764,38.954043234536265]]]},"properties":{"SDE.FloorAll.FLOORLOCATION":"3"}},{"type":"Feature","geometry":{"type":"Polygon","coordinates":[[[-95.24816397122099,38.954157650388304],[-95.24835434168872,38.95415761120463],[-95.24835434092934,38.954161070089775],[-95.24837016520664,38.95416106713947],[-95.24837016481212,38.95415760822692],[-95.24837045683705,38.9541576079479],[-95.24837045838471,38.954161066887714],[-95.2483862815089,38.95416106390787],[-95.24838628111358,38.95415760499534],[-95.24843873325273,38.954157594434726],[-95.24843873303018,38.95416098033327],[-95.24845455734255,38.954160976471016],[-95.24845455637613,38.95415759144551],[-95.24845484840108,38.95415759116626],[-95.24845485167377,38.95416097624646],[-95.24847067479791,38.954160973255064],[-95.24847067267758,38.95415758820219],[-95.24852195790518,38.954157577848235],[-95.24852195677535,38.954160987156996],[-95.24853777989951,38.95416098415643],[-95.24853778102856,38.95415757484766],[-95.24853807190037,38.95415757454079],[-95.24853807307758,38.95416098390432],[-95.24855389735491,38.95416098092891],[-95.24855389733001,38.95415757159283],[-95.24860634946913,38.95415756095637],[-95.2486063481365,38.954160945927136],[-95.24862217241377,38.95416094294242],[-95.24862217028618,38.95415755788957],[-95.2486224634643,38.95415755763727],[-95.24862246559186,38.95416094269011],[-95.24863828871598,38.95416093967581],[-95.24863828889394,38.95415755467768],[-95.24874357059949,38.95415753324894],[-95.24874356904597,38.95415736558422],[-95.248743522992,38.95402068736474],[-95.24874205944579,38.95402068778229],[-95.24874204905666,38.95399512608217],[-95.24876666379593,38.953995120791035],[-95.24876665301964,38.95396485378451],[-95.24877115330797,38.953964852429266],[-95.2487711482698,38.95395249741193],[-95.24876665032359,38.95395249792155],[-95.2487666488468,38.95395226897525],[-95.2487711490993,38.953952268520375],[-95.24877114409621,38.95393991260266],[-95.24876664380946,38.953939913957925],[-95.24876662896126,38.9538989574212],[-95.24877113036348,38.9538989569937],[-95.24877112881983,38.953886601158],[-95.24876662507705,38.95388660243118],[-95.24876662590655,38.95388637353964],[-95.2487711261899,38.95388637218438],[-95.24877112230492,38.95387401719433],[-95.24876662090428,38.95387401762187],[-95.24876660688561,38.953832832193335],[-95.24877110828363,38.9538328317658],[-95.24877110443367,38.953820475875304],[-95.24876660300141,38.95382047720322],[-95.24876660267779,38.95382024828432],[-95.24877110522812,38.95382024788416],[-95.2487711013782,38.95380789199369],[-95.24876659998175,38.95380789242119],[-95.24876658509856,38.9537669367844],[-95.24877108652743,38.95376693545651],[-95.24877108635091,38.95376602070861],[-95.24877108148931,38.95375458043897],[-95.24877108231883,38.953754351547445],[-95.24877108250098,38.95375366481806],[-95.2487710810242,38.95375343587178],[-95.2487710784689,38.953741995656884],[-95.24877107944552,38.95374108093631],[-95.24876657690021,38.95374108133646],[-95.24876656320521,38.95370012482647],[-95.24877106459476,38.95370012439894],[-95.24877105959173,38.95368776848094],[-95.24876655932101,38.95368776983623],[-95.24876655899742,38.95368754091731],[-95.2487710592681,38.95368753956204],[-95.24877105538313,38.95367518457181],[-95.2487665563014,38.953675185054],[-95.24876654635989,38.953647743407956],[-95.24874048668822,38.95364774865402],[-95.24874048004156,38.95363359655477],[-95.24850441136502,38.95363364500696],[-95.24850440148849,38.95360501824852],[-95.24851158642616,38.95360501662993],[-95.24851158006702,38.953583979174184],[-95.2485091608611,38.953583979439166],[-95.24850912782372,38.95348739342565],[-95.24849798398351,38.95348739571788],[-95.24849797251088,38.953453294877875],[-95.2482832456638,38.95345333836366],[-95.2482729236279,38.95345334031226],[-95.24827294684815,38.953522685659046],[-95.24811448958788,38.95352271701737],[-95.24811451952374,38.95362283757647],[-95.24813947231655,38.953622832334496],[-95.2481394822231,38.95365172135382],[-95.24813948994392,38.95367645657274],[-95.24813499201528,38.953676457057874],[-95.24813499575406,38.9536888129485],[-95.24813949371854,38.95368881156302],[-95.2481394951933,38.95368904050928],[-95.24813499492252,38.95368904184003],[-95.24813499869633,38.9537013968303],[-95.24813949777975,38.95370139637254],[-95.24813951111148,38.953742352882635],[-95.24813501317865,38.95374235336777],[-95.24813501807053,38.9537547092857],[-95.2481395148861,38.95375470787285],[-95.24813951520774,38.95375493679181],[-95.24813501612093,38.953754937249485],[-95.24813502101281,38.95376729316743],[-95.2481395189473,38.95376729268235],[-95.2481395323141,38.95380824829183],[-95.24813503549512,38.95380824970469],[-95.24813503926897,38.95382060469484],[-95.24813953605369,38.95382060418235],[-95.24813953637526,38.95382083310127],[-95.24813503843744,38.95382083358639],[-95.24813504217622,38.95383318947689],[-95.2481395401499,38.95383318809139],[-95.24813955348174,38.953874144601045],[-95.24813505665857,38.95387414601391],[-95.2481350592793,38.953886500976594],[-95.24813955837443,38.95388650051889],[-95.24813955754291,38.953886729410414],[-95.24813505960088,38.95388672989551],[-95.24813506449279,38.95389908581334],[-95.24813956477693,38.9538990844826],[-95.24813957580251,38.953940040937276],[-95.24813507901023,38.95394004144976],[-95.24813508274902,38.95395239734014],[-95.24813957957716,38.953952395927274],[-95.24813957989875,38.95395262484619],[-95.24813508191748,38.95395262623166],[-95.24813508569133,38.95396498122164],[-95.24813958363832,38.95396498073653],[-95.24813959474942,38.95399517295573],[-95.24816526443811,38.95399516759755],[-95.24816527121901,38.95401966036363],[-95.24816392424492,38.95401966083709],[-95.24816397122099,38.954157650388304]]]},"properties":{"SDE.FloorAll.FLOORLOCATION":"ROOF"}}]}
