{"type":"FeatureCollection","features":[{"type":"Feature","geometry":{"type":"Polygon","coordinates":[[[-95.24462661780855,38.95677032080814],[-95.24469859021343,38.95677019449533],[-95.24471034013698,38.956770173613464],[-95.24472767235723,38.95677014389527],[-95.24472764769463,38.9567616564609],[-95.24476231216612,38.95676159611633],[-95.24476233686795,38.95677008265033],[-95.24477526188858,38.956770059945974],[-95.24477523718518,38.95676157341199],[-95.24480990165658,38.956761513053216],[-95.24480992636413,38.95676999958719],[-95.24482285138471,38.956769976877595],[-95.24482282667555,38.956761490343595],[-95.24485749118195,38.95676142907019],[-95.24485751589528,38.95676991560414],[-95.24486133441066,38.956769909010255],[-95.2448613425449,38.956772661548584],[-95.24487044905045,38.95677264542758],[-95.24487041620095,38.956761406355234],[-95.24490508067218,38.956761345968],[-95.24490511352714,38.95677258504033],[-95.24491422003265,38.956772568915866],[-95.24491421189636,38.9567698163775],[-95.24491803041171,38.95676980978174],[-95.24491800569115,38.95676132324778],[-95.24495267016229,38.956761262846335],[-95.24495269488699,38.956769749380264],[-95.2449656199075,38.95676972665471],[-95.2449655963344,38.95676124014816],[-95.2450002596874,38.95676117880467],[-95.2450002844178,38.9567696653386],[-95.24501320943828,38.956769642607796],[-95.24501318585948,38.95676115610125],[-95.24504784917724,38.95676109564397],[-95.24504787391342,38.956769582177905],[-95.24514892846001,38.95676940489798],[-95.24514891826068,38.95676596467522],[-95.24515332434191,38.9567659567116],[-95.24515329524343,38.95675586408928],[-95.24514507064819,38.956755878656296],[-95.24514496086913,38.95671803355969],[-95.24519122863916,38.95671795228166],[-95.24519839907263,38.956708765218984],[-95.24519839266762,38.95670647144616],[-95.24528740286907,38.956706315193124],[-95.24528741540767,38.95671067291954],[-95.24530151666663,38.956710648362716],[-95.24530150416219,38.95670628973591],[-95.24530620342837,38.95670628152253],[-95.24530619290891,38.95670261238094],[-95.2453123628009,38.9567026012563],[-95.24531233395714,38.95669273845325],[-95.24530675278463,38.956692748244336],[-95.24530671345727,38.956679215399255],[-95.24531787695337,38.95667919584418],[-95.24531783821374,38.956666121737165],[-95.24530667587294,38.956666141319666],[-95.24530644273517,38.956585404842365],[-95.24531760621646,38.95658538528731],[-95.24531753717535,38.956561301081486],[-95.24530637369794,38.956561320636524],[-95.24530635443713,38.956554440218326],[-95.24531193559868,38.9565544304273],[-95.24531190414484,38.956543420301166],[-95.24530632183092,38.95654343006485],[-95.2453063113115,38.95653976092321],[-95.24530161090321,38.956539769109185],[-95.24530159780906,38.95653495174422],[-95.24528749655013,38.956534977201436],[-95.24528750908873,38.9565393349279],[-95.24524785224858,38.95653940478484],[-95.24524751290028,38.95642173893948],[-95.24496785159965,38.95642222988585],[-95.2449678472191,38.95642062469778],[-95.24494405318288,38.956420665827636],[-95.24494170762122,38.956422505370895],[-95.24492231960913,38.95642253944097],[-95.24491996477082,38.956420708068656],[-95.24490968321935,38.956420726011],[-95.24490733765684,38.95642256555355],[-95.24486621144973,38.95642263731295],[-95.24486385542468,38.956420806812446],[-95.24485357387317,38.95642082474981],[-95.24485122949741,38.956422663418245],[-95.24485124023404,38.95642656327962],[-95.24485858519341,38.95642655036233],[-95.24485863172677,38.956443064637774],[-95.24483072480935,38.95644311345408],[-95.2448306771293,38.95642659915118],[-95.24483185222071,38.956426597334556],[-95.24483184148522,38.95642269747318],[-95.24482948546101,38.95642086697203],[-95.24480569138953,38.95642090897395],[-95.2448057015721,38.956424349196794],[-95.24463150037336,38.956424654308826],[-95.24463163278955,38.95647052807583],[-95.24428411206598,38.95647113594558],[-95.24428442492788,38.95658008453944],[-95.2442515231684,38.95658014247524],[-95.24425181771433,38.95668289830691],[-95.24428471948654,38.956682841271416],[-95.24428493318878,38.95675738498885],[-95.24462217253055,38.95675679590651],[-95.24462220158834,38.9567668876286],[-95.24462660766967,38.95676687968499],[-95.24462661780855,38.95677032080814]]]},"properties":{"SDE.FloorAll.FLOORLOCATION":"1"}},{"type":"Feature","geometry":{"type":"MultiPolygon","coordinates":[[[[-95.24428493318878,38.95675738498885],[-95.24463045130577,38.95675669434397],[-95.24463044202729,38.95675394177819],[-95.24463008401409,38.95664474609175],[-95.24463214105089,38.95664474180441],[-95.24464007366828,38.95664472574268],[-95.24463987783544,38.95658508153302],[-95.24463974604133,38.95654493597613],[-95.24464621033104,38.95654492287131],[-95.24464620310101,38.95654285798988],[-95.24470805012115,38.95654273438071],[-95.24470805766346,38.956545028181],[-95.24471393323574,38.956545016402835],[-95.24471392569323,38.956542722602535],[-95.24476387266867,38.95654262258598],[-95.24476388021279,38.95654491638626],[-95.24476975693828,38.95654490463273],[-95.24476975171973,38.95654352833611],[-95.24481308896532,38.95654344155881],[-95.24481307418469,38.95653908287707],[-95.24481101830413,38.95653908719496],[-95.24481093540707,38.95651385269066],[-95.24481416637975,38.956513846556305],[-95.2448141507367,38.95650879931718],[-95.24481091857595,38.956508806324514],[-95.24481085104601,38.95648838923998],[-95.2448107846693,38.95646797218283],[-95.24481431001587,38.956467964932735],[-95.24481429666406,38.95646383609769],[-95.24481077016462,38.956463843320336],[-95.24481064755902,38.95642645032909],[-95.24481417405667,38.956426443106466],[-95.24481415548556,38.95642093797476],[-95.24480563536522,38.95642095450642],[-95.2448056452019,38.95642416671078],[-95.24451154507133,38.956424755042065],[-95.24451169561478,38.956470635550474],[-95.24428399493864,38.95647109080407],[-95.24428435214244,38.95658005667391],[-95.24425144545438,38.95658012260358],[-95.2442517820711,38.956682894756064],[-95.24428468877188,38.95668282972666],[-95.24428493318878,38.95675738498885]]],[[[-95.24500450851457,38.956544434814276],[-95.24501038523991,38.95654442304855],[-95.24501037768776,38.95654212924827],[-95.24506032466238,38.956542029104014],[-95.24506033221611,38.95654432290428],[-95.24506620894145,38.956544311135715],[-95.2450662013875,38.95654201733544],[-95.24512804728809,38.95654189257455],[-95.24512805453219,38.95654395745593],[-95.24513334254013,38.95654394701653],[-95.24513333703771,38.95654234090066],[-95.24518495431032,38.95654223803221],[-95.24518495984893,38.9565438432477],[-95.2451961245821,38.95654382103055],[-95.24519611907827,38.95654221491471],[-95.2452358767028,38.956542135754006],[-95.24523588108939,38.95654374094209],[-95.24524704582254,38.956543718720056],[-95.24524704143566,38.95654211353201],[-95.24524792222292,38.9565421110272],[-95.24524752549316,38.956421445438934],[-95.24496782106009,38.95642200655729],[-95.24496781699091,38.95642063028808],[-95.2449592957174,38.9564206468036],[-95.2449593142647,38.95642615283563],[-95.24496283960919,38.9564261455811],[-95.2449629622952,38.956463538572145],[-95.24495943694888,38.95646354582672],[-95.24495945030914,38.956467674661766],[-95.24496297680884,38.95646766743459],[-95.2449630432295,38.95648808449166],[-95.24496311080337,38.95650850157616],[-95.24495987867772,38.956508507687246],[-95.24495989548439,38.95651355495376],[-95.2449631276453,38.95651354794224],[-95.2449632105967,38.956538782446465],[-95.244961153563,38.956538786739685],[-95.24496116719959,38.95654314539397],[-95.24500450444465,38.95654305854507],[-95.24500450851457,38.956544434814276]]]]},"properties":{"SDE.FloorAll.FLOORLOCATION":"1.5"}},{"type":"Feature","geometry":{"type":"Polygon","coordinates":[[[-95.24462661780855,38.95677032080814],[-95.24472767235723,38.95677014389527],[-95.24472764769463,38.9567616564609],[-95.24476231216612,38.95676159611633],[-95.24476233686795,38.95677008265033],[-95.24477526188858,38.956770059945974],[-95.24477523718518,38.95676157341199],[-95.24480990165658,38.956761513053216],[-95.24480992636413,38.95676999958719],[-95.24482285138471,38.956769976877595],[-95.24482282667555,38.956761490343595],[-95.24485749118195,38.95676142907019],[-95.24485751589528,38.95676991560414],[-95.24486133441066,38.956769909010255],[-95.2448613425449,38.956772661548584],[-95.24487044905045,38.95677264542758],[-95.24487041620095,38.956761406355234],[-95.24490508067218,38.956761345968],[-95.24490511237396,38.956772585012914],[-95.24491422003265,38.956772568915866],[-95.24491421189636,38.9567698163775],[-95.24491803041171,38.95676980978174],[-95.24491800569115,38.95676132324778],[-95.24495267016229,38.956761262846335],[-95.24495269488699,38.956769749380264],[-95.2449656199075,38.95676972665471],[-95.24496559518126,38.956761240120784],[-95.2450002596874,38.95676117880467],[-95.2450002844178,38.9567696653386],[-95.24501320943828,38.956769642607796],[-95.24501318470627,38.95676115607386],[-95.24504784917724,38.95676109564397],[-95.24504787391342,38.956769582177905],[-95.24514892846001,38.95676940489798],[-95.24514891826068,38.95676596467522],[-95.24515332434191,38.9567659567116],[-95.24515329524343,38.95675586408928],[-95.24514507064819,38.956755878656296],[-95.24514495679648,38.95671665729053],[-95.24519166553695,38.95671657477401],[-95.24519868937593,38.95670738783313],[-95.24519868060433,38.95670417745702],[-95.24528768968483,38.956704020276035],[-95.24528769926617,38.956707002661034],[-95.24530179937115,38.95670697807677],[-95.24530179094245,38.95670399571918],[-95.24530531626557,38.9567039893546],[-95.24530530807895,38.95670123771667],[-95.24530912662573,38.95670123020759],[-95.2453090951371,38.956690220981976],[-95.24530527662607,38.95669022759062],[-95.24530488092662,38.95655306598717],[-95.24530869943031,38.956553059378535],[-95.2453086679418,38.95654205015281],[-95.24530484943878,38.95654205676143],[-95.24530484128731,38.95653930422302],[-95.24530131597231,38.956539310587594],[-95.24530130750856,38.95653632913036],[-95.2452872074376,38.95653635371451],[-95.24528721590077,38.9565393351718],[-95.24524785109537,38.956539404757436],[-95.24524751290028,38.95642173893948],[-95.24496785159965,38.95642222988585],[-95.2449678472191,38.95642062469778],[-95.24480569138953,38.95642090897395],[-95.2448057015721,38.956424349196794],[-95.24463150037336,38.956424654308826],[-95.24463163278955,38.95647052807583],[-95.24428411206598,38.95647113594558],[-95.24428442492788,38.95658008453944],[-95.2442515231684,38.95658014247524],[-95.24425181771433,38.95668289830691],[-95.24428471948654,38.956682841271416],[-95.24428493318878,38.95675738498885],[-95.24462217253055,38.95675679590651],[-95.24462220158834,38.9567668876286],[-95.24462660766967,38.95676687968499],[-95.24462661780855,38.95677032080814]]]},"properties":{"SDE.FloorAll.FLOORLOCATION":"2"}},{"type":"Feature","geometry":{"type":"Polygon","coordinates":[[[-95.24464092116982,38.95654493326107],[-95.24464621033104,38.95654492287131],[-95.24464620310101,38.95654285798988],[-95.24470805012115,38.95654273438071],[-95.24470805766346,38.956545028181],[-95.24471393323574,38.956545016402835],[-95.24471392569323,38.956542722602535],[-95.24476387382182,38.956542622613384],[-95.24476388136601,38.95654491641368],[-95.24476975693828,38.95654490463273],[-95.24476975287294,38.95654352836352],[-95.24481308896532,38.95654344155881],[-95.24481307418469,38.95653908287707],[-95.24481101830413,38.95653908719496],[-95.24481093540707,38.95651385269066],[-95.24495989520813,38.956513325134466],[-95.24495989551949,38.95651355405336],[-95.2449631276453,38.95651354794224],[-95.2449632105967,38.956538782446465],[-95.244961153563,38.956538786739685],[-95.24496116835276,38.956543145421364],[-95.24500450444465,38.95654305854507],[-95.24500450966772,38.9565444348417],[-95.24501038523991,38.95654442304855],[-95.24501037772288,38.95654212834786],[-95.24506032466238,38.956542029104014],[-95.24506033221611,38.95654432290428],[-95.24506620894145,38.956544311135715],[-95.2450662013875,38.95654201733544],[-95.24512804728809,38.95654189257455],[-95.24512805453219,38.95654395745593],[-95.24513334254013,38.95654394701653],[-95.24513333819087,38.956542340928046],[-95.2451849543454,38.95654223713187],[-95.24518495984893,38.9565438432477],[-95.2451961245821,38.95654382103055],[-95.24519611907827,38.95654221491471],[-95.2452358767028,38.956542135754006],[-95.2452358822426,38.9565437409695],[-95.24524704697569,38.95654371874747],[-95.24524704147078,38.956542112631574],[-95.24524792222292,38.9565421110272],[-95.24524752549316,38.956421445438934],[-95.24496782106009,38.95642200655729],[-95.24496781615355,38.95642062215712],[-95.2449593283222,38.956420639467304],[-95.2449593142647,38.95642615283563],[-95.24496283960919,38.9564261455811],[-95.24496296344836,38.95646353859955],[-95.24495943698398,38.95646354492635],[-95.24495945030914,38.956467674661766],[-95.24496297680884,38.95646766743459],[-95.24496306492206,38.95649422055561],[-95.24484084040083,38.95649446598088],[-95.24484081778812,38.956479736701944],[-95.24484081574738,38.95647940410093],[-95.24484079986848,38.956479071171046],[-95.24484076781009,38.956478738757994],[-95.24484072184327,38.95647840781684],[-95.24484066081504,38.95647807832025],[-95.24484058587846,38.95647775029565],[-95.2448404969985,38.9564774246433],[-95.24484039302197,38.956477101335935],[-95.24484027506689,38.95647678130132],[-95.24484014313329,38.95647646453945],[-95.24483999718612,38.95647615195065],[-95.24483983726046,38.95647584263458],[-95.24483966443925,38.95647553841948],[-95.24483947756931,38.95647523927787],[-95.24483927783898,38.95647494433684],[-95.24483906517804,38.95647465539706],[-95.24483884073965,38.95647437248599],[-95.24483860337065,38.95647409557626],[-95.24483835303592,38.95647382556826],[-95.2448380920418,38.956473562516685],[-95.24483781923522,38.95647330639431],[-95.24483753576922,38.956473057228415],[-95.24483724042051,38.9564728167924],[-95.2448369355305,38.95647258424068],[-95.24483662109921,38.95647235957331],[-95.24483629593837,38.95647214366321],[-95.24483596120115,38.95647193653777],[-95.24483561800565,38.95647173912489],[-95.24483526638696,38.95647155052406],[-95.24483490746314,38.95647137166318],[-95.24483453896296,38.95647120158694],[-95.24483416424063,38.95647104307883],[-95.2448337834014,38.95647089343761],[-95.24483339518694,38.956470755337094],[-95.24483300197369,38.95647062703122],[-95.24483260257338,38.95647050939307],[-95.24483219813916,38.95647040245002],[-95.24483178982432,38.95647030622945],[-95.24483137759374,38.95647022163178],[-95.2448309614473,38.956470148657004],[-95.24483054260844,38.95647008553172],[-95.24483012097191,38.956470034957135],[-95.24482969660788,38.956469995132466],[-95.24482927178757,38.95646996701286],[-95.24482884654608,38.95646994969799],[-95.2448284196952,38.95646994406079],[-95.24481079069078,38.956469979356896],[-95.2448107846693,38.95646797218283],[-95.24481431001587,38.956467964932735],[-95.24481429666406,38.95646383609769],[-95.24481077131777,38.95646384334773],[-95.24481064755902,38.95642645032909],[-95.24481417405667,38.956426443106466],[-95.24481415548556,38.95642093797476],[-95.24480563536522,38.95642095450642],[-95.24480564635505,38.95642416673817],[-95.24463141806702,38.95642451536639],[-95.2446318073587,38.956542887183815],[-95.2446409150931,38.95654286840704],[-95.24464092116982,38.95654493326107]]]},"properties":{"SDE.FloorAll.FLOORLOCATION":"2.5"}},{"type":"Feature","geometry":{"type":"Polygon","coordinates":[[[-95.24462661780855,38.95677032080814],[-95.24472767235723,38.95677014389527],[-95.24472764769463,38.9567616564609],[-95.24476231216612,38.95676159611633],[-95.24476233338905,38.95676916511926],[-95.24477525956267,38.95676914244233],[-95.24477523718518,38.95676157341199],[-95.24480990165658,38.956761513053216],[-95.2448099228846,38.95676908205614],[-95.2448228490582,38.95676905937388],[-95.24482282667555,38.956761490343595],[-95.24485749118195,38.95676142907019],[-95.24485751241512,38.9567689980731],[-95.24487043855359,38.956768976285915],[-95.24487043215915,38.956766682513155],[-95.24487307557727,38.956766677735814],[-95.24487483417307,38.956765298290854],[-95.24487481176477,38.95675764093991],[-95.24490066295455,38.95675759553216],[-95.24490068536565,38.956765252883095],[-95.24490245209671,38.956766625976115],[-95.24490509551482,38.95676662119806],[-95.24490510191042,38.9567689149709],[-95.24491802808394,38.95676889227806],[-95.24491800569115,38.95676132324778],[-95.24495267016229,38.956761262846335],[-95.24495269140562,38.95676883184919],[-95.24496561757911,38.956768809151086],[-95.24496559518126,38.956761240120784],[-95.2450002596874,38.95676117880467],[-95.24500028093581,38.95676874780759],[-95.2450132071093,38.95676872510412],[-95.24501318470627,38.95676115607386],[-95.24504784917724,38.95676109564397],[-95.24504787391342,38.956769582177905],[-95.24514892846001,38.95676940489798],[-95.24514891826068,38.95676596467522],[-95.24515332434191,38.9567659567116],[-95.24515329524343,38.95675586408928],[-95.24514507064819,38.956755878656296],[-95.24514492126077,38.95670427179573],[-95.24528768968483,38.956704020276035],[-95.24528769926617,38.956707002661034],[-95.24530179937115,38.95670697807677],[-95.24530179094245,38.95670399571918],[-95.24530531626557,38.9567039893546],[-95.24530530807895,38.95670123771667],[-95.24530912662573,38.95670123020759],[-95.2453090951371,38.956690220981976],[-95.24530527662607,38.95669022759062],[-95.24530488092662,38.95655306598717],[-95.24530869943031,38.956553059378535],[-95.24530866766446,38.95654182033351],[-95.2453048491614,38.95654182694214],[-95.24530484128731,38.95653930422302],[-95.24530131597231,38.956539310587594],[-95.24530130750856,38.95653632913036],[-95.2452872074376,38.95653635371451],[-95.24528721590077,38.9565393351718],[-95.24524785109537,38.956539404757436],[-95.24524751290028,38.95642173893948],[-95.24496785159965,38.95642222988585],[-95.2449678472191,38.95642062469778],[-95.24480569138953,38.95642090897395],[-95.2448057015721,38.956424349196794],[-95.24463150037336,38.956424654308826],[-95.24463163278955,38.95647052807583],[-95.24428411206598,38.95647113594558],[-95.24428442492788,38.95658008453944],[-95.2442515231684,38.95658014247524],[-95.24425181771433,38.95668289830691],[-95.24428471948654,38.956682841271416],[-95.24428493318878,38.95675738498885],[-95.24462217253055,38.95675679590651],[-95.24462220158834,38.9567668876286],[-95.24462660766967,38.95676687968499],[-95.24462661780855,38.95677032080814]]]},"properties":{"SDE.FloorAll.FLOORLOCATION":"3"}},{"type":"Feature","geometry":{"type":"Polygon","coordinates":[[[-95.24464092116982,38.95654493326107],[-95.24464621033104,38.95654492287131],[-95.24464620310101,38.95654285798988],[-95.24470805012115,38.95654273438071],[-95.24470805766346,38.956545028181],[-95.24471393323574,38.956545016402835],[-95.24471392569323,38.956542722602535],[-95.24476387382182,38.956542622613384],[-95.24476388136601,38.95654491641368],[-95.24476975693828,38.95654490463273],[-95.24476975287294,38.95654352836352],[-95.24481308896532,38.95654344155881],[-95.24481307418469,38.95653908287707],[-95.24481101830413,38.95653908719496],[-95.24481093540707,38.95651385269066],[-95.2449631276453,38.95651354794224],[-95.2449632105967,38.956538782446465],[-95.244961153563,38.956538786739685],[-95.24496116835276,38.956543145421364],[-95.24500450444465,38.95654305854507],[-95.24500450966772,38.9565444348417],[-95.24501038523991,38.95654442304855],[-95.24501037772288,38.95654212834786],[-95.24506032466238,38.956542029104014],[-95.24506033221611,38.95654432290428],[-95.24506620894145,38.956544311135715],[-95.2450662013875,38.95654201733544],[-95.24512804728809,38.95654189257455],[-95.24512805453219,38.95654395745593],[-95.24513334254013,38.95654394701653],[-95.24513333819087,38.956542340928046],[-95.2451849543454,38.95654223713187],[-95.24518495984893,38.9565438432477],[-95.2451961245821,38.95654382103055],[-95.24519611907827,38.95654221491471],[-95.2452358767028,38.956542135754006],[-95.2452358822426,38.9565437409695],[-95.24524704697569,38.95654371874747],[-95.24524704147078,38.956542112631574],[-95.24524792222292,38.9565421110272],[-95.24524752549316,38.956421445438934],[-95.24496782106009,38.95642200655729],[-95.24496781699091,38.95642063028808],[-95.2449592968706,38.95642064683099],[-95.2449593142647,38.95642615283563],[-95.24496283960919,38.9564261455811],[-95.24496296344836,38.95646353859955],[-95.24495943698398,38.95646354492635],[-95.24495945030914,38.956467674661766],[-95.24496297680884,38.95646766743459],[-95.24496306376889,38.95649422052819],[-95.24484084040083,38.95649446598088],[-95.24484079140034,38.95647955492836],[-95.24484078258092,38.95647921856142],[-95.24484075873512,38.95647888273856],[-95.24484071986288,38.9564785474599],[-95.24484066708239,38.95647821365314],[-95.24484059805208,38.95647788216392],[-95.24484051511347,38.956477552146694],[-95.24484041707825,38.9564772244744],[-95.2448403039114,38.9564769000474],[-95.24484017680109,38.95647657799275],[-95.24484003564208,38.95647626101166],[-95.24483988050461,38.95647594730325],[-95.2448397113535,38.956475637767994],[-95.2448395281537,38.95647533330623],[-95.24483933205838,38.95647503394538],[-95.24483912187928,38.95647474055848],[-95.24483889880464,38.956474452272495],[-95.24483866391745,38.95647417091558],[-95.24483841609967,38.956473895560045],[-95.24483815528103,38.95647362800656],[-95.24483788380306,38.95647336740958],[-95.24483760051258,38.956473113741694],[-95.24483730533933,38.95647286880374],[-95.2448370006599,38.95647263084969],[-95.24483668521584,38.95647240255333],[-95.24483635907733,38.95647218211385],[-95.24483602332734,38.95647197135946],[-95.244835679119,38.95647177031758],[-95.24483532533438,38.9564715780604],[-95.24483496309142,38.95647139551573],[-95.24483459354332,38.95647122271096],[-95.24483421665498,38.95647106054643],[-95.24483383242648,38.95647090902218],[-95.24483344089285,38.95647076723789],[-95.24483304429027,38.95647063704906],[-95.24483264153571,38.95647051662751],[-95.24483223486537,38.95647040782887],[-95.24483182197292,38.95647031059831],[-95.24483140519979,38.95647022409027],[-95.2448309856289,38.95647015013284],[-95.24483056336567,38.95647008602497],[-95.24483013715148,38.9564700344404],[-95.24482970932792,38.95646999453351],[-95.24482927989489,38.95646996630429],[-95.24482885004073,38.956469948879786],[-95.2448284196952,38.95646994406079],[-95.24481079069078,38.956469979356896],[-95.2448107846693,38.95646797218283],[-95.24481431001587,38.956467964932735],[-95.24481429666406,38.95646383609769],[-95.24481077131777,38.95646384334773],[-95.24481064755902,38.95642645032909],[-95.24481417405667,38.956426443106466],[-95.24481415548556,38.95642093797476],[-95.24480563505436,38.95642072558749],[-95.24480564635505,38.95642416673817],[-95.24463141806702,38.95642451536639],[-95.2446318073587,38.956542887183815],[-95.2446409150931,38.95654286840704],[-95.24464092116982,38.95654493326107]]]},"properties":{"SDE.FloorAll.FLOORLOCATION":"3.5"}},{"type":"Feature","geometry":{"type":"Polygon","coordinates":[[[-95.2446673893822,38.95677354820189],[-95.24468450228825,38.9567735186856],[-95.24469516694703,38.95676515459693],[-95.24469722717346,38.95676675636949],[-95.24472119912687,38.95676671410812],[-95.24472119475195,38.95676510892006],[-95.24472560198635,38.95676510100009],[-95.24472559180762,38.9567616607773],[-95.24476231216612,38.95676159611633],[-95.24476232668745,38.956766642427574],[-95.24477525170744,38.95676661972323],[-95.24477523718518,38.95676157341199],[-95.24480990165658,38.956761513053216],[-95.24480991621634,38.95676655846406],[-95.2448228412363,38.95676653575442],[-95.24482282667555,38.956761490343595],[-95.24485749118195,38.95676142907019],[-95.24485750571007,38.95676647538139],[-95.24487043073002,38.956766452666464],[-95.24487041620095,38.956761406355234],[-95.24490508067218,38.956761345968],[-95.2449050952037,38.95676639227921],[-95.24491802022362,38.95676636955894],[-95.24491800569115,38.95676132324778],[-95.24495267016229,38.956761262846335],[-95.24495268473231,38.95676630825711],[-95.24496560975219,38.956766285531565],[-95.24496559518126,38.956761240120784],[-95.2450002596874,38.95676117880467],[-95.24500027422567,38.956766225115864],[-95.2450131992455,38.956766202385026],[-95.24501318470627,38.95676115607386],[-95.24504990502915,38.956761092222216],[-95.2450499152237,38.95676453244499],[-95.24505432245802,38.95676452451249],[-95.24505432680547,38.956766130600926],[-95.24507829875847,38.95676608826574],[-95.24508035026247,38.95676447875505],[-95.24509106265496,38.95677280557352],[-95.24510817556062,38.95677277599473],[-95.24511884016921,38.95676441186707],[-95.24512090155838,38.9567660136595],[-95.2451424552093,38.95676597513431],[-95.24514245082479,38.956764369946285],[-95.24514685690592,38.95676436198291],[-95.24514683766058,38.956757481564836],[-95.24514243046181,38.9567574886004],[-95.24514227788003,38.956704275678824],[-95.24528768968483,38.956704020276035],[-95.24528769926617,38.956707002661034],[-95.24530179940625,38.95670697717639],[-95.24530179094245,38.95670399571918],[-95.24530531626557,38.9567039893546],[-95.24530530811406,38.95670123681622],[-95.24530912662573,38.95670123020759],[-95.2453090951371,38.956690220981976],[-95.24530527662607,38.95669022759062],[-95.24530488092662,38.95655306598717],[-95.24530869943031,38.956553059378535],[-95.2453086679418,38.95654205015281],[-95.24530484943878,38.95654205676143],[-95.24530484128731,38.95653930422302],[-95.24530131597231,38.956539310587594],[-95.24530130754364,38.95653632822992],[-95.2452872074376,38.95653635371451],[-95.24528721590077,38.9565393351718],[-95.24524785113046,38.95653940385704],[-95.24524751290028,38.95642173893948],[-95.24496785159965,38.95642222988585],[-95.2449678472191,38.95642062469778],[-95.24480569138953,38.95642090897395],[-95.2448057015721,38.956424349196794],[-95.24463150037336,38.956424654308826],[-95.24463163282462,38.95647052717545],[-95.24428411210108,38.956471135045184],[-95.24428442492788,38.95658008453944],[-95.2442515231684,38.95658014247524],[-95.24425181771433,38.95668289830691],[-95.24428471948654,38.956682841271416],[-95.24428493318878,38.95675738498885],[-95.244633041697,38.95675677663216],[-95.24463304606998,38.95675838182022],[-95.2446286399891,38.956758389764076],[-95.24462866030208,38.956765271110044],[-95.24463306638339,38.9567652631662],[-95.24463307075631,38.95676686835426],[-95.2446546255258,38.95676683084748],[-95.24465667703953,38.956765221344284],[-95.2446673893822,38.95677354820189]]]},"properties":{"SDE.FloorAll.FLOORLOCATION":"4"}},{"type":"Feature","geometry":{"type":"Polygon","coordinates":[[[-95.24464092116982,38.95654493326107],[-95.24464621033104,38.95654492287131],[-95.24464620310101,38.95654285798988],[-95.24470805012115,38.95654273438071],[-95.24470805766346,38.956545028181],[-95.24471393323574,38.956545016402835],[-95.24471392569323,38.956542722602535],[-95.24476387382182,38.956542622613384],[-95.24476388136601,38.95654491641368],[-95.24476975693828,38.95654490463273],[-95.24476975287294,38.95654352836352],[-95.24481308896532,38.95654344155881],[-95.24481307418469,38.95653908287707],[-95.24481101830413,38.95653908719496],[-95.24481093540707,38.95651385269066],[-95.2449631276453,38.95651354794224],[-95.2449632105967,38.956538782446465],[-95.244961153563,38.956538786739685],[-95.24496116835276,38.956543145421364],[-95.24500450444465,38.95654305854507],[-95.24500450966772,38.9565444348417],[-95.24501038523991,38.95654442304855],[-95.24501037772288,38.95654212834786],[-95.24506032466238,38.956542029104014],[-95.24506033221611,38.95654432290428],[-95.24506620894145,38.956544311135715],[-95.2450662013875,38.95654201733544],[-95.24512804728809,38.95654189257455],[-95.24512805453219,38.95654395745593],[-95.24513334254013,38.95654394701653],[-95.24513333819087,38.956542340928046],[-95.2451849543454,38.95654223713187],[-95.24518495984893,38.9565438432477],[-95.2451961245821,38.95654382103055],[-95.24519611907827,38.95654221491471],[-95.2452358767028,38.956542135754006],[-95.2452358822426,38.9565437409695],[-95.24524704697569,38.95654371874747],[-95.24524704147078,38.956542112631574],[-95.24524792222292,38.9565421110272],[-95.24524752549316,38.956421445438934],[-95.24496782106009,38.95642200655729],[-95.24496781699091,38.95642063028808],[-95.2449592968706,38.95642064683099],[-95.2449593142647,38.95642615283563],[-95.24496283960919,38.9564261455811],[-95.24496296344836,38.95646353859955],[-95.24495943698398,38.95646354492635],[-95.24495945030914,38.956467674661766],[-95.24496297680884,38.95646766743459],[-95.24496306404512,38.956494450347485],[-95.24484084071175,38.95649469489974],[-95.24484079140034,38.95647955492836],[-95.24484078258092,38.95647921856142],[-95.24484075873512,38.95647888273856],[-95.24484071986288,38.9564785474599],[-95.24484066708239,38.95647821365314],[-95.24484059805208,38.95647788216392],[-95.24484051511347,38.956477552146694],[-95.24484041707825,38.9564772244744],[-95.2448403039114,38.9564769000474],[-95.24484017680109,38.95647657799275],[-95.24484003564208,38.95647626101166],[-95.24483988050461,38.95647594730325],[-95.2448397113535,38.956475637767994],[-95.2448395281537,38.95647533330623],[-95.24483933205838,38.95647503394538],[-95.24483912187928,38.95647474055848],[-95.24483889880464,38.956474452272495],[-95.24483866391745,38.95647417091558],[-95.24483841609967,38.956473895560045],[-95.24483815528103,38.95647362800656],[-95.24483788380306,38.95647336740958],[-95.24483760051258,38.956473113741694],[-95.24483730533933,38.95647286880374],[-95.2448370006599,38.95647263084969],[-95.24483668521584,38.95647240255333],[-95.24483635907733,38.95647218211385],[-95.24483602332734,38.95647197135946],[-95.244835679119,38.95647177031758],[-95.24483532533438,38.9564715780604],[-95.24483496309142,38.95647139551573],[-95.24483459354332,38.95647122271096],[-95.24483421665498,38.95647106054643],[-95.24483383242648,38.95647090902218],[-95.24483344089285,38.95647076723789],[-95.24483304429027,38.95647063704906],[-95.24483264153571,38.95647051662751],[-95.24483223486537,38.95647040782887],[-95.24483182197292,38.95647031059831],[-95.24483140519979,38.95647022409027],[-95.2448309856289,38.95647015013284],[-95.24483056336567,38.95647008602497],[-95.24483013715148,38.9564700344404],[-95.24482970932792,38.95646999453351],[-95.24482927989489,38.95646996630429],[-95.24482885004073,38.956469948879786],[-95.2448284196952,38.95646994406079],[-95.24481079069078,38.956469979356896],[-95.2448107846693,38.95646797218283],[-95.24481431001587,38.956467964932735],[-95.24481429666406,38.95646383609769],[-95.24481077131777,38.95646384334773],[-95.24481064755902,38.95642645032909],[-95.24481417405667,38.956426443106466],[-95.24481415548556,38.95642093797476],[-95.24480563536522,38.95642095450642],[-95.24480564635505,38.95642416673817],[-95.24463141806702,38.95642451536639],[-95.2446318073587,38.956542887183815],[-95.2446409150931,38.95654286840704],[-95.24464092116982,38.95654493326107]]]},"properties":{"SDE.FloorAll.FLOORLOCATION":"4.5"}},{"type":"Feature","geometry":{"type":"Polygon","coordinates":[[[-95.24463307075631,38.95676686835426],[-95.24472119912687,38.95676671410812],[-95.24472118460848,38.9567616677969],[-95.2447223897233,38.95676166579353],[-95.24472233035797,38.95675134444009],[-95.24472894824218,38.95674973079736],[-95.24473112737846,38.956745824396116],[-95.24473107972153,38.956729310093614],[-95.24472934908748,38.95672529365768],[-95.24472401396794,38.956723817738414],[-95.24472225130583,38.95672382091187],[-95.24472462117416,38.956718870917065],[-95.2447310442583,38.9567169245987],[-95.24477305257932,38.95671685041342],[-95.24477305664472,38.95671822668262],[-95.24477483196445,38.95672210358846],[-95.24478012240156,38.95672371903484],[-95.24480479844755,38.95672367636492],[-95.24480985065858,38.95672201649988],[-95.24481183283129,38.95671815858912],[-95.24481182876512,38.95671678231992],[-95.24486823153495,38.956716683358444],[-95.24486823560223,38.95671805962763],[-95.24487033646012,38.95672202447672],[-95.24487530133132,38.9567235528745],[-95.24489997741229,38.95672350928392],[-95.24490518910603,38.95672187393269],[-95.24490701175348,38.9567179924027],[-95.24490700768548,38.956716616133555],[-95.24496341045499,38.95671651712579],[-95.24496341452411,38.95671789339497],[-95.24496553393857,38.956721885719894],[-95.2449704802957,38.95672338573559],[-95.24499515637655,38.956723342124775],[-95.24500016133341,38.95672191725001],[-95.2450021907103,38.9567178252378],[-95.24500218664043,38.95671644896864],[-95.24504419492578,38.956716375585565],[-95.24505065084573,38.95671868021281],[-95.2450530274364,38.95672324101198],[-95.24505126477432,38.95672324419047],[-95.24504629705153,38.95672477990173],[-95.24504423044387,38.956728761080385],[-95.24504427817399,38.95674527538272],[-95.24504668002922,38.956749632203994],[-95.24505310661733,38.95675076453998],[-95.24505312290074,38.95675626961671],[-95.24505429859424,38.95675625249116],[-95.24505432565225,38.95676613057352],[-95.2451424551742,38.956765976034674],[-95.24514245082479,38.956764369946285],[-95.24514685690592,38.95676436198291],[-95.24514683650742,38.95675748153742],[-95.24514243042672,38.956757489500774],[-95.24514225139069,38.95669533037933],[-95.24519248540476,38.95669524240315],[-95.24519230016188,38.9566310202283],[-95.24513472236602,38.956631121167014],[-95.24513445772173,38.956539144743715],[-95.2450022644218,38.9565393769816],[-95.24500226790381,38.95654029451266],[-95.24496701597688,38.95654035628817],[-95.24496667445618,38.95642154401944],[-95.24480686884223,38.95642182376087],[-95.24480721009435,38.95654063603008],[-95.24477195816709,38.95654069774627],[-95.24477195584123,38.9565397802426],[-95.24463682478809,38.95654001705416],[-95.24463662526291,38.956470518746926],[-95.24428411206598,38.95647113594558],[-95.24428442492788,38.95658008453944],[-95.2442515231684,38.95658014247524],[-95.24425181771433,38.95668289830691],[-95.24428471948654,38.956682841271416],[-95.24428493318878,38.95675738498885],[-95.24463054256728,38.95675678122805],[-95.244633041697,38.95675677663216],[-95.24463304606998,38.95675838182022],[-95.2446286399891,38.956758389764076],[-95.24462865914892,38.956765271082624],[-95.24463306523016,38.956765263138784],[-95.24463307075631,38.95676686835426]]]},"properties":{"SDE.FloorAll.FLOORLOCATION":"5"}},{"type":"Feature","geometry":{"type":"MultiPolygon","coordinates":[[[[-95.24427614724611,38.956767060818386],[-95.2446242569552,38.956766452515446],[-95.24462872768497,38.95676644430565],[-95.2446287343518,38.95676893815742],[-95.24463363102682,38.956768929255205],[-95.24466634354143,38.95676887211892],[-95.24467238309522,38.95677356683842],[-95.24468949603636,38.956773536421025],[-95.24469550881908,38.95676882079894],[-95.24469972787455,38.95676881381536],[-95.24473534813157,38.95676875185912],[-95.24473533798239,38.95676534047629],[-95.2447305960094,38.95676534855296],[-95.24473058555492,38.95676167851094],[-95.2450548999297,38.95676110996931],[-95.24505491040104,38.95676478001128],[-95.24504700209235,38.95676479397565],[-95.2450470111034,38.95676820533101],[-95.24509001790426,38.95676813042217],[-95.24509605636806,38.95677282419183],[-95.24511316930884,38.956772793711885],[-95.24511918202816,38.95676807896822],[-95.2451487282411,38.95676802667198],[-95.245148718072,38.9567646152892],[-95.24514068853891,38.95676462998455],[-95.24514051531887,38.95670430589782],[-95.24528768978533,38.95670404731522],[-95.24528769821345,38.95670702967282],[-95.24530179950669,38.95670700421559],[-95.24530179104289,38.95670402275832],[-95.24530531636603,38.95670401639376],[-95.2453053082145,38.9567012638554],[-95.24530912672617,38.95670125724675],[-95.24530909523759,38.956690248021154],[-95.24530527672653,38.956690254629784],[-95.24530517589196,38.956655346843796],[-95.24530870121274,38.95665534047912],[-95.2453086971369,38.95665396420992],[-95.24530869306108,38.956652587940745],[-95.24530516774044,38.95665259430543],[-95.24530105488982,38.95665260113051],[-95.24529929222952,38.95665260431275],[-95.24529942684582,38.9566994397284],[-95.24514314592813,38.95669971356871],[-95.24514313339833,38.9566953558423],[-95.24520247275471,38.95669525169121],[-95.24520239078251,38.95666670250286],[-95.24520591610386,38.9566666961413],[-95.24520591203003,38.95666531987211],[-95.24520590795622,38.95666394360295],[-95.245202382635,38.95666394996448],[-95.24520061997447,38.95666395314523],[-95.24519709580643,38.95666395953402],[-95.24519533314587,38.9566639627147],[-95.2451954069679,38.95668975936471],[-95.24514311710793,38.9566898507656],[-95.24514308738713,38.956679300305424],[-95.24514295638063,38.95663388530533],[-95.24519524619923,38.95663379390452],[-95.24519532705295,38.9566618978607],[-95.24519708971351,38.95666189468007],[-95.24520061499946,38.95666188921909],[-95.24520237766001,38.95666188603833],[-95.24520590182794,38.95666187964938],[-95.24520589775413,38.95666050338018],[-95.24520589483346,38.9566591271384],[-95.2452023695125,38.956659133499954],[-95.24520228050848,38.95662827700538],[-95.24513295281501,38.95662839887493],[-95.24513270974744,38.956544220373445],[-95.24529574776393,38.956543934062665],[-95.24529897870288,38.95654392881519],[-95.24529910060737,38.95658617398442],[-95.24530086326602,38.95658617080219],[-95.2453049761128,38.95658616397711],[-95.2453085014301,38.956586157612435],[-95.24530849735429,38.956584781343295],[-95.24530849327847,38.9565834050741],[-95.24530496796129,38.95658341143876],[-95.24530496042219,38.956580761654706],[-95.24530488102712,38.95655309302633],[-95.24530869953075,38.95655308641771],[-95.2453086680423,38.95654207719197],[-95.24530484953924,38.9565420838006],[-95.24530484138775,38.95653933126219],[-95.24530131607276,38.95653933762676],[-95.2453013076441,38.9565363552691],[-95.24528720753804,38.95653638075368],[-95.2452872160012,38.95653936221097],[-95.24525666451835,38.95653941498869],[-95.2452563058644,38.95641486962549],[-95.24519511407115,38.95641497664837],[-95.24519510592394,38.956412224109975],[-95.2451933432696,38.956412227290606],[-95.24519158061534,38.956412230471194],[-95.24519158876241,38.95641498300961],[-95.24519159283595,38.95641635927881],[-95.24519160797686,38.956421864328256],[-95.2451916120504,38.956423240597466],[-95.24524575442074,38.95642314542931],[-95.24524608042424,38.95653668153926],[-95.24513209427849,38.95653688238535],[-95.24513207380943,38.95652958917642],[-95.24511745658964,38.95652961497061],[-95.24509965574698,38.956529646228006],[-95.24509963957912,38.95652384194693],[-95.24508264100355,38.95652387153596],[-95.24508265832326,38.956529675844465],[-95.24499709859631,38.956529826505175],[-95.2449833990653,38.95652985065641],[-95.24498309400751,38.95642360595389],[-95.24504002288282,38.95642350679849],[-95.24504001881222,38.95642213052928],[-95.24504000368306,38.9564166254798],[-95.24503999961246,38.95641524921059],[-95.24503999147132,38.95641249667217],[-95.24503822881702,38.956412499850444],[-95.24503646616269,38.95641250302869],[-95.24503647430372,38.95641525556711],[-95.24498306955557,38.95641534923895],[-95.24498306422662,38.95641356107942],[-95.24479441670478,38.956413891765024],[-95.24479438305212,38.95641389637269],[-95.24479433499975,38.95641391505775],[-95.24479429802292,38.956413945722005],[-95.24479427949689,38.95641397682467],[-95.24479427501957,38.95641400285382],[-95.24479429050567,38.95641935019768],[-95.24478339371493,38.95641936882943],[-95.24478338558376,38.956416616290966],[-95.24478162292931,38.956416619465344],[-95.24477986027485,38.956416622639686],[-95.2447798684059,38.95641937517813],[-95.24477987247141,38.956420751447354],[-95.24477988292841,38.95642442148948],[-95.24477988699392,38.95642579775871],[-95.24479430913011,38.95642577187785],[-95.2447946254299,38.956535984954265],[-95.24478875915398,38.95653599515492],[-95.24478874612475,38.95653141391191],[-95.2446456144455,38.956531665188784],[-95.2446456158932,38.95653219063817],[-95.2446441476121,38.956532192695185],[-95.24464394936568,38.95646375696439],[-95.24464393916766,38.95646372247545],[-95.24464391264969,38.956463692104776],[-95.24464387096494,38.95646366587984],[-95.24464382064636,38.95646365386928],[-95.24463161261164,38.9564636728685],[-95.24463150047355,38.956424681347976],[-95.24466735489764,38.95642461867309],[-95.24466734444655,38.95642094863096],[-95.24466734038323,38.956419572361696],[-95.24466733225657,38.95641681982323],[-95.2446655696021,38.956416822995834],[-95.24466380810081,38.95641682619582],[-95.24466381507415,38.9564195787069],[-95.24462475162964,38.95641964713019],[-95.24462487827545,38.95646368496206],[-95.24427527979672,38.95646429659921],[-95.24427558855412,38.956571869824316],[-95.24427245339784,38.95657187551739],[-95.24425012759227,38.95657191445265],[-95.24424234283548,38.95657192769332],[-95.24424253934541,38.95664027957806],[-95.24424267702878,38.956688143383964],[-95.24424269487768,38.95668818886952],[-95.24424272824444,38.956688221205496],[-95.24424276678558,38.95668823924486],[-95.2442428137851,38.95668824757176],[-95.24427592215454,38.95668819094299],[-95.24427614724611,38.956767060818386]]],[[[-95.24504264301751,38.95641524442945],[-95.24504264708814,38.95641662069864],[-95.24504266221751,38.95642212574813],[-95.24504266628814,38.95642350201731],[-95.24518896864512,38.95642324538204],[-95.24518896457165,38.95642186911283],[-95.24518894827771,38.95641636403599],[-95.24518894420424,38.95641498776676],[-95.24518893605727,38.956412235228335],[-95.24518717455611,38.95641223843626],[-95.24518541190184,38.956412241616775],[-95.24518541889543,38.95641499412781],[-95.2451820263423,38.956415000038135],[-95.24504616832631,38.95641523807275],[-95.2450461601849,38.95641248553429],[-95.24504439753058,38.95641248871266],[-95.24504263487624,38.956412491890994],[-95.24504264301751,38.95641524442945]]],[[[-95.24466998494154,38.956419567616464],[-95.24466998900492,38.95642094388567],[-95.24466999830307,38.95642461390039],[-95.24467000236645,38.95642599016963],[-95.24477724362357,38.95642580163347],[-95.24477723955812,38.95642442536428],[-95.24477722906616,38.956420756222535],[-95.24477722500069,38.95641937995328],[-95.2447772168698,38.95641662741486],[-95.24477545421534,38.95641663058917],[-95.2447736915609,38.956416633763375],[-95.24477369969169,38.95641938630181],[-95.24471233012923,38.95641949335181],[-95.24467350909744,38.95641956124368],[-95.2446735021237,38.956416808732584],[-95.24467173946924,38.9564168119053],[-95.24466997681478,38.956416815078],[-95.24466998494154,38.956419567616464]]],[[[-95.244788258686,38.95647945474199],[-95.24478294534809,38.956479463662376],[-95.24478118269208,38.95647946683674],[-95.24476502675346,38.956479495674834],[-95.24476326409743,38.956479498848914],[-95.2447579507595,38.95647950776814],[-95.2447561881035,38.956479510942145],[-95.24475625051254,38.95650118421492],[-95.2447900837614,38.95650112484033],[-95.24479002134198,38.95647945156751],[-95.244788258686,38.95647945474199]]],[[[-95.24516889302018,38.956477556627696],[-95.24516899790234,38.956514224606906],[-95.24518433425038,38.95651419786829],[-95.24518422936029,38.9564775298891],[-95.24516889302018,38.956477556627696]]],[[[-95.24501411737222,38.956500701318944],[-95.24501416510064,38.95651739316334],[-95.24502718470578,38.956517370877044],[-95.24502713697422,38.95650067903264],[-95.24501411737222,38.956500701318944]]],[[[-95.24499267533706,38.95648185727419],[-95.24499278012779,38.95651852525356],[-95.24500811647682,38.956518498538244],[-95.24500801167815,38.956481830558914],[-95.24499267533706,38.95648185727419]]],[[[-95.24503757814844,38.95652336676171],[-95.24503850855723,38.956523364536345],[-95.24503849854368,38.95651989007122],[-95.24504549720852,38.956519877925714],[-95.24504550722237,38.95652335239085],[-95.2450464375961,38.956523351065805],[-95.24504642758214,38.95651987660067],[-95.24505378642442,38.956519863099395],[-95.24505379640364,38.95652333846496],[-95.24505472681247,38.956523336239435],[-95.2450547167981,38.95651986177434],[-95.24507829504799,38.95651981999974],[-95.24507830502837,38.956523295365265],[-95.24507923428402,38.95652329311218],[-95.24507922426844,38.95651981864708],[-95.24508718447775,38.956519805013116],[-95.24508719449373,38.956523279478255],[-95.24508812486744,38.95652327815288],[-95.24508811485144,38.956519803687755],[-95.24509619513168,38.9565197893013],[-95.24509620514802,38.956523263766414],[-95.24509713436855,38.95652326241359],[-95.24509712435211,38.956519787948466],[-95.24510621814005,38.95651977150753],[-95.24510621640727,38.956519045979206],[-95.24509712261943,38.956519062420185],[-95.24509709558741,38.95650962774169],[-95.24510248975527,38.956509618023745],[-95.2451024293384,38.956488572054496],[-95.24509703513705,38.956488582672804],[-95.2450970081401,38.95647914709386],[-95.24510610192281,38.95647913065294],[-95.24510609903687,38.95647840509726],[-95.24509700521918,38.956478422438565],[-95.24509699523783,38.95647494707304],[-95.24509606601798,38.95647494842589],[-95.24509607599927,38.95647842379143],[-95.24508799572378,38.95647843817788],[-95.24508798574293,38.956474962812344],[-95.24508705536985,38.956474964137726],[-95.2450870653507,38.956478439503286],[-95.24507910514598,38.956478453137144],[-95.24507909513048,38.956474978672006],[-95.24507816591056,38.956474980024716],[-95.24507817589097,38.95647845539024],[-95.24505459768996,38.95647849626439],[-95.24505458767567,38.95647502179924],[-95.24505365730259,38.95647502312434],[-95.24505366728181,38.95647849848991],[-95.24504630847886,38.95647851109076],[-95.24504629850006,38.95647503572524],[-95.24504536809188,38.95647503795066],[-95.2450453781058,38.95647851241577],[-95.24503837944505,38.95647852456128],[-95.24503836943148,38.95647505009614],[-95.24503743905846,38.95647505142113],[-95.24503744907196,38.95647852588629],[-95.24502844072968,38.956478541648345],[-95.24502844361483,38.95647926720402],[-95.24503745083906,38.95647925051417],[-95.24503747898125,38.95648868612048],[-95.24503221641754,38.95648869535753],[-95.24503227796666,38.95650974135425],[-95.24503753941386,38.95650973118939],[-95.24503756640284,38.95651916676831],[-95.24502855805545,38.95651918253043],[-95.24502855978743,38.956519908058674],[-95.24503756817,38.95651989139622],[-95.24503757814844,38.95652336676171]]],[[[-95.24473049204691,38.95650518997788],[-95.24473052621684,38.95651716448308],[-95.24477748873564,38.95651708275991],[-95.24477745455779,38.95650510825472],[-95.24473049204691,38.95650518997788]]],[[[-95.24529928609851,38.956650540359206],[-95.24530104875879,38.95665053717694],[-95.2453051616093,38.95665053035187],[-95.24530868692976,38.9566505239872],[-95.24530868285395,38.956649147718],[-95.24530867877812,38.95664777144882],[-95.24530515345778,38.9566477778135],[-95.24530514591866,38.95664512802947],[-95.2453049903955,38.956590980469095],[-95.24530851571298,38.95659097410443],[-95.24530851163716,38.95658959783523],[-95.24530850756136,38.95658822156606],[-95.245304982244,38.95658822793072],[-95.24530086939704,38.95658823475579],[-95.24529910673839,38.95658823793804],[-95.24529928609851,38.956650540359206]]]]},"properties":{"SDE.FloorAll.FLOORLOCATION":"ROOF"}}]}
