{"type":"FeatureCollection","features":[{"type":"Feature","geometry":{"type":"Polygon","coordinates":[[[-95.24833127718742,38.957658689980825],[-95.24833056257873,38.95765993834149],[-95.24842645473323,38.95769342799691],[-95.24846537067799,38.95762549883274],[-95.24846683315661,38.95762600217643],[-95.24846742881869,38.9576249627801],[-95.24846876119983,38.95762542788858],[-95.24847170987036,38.957620280672195],[-95.24847037864255,38.957619815591116],[-95.24847097433958,38.9576187752944],[-95.24846671186658,38.9576172871547],[-95.24850260846145,38.95755462878863],[-95.24850687089638,38.957556117827416],[-95.24850746659233,38.9575550775305],[-95.24850879781924,38.95755554261121],[-95.24851174648398,38.95755039539372],[-95.24851041525716,38.95754993031309],[-95.24851101091795,38.95754889091655],[-95.24850624969272,38.95754722782062],[-95.24854203858776,38.95748454706088],[-95.24854603457153,38.95748594235637],[-95.24854663023126,38.95748490295961],[-95.24854796145706,38.95748536803982],[-95.24855091130428,38.95748021994836],[-95.24854957892536,38.957479754840776],[-95.24855017458502,38.95747871544404],[-95.24854358219437,38.95747641318491],[-95.24854298653467,38.95747745258163],[-95.24854165530905,38.95747698750134],[-95.2485399748649,38.957479918962335],[-95.24845973318602,38.957451894529065],[-95.24846140877473,38.9574489692625],[-95.24846007755015,38.9574485041813],[-95.24846067324593,38.95744746388463],[-95.24845407970794,38.95744516159306],[-95.24845348401207,38.957446201889645],[-95.24845215278765,38.957445736808374],[-95.24845030631583,38.957448959929906],[-95.24837006355447,38.95742093540714],[-95.24837191002919,38.9574177122869],[-95.24837057884089,38.9574172463043],[-95.24837117450265,38.95741620690843],[-95.24836458212366,38.9574139046391],[-95.24836398646184,38.95741494403492],[-95.24836265408534,38.95741447892524],[-95.24836080757522,38.95741770294572],[-95.24828056488481,38.95738967836098],[-95.24828241139784,38.95738645434178],[-95.24828108017569,38.957385989258476],[-95.24828167583848,38.95738494986312],[-95.24827508350043,38.957382646688295],[-95.24827448780246,38.957383686984045],[-95.24827312240522,38.957383210274905],[-95.24827127592688,38.957386433393594],[-95.24819106632938,38.95735842034525],[-95.24819291396383,38.957355197255204],[-95.2481915815896,38.95735473214355],[-95.24819217728856,38.95735369184823],[-95.24818558492123,38.95735138956876],[-95.24818498922225,38.95735242986401],[-95.24818365688319,38.957351963851856],[-95.24818173731538,38.95735531501096],[-95.2481607140901,38.95735482956413],[-95.24816137041852,38.957335065951106],[-95.24798207671454,38.957331433186006],[-95.24798128176448,38.95736344206194],[-95.24797332539076,38.95736332531009],[-95.2479736226302,38.95736280604971],[-95.24797202496391,38.957362247219756],[-95.24797273954086,38.95736099976164],[-95.24796687942779,38.957358952773596],[-95.24796616481571,38.95736020113204],[-95.24796456714954,38.957359642302],[-95.24796194543741,38.95736421777899],[-95.24796354310368,38.95736477660909],[-95.24796282852651,38.957366024067156],[-95.24796473254533,38.95736668930351],[-95.24792779285251,38.957431166661024],[-95.24788624015595,38.95741665386494],[-95.2478295251392,38.95751564826476],[-95.24769390740539,38.957468283418024],[-95.24770731470893,38.95744488052787],[-95.24771294709284,38.957446847321506],[-95.24771318606746,38.95744643122082],[-95.24771342385384,38.957446015993135],[-95.24771475622664,38.95744648111027],[-95.24771821148575,38.95744044921793],[-95.24771687911304,38.95743998410083],[-95.24771735587396,38.9574391527724],[-95.24771172352553,38.95743718507856],[-95.24782741631913,38.95723524412761],[-95.24783304865463,38.95723721181585],[-95.24783352544785,38.95723637958656],[-95.24783485781751,38.95723684470233],[-95.24783831302108,38.95723081370669],[-95.2478369806515,38.95723034859094],[-95.24783745744465,38.95722951636168],[-95.24783182507454,38.95722754957402],[-95.2478709654519,38.957159230288596],[-95.24741788325478,38.95700098739239],[-95.24717714520642,38.9574211874618],[-95.24717442156226,38.957425859636885],[-95.24762754461989,38.9575841179153],[-95.24766865081227,38.95751236752782],[-95.2476745459773,38.95751443338743],[-95.24767573851115,38.95751235372991],[-95.24775618038593,38.95754044835158],[-95.24775498900719,38.95754252803729],[-95.24776084797615,38.9575445750086],[-95.247762040508,38.95754249535022],[-95.24784434660353,38.95757124158675],[-95.24784315522686,38.95757332127338],[-95.24784901538919,38.957575367367234],[-95.24785020676576,38.957573287680546],[-95.24788137162959,38.957584172520534],[-95.24788280197943,38.957581676732495],[-95.24788386672037,38.95758204897736],[-95.2478913691525,38.9575689529103],[-95.24789030441173,38.95756858066552],[-95.24792188189527,38.95751346143663],[-95.24794798487595,38.957522578669874],[-95.24797439337894,38.957531794172596],[-95.24797296418653,38.957534289989134],[-95.24797882434945,38.95753633607649],[-95.24798025354166,38.957533840259835],[-95.24806389209313,38.95756305145466],[-95.24806246290326,38.95756554727229],[-95.24806832303629,38.95756759425549],[-95.24806975222596,38.95756509843777],[-95.2481533908514,38.957594309567945],[-95.2481519605459,38.95759680445897],[-95.24815782068411,38.95759885143759],[-95.24815925102443,38.95759635564616],[-95.2482429808228,38.95762559861427],[-95.24824154793303,38.95762810065475],[-95.24824807313064,38.95763037970681],[-95.24824843097711,38.957629756440824],[-95.24833127718742,38.957658689980825]]]},"properties":{"SDE.FloorAll.FLOORLOCATION":"1"}},{"type":"Feature","geometry":{"type":"MultiPolygon","coordinates":[[[[-95.24755008461692,38.95772218082197],[-95.2476293262058,38.95758386640817],[-95.24763495975185,38.957585833232955],[-95.24763543539653,38.957585000977154],[-95.24763676777144,38.95758546609518],[-95.247640223009,38.95757943510562],[-95.24763889063418,38.957578969987615],[-95.24763936739689,38.95757813865955],[-95.24763373503961,38.95757617096196],[-95.2476691221045,38.95751440376892],[-95.2476747556461,38.95751637059178],[-95.24767523128986,38.957515538335784],[-95.24767656366372,38.95751600345335],[-95.24767960155303,38.95751070065924],[-95.2476782703325,38.95751023556907],[-95.24767874712934,38.957509403340424],[-95.24767311358815,38.95750743651774],[-95.24770891792498,38.95744494111562],[-95.24771455030896,38.957446907909194],[-95.24771502710499,38.95744607568038],[-95.2477163594778,38.95744654079749],[-95.24771981470172,38.95744050980554],[-95.247718482329,38.95744004468838],[-95.2477189590899,38.95743921335998],[-95.24771332674143,38.95743724566625],[-95.24774889318618,38.957375166379464],[-95.24775452556575,38.95737713317113],[-95.24775524014669,38.95737588571435],[-95.2477568378466,38.95737644364688],[-95.24775687129673,38.95737638496009],[-95.24783350497677,38.95740314994918],[-95.24783322143793,38.95740364339889],[-95.24783378738789,38.95740384158398],[-95.24783298360784,38.95740524553956],[-95.24783937553093,38.9574074781931],[-95.2478401804641,38.95740607426489],[-95.24785886660264,38.95741260018295],[-95.24789945840725,38.95734174955077],[-95.24796385145814,38.95736423868682],[-95.24796354313874,38.9573647757087],[-95.24796940325224,38.957366822696876],[-95.24797142929677,38.957363286613514],[-95.2479823501145,38.95736710116028],[-95.24796525244854,38.95739694496242],[-95.24811613434498,38.95744964113449],[-95.24811678946554,38.95744849770772],[-95.24814531692483,38.95745846101224],[-95.24814466180466,38.95745960443917],[-95.24829554396852,38.95751230037757],[-95.24829649751268,38.9575106368156],[-95.24830800487007,38.957514655409454],[-95.24829144351533,38.957543563896145],[-95.24829082972461,38.95754334925711],[-95.24829023287239,38.95754438952555],[-95.24831453325731,38.957552876295175],[-95.2483075039902,38.957565146379025],[-95.24837106490331,38.957587345164185],[-95.24836915896958,38.95759067231672],[-95.24837049019624,38.95759113739896],[-95.24836995510564,38.957592073690186],[-95.24837648030405,38.95759435273507],[-95.24837689763875,38.957593624535896],[-95.24846020274418,38.95762271937879],[-95.2484597865634,38.95762344760559],[-95.24846564674772,38.95762549366833],[-95.24846606289346,38.957624766341894],[-95.2484866064932,38.95763194095809],[-95.24849100779177,38.95762425882098],[-95.24849154075827,38.957624444504084],[-95.24850292173258,38.95760457941547],[-95.24850238880124,38.95760439283198],[-95.24850298446262,38.957603353435516],[-95.24850351742906,38.95760353911863],[-95.24851488354183,38.957583699811764],[-95.2485143506106,38.95758351322831],[-95.24851494627164,38.957582473831785],[-95.24851547923787,38.957582659514784],[-95.24852691224315,38.9575627028326],[-95.24852637927702,38.95756251714965],[-95.24852950745668,38.957557057861784],[-95.24853003926961,38.9575572435174],[-95.24854197505816,38.95753640925619],[-95.24854144324536,38.957536223600634],[-95.24854203890564,38.95753518420396],[-95.24854257071844,38.95753536985947],[-95.24855442474568,38.957514678754094],[-95.24855389177985,38.95751449307124],[-95.24855451718432,38.95751340120806],[-95.24855505015022,38.95751358689091],[-95.24856678900188,38.957493096728065],[-95.2485484762929,38.957486701453284],[-95.24854919089599,38.95748545309124],[-95.24854802593367,38.95748504603011],[-95.24855064757723,38.95748047144027],[-95.24854904875056,38.95747991259092],[-95.24854976447175,38.95747866515662],[-95.24854390433217,38.95747661819779],[-95.24855213234845,38.9574622550639],[-95.24852226221351,38.95745182290372],[-95.24852202439686,38.95745223903349],[-95.24852042668917,38.95745168111148],[-95.24852066450589,38.95745126498171],[-95.24849242965207,38.957441404244435],[-95.24849219183528,38.95744182037411],[-95.24849085945745,38.957441355265914],[-95.24849109842748,38.957440939163625],[-95.24847117436893,38.95743398112374],[-95.248470936552,38.95743439725341],[-95.248463283969,38.95743172466046],[-95.24846352293913,38.95743130855823],[-95.24843808151903,38.957422423435695],[-95.24843784370194,38.95742283956523],[-95.24843651132481,38.95742237445641],[-95.24843675029507,38.95742195835422],[-95.24840931491178,38.95741237612176],[-95.24840907594144,38.957412792223884],[-95.24840774471787,38.9574123271421],[-95.2484079825351,38.95741191101259],[-95.24838101631643,38.9574024931157],[-95.24838077734593,38.95740290921779],[-95.24837471450788,38.957400791650166],[-95.24837495347845,38.95740037554808],[-95.24834844961137,38.95739111912065],[-95.24834821179385,38.95739153525003],[-95.24834687941792,38.95739107014018],[-95.24834711838861,38.95739065403817],[-95.2483196829946,38.95738107268485],[-95.24831944402378,38.957381488786794],[-95.24831811283644,38.95738102280358],[-95.24831835061904,38.95738060757465],[-95.24829218387045,38.95737146818298],[-95.24829194489948,38.95737188428493],[-95.2482851532423,38.95736951239317],[-95.24828539106012,38.95736909626395],[-95.24825875512867,38.95735979342235],[-95.24825851615756,38.95736020952419],[-95.248257184936,38.95735974444065],[-95.24825742275392,38.957359328311426],[-95.2482299213754,38.95734972283963],[-95.24822968240413,38.957350138941386],[-95.24822835118293,38.95734967385755],[-95.24822858900102,38.9573492577284],[-95.24820255205692,38.95734016465547],[-95.24820231423877,38.957340580784546],[-95.24819538822852,38.95733816153875],[-95.24819562719993,38.95733774543705],[-95.24816919054182,38.95732851309321],[-95.24816895160534,38.95732892829448],[-95.24816762038492,38.957328463209926],[-95.2481678582033,38.95732804708092],[-95.24814042285783,38.957318465685155],[-95.24814018503933,38.95731888181409],[-95.24813885266616,38.957318416701824],[-95.24813909048463,38.95731800057288],[-95.24811312079564,38.95730892980371],[-95.24811288182389,38.957309345905266],[-95.24810588974093,38.957306904357566],[-95.24810612871275,38.957306488256016],[-95.248079692113,38.95729725499141],[-95.24807945314105,38.95729767109286],[-95.24807812192188,38.95729720600727],[-95.24807835974062,38.95729678987841],[-95.2480509244194,38.95728720846148],[-95.2480506866356,38.95728762368989],[-95.24804935426357,38.95728715857655],[-95.24804959323566,38.95728674247519],[-95.24802322265933,38.957277533295006],[-95.24802298484035,38.95727794942373],[-95.24801632532375,38.95727562300985],[-95.24801656314277,38.95727520688114],[-95.24799012653135,38.957265974496465],[-95.24798988871221,38.9572663906251],[-95.2479885575292,38.95726592463811],[-95.24798879531338,38.95726550940985],[-95.24796129285463,38.957255903846914],[-95.24796105503528,38.9572563199755],[-95.24795978986134,38.957255878085576],[-95.24796002768069,38.95725546195696],[-95.24793352507538,38.957246205461985],[-95.24793328610272,38.95724662156314],[-95.24792629403225,38.9572441800046],[-95.24792653300493,38.95724376390345],[-95.2478989770292,38.957234139931735],[-95.24789876895458,38.95723450359395],[-95.24789743658458,38.957234038478894],[-95.24789764581243,38.95723367484408],[-95.24787360637228,38.957225278892196],[-95.24787336739936,38.95722569499327],[-95.24787176973697,38.9572251361619],[-95.24787200752168,38.95722472093388],[-95.2478479646982,38.95721632309376],[-95.24784772687838,38.957216739222126],[-95.24784086920734,38.95721434410733],[-95.24787279826708,38.95715861139287],[-95.24741847896215,38.956999947101],[-95.24709563417278,38.95756345905619],[-95.24755008461692,38.95772218082197]]],[[[-95.24817418314426,38.95768842683344],[-95.24817299177528,38.95769050652341],[-95.24820682038404,38.9577023205718],[-95.24824733035688,38.95763161027531],[-95.24824892806642,38.957632168201044],[-95.24825154976992,38.957627592717685],[-95.24788449923436,38.957499400000486],[-95.24788187751193,38.95750397547562],[-95.24788347636894,38.9575045334338],[-95.24784582561861,38.957570252901775],[-95.24784422679546,38.95756969404271],[-95.24784160506783,38.957574269516904],[-95.24784320392607,38.95757482747562],[-95.24784415748174,38.95757316391735],[-95.2478500221517,38.95757521282183],[-95.24793365500246,38.95760442217282],[-95.24793294042236,38.957605669630695],[-95.2479388005549,38.95760771662042],[-95.24793951516999,38.95760646826215],[-95.24802315379056,38.95763567948617],[-95.2480224392117,38.95763692694454],[-95.24802829934946,38.95763897392972],[-95.24802901392822,38.9576377264713],[-95.2481126526578,38.95766693673034],[-95.24811193804516,38.957668185089666],[-95.24811779822316,38.957670231169935],[-95.24811851280066,38.957668983711],[-95.24817418314426,38.95768842683344]]]]},"properties":{"SDE.FloorAll.FLOORLOCATION":"2"}},{"type":"Feature","geometry":{"type":"Polygon","coordinates":[[[-95.24709756222546,38.957562884791116],[-95.24755201151699,38.95772160652202],[-95.24767075175568,38.9575143487266],[-95.24767524647729,38.957515919013424],[-95.24767596109609,38.95751467065677],[-95.24767755991665,38.957515229518165],[-95.24768018165277,38.95751065404766],[-95.24767858279723,38.95751009608666],[-95.24767929741591,38.95750884773005],[-95.24767480265955,38.95750727834376],[-95.24771102063048,38.95744406096494],[-95.24771688077831,38.95744610706552],[-95.24771759536063,38.95744485960899],[-95.247719194215,38.95744541756944],[-95.2477218147926,38.95744084207059],[-95.24772021709148,38.95744028413756],[-95.24772093170873,38.95743903578061],[-95.24771507156142,38.957436989680254],[-95.24775081637021,38.95737459829684],[-95.24775522236277,38.95737613493161],[-95.24775555731622,38.957375566098364],[-95.24783546725713,38.95740347500623],[-95.24783504995304,38.957404202303074],[-95.24783726706808,38.95740497861441],[-95.24780136597786,38.95746762045871],[-95.2477992410429,38.95746687787775],[-95.24779852642676,38.957468126235156],[-95.24779692760629,38.95746756737544],[-95.24779430703256,38.95747214287593],[-95.24779590473497,38.95747270080792],[-95.24779519011872,38.95747394916533],[-95.24779732074967,38.95747469368404],[-95.24776133241397,38.95753749927182],[-95.24775920747734,38.957536756690125],[-95.24775849174169,38.95753800411948],[-95.24775689403809,38.95753744618696],[-95.24775427230594,38.957542021659194],[-95.2477558711628,38.95754257961914],[-95.24775515539196,38.957543827948896],[-95.24776101554933,38.95754587404719],[-95.24776173128504,38.95754462661783],[-95.24776332898885,38.957545184550284],[-95.24776475563701,38.95754269498428],[-95.24784519510003,38.95757079399132],[-95.24784377093577,38.95757327911109],[-95.24784536975899,38.95757383797018],[-95.24784465402448,38.95757508540011],[-95.24788088530147,38.957587739742586],[-95.24788261292748,38.957584723793964],[-95.24793428261876,38.95760276980314],[-95.24793326960967,38.95760453739427],[-95.24793486731613,38.95760509532437],[-95.24793415273605,38.957606342782185],[-95.24794001286872,38.95760838977184],[-95.24794072744875,38.957607142313954],[-95.24794232630853,38.95760770027131],[-95.2479433438601,38.9576059345904],[-95.24802378140505,38.957634027115965],[-95.24802276839772,38.957635794707876],[-95.24802436610565,38.95763635263675],[-95.24802365149176,38.95763760099551],[-95.24802951166467,38.95763964708024],[-95.24803022624343,38.95763839962186],[-95.24803182510462,38.95763895757798],[-95.24803283695856,38.95763718995862],[-95.24811328481316,38.95766528626993],[-95.24811226722989,38.95766705285277],[-95.24811386493923,38.95766761078038],[-95.24811315036168,38.957668858239295],[-95.24811901050467,38.95767090521991],[-95.2481197251172,38.957669656860546],[-95.24812132279159,38.95767021568845],[-95.24812234152785,38.95766844913292],[-95.24817401588419,38.95768649694541],[-95.24817228826807,38.957689512898334],[-95.24820850830571,38.95770216236265],[-95.24820922403511,38.95770091493047],[-95.24821082174597,38.95770147285676],[-95.24821344345443,38.957696897374305],[-95.24821130711652,38.957696150925585],[-95.24824871607031,38.95763085368947],[-95.24824925724882,38.95763103596377],[-95.24825187895223,38.95762646048038],[-95.24825134029042,38.957626272858526],[-95.24828875287521,38.95756096938846],[-95.2483729290949,38.95759036795466],[-95.24837221452267,38.95759161541524],[-95.24837807466679,38.957593662382735],[-95.24837878927396,38.95759241402177],[-95.24846242805937,38.95762162492905],[-95.24846171345337,38.957622873290546],[-95.24846757363777,38.957624919353165],[-95.24846828820863,38.95762367189202],[-95.2484876326686,38.957630427820405],[-95.24849192246806,38.95762294130675],[-95.24849225499557,38.957623057345025],[-95.2485036632675,38.95760314333677],[-95.24850293101535,38.95760288803621],[-95.24850355642138,38.95760179617328],[-95.24850428982678,38.95760205150121],[-95.24851560770479,38.95758229486359],[-95.24851520916832,38.957582154728335],[-95.24851586428366,38.957581011299325],[-95.24851639724992,38.957581196982346],[-95.24852798383604,38.95756097177468],[-95.2485276501556,38.95756085570914],[-95.24853075481212,38.95755543731941],[-95.24853127635141,38.95755562002753],[-95.2485432208075,38.957534770651044],[-95.2485426878766,38.95753458406773],[-95.24854345808937,38.95753324149553],[-95.24854398990216,38.95753342715106],[-95.2485558154424,38.95751278583811],[-95.24855528247657,38.957512600155304],[-95.248555907881,38.95751150829209],[-95.24855644084688,38.95751169397492],[-95.24856829608945,38.957491001094695],[-95.24854940830782,38.95748440471843],[-95.24855258604498,38.957478858285995],[-95.24855098718326,38.95747830033706],[-95.24855170290435,38.9574770529028],[-95.24854462996436,38.95747458242678],[-95.24855274148355,38.9574604247113],[-95.2484935421562,38.95743974895942],[-95.24849330433938,38.957440165089075],[-95.24849197196157,38.957439699980874],[-95.24849220977843,38.95743928385117],[-95.24847083495276,38.95743181823965],[-95.24847071489111,38.95743202627709],[-95.24846362371765,38.95742954995589],[-95.24846374262614,38.95742934189109],[-95.24843710549531,38.95742003906314],[-95.24843686767824,38.95742045519268],[-95.2484355353012,38.957419990083835],[-95.24843577427143,38.95741957398162],[-95.24840827169204,38.95740996852481],[-95.24840803387487,38.95741038465431],[-95.24840683473934,38.95740996596601],[-95.24840710341938,38.95740949829788],[-95.24838153219754,38.95740056772455],[-95.24838129441525,38.95740098295362],[-95.24837490132248,38.95739875030257],[-95.24837507968547,38.9573984382055],[-95.24834864298123,38.957389205902615],[-95.24834840519877,38.9573896211316],[-95.24834707282287,38.95738915602174],[-95.2483473117585,38.95738874082011],[-95.24831987640026,38.95737915856646],[-95.24831963742943,38.95737957466843],[-95.24831817296605,38.95737906316463],[-95.2483184107837,38.957378647035256],[-95.24829243989618,38.95736957627895],[-95.24829232098733,38.95736978434359],[-95.24828522982638,38.95736730801147],[-95.24828546764411,38.95736689188224],[-95.2482592644584,38.95735773990218],[-95.24825902548729,38.95735815600405],[-95.24825769426579,38.957357690920475],[-95.2482579423222,38.95735727863917],[-95.24823049671471,38.95734769341688],[-95.2482298404087,38.95734883771729],[-95.24822850918753,38.95734837263344],[-95.24822916434037,38.957347228305615],[-95.24820296116921,38.957338076312915],[-95.24820230601603,38.95733922064054],[-95.24819531396211,38.95733677819781],[-95.24819596908031,38.95733563477064],[-95.2481697647295,38.957326483643335],[-95.24816952691118,38.95732689977242],[-95.24816839497552,38.95732650430587],[-95.24816863279383,38.957326088176885],[-95.24814119748407,38.95731650588092],[-95.24814095966563,38.95731692200987],[-95.24813982773033,38.9573165265431],[-95.24814006554874,38.95731611041409],[-95.24811386236561,38.9573069593016],[-95.24811362339382,38.95730737540311],[-95.248106232777,38.95730479371878],[-95.2481064705956,38.957304377589864],[-95.24808026745622,38.957295225569354],[-95.24808002848427,38.95729564167082],[-95.24807889654961,38.957295246203465],[-95.24807913552156,38.95729483010195],[-95.24805169904783,38.95728524865786],[-95.24805146122893,38.957285664786646],[-95.24805014251999,38.95728520450376],[-95.24805038149205,38.95728478840233],[-95.24802417721395,38.95727563634177],[-95.248023939395,38.95727605247053],[-95.24801673440606,38.957273535568305],[-95.24801697219002,38.95727312033996],[-95.2479907690738,38.95726396829926],[-95.24799053010143,38.95726438440052],[-95.24798919888347,38.95726391931392],[-95.24798943670261,38.957263503185224],[-95.24796200144148,38.95725392084684],[-95.24796176362214,38.95725433697545],[-95.24796076492939,38.95725398792833],[-95.24796100400707,38.957253569125875],[-95.2479347996119,38.957244420646674],[-95.24793444172958,38.95724504481212],[-95.24792711716943,38.95724248631336],[-95.24792747389868,38.95724186212057],[-95.24790117397637,38.957232677119556],[-95.24790065261912,38.957233586697924],[-95.24789835230749,38.95723278317857],[-95.24789887366474,38.957231873600215],[-95.24787483422514,38.95722347764861],[-95.24787459867676,38.95722389473214],[-95.24787319799212,38.95722340546464],[-95.24787343581181,38.95722298933618],[-95.24784886345152,38.9572144067928],[-95.24784867023172,38.95721474467203],[-95.2478434432796,38.957212919087176],[-95.24787485342617,38.957158092403475],[-95.24742040584358,38.956999372803175],[-95.24709756222546,38.957562884791116]]]},"properties":{"SDE.FloorAll.FLOORLOCATION":"3"}},{"type":"Feature","geometry":{"type":"Polygon","coordinates":[[[-95.24705569137784,38.95740385893036],[-95.24836087533438,38.95785970232244],[-95.24858439525053,38.957469544648376],[-95.24727921702002,38.957013704657385],[-95.24705569137784,38.95740385893036]]]},"properties":{"SDE.FloorAll.FLOORLOCATION":"4"}},{"type":"Feature","geometry":{"type":"Polygon","coordinates":[[[-95.24743882058806,38.9573477361839],[-95.24762101363835,38.95741136920345],[-95.24766247762213,38.95733899465265],[-95.24748028468595,38.957275362598224],[-95.24743882058806,38.9573477361839]]]},"properties":{"SDE.FloorAll.FLOORLOCATION":"5"}},{"type":"Feature","geometry":{"type":"Polygon","coordinates":[[[-95.24834810134912,38.957855988931094],[-95.24834738558556,38.957857237264484],[-95.24835750823614,38.957860772377025],[-95.24836203591741,38.957852868838565],[-95.24836043704879,38.95785231088702],[-95.24836401114709,38.95784607181133],[-95.24836561001563,38.95784662976288],[-95.24836835062892,38.957841846212226],[-95.24836675176046,38.95784128826075],[-95.24836770530736,38.95783962469822],[-95.24836930302263,38.9578401826223],[-95.24837204363543,38.95783539907157],[-95.24837044592032,38.957834841147516],[-95.24837402001684,38.95782860207153],[-95.24837561888506,38.9578291600229],[-95.24837835834383,38.957824376444634],[-95.24837676062886,38.957823818520666],[-95.24837771417532,38.95782215495804],[-95.24837931189023,38.95782271288199],[-95.24838205250168,38.95781792933102],[-95.24838045478684,38.95781737140711],[-95.24838402888163,38.95781113233084],[-95.24838562659633,38.9578116902547],[-95.24838836720694,38.95780690670358],[-95.24838676949231,38.95780634877975],[-95.24838772188511,38.95780468518966],[-95.24838932075292,38.95780524314087],[-95.2483920602098,38.95780045956226],[-95.24839046249527,38.95779990163846],[-95.24839403658827,38.95779366256182],[-95.24839563545588,38.95779422051294],[-95.24839837603008,38.957789437862],[-95.24839677719764,38.95778887901051],[-95.24839773074314,38.957787215447766],[-95.2483993284574,38.95778777337144],[-95.24840206906617,38.957782989819975],[-95.24840047135197,38.957782431896334],[-95.24840404544318,38.957776192819374],[-95.24840564315728,38.957776750742966],[-95.2484083837301,38.957771968091734],[-95.2484067860512,38.957771409267785],[-95.24840773844298,38.95776974567755],[-95.24840933731018,38.95777030362847],[-95.24841207788253,38.9577655209772],[-95.24841047905052,38.95776496212588],[-95.24841405313997,38.95775872304864],[-95.24841565200694,38.957759280999475],[-95.24841839257842,38.95775449834801],[-95.24841679374657,38.957753939496826],[-95.24841774729113,38.957752275933856],[-95.24841934500482,38.957752833857285],[-95.24842208557578,38.95774805120571],[-95.2484204878973,38.95774749238197],[-95.24842406198499,38.95774125330436],[-95.24842566085164,38.957741811255055],[-95.24842840026858,38.95773702857598],[-95.24842680259025,38.95773646975232],[-95.24842775613435,38.95773480618924],[-95.24842935384768,38.95773536411254],[-95.24843209441731,38.95773058146075],[-95.24843049673915,38.95773002263713],[-95.24843407082507,38.95772378355924],[-95.24843566850318,38.9577243423828],[-95.24843840910698,38.95771955883047],[-95.24843681142896,38.95771900000694],[-95.24843776381941,38.957717336416415],[-95.24843936268562,38.957717894366944],[-95.2484421021007,38.95771311168751],[-95.2484405044228,38.957712552864045],[-95.24844407850702,38.957706313785806],[-95.24844567733793,38.957706872636635],[-95.24844841794044,38.95770208908405],[-95.24844681910956,38.95770153023326],[-95.2484477726527,38.95769986667004],[-95.24844937033033,38.957700425493464],[-95.24845211093235,38.9576956419408],[-95.24845051325477,38.957695083117436],[-95.2484540873372,38.957688844038884],[-95.24845568501462,38.95768940286217],[-95.24845842561577,38.95768461930934],[-95.24845682675017,38.957684061359096],[-95.2484577803279,38.957682396895414],[-95.24845937915839,38.95768295574606],[-95.24846211975903,38.95767817219312],[-95.24846052089353,38.95767761424293],[-95.24846409616241,38.957671374291046],[-95.24846569383955,38.957671933114234],[-95.24846843443935,38.95766714956117],[-95.24846683557405,38.95766659161105],[-95.24846778915125,38.957664927147306],[-95.24846938682829,38.9576654859704],[-95.24847212742759,38.95766070241725],[-95.24847052856241,38.957660144467184],[-95.2484741038295,38.957653904515],[-95.24847570265952,38.957654463365365],[-95.24847844210474,38.957649679784716],[-95.24847684439298,38.95764912186208],[-95.24847779796973,38.95764745739825],[-95.24847939564644,38.95764801622122],[-95.24848213624438,38.95764323266784],[-95.24848053737952,38.95764267471794],[-95.24848411264485,38.957636434765426],[-95.24848571032138,38.9576369935883],[-95.24848845091842,38.957632210034724],[-95.24848685205373,38.95763165208492],[-95.24848780563006,38.95762998762098],[-95.24848940445965,38.95763054647119],[-95.24849214390302,38.95762576289017],[-95.24849054619169,38.95762520496775],[-95.24849412026701,38.95761896588792],[-95.24849571913147,38.95761952383764],[-95.24849845972713,38.95761474028386],[-95.24849686086279,38.95761418233419],[-95.24849781443865,38.95761251787014],[-95.24849941211474,38.95761307669288],[-95.24850215270992,38.957608293138975],[-95.2485005549989,38.9576077352167],[-95.24850412907247,38.95760149613658],[-95.24850572678336,38.95760205405879],[-95.24850846737775,38.95759727050475],[-95.2485068696669,38.95759671258256],[-95.24850782205402,38.957595048991486],[-95.24850942091805,38.95759560694102],[-95.2485121615119,38.95759082338687],[-95.24851056264797,38.957590265437375],[-95.24851413794309,38.95758402458352],[-95.2485157368069,38.95758458253297],[-95.24851847624667,38.95757979895132],[-95.24851687853615,38.957579241029265],[-95.24851783092282,38.95757757743809],[-95.24851942978653,38.9575781353875],[-95.24852217037899,38.9575733518331],[-95.24852057151539,38.95757279388375],[-95.24852426564712,38.95756634676547],[-95.24852586335744,38.95756690468742],[-95.24852860394908,38.95756212113294],[-95.24852700623887,38.95756156321102],[-95.24852795862502,38.95755989961975],[-95.2485295574884,38.95756045756902],[-95.24853229807955,38.9575556740144],[-95.24853069921627,38.957555116065166],[-95.24853439334616,38.957548668946544],[-95.24853599105616,38.95754922686838],[-95.24853873161135,38.957544444213966],[-95.24853713393654,38.95754388539179],[-95.24853808632223,38.95754222180047],[-95.24853968518526,38.95754277974961],[-95.24854242574,38.957537997095116],[-95.24854082691209,38.95753743824565],[-95.24854451988696,38.957530991099325],[-95.24854611871476,38.957531549948804],[-95.24854885930361,38.95752676639374],[-95.2485472604759,38.95752620754433],[-95.24854821401433,38.95752454398032],[-95.24854981284201,38.95752510282969],[-95.2485525522772,38.95752031924721],[-95.24855095460278,38.95751976042524],[-95.24855464757582,38.9575133132786],[-95.24855624640328,38.95751387212789],[-95.24855898699083,38.957509088572614],[-95.24855738812839,38.95750853062373],[-95.2485583417014,38.957506866159214],[-95.24855993937553,38.95750742498106],[-95.24856267996256,38.957502641425684],[-95.24856108225342,38.95750208350426],[-95.2485647752246,38.95749563635732],[-95.2485663740868,38.95749619430605],[-95.24856911351975,38.957491410723215],[-95.24856751581086,38.957490852801854],[-95.24856846934829,38.95748918923762],[-95.2485700670572,38.957489747158945],[-95.24857280764283,38.957484963603356],[-95.24857120993404,38.95748440568203],[-95.24857490290339,38.957477958534724],[-95.24857650054194,38.957478518256785],[-95.2485810281743,38.95747061470954],[-95.24857090556834,38.957467079616386],[-95.24857019096582,38.95746832797851],[-95.24856193594123,38.957465445530204],[-95.24856265054386,38.957464197168086],[-95.24855652392239,38.957462057368396],[-95.24855580931971,38.9574633057305],[-95.2485536786811,38.957462561225704],[-95.24855439328385,38.957461312863686],[-95.24854826666287,38.95745917306358],[-95.24854755206003,38.957460421425615],[-95.24853929476598,38.957457538020535],[-95.24854000936892,38.95745628965853],[-95.2485338827488,38.957454149857696],[-95.24853316814577,38.95745539821964],[-95.24853103750765,38.95745465371445],[-95.24853175211071,38.95745340535252],[-95.24852562549111,38.95745126555123],[-95.24852491088792,38.95745251391312],[-95.24851665359571,38.95744963050641],[-95.248517368199,38.95744838214458],[-95.24851124158026,38.95744624234255],[-95.24851052697689,38.95744749070436],[-95.24850839633923,38.957446746198734],[-95.24850911090756,38.957445498737314],[-95.24850298428939,38.95744335893488],[-95.24850226972096,38.95744460639624],[-95.24849401243058,38.95744172298792],[-95.24849472703418,38.95744047462622],[-95.24848860156997,38.95743833485032],[-95.24848788581313,38.9574395831846],[-95.24848575517595,38.957438838678584],[-95.2484864697446,38.95743759121736],[-95.2484803442809,38.957435451441036],[-95.24847962855898,38.957436698874915],[-95.24847137127047,38.95743381546495],[-95.24847208702757,38.95743256713076],[-95.24846596037655,38.957430428226736],[-95.24846524577255,38.95743167658826],[-95.24846311398261,38.95743093205443],[-95.24846382973989,38.957429683720285],[-95.24845770312439,38.957427543915394],[-95.24845698736702,38.9574287922495],[-95.24844873011546,38.95742590793757],[-95.24844944583784,38.957424660503904],[-95.2484433192232,38.95742252069829],[-95.24844260461884,38.957423769059695],[-95.24844047282946,38.95742302452545],[-95.248441188587,38.95742177619143],[-95.24843506197287,38.957419636385374],[-95.24843434736842,38.957420884746746],[-95.24842635544785,38.95741809324751],[-95.24842707117054,38.95741684581396],[-95.24842094455731,38.957414706007164],[-95.24842022995267,38.95741595436841],[-95.2484180981637,38.95741520983377],[-95.24841881388654,38.95741396240029],[-95.24841268727376,38.957411822593016],[-95.24841197270405,38.957413070053846],[-95.24840398190338,38.957410279480854],[-95.24840469650825,38.95740903111974],[-95.24839856986127,38.95740689221211],[-95.24839785529137,38.95740813967282],[-95.24839572465608,38.957407395165134],[-95.24839643922603,38.95740614770447],[-95.24839031261457,38.957404007895995],[-95.24838959804458,38.95740525535668],[-95.24838160724572,38.95740246478213],[-95.24838232181585,38.95740121732153],[-95.2483761952053,38.95739907751233],[-95.24837548063506,38.957400324972944],[-95.2483733499652,38.957399581365195],[-95.2483740645705,38.95739833300427],[-95.24836793796042,38.95739619319464],[-95.24836722335505,38.957397441555564],[-95.24835923255789,38.95739465097952],[-95.24835994716341,38.95739340261861],[-95.2483538205542,38.95739126280823],[-95.24835310594861,38.957392511169076],[-95.24835097531427,38.9573917666606],[-95.24835168988483,38.957390519200146],[-95.24834556327612,38.95738837938934],[-95.24834484870546,38.957389626849746],[-95.24833685791015,38.957386836272136],[-95.2483375724809,38.95738558881177],[-95.24833144587303,38.957383449000254],[-95.2483307313022,38.957384696460544],[-95.24832860063327,38.95738395285203],[-95.2483293152392,38.95738270449132],[-95.24832318863184,38.95738056467932],[-95.24832247402583,38.95738181303998],[-95.24831448323222,38.95737902246083],[-95.24831519783834,38.957377774100216],[-95.24830907123184,38.95737563428752],[-95.2483083566256,38.95737688264807],[-95.24830622599228,38.957376138138734],[-95.24830694056347,38.95737489067858],[-95.24830081395746,38.95737275086543],[-95.24830009938617,38.95737399832551],[-95.24829210859436,38.95737120774482],[-95.24829282320079,38.957369959384366],[-95.24828669656058,38.95736782047084],[-95.24828598198911,38.95736906793089],[-95.24828385135616,38.95736832342114],[-95.24828456592768,38.957367075961116],[-95.24827843932303,38.957364936146774],[-95.24827772475143,38.95736618360672],[-95.24826973396142,38.9573633930245],[-95.24827044853312,38.95736214556455],[-95.24826432192933,38.95736000574946],[-95.2482636073575,38.95736125320937],[-95.24826147669002,38.95736050959959],[-95.2482621912969,38.95735926123933],[-95.24825606465853,38.95735712232417],[-95.24825535008662,38.957358369784025],[-95.24824735929833,38.95735557920025],[-95.2482480739054,38.95735433084006],[-95.24824194730296,38.95735219102376],[-95.2482412326958,38.95735343938392],[-95.24823910206382,38.95735269487334],[-95.24823981663594,38.957351447413636],[-95.24823369003401,38.95734930759687],[-95.24823297546178,38.95735055505661],[-95.2482249846753,38.957347764471265],[-95.24822569924763,38.9573465170116],[-95.24821957264653,38.957344377194154],[-95.24821885807411,38.957345624653755],[-95.24821672740755,38.957344881043205],[-95.24821744201506,38.95734363268318],[-95.24821131541447,38.95734149286525],[-95.24821060080687,38.95734274122526],[-95.24820261002209,38.95733995063836],[-95.2482033246298,38.95733870227846],[-95.24819719803006,38.957336562459815],[-95.24819648342228,38.95733781081967],[-95.24819435279123,38.957337066308305],[-95.248195067364,38.95733581884882],[-95.24818894076482,38.95733367902973],[-95.24818822619197,38.95733492648917],[-95.24818023540895,38.95733213590073],[-95.24818095001697,38.95733088754096],[-95.24817482338354,38.95732874862154],[-95.24817410881049,38.957329996080915],[-95.24817197817993,38.95732925156908],[-95.248172692753,38.95732800410975],[-95.2481665661551,38.957325864289494],[-95.24816585158194,38.95732711174878],[-95.2481578608007,38.95732432115881],[-95.24815857537398,38.95732307369954],[-95.24815244877702,38.95732093387855],[-95.24815173420363,38.95732218133779],[-95.24814960353848,38.957321437725945],[-95.24815031814694,38.95732018936635],[-95.24814419151535,38.957318050445295],[-95.24814347694188,38.95731929790447],[-95.2481354861624,38.95731650731293],[-95.24813620077104,38.95731525895342],[-95.24813007532856,38.95731311915863],[-95.24812935956663,38.95731436749071],[-95.248127228937,38.957313622978084],[-95.24812794351072,38.95731237551902],[-95.24812181806877,38.95731023572377],[-95.24812110234174,38.95731148315544],[-95.2481131115641,38.95730869256234],[-95.24811382613801,38.957307445103396],[-95.24810770069685,38.95730530530738],[-95.24810698496968,38.95730655273893],[-95.24810485430547,38.9573058091263],[-95.24810556891455,38.957304560767],[-95.2480994434739,38.95730242097054],[-95.24809872771156,38.95730366930245],[-95.24809073693564,38.95730087870784],[-95.24809145154491,38.957299630348636],[-95.24808532610517,38.957297490551404],[-95.24808461034256,38.95729873888324],[-95.24808247971387,38.95729799436979],[-95.24808319428821,38.95729674691103],[-95.24807706884899,38.95729460711338],[-95.24807635312133,38.957295854544775],[-95.24806836234721,38.95729306394865],[-95.24806907692175,38.957291816489935],[-95.2480629514833,38.95728967669156],[-95.24806223575551,38.95729092412282],[-95.24806010509224,38.9572901805094],[-95.24806081970195,38.957288932150355],[-95.24805469426401,38.95728679235153],[-95.24805397850103,38.95728804068316],[-95.24804598772863,38.95728525008548],[-95.24804670349178,38.95728400175387],[-95.24804057690153,38.95728186192696],[-95.24803986113828,38.957283110258516],[-95.24803773051059,38.957282365744234],[-95.24803844512059,38.95728111738534],[-95.248032319649,38.95727897848576],[-95.24803160392075,38.95728022591682],[-95.2480236131501,38.95727743531761],[-95.24802432891353,38.95727618698615],[-95.24801820228956,38.95727404805844],[-95.24801748656112,38.95727529548948],[-95.24801535593384,38.95727455097478],[-95.24801607166232,38.957273303543765],[-95.2480099450739,38.957271163715255],[-95.24800922934536,38.957272411146185],[-95.24800123857652,38.95726962054541],[-95.24800195430521,38.95726837311452],[-95.24799582771765,38.9572662332852],[-95.247995113107,38.95726748164386],[-95.24799298132703,38.95726673710138],[-95.24799369709086,38.957265488770126],[-95.24798757050384,38.957263348940394],[-95.24798685585802,38.957264598199394],[-95.24797886397278,38.95726180666933],[-95.24797957973684,38.957260558338156],[-95.24797345315064,38.95725841850764],[-95.24797273853969,38.95725966686616],[-95.24797060676018,38.95725892232327],[-95.24797132248932,38.95725767489258],[-95.24796519590365,38.95725553506164],[-95.24796448129256,38.9572567834201],[-95.2479564894091,38.95725399188849],[-95.24795720513842,38.95725274445783],[-95.24795107855357,38.95725060462618],[-95.24795036397735,38.95725185208414],[-95.24794823219833,38.957251107540856],[-95.24794894792774,38.9572498601103],[-95.2479428213434,38.957247720278154],[-95.24794210673201,38.95724896863647],[-95.2479341148503,38.957246177103336],[-95.24793483058,38.957244929672804],[-95.2479287039965,38.95724278983999],[-95.2479279893849,38.95724403819818],[-95.24792585760628,38.95724329365454],[-95.24792657337115,38.95724204532366],[-95.2479204467531,38.9572399063908],[-95.24791973217643,38.95724115384854],[-95.24791174141465,38.95723836324162],[-95.24791245602646,38.957237114883476],[-95.24790632940926,38.95723497594984],[-95.24790561483242,38.957236223407584],[-95.24790348305432,38.957235478863446],[-95.24790419878437,38.95723423143312],[-95.24789807220273,38.95723209159868],[-95.24789735762576,38.95723333905627],[-95.24788936686578,38.95723054844783],[-95.24789008144286,38.95722930099022],[-95.24788395486209,38.957227161155025],[-95.24788324028492,38.957228408612565],[-95.24788110962541,38.957227664995806],[-95.24788182423768,38.95722641663786],[-95.24787569765739,38.95722427680226],[-95.24787498304505,38.95722552516015],[-95.24786699228676,38.95722273455009],[-95.24786770689923,38.95722148619221],[-95.2478615803198,38.95721934635582],[-95.24786086570725,38.95722059471366],[-95.24785873508328,38.9572198501961],[-95.2478594496608,38.95721860273868],[-95.24785332308193,38.95721646290185],[-95.24785260850433,38.95721771035926],[-95.2478446177478,38.95721491974764],[-95.24784533232553,38.95721367229034],[-95.24783993568681,38.95721178770271],[-95.2478698423374,38.95715958665038],[-95.24741752540422,38.95700161065583],[-95.24738761963968,38.95705381161961],[-95.24738345974811,38.9570523583182],[-95.2473827451288,38.95705360667311],[-95.24737475440938,38.95705081602911],[-95.2473754690288,38.95704956767426],[-95.24736934247917,38.95704742781184],[-95.24736862785967,38.957048676166615],[-95.2473664972461,38.95704793164005],[-95.24736721183058,38.95704668418561],[-95.24736108528144,38.957044544322784],[-95.24736037069691,38.95704579177712],[-95.24735237997925,38.957043001131616],[-95.2473530945639,38.95704175367727],[-95.24734696801562,38.95703961381366],[-95.24734625343088,38.95704086126792],[-95.24734412278268,38.957040117641306],[-95.24734483740251,38.95703886928667],[-95.24733871085473,38.9570367294226],[-95.24733799623482,38.957037977777205],[-95.24733000551898,38.957035187130145],[-95.24733072013902,38.95703393877558],[-95.24732459359211,38.95703179891079],[-95.24732387897197,38.957033047265334],[-95.2473217483593,38.95703230273787],[-95.24732246297947,38.95703105438335],[-95.24731633639797,38.95702891541852],[-95.24731562181279,38.95703016287262],[-95.24730763109866,38.957027372223976],[-95.24730834571903,38.95702612386957],[-95.24730221913839,38.95702398490397],[-95.24730150455302,38.95702523235799],[-95.2472993739408,38.95702448783014],[-95.24730008852622,38.95702324037614],[-95.24729396198117,38.95702110050974],[-95.24729324739566,38.95702234796371],[-95.24728525668337,38.95701955731351],[-95.24728597126897,38.95701830985964],[-95.2472758499457,38.95701477468069],[-95.24727132223174,38.95702267727689],[-95.24727292110813,38.9570232343431],[-95.24726922689065,38.95702968142182],[-95.24726762923748,38.95702912258211],[-95.2472648885812,38.957033906107064],[-95.24726648623442,38.95703446494681],[-95.24726553382567,38.957036128527776],[-95.2472639350192,38.957035569660654],[-95.24726119551562,38.95704035321288],[-95.24726279316896,38.957040912052676],[-95.24725910010281,38.957047359158395],[-95.24725750129612,38.9570468002912],[-95.2472547606385,38.95705158381592],[-95.24725635948035,38.95705214178275],[-95.24725540588284,38.95705380623664],[-95.2472538082292,38.95705324739678],[-95.24725106757106,38.957058030921395],[-95.24725266525978,38.95705858886093],[-95.2472489721918,38.95706503596632],[-95.2472473733498,38.957064477999396],[-95.24724463269074,38.957069261523856],[-95.24724623153288,38.95706981949083],[-95.24724527796995,38.9570714830442],[-95.24724368028099,38.9570709251046],[-95.24724093962145,38.95707570862896],[-95.24724253731056,38.95707626656863],[-95.24723884424071,38.9570827136737],[-95.24723724655149,38.957082155734],[-95.24723450589113,38.957086939258225],[-95.24723610358036,38.95708749719796],[-95.24723515001695,38.95708916075129],[-95.24723355232769,38.95708860281153],[-95.24723081166677,38.95709338633567],[-95.24723240935619,38.95709394427547],[-95.2472287162845,38.95710039138022],[-95.24722711859496,38.95709983344038],[-95.24722437793322,38.95710461696434],[-95.24722597562284,38.957105174904235],[-95.24722502321214,38.95710683848483],[-95.24722342436931,38.957106280517586],[-95.24722068370707,38.95711106404147],[-95.24722228254998,38.95711162200873],[-95.24721858832324,38.957118069085745],[-95.24721699063342,38.9571175111458],[-95.24721424997027,38.95712229466952],[-95.2472158476602,38.957122852609515],[-95.24721489524903,38.95712451619008],[-95.24721329640587,38.957123958222645],[-95.24721055689544,38.95712874177365],[-95.24721215458548,38.95712929971375],[-95.24720857919844,38.95713554052768],[-95.2472069815434,38.95713498168717],[-95.24720424087887,38.957139765210655],[-95.24720583856913,38.95714032315082],[-95.24720488496924,38.95714198760428],[-95.24720328731402,38.957141428763734],[-95.24720054664904,38.95714621228712],[-95.24720214430435,38.95714677112772],[-95.24719857013883,38.95715301016796],[-95.24719697248348,38.95715245132728],[-95.2471942318176,38.95715723485051],[-95.24719583066135,38.957157792818165],[-95.24719487706096,38.95715945727159],[-95.24719327940551,38.95715889843088],[-95.24719053873913,38.95716368195402],[-95.2471921364298,38.95716423989437],[-95.24718856107428,38.9571704798073],[-95.24718696341861,38.95716992096652],[-95.24718422390461,38.9571747045169],[-95.24718582159544,38.9571752624573],[-95.2471848679946,38.957176926910606],[-95.2471832703388,38.957176368069774],[-95.24718052967108,38.9571811515927],[-95.24718212851526,38.957181709560565],[-95.24717855315802,38.957187949473166],[-95.24717695550197,38.957187390632214],[-95.24717421483345,38.957192174154955],[-95.24717581252459,38.95719273209553],[-95.24717485892329,38.95719439654873],[-95.24717326126716,38.95719383770778],[-95.24717052175134,38.95719862125781],[-95.24717211944258,38.95719917919843],[-95.24716854408356,38.95720541911072],[-95.24716694642721,38.95720486026968],[-95.24716420575734,38.95720964379218],[-95.24716580460203,38.95721020176027],[-95.24716485100025,38.95721186621339],[-95.24716325334376,38.95721130737228],[-95.24716051267339,38.95721609089467],[-95.24716211036495,38.95721664883542],[-95.24715853619243,38.95722288787439],[-95.2471569385007,38.95722232993358],[-95.24715419782946,38.957227113455865],[-95.2471557955213,38.9572276713967],[-95.24715484191904,38.957229335849725],[-95.24715324426224,38.95722877700848],[-95.2471505035905,38.95723356053067],[-95.24715210243563,38.957234118498945],[-95.24714852826128,38.9572403575376],[-95.24714692941612,38.95723979956928],[-95.24714418874345,38.95724458309127],[-95.24714578758878,38.95724514105961],[-95.24714483402113,38.957246804612154],[-95.24714323632901,38.9572462466712],[-95.24714049565586,38.95725103019311],[-95.24714209334812,38.95725158813414],[-95.247138519172,38.9572578271725],[-95.2471369203265,38.957257269204035],[-95.24713418080569,38.95726205275318],[-95.24713577849815,38.95726261069429],[-95.24713482493001,38.95726427424679],[-95.24713322723758,38.95726371630567],[-95.24713048656308,38.95726849982735],[-95.24713208425567,38.957269057768535],[-95.24712851007779,38.9572752968065],[-95.24712691238514,38.957274738865294],[-95.2471241717098,38.95727952238681],[-95.24712576940256,38.95728008032807],[-95.2471248169872,38.95728174390785],[-95.2471232181412,38.95728118593919],[-95.24712047861854,38.95728596948802],[-95.24712207631146,38.95728652742934],[-95.24711850213184,38.95729276646702],[-95.24711690328566,38.95729220849831],[-95.24711416260895,38.95729699201961],[-95.24711576145522,38.95729754998837],[-95.2471148078862,38.957299213540665],[-95.24711321019306,38.95729865559928],[-95.24711046951586,38.957303439120494],[-95.24711206720909,38.95730399706191],[-95.24710849302772,38.95731023609926],[-95.24710689533441,38.95730967815777],[-95.2471041546564,38.95731446167883],[-95.24710575234975,38.95731501962035],[-95.24710479993345,38.95731668319997],[-95.24710320108683,38.95731612523104],[-95.24710046040832,38.95732090875201],[-95.24710205925496,38.95732146672094],[-95.24709848507183,38.95732770575803],[-95.24709688622504,38.95732714778903],[-95.24709414554566,38.95733193130982],[-95.24709574439257,38.95733248927886],[-95.24709479082254,38.95733415283097],[-95.24709319312879,38.95733359488931],[-95.24709045244893,38.95733837841],[-95.24709205014274,38.957338936351725],[-95.24708847595784,38.95734517538848],[-95.24708687711069,38.95734461741935],[-95.24708413758316,38.95734940096725],[-95.24708573527721,38.95734995890906],[-95.24708478170672,38.95735162246114],[-95.24708318401265,38.957351064519315],[-95.24708044333143,38.95735584803978],[-95.24708204102559,38.95735640598164],[-95.24707846683887,38.95736264501802],[-95.24707686914466,38.95736208707615],[-95.24707412846254,38.95736687059644],[-95.2470757261569,38.95736742853838],[-95.24707477373912,38.95736909211774],[-95.24707317489155,38.957368534148415],[-95.24707043536218,38.957373317696025],[-95.24707203305664,38.95737387563801],[-95.24706845886821,38.95738011467413],[-95.24706686002044,38.9573795567047],[-95.24706411933698,38.95738434022477],[-95.24706571818481,38.95738489819424],[-95.24706476461338,38.957386561746105],[-95.24706316691876,38.957386003804054],[-95.24706042623477,38.95739078732402],[-95.24706202392956,38.95739134526615],[-95.24705844851599,38.95739758607532],[-95.24705685204445,38.957397026359736],[-95.24705232428157,38.95740492894716],[-95.2470624456495,38.9574084641455],[-95.24706316024296,38.957407216692985],[-95.24707115099032,38.9574100073584],[-95.24707043639695,38.95741125481089],[-95.24707656296907,38.95741339468906],[-95.24707727756234,38.957412147236475],[-95.24707940933706,38.957412891795784],[-95.24707869359065,38.95741413922101],[-95.24708482016325,38.95741627909871],[-95.24708553479147,38.95741503074569],[-95.24709352554063,38.9574178214095],[-95.24709281091253,38.957419069762565],[-95.24709893748599,38.95742120963955],[-95.247099652114,38.957419961286426],[-95.24710178273597,38.957420705817945],[-95.24710106814311,38.95742195327066],[-95.24710719471702,38.957424093147225],[-95.24710790930988,38.95742284569442],[-95.24711590006079,38.9574256363567],[-95.247115185433,38.95742688470992],[-95.24712131204288,38.95742902368529],[-95.24712202663551,38.95742777623248],[-95.247124157258,38.95742852076354],[-95.24712344266538,38.95742976821641],[-95.24712956924071,38.95743190809177],[-95.24713028383324,38.95743066063886],[-95.24713827458594,38.95743345129958],[-95.24713755999352,38.95743469875255],[-95.24714368656963,38.95743683862712],[-95.24714440116198,38.95743559117415],[-95.24714653182,38.95743633480445],[-95.24714581719263,38.95743758315783],[-95.24715194380437,38.957439722131596],[-95.24715265839657,38.95743847467859],[-95.24716064915104,38.95744126533778],[-95.24715993452388,38.957442513691255],[-95.24716409443383,38.95744396700061],[-95.24709563532598,38.95756345908356],[-95.24754795401617,38.957721435398355],[-95.24761641366572,38.95760194307737],[-95.24762180917507,38.957603827647894],[-95.2476225237957,38.95760257929162],[-95.2476305145872,38.95760536991837],[-95.24762979996669,38.95760661827474],[-95.24763592657267,38.95760875812331],[-95.24763664119308,38.95760750976691],[-95.2476387718264,38.957608254288566],[-95.247638057206,38.95760950264495],[-95.24764418381247,38.95761164249306],[-95.24764489843278,38.95761039413663],[-95.24765288922612,38.95761318476186],[-95.24765217460592,38.95761443311839],[-95.24765830121322,38.95761657296579],[-95.24765901583335,38.95761532460925],[-95.24766114646712,38.95761606913045],[-95.24766043188211,38.95761731658659],[-95.24766655848994,38.95761945643355],[-95.24766727307487,38.95761820897735],[-95.2476752638699,38.95762099960103],[-95.24767454928508,38.95762224705728],[-95.24768067589376,38.95762438690348],[-95.2476813904785,38.95762313944722],[-95.24768352114782,38.95762388306759],[-95.24768280652805,38.95762513142431],[-95.24768893313724,38.95762727127008],[-95.24768964775691,38.957626022913345],[-95.24769763855376,38.95762881353552],[-95.2476969239342,38.957630061892296],[-95.24770305054423,38.95763220173727],[-95.2477037651637,38.95763095338046],[-95.24770589579839,38.95763169790087],[-95.247705181214,38.95763294535729],[-95.24771130782453,38.957635085201865],[-95.24771202240883,38.95763383774543],[-95.24772001320746,38.957636628366025],[-95.24771929858818,38.95763787672292],[-95.24772542523463,38.95764001566637],[-95.24772613981875,38.95763876820981],[-95.24772827045396,38.957639512729784],[-95.24772755586987,38.957640760186344],[-95.24773368248175,38.95764290002975],[-95.24773439706576,38.957641652573166],[-95.2477423878661,38.95764444319222],[-95.24774167328226,38.95764569064885],[-95.24774779989495,38.957647830491524],[-95.24774851447874,38.95764658303482],[-95.24775064514947,38.95764732665401],[-95.24774993053063,38.957648575011106],[-95.24775605717895,38.95765071395294],[-95.24775677176262,38.957649466496186],[-95.24776476256478,38.957652257113736],[-95.24776404794615,38.95765350547087],[-95.24777017456024,38.957655645312364],[-95.2477708891788,38.95765439695515],[-95.24777301981493,38.95765514147431],[-95.24777230523148,38.95765638893112],[-95.24777843184607,38.95765852877217],[-95.24777914642944,38.95765728131528],[-95.24778713723329,38.957660071931244],[-95.24778642265005,38.957661319388194],[-95.24779254926551,38.9576634592285],[-95.24779326384866,38.957662211771535],[-95.24779539452037,38.957662955389836],[-95.24779467990216,38.95766420374722],[-95.2478008065181,38.95766634358709],[-95.24780152113621,38.9576650952297],[-95.2478095119419,38.95766788584411],[-95.2478087973239,38.95766913420158],[-95.2478149239407,38.95767127404067],[-95.2478156385586,38.957670025683186],[-95.24781776919569,38.957670770201496],[-95.24781705461288,38.95767201765864],[-95.24782318123013,38.95767415749731],[-95.24782389581286,38.95767291004015],[-95.24783188662032,38.95767570065303],[-95.24783117200262,38.957676949010626],[-95.24783729865585,38.95767908794816],[-95.2478380132384,38.95767784049095],[-95.24784014387593,38.95767858500883],[-95.24783942929345,38.957679832466084],[-95.24784555591211,38.95768197230356],[-95.2478462704945,38.95768072484627],[-95.24785426130373,38.95768351545763],[-95.24785354672143,38.957684762914965],[-95.2478596721877,38.95768690272433],[-95.24786038792311,38.957685655294355],[-95.2478625185962,38.95768639891144],[-95.24786180397894,38.95768764726921],[-95.247867930634,38.95768978620512],[-95.24786864521612,38.95768853874773],[-95.2478766360271,38.957691329357516],[-95.24787592141006,38.95769257771539],[-95.24788204687773,38.95769471752355],[-95.24788276264788,38.95769346919302],[-95.24788489328638,38.95769421371013],[-95.24788417870451,38.95769546116768],[-95.24789030417263,38.957697600975386],[-95.24789101990766,38.95769635354518],[-95.24789901072036,38.95769914415347],[-95.24789829613869,38.95770039161108],[-95.24790442160773,38.95770253141807],[-95.2479051373425,38.957701283987795],[-95.24790726801652,38.9577020276041],[-95.2479065533999,38.95770327596216],[-95.24791267886944,38.95770541576867],[-95.24791339463914,38.95770416743798],[-95.24792138545367,38.95770695804468],[-95.24792067083726,38.957708206402835],[-95.2479267963076,38.95771034620867],[-95.24792751207717,38.95770909787786],[-95.2479296427166,38.95770984239413],[-95.24792892813537,38.957711089851905],[-95.2479350536062,38.957713229657294],[-95.24793576934059,38.95771198222681],[-95.24794376015683,38.957714772832006],[-95.24794304557578,38.95771602028991],[-95.24794917104754,38.95771816009451],[-95.24794988678167,38.95771691266398],[-95.24795201742157,38.95771765717985],[-95.24795130284065,38.95771890463775],[-95.24795742831289,38.95772104444197],[-95.2479581440469,38.95771979701137],[-95.24796613486497,38.957722587615],[-95.247965419131,38.95772383504565],[-95.2479715457573,38.95772597487646],[-95.24797226149116,38.957724727445786],[-95.24797439216655,38.95772547106081],[-95.2479736763977,38.957726719391914],[-95.24797980305955,38.95772885832191],[-95.24798051879326,38.9577276108912],[-95.24798850961308,38.957730401493286],[-95.24798779384442,38.95773164982445],[-95.24799392047206,38.95773378965408],[-95.24799463508744,38.957732541295464],[-95.24799676688147,38.95773328583788],[-95.247996051148,38.957734533268756],[-95.24800217777613,38.95773667309792],[-95.24800289235634,38.95773542563972],[-95.24801088429605,38.957738217168],[-95.24801016859777,38.95773946369855],[-95.24801629522676,38.95774160352698],[-95.24801700980679,38.95774035606865],[-95.24801914160129,38.95774110061064],[-95.24801842586812,38.95774234804164],[-95.24802455249761,38.957744487869626],[-95.24802526711257,38.95774323951088],[-95.24803325905404,38.95774603103765],[-95.24803254332107,38.957747278468695],[-95.24803866995141,38.957749418295975],[-95.24803938456616,38.95774816993709],[-95.24804151636116,38.9577489144787],[-95.24804080062826,38.957750161909786],[-95.2480469272591,38.95775230173666],[-95.24804764183867,38.957751054278106],[-95.24805563378193,38.95775384580336],[-95.24805491808432,38.957755092334146],[-95.24806104471602,38.957757232160255],[-95.24806175929541,38.957755984701635],[-95.24806389109085,38.957756729242796],[-95.24806317535833,38.957757976674024],[-95.24806930199053,38.95776011649969],[-95.24807001660484,38.95775886814064],[-95.24807800743167,38.95776165873656],[-95.24807729281747,38.957762907095656],[-95.24808341945052,38.95776504692058],[-95.24808413406463,38.957763798561444],[-95.24808626586062,38.95776454310216],[-95.2480855500933,38.95776579143394],[-95.2480916767619,38.95776793035806],[-95.24809239134085,38.95776668289925],[-95.2481003821695,38.95776947349363],[-95.2480996675556,38.957770721852846],[-95.24810579422508,38.957772860776174],[-95.24810650880382,38.95777161331731],[-95.24810863944704,38.95777235783026],[-95.24810792486832,38.95777360528918],[-95.24811405150322,38.95777574511248],[-95.24811476608186,38.95777449765354],[-95.2481227569122,38.95777728824634],[-95.2481220423337,38.957778535705344],[-95.24812816896947,38.95778067552787],[-95.24812888354789,38.95777942806888],[-95.24813101422662,38.957780171681],[-95.24813029961318,38.957781420040455],[-95.24813642624943,38.95778355986253],[-95.24813714086278,38.95778231150311],[-95.24814513169497,38.9577851020944],[-95.24814441708172,38.957786350453915],[-95.24815054371884,38.95778849027524],[-95.248151258332,38.957787241915696],[-95.24815338897616,38.957787986427846],[-95.24815267439809,38.95778923388704],[-95.24815880103564,38.957791373707934],[-95.24815951561364,38.95779012624875],[-95.24816750644757,38.957792916838464],[-95.2481667918697,38.95779416429772],[-95.24817291850816,38.9577963041179],[-95.24817363308597,38.9577950566586],[-95.24817576376566,38.957795800269984],[-95.24817504915283,38.957797048629665],[-95.2481811757918,38.95779918844938],[-95.24818189040454,38.957797940089655],[-95.24818988124025,38.95780073067782],[-95.24818916662764,38.95780197903762],[-95.2481952932674,38.95780411885664],[-95.24819600787993,38.95780287049681],[-95.24819813852503,38.95780361500814],[-95.24819742391253,38.95780486336798],[-95.2482035505879,38.95780700228615],[-95.24820426516526,38.95780575482662],[-95.24821225600274,38.95780854541329],[-95.24821154139045,38.957809793773215],[-95.24821766806669,38.957811932690625],[-95.24821838264384,38.957810685231074],[-95.24822051328941,38.95781142974202],[-95.24821979871227,38.95781267720158],[-95.24822592535396,38.95781481701894],[-95.24822663993099,38.95781356955931],[-95.2482348972539,38.957816452986584],[-95.24823418267694,38.95781770044628],[-95.24824030931946,38.95781984026285],[-95.2482410238963,38.95781859280318],[-95.2482431545774,38.95781933641326],[-95.24824243996552,38.957820584773366],[-95.24824856660857,38.957822724589526],[-95.24824928122035,38.95782147622941],[-95.24825753851003,38.95782436055545],[-95.24825682393343,38.95782560801521],[-95.24826294942416,38.95782774780329],[-95.24826366515387,38.95782650037082],[-95.24826579583545,38.95782724398051],[-95.24826508122389,38.95782849234076],[-95.24827120786831,38.95783063215572],[-95.24827192247979,38.95782938379543],[-95.24828017977131,38.95783226811989],[-95.24827946519501,38.957833515579814],[-95.24828559068706,38.95783565536669],[-95.24828630641652,38.95783440793405],[-95.24828843709855,38.95783515154335],[-95.24828772248735,38.957836399903705],[-95.24829384801492,38.95783853878975],[-95.24829456374421,38.95783729135707],[-95.24830282107264,38.9578401747795],[-95.24830210530844,38.957841423112605],[-95.2483082319551,38.95784356292558],[-95.24830894656603,38.95784231456508],[-95.24831107836668,38.9578430591017],[-95.24831036263765,38.95784430653448],[-95.24831648928482,38.95784644634705],[-95.24831720386058,38.957845198886886],[-95.24832546230898,38.95784808323546],[-95.24832474658015,38.95784933066832],[-95.24833087326319,38.957851469579744],[-95.24833158783873,38.95785022211947],[-95.24833371963993,38.95785096665567],[-95.24833300391117,38.95785221408861],[-95.2483391305597,38.95785435389995],[-95.2483398451702,38.95785310553924],[-95.24834810134912,38.957855988931094]]]},"properties":{"SDE.FloorAll.FLOORLOCATION":"ROOF"}}]}
