{"type":"FeatureCollection","features":[{"type":"Feature","geometry":{"type":"Polygon","coordinates":[[[-95.24209103801131,38.95958671702835],[-95.24209221049757,38.95958672418854],[-95.24215550818795,38.95958712124242],[-95.2421572152167,38.95942101615952],[-95.24224688659574,38.95942157723688],[-95.2422476338398,38.95934881913664],[-95.24223356758208,38.95934873151379],[-95.2422335707392,38.95934850267729],[-95.24220543825908,38.959348326526104],[-95.2422054351018,38.95934855536265],[-95.24217759690428,38.95934838079684],[-95.24217759890844,38.95934815193287],[-95.24216236016862,38.95934805714207],[-95.2421623581996,38.959348285105655],[-95.24213598442554,38.95934812012707],[-95.24213598642977,38.95934789126307],[-95.24210638833851,38.95934770636332],[-95.24210638633417,38.95934793522726],[-95.24209349259417,38.95934785384711],[-95.24209346392867,38.959350600104976],[-95.2420931708344,38.95935059763959],[-95.24209270318903,38.95939612911787],[-95.24209299631862,38.95939613068287],[-95.24209271856544,38.95942312843988],[-95.24209253784362,38.95944074673251],[-95.2420921988203,38.959473692932185],[-95.24209190569043,38.959473691367236],[-95.24209178827766,38.9594851314527],[-95.24209208140758,38.959485133017644],[-95.2420919691568,38.95949611540259],[-95.24209167602685,38.95949611383764],[-95.24209155861395,38.95950755392305],[-95.24209185174396,38.95950755548805],[-95.24209172916909,38.95951945327396],[-95.24209143607418,38.959519450808614],[-95.2420913186612,38.959530890894015],[-95.24209161175622,38.95953089335935],[-95.24209146055071,38.959545536502645],[-95.24209137696546,38.95955377262976],[-95.24209124722395,38.959566356980055],[-95.24209095412884,38.95956635451472],[-95.24209083671578,38.95957779460008],[-95.24209112981093,38.95957779706545],[-95.24209103801131,38.95958671702835]]]},"properties":{"SDE.FloorAll.FLOORLOCATION":"1"}},{"type":"Feature","geometry":{"type":"Polygon","coordinates":[[[-95.24215014645843,38.95965253003105],[-95.24227556954125,38.95965331508189],[-95.24227797661321,38.95941902631162],[-95.24224808655048,38.95941883901061],[-95.24224880516887,38.959348826267814],[-95.24223473891114,38.959348738645126],[-95.2422347420683,38.95934850980861],[-95.24220953962308,38.95934835197806],[-95.24220953761906,38.95934858084202],[-95.24213363834292,38.95934810487971],[-95.24213364150036,38.959347876043175],[-95.24210843905563,38.95934771819068],[-95.2421084370513,38.95934794705462],[-95.24209349144095,38.95934785381967],[-95.2420921988203,38.959473692932185],[-95.24209190569043,38.959473691367236],[-95.24209178715954,38.95948513052486],[-95.24209208025437,38.95948513299022],[-95.24209196800359,38.95949611537517],[-95.24209167490875,38.95949611290985],[-95.24209155749587,38.95950755299524],[-95.24209185062588,38.95950755456019],[-95.24209172805102,38.95951945234612],[-95.24209143492097,38.95951945078118],[-95.242091317508,38.959530890866596],[-95.24209161063808,38.95953089243155],[-95.24209148806315,38.95954279021744],[-95.24209119496814,38.95954278775211],[-95.24209107755509,38.959554227837494],[-95.24209137068534,38.95955422940243],[-95.2420910368581,38.9595867170009],[-95.24211916943284,38.959586893179804],[-95.2421191674285,38.95958712204378],[-95.2421262000044,38.959587165848646],[-95.24212620200866,38.95958693698467],[-95.24215081831319,38.95958709080331],[-95.24215080387613,38.95958846663342],[-95.24215051078086,38.95958846416819],[-95.2421503933774,38.9595999042536],[-95.24215068647264,38.95959990671879],[-95.24215055792999,38.95961249019616],[-95.24215026479955,38.95961248863137],[-95.24215014739602,38.95962392871678],[-95.24215043937325,38.95962393025414],[-95.24215014645843,38.95965253003105]]]},"properties":{"SDE.FloorAll.FLOORLOCATION":"2"}},{"type":"Feature","geometry":{"type":"Polygon","coordinates":[[[-95.24215014645843,38.95965253003105],[-95.24227556954125,38.95965331508189],[-95.2422760218556,38.95960938652456],[-95.24228551595326,38.959609445605885],[-95.24228554457632,38.959606700248436],[-95.24227604936092,38.95960664023928],[-95.24227626062952,38.95958604862557],[-95.24228563814277,38.959586107637776],[-95.24228566676582,38.959583362280355],[-95.24227628925296,38.95958330326813],[-95.24227650052143,38.959562711654385],[-95.2422858780667,38.95956276976617],[-95.24228590668973,38.9595600244087],[-95.24227652917996,38.95955996539652],[-95.24227674044829,38.95953937378273],[-95.24228611795533,38.95953943279491],[-95.24228614657835,38.95953668743741],[-95.24227676907162,38.95953662842528],[-95.24227698033985,38.959516036811415],[-95.24228635787894,38.95951609492318],[-95.24228638650189,38.95951334956573],[-95.24227700899831,38.959513290553545],[-95.24227721826257,38.95949292780365],[-95.24228659461023,38.959492986788376],[-95.24228662326836,38.959490240530506],[-95.24227724573272,38.95949018241878],[-95.2422772477365,38.95948995355476],[-95.24227745503195,38.95946981876841],[-95.24228683252979,38.95946987778052],[-95.2422868611527,38.95946713242305],[-95.24227748365524,38.95946707341091],[-95.24227769291923,38.95944671066094],[-95.24228707044912,38.95944676877264],[-95.24228709791886,38.95944402338775],[-95.24227772038927,38.959443965275995],[-95.24227797661321,38.95941902631162],[-95.24224925788074,38.95941884614178],[-95.24224956824133,38.95938864439854],[-95.24228766444864,38.95938888358043],[-95.2422878339497,38.959372409579785],[-95.24224856523348,38.95937216413975],[-95.242248599054,38.95936896018138],[-95.2422488921483,38.95936896264635],[-95.24224906050513,38.95935248861831],[-95.24224876737574,38.959352487053735],[-95.24224880516887,38.959348826267814],[-95.24223473891114,38.959348738645126],[-95.2422347420683,38.95934850980861],[-95.24220660958812,38.95934833365771],[-95.24220660643091,38.95934856249427],[-95.24217935333887,38.95934839103078],[-95.24217935649618,38.959348162194196],[-95.24216470401511,38.95934807053323],[-95.2421647008577,38.959348299369736],[-95.24213656953104,38.95934812322932],[-95.24213657153528,38.95934789436535],[-95.24210843905563,38.95934771819068],[-95.2421084370513,38.95934794705462],[-95.24209349144095,38.95934785381967],[-95.2420921988203,38.959473692932185],[-95.24209190569043,38.959473691367236],[-95.24209178715954,38.95948513052486],[-95.24209208025437,38.95948513299022],[-95.24209196800359,38.95949611537517],[-95.24209167490875,38.95949611290985],[-95.24209155749587,38.95950755299524],[-95.24209185062588,38.95950755456019],[-95.24209172805102,38.95951945234612],[-95.24209143492097,38.95951945078118],[-95.242091317508,38.959530890866596],[-95.24209161063808,38.95953089243155],[-95.24209148806315,38.95954279021744],[-95.24209119496814,38.95954278775211],[-95.24209107755509,38.959554227837494],[-95.24209137068534,38.95955422940243],[-95.2420910368581,38.9595867170009],[-95.24215081831319,38.95958709080331],[-95.24215014645843,38.95965253003105]]]},"properties":{"SDE.FloorAll.FLOORLOCATION":"3"}},{"type":"Feature","geometry":{"type":"Polygon","coordinates":[[[-95.2422461934218,38.9596602182421],[-95.2422456071956,38.9596602142126],[-95.2422461612995,38.95966331950091],[-95.24224967872689,38.9596633418772],[-95.24225029595712,38.95966024372001],[-95.24224970973097,38.95966023969055],[-95.24224975236908,38.959656129307724],[-95.24227729874568,38.959656301418754],[-95.24227742841904,38.95964371796871],[-95.24228651284449,38.95964377451599],[-95.24228890046035,38.95941131477404],[-95.24228626236406,38.95941129889311],[-95.24228649311893,38.959388876449644],[-95.24228766560185,38.95938888360784],[-95.24228783510293,38.95937240960722],[-95.2422503251283,38.95937217445493],[-95.24225057816938,38.95934746522737],[-95.24209116196246,38.95934646639781],[-95.24208867462686,38.95958853536549],[-95.24213878540449,38.95958884948136],[-95.24213823104954,38.95964284592253],[-95.24214848792681,38.959642910540694],[-95.24214835823051,38.9596554939906],[-95.2422462360952,38.95965610695895],[-95.2422461934218,38.9596602182421]]]},"properties":{"SDE.FloorAll.FLOORLOCATION":"ROOF"}}]}
