{"type":"FeatureCollection","features":[{"type":"Feature","id":1,"geometry":{"type":"Polygon","coordinates":[[[-95.251341200142,38.95531528931669],[-95.25145565375698,38.955355608039966],[-95.25160369956065,38.955409267998924],[-95.25173290948199,38.955479173757546],[-95.25184575793845,38.955561235693246],[-95.25191477670366,38.95562276427622],[-95.25198130276311,38.95570233572312],[-95.25204101318393,38.95577338763653],[-95.25209052747665,38.95587762696915],[-95.25212586713681,38.95597873924247],[-95.2521369462731,38.9570045290622],[-95.25214280534242,38.9570692523413],[-95.25496418024217,38.95705182867964],[-95.25506054660738,38.95705015649308],[-95.26038970844861,38.956998507795994],[-95.26038290735232,38.95363725246554],[-95.26037654733334,38.95083074754574],[-95.26037861739717,38.95001550502017],[-95.25561943886075,38.95002810982356],[-95.25120722040295,38.95008630854171],[-95.25120929853662,38.95136151792167],[-95.24720846236032,38.9513811067353],[-95.24723533096741,38.95311376660656],[-95.24722716591671,38.95419021493068],[-95.24599997299624,38.95419233806028],[-95.24600861511308,38.9540327063821],[-95.24540005819016,38.95402145491444],[-95.2453948389813,38.95415209704776],[-95.24303882952745,38.954155024176714],[-95.24301725781788,38.955264876945805],[-95.24305208562363,38.95526552306953],[-95.24306677293805,38.95526579481104],[-95.24420629374629,38.955275004354334],[-95.24915058485297,38.95528541676955],[-95.25121569916011,38.95528970313482],[-95.251341200142,38.95531528931669]]]},"properties":{"OBJECTID":1,"DISTRICT":"Central District"}},{"type":"Feature","id":2,"geometry":{"type":"Polygon","coordinates":[[[-95.2521369462731,38.9570045290622],[-95.25212586713681,38.95597873924247],[-95.25209052747665,38.95587762696915],[-95.25204101318393,38.95577338763653],[-95.25198130276311,38.95570233572312],[-95.25191477670366,38.95562276427622],[-95.25184575793845,38.955561235693246],[-95.25173290948199,38.955479173757546],[-95.25160369956065,38.955409267998924],[-95.25145565375698,38.955355608039966],[-95.251341200142,38.95531528931669],[-95.25121569916011,38.95528970313482],[-95.24915058485297,38.95528541676955],[-95.24420629374629,38.955275004354334],[-95.24306677293805,38.95526579481104],[-95.24305208562363,38.95526552306953],[-95.24301725781788,38.955264876945805],[-95.24184359038613,38.95524309228939],[-95.24179335926623,38.956540567626305],[-95.24055747833657,38.9565197345468],[-95.24058390973151,38.95818951541596],[-95.24116132429383,38.95818235201077],[-95.2411604988342,38.958666250864745],[-95.24063739264375,38.958662448338494],[-95.24063359249345,38.9599730354017],[-95.2417202405723,38.959995677655535],[-95.24168706254191,38.96127794627658],[-95.24104705970979,38.96127416530129],[-95.2410428227511,38.96193542276726],[-95.24400517037576,38.96190550671932],[-95.24400427281681,38.96380831521413],[-95.24067042805879,38.96382583984219],[-95.24060285335969,38.96566550787426],[-95.24289295909192,38.96566271150561],[-95.24294040666658,38.963911788205685],[-95.24400370143992,38.96390129734309],[-95.24401416299058,38.964331264959384],[-95.24761901400474,38.96433086076929],[-95.24829227949363,38.96433000303676],[-95.24876812171422,38.9640912331094],[-95.24876995074631,38.96496112759205],[-95.248771146613,38.96561503576376],[-95.2505428814606,38.965609368381266],[-95.25079847954316,38.965221987540595],[-95.25078153414277,38.96467613265441],[-95.25183938358654,38.96466842186194],[-95.25185062421598,38.963741120988544],[-95.25123867901065,38.96375688021144],[-95.25123785916749,38.963476224179914],[-95.25007971142027,38.9634890946366],[-95.24894802295246,38.96400096115738],[-95.24894661843047,38.96333416317792],[-95.2511383658311,38.963348464803836],[-95.25113348939935,38.960047493679355],[-95.25113201518124,38.959142918950654],[-95.25113161041935,38.95889440038126],[-95.25214143092863,38.95889308173381],[-95.25214093181219,38.958683032458204],[-95.25496846870091,38.95867929227812],[-95.25496418024217,38.95705182867964],[-95.25214280534242,38.9570692523413],[-95.2521369462731,38.9570045290622]]]},"properties":{"OBJECTID":2,"DISTRICT":"North District"}},{"type":"Feature","id":3,"geometry":{"type":"Polygon","coordinates":[[[-95.26077205325764,38.95365918694489],[-95.26077632490518,38.95553928667612],[-95.2607795266928,38.95694858888694],[-95.26894003305972,38.95693699861292],[-95.27898623686804,38.95692194105064],[-95.27891032832592,38.9512238880943],[-95.27826732796417,38.95122146209853],[-95.27826464319901,38.949941511862335],[-95.26973232128219,38.94996556275123],[-95.2697318913198,38.949955269713385],[-95.2697606719581,38.946177317442725],[-95.2697868920324,38.942735009971685],[-95.26074736687815,38.942791552996496],[-95.26075538399273,38.94632137176515],[-95.26076553431596,38.95078948948662],[-95.26077205325764,38.95365918694489]]]},"properties":{"OBJECTID":3,"DISTRICT":"West District"}}]}
